<?xml version="1.0" encoding="UTF-8"?>
<gpx xmlns="http://www.topografix.com/GPX/1/1" version="1.1" creator="@dwayneparton/geojson-to-gpx"><wpt lat="-27.033138333333333" lon="-48.58202333333334"><ele>7.800000000000001</ele><name>1 faixa</name></wpt><wpt lat="-27.03475" lon="-48.582100000000004"><ele>9.1</ele><name>24</name></wpt><wpt lat="-27.03515333333333" lon="-48.58325333333334"><ele>11.7</ele><name>24</name></wpt><wpt lat="-27.035261666666663" lon="-48.582575"><ele>5.699999999999999</ele><name>30km/h</name></wpt><wpt lat="-27.035083333333333" lon="-48.583515000000006"><ele>14.4</ele><name>30km/h</name></wpt><wpt lat="-27.035234999999997" lon="-48.58266833333334"><ele>7.1</ele><name>30km/h</name></wpt><wpt lat="-27.03475" lon="-48.582100000000004"><ele>9.1</ele><name>145</name></wpt><wpt lat="-27.03515333333333" lon="-48.58325333333334"><ele>11.7</ele><name>200</name></wpt><wpt lat="-27.03475" lon="-48.582100000000004"><ele>9.1</ele><name>305</name></wpt><wpt lat="-27.03515333333333" lon="-48.58325333333334"><ele>11.7</ele><name>380</name></wpt><wpt lat="-27.03475" lon="-48.582100000000004"><ele>9.1</ele><name>490</name></wpt><wpt lat="-27.03515333333333" lon="-48.58325333333334"><ele>11.7</ele><name>860</name></wpt><wpt lat="-27.035130000000002" lon="-48.583391666666664"><ele>13.9</ele><name>A ciclo é completamente reta.</name></wpt><wpt lat="-27.03508" lon="-48.583625"><ele>14.299999999999999</ele><name>A pintura está boa, COMPLETA e visível</name></wpt><wpt lat="-27.033138333333333" lon="-48.58202333333334"><ele>7.800000000000001</ele><name>Apenas faixas vermelhas nas bordas, com travessias pintadas nos cruzamentos</name></wpt><wpt lat="-27.03475" lon="-48.582100000000004"><ele>9.1</ele><name>Área de amortecimento da ciclo (cm)</name></wpt><wpt lat="-27.035155" lon="-48.58325333333334"><ele>11.5</ele><name>Área de amortecimento da ciclo (cm)</name></wpt><wpt lat="-27.03475" lon="-48.582100000000004"><ele>9.1</ele><name>Área transitável da ciclo (cm)</name></wpt><wpt lat="-27.03515333333333" lon="-48.58325333333334"><ele>11.7</ele><name>Área transitável da ciclo (cm)</name></wpt><wpt lat="-27.033138333333333" lon="-48.58202333333334"><ele>7.800000000000001</ele><name>Asfalto</name></wpt><wpt lat="-27.033138333333333" lon="-48.58202333333334"><ele>7.800000000000001</ele><name>Bidirecional</name></wpt><wpt lat="-27.035068333333335" lon="-48.58368"><ele>13.2</ele><name>Bom estado</name></wpt><wpt lat="-27.033138333333333" lon="-48.58202333333334"><ele>7.800000000000001</ele><name>Ciclofaixa</name></wpt><wpt lat="-27.035176666666665" lon="-48.58299166666667"><ele>9.3</ele><name>Estacionamento dedicado de um lado, segregado da circulação</name></wpt><wpt lat="-27.033138333333333" lon="-48.58202333333334"><ele>7.800000000000001</ele><name>Estacionamento proibido na via</name></wpt><wpt lat="-27.03475" lon="-48.582100000000004"><ele>9.1</ele><name>Faixa de carros logo ao lado da ciclo (cm)</name></wpt><wpt lat="-27.03515333333333" lon="-48.58325333333334"><ele>11.7</ele><name>Faixa de carros logo ao lado da ciclo (cm)</name></wpt><wpt lat="-27.033136666666664" lon="-48.582139999999995"><ele>9.7</ele><name>Foto</name></wpt><wpt lat="-27.033218333333334" lon="-48.582010000000004"><ele>9.5</ele><name>Foto</name></wpt><wpt lat="-27.033561666666667" lon="-48.58202333333334"><ele>4.7</ele><name>Foto</name></wpt><wpt lat="-27.03436" lon="-48.58208"><ele>6.699999999999999</ele><name>Foto</name></wpt><wpt lat="-27.03439" lon="-48.58208333333334"><ele>7.800000000000001</ele><name>Foto</name></wpt><wpt lat="-27.035268333333338" lon="-48.58215333333332"><ele>5.4</ele><name>Foto</name></wpt><wpt lat="-27.035386666666668" lon="-48.58219666666667"><ele>7.9</ele><name>Foto</name></wpt><wpt lat="-27.035261666666663" lon="-48.582575"><ele>5.699999999999999</ele><name>Foto</name></wpt><wpt lat="-27.035261666666663" lon="-48.582575"><ele>5.699999999999999</ele><name>Foto</name></wpt><wpt lat="-27.03526" lon="-48.58271166666667"><ele>11.299999999999999</ele><name>Foto</name></wpt><wpt lat="-27.03517" lon="-48.58326333333333"><ele>10.5</ele><name>Foto</name></wpt><wpt lat="-27.035085000000002" lon="-48.58352333333334"><ele>15</ele><name>Foto</name></wpt><wpt lat="-27.035038333333333" lon="-48.583785000000006"><ele>14.1</ele><name>Foto</name></wpt><wpt lat="-27.035053333333334" lon="-48.58378166666667"><ele>12.6</ele><name>Iluminação geral na via do outro lado da infraestrutura</name></wpt><wpt lat="-27.03356666666667" lon="-48.58203333333333"><ele>5</ele><name>Lombadas físicas</name></wpt><wpt lat="-27.034395000000004" lon="-48.582075"><ele>7</ele><name>Lombadas físicas</name></wpt><wpt lat="-27.033138333333333" lon="-48.58202333333334"><ele>7.800000000000001</ele><name>Mão Única</name></wpt><wpt lat="-27.033138333333333" lon="-48.58202333333334"><ele>7.800000000000001</ele><name>No bordo esquerdo de Via de Mão Única</name></wpt><wpt lat="-27.03528833333333" lon="-48.58216000000001"><ele>4.800000000000001</ele><name>Em cruzamento BOA condição</name></wpt><wpt lat="-27.035261666666663" lon="-48.582575"><ele>5.699999999999999</ele><name>R-34</name></wpt><wpt lat="-27.035159999999998" lon="-48.58316166666667"><ele>1.5</ele><name>R-34</name></wpt><wpt lat="-27.03516666666667" lon="-48.58327333333333"><ele>7.199999999999999</ele><name>R-34</name></wpt><wpt lat="-27.035163333333337" lon="-48.583196666666666"><ele>10.7</ele><name>SE CICLOFAIXA: para invadir a ciclo parte do automóvel passa obrigatoriamente por cima de segregadores</name></wpt><wpt lat="-27.035096666666664" lon="-48.58356833333334"><ele>14.299999999999999</ele><name>Sombras em alguns trechos, SEM mudas novas</name></wpt><wpt lat="-27.033138333333333" lon="-48.58202333333334"><ele>7.800000000000001</ele><name>Tachões</name></wpt><wpt lat="-27.03475" lon="-48.582100000000004"><ele>9.1</ele><name>Total da via (incluindo a ciclo) (cm)</name></wpt><wpt lat="-27.03515333333333" lon="-48.58325333333334"><ele>11.7</ele><name>Total da via (incluindo a ciclo) (cm)</name></wpt><wpt lat="-27.033257" lon="-48.58201"><name>ATENÇÃO: VER a FOTO AÉREA Rua da Praia T1 e Rua Nap. Vieira</name></wpt><wpt lat="-27.033136" lon="-48.582038"><name>Estacionameto proibido, mas tem uso irregular</name></wpt><wpt lat="-27.033208" lon="-48.582041"/><wpt lat="-27.033254" lon="-48.582039"><name>Esta ciclofaixa é a mesma, sem divisão, do outro trecho analisado, mas aqui a via de motorizados muda de sentido</name></wpt><trk><name>Ciclofaixa R. da Praia T2 e R. Vergílio R. Pereira - BC</name><trkseg><trkpt lat="-27.033138333333333" lon="-48.58202333333334"><ele>7.800000000000001</ele></trkpt><trkpt lat="-27.033138333333333" lon="-48.58202333333334"><ele>7.800000000000001</ele></trkpt><trkpt lat="-27.033138333333333" lon="-48.58202333333334"><ele>7.800000000000001</ele></trkpt><trkpt lat="-27.033138333333333" lon="-48.58202333333334"><ele>7.800000000000001</ele></trkpt><trkpt lat="-27.033138333333333" lon="-48.58202333333334"><ele>7.800000000000001</ele></trkpt><trkpt lat="-27.033138333333333" lon="-48.58202333333334"><ele>7.800000000000001</ele></trkpt><trkpt lat="-27.033138333333333" lon="-48.58202333333334"><ele>7.800000000000001</ele></trkpt><trkpt lat="-27.033138333333333" lon="-48.58202333333334"><ele>7.800000000000001</ele></trkpt><trkpt lat="-27.033138333333333" lon="-48.58202333333334"><ele>7.800000000000001</ele></trkpt><trkpt lat="-27.033138333333333" lon="-48.58202333333334"><ele>7.800000000000001</ele></trkpt><trkpt lat="-27.033138333333333" lon="-48.58202333333334"><ele>7.800000000000001</ele></trkpt><trkpt lat="-27.033138333333333" lon="-48.58202333333334"><ele>7.800000000000001</ele></trkpt><trkpt lat="-27.033138333333333" lon="-48.58202333333334"><ele>7.800000000000001</ele></trkpt><trkpt lat="-27.033138333333333" lon="-48.58202333333334"><ele>7.800000000000001</ele></trkpt><trkpt lat="-27.033138333333333" lon="-48.58202333333334"><ele>7.800000000000001</ele></trkpt><trkpt lat="-27.033138333333333" lon="-48.58202333333334"><ele>7.800000000000001</ele></trkpt><trkpt lat="-27.033138333333333" lon="-48.58202333333334"><ele>7.800000000000001</ele></trkpt><trkpt lat="-27.033138333333333" lon="-48.58202333333334"><ele>7.800000000000001</ele></trkpt><trkpt lat="-27.033138333333333" lon="-48.58202333333334"><ele>7.800000000000001</ele></trkpt><trkpt lat="-27.033138333333333" lon="-48.58202333333334"><ele>7.800000000000001</ele></trkpt><trkpt lat="-27.033138333333333" lon="-48.58202333333334"><ele>7.800000000000001</ele></trkpt><trkpt lat="-27.033138333333333" lon="-48.58202333333334"><ele>7.800000000000001</ele></trkpt><trkpt lat="-27.033138333333333" lon="-48.58202333333334"><ele>7.800000000000001</ele></trkpt><trkpt lat="-27.033138333333333" lon="-48.58202333333334"><ele>7.800000000000001</ele></trkpt><trkpt lat="-27.033138333333333" lon="-48.58202333333334"><ele>7.800000000000001</ele></trkpt><trkpt lat="-27.033138333333333" lon="-48.58202333333334"><ele>7.800000000000001</ele></trkpt><trkpt lat="-27.033138333333333" lon="-48.58202333333334"><ele>7.800000000000001</ele></trkpt><trkpt lat="-27.033138333333333" lon="-48.58202333333334"><ele>7.800000000000001</ele></trkpt><trkpt lat="-27.033138333333333" lon="-48.58202333333334"><ele>7.800000000000001</ele></trkpt><trkpt lat="-27.033138333333333" lon="-48.58202333333334"><ele>7.800000000000001</ele></trkpt><trkpt lat="-27.033138333333333" lon="-48.58202333333334"><ele>7.800000000000001</ele></trkpt><trkpt lat="-27.033138333333333" lon="-48.58202333333334"><ele>7.800000000000001</ele></trkpt><trkpt lat="-27.033138333333333" lon="-48.58202333333334"><ele>7.800000000000001</ele></trkpt><trkpt lat="-27.033138333333333" lon="-48.58202333333334"><ele>7.800000000000001</ele></trkpt><trkpt lat="-27.033138333333333" lon="-48.58202333333334"><ele>7.800000000000001</ele></trkpt><trkpt lat="-27.033138333333333" lon="-48.58202333333334"><ele>7.800000000000001</ele></trkpt><trkpt lat="-27.033138333333333" lon="-48.58202333333334"><ele>7.800000000000001</ele></trkpt><trkpt lat="-27.033138333333333" lon="-48.58202333333334"><ele>7.800000000000001</ele></trkpt><trkpt lat="-27.033138333333333" lon="-48.58202333333334"><ele>7.800000000000001</ele></trkpt><trkpt lat="-27.033138333333333" lon="-48.58202333333334"><ele>7.800000000000001</ele></trkpt><trkpt lat="-27.033138333333333" lon="-48.58202333333334"><ele>7.800000000000001</ele></trkpt><trkpt lat="-27.033138333333333" lon="-48.58202333333334"><ele>7.800000000000001</ele></trkpt><trkpt lat="-27.033138333333333" lon="-48.58202333333334"><ele>7.800000000000001</ele></trkpt><trkpt lat="-27.033138333333333" lon="-48.58202333333334"><ele>7.800000000000001</ele></trkpt><trkpt lat="-27.033138333333333" lon="-48.58202333333334"><ele>7.800000000000001</ele></trkpt><trkpt lat="-27.033138333333333" lon="-48.58202333333334"><ele>7.800000000000001</ele></trkpt><trkpt lat="-27.033138333333333" lon="-48.58202333333334"><ele>7.800000000000001</ele></trkpt><trkpt lat="-27.033138333333333" lon="-48.58202333333334"><ele>7.800000000000001</ele></trkpt><trkpt lat="-27.033138333333333" lon="-48.58202333333334"><ele>7.800000000000001</ele></trkpt><trkpt lat="-27.033138333333333" lon="-48.58202333333334"><ele>7.800000000000001</ele></trkpt><trkpt lat="-27.033138333333333" lon="-48.58202333333334"><ele>7.800000000000001</ele></trkpt><trkpt lat="-27.033138333333333" lon="-48.58202333333334"><ele>7.800000000000001</ele></trkpt><trkpt lat="-27.033138333333333" lon="-48.58202333333334"><ele>7.800000000000001</ele></trkpt><trkpt lat="-27.033138333333333" lon="-48.58202333333334"><ele>7.800000000000001</ele></trkpt><trkpt lat="-27.033138333333333" lon="-48.58202333333334"><ele>7.800000000000001</ele></trkpt><trkpt lat="-27.033138333333333" lon="-48.58202333333334"><ele>7.800000000000001</ele></trkpt><trkpt lat="-27.033138333333333" lon="-48.58202333333334"><ele>7.800000000000001</ele></trkpt><trkpt lat="-27.033138333333333" lon="-48.58202333333334"><ele>7.800000000000001</ele></trkpt><trkpt lat="-27.033138333333333" lon="-48.58202333333334"><ele>7.800000000000001</ele></trkpt><trkpt lat="-27.033138333333333" lon="-48.58202333333334"><ele>7.800000000000001</ele></trkpt><trkpt lat="-27.033138333333333" lon="-48.58202333333334"><ele>7.800000000000001</ele></trkpt><trkpt lat="-27.033138333333333" lon="-48.58202333333334"><ele>7.800000000000001</ele></trkpt><trkpt lat="-27.033138333333333" lon="-48.58202333333334"><ele>7.800000000000001</ele></trkpt><trkpt lat="-27.033138333333333" lon="-48.58202333333334"><ele>7.800000000000001</ele></trkpt><trkpt lat="-27.033143333333335" lon="-48.58201666666667"><ele>4.800000000000001</ele></trkpt><trkpt lat="-27.03315" lon="-48.58203"><ele>5.300000000000001</ele></trkpt><trkpt lat="-27.033158333333336" lon="-48.582045"><ele>5.5</ele></trkpt><trkpt lat="-27.033158333333336" lon="-48.58206"><ele>5.6</ele></trkpt><trkpt lat="-27.033155000000004" lon="-48.582075"><ele>6</ele></trkpt><trkpt lat="-27.033144999999998" lon="-48.58208833333333"><ele>6.800000000000001</ele></trkpt><trkpt lat="-27.03313166666667" lon="-48.58210833333332"><ele>7.6</ele></trkpt><trkpt lat="-27.033125000000002" lon="-48.58212333333333"><ele>8</ele></trkpt><trkpt lat="-27.03311666666667" lon="-48.582135"><ele>8.3</ele></trkpt><trkpt lat="-27.03310666666666" lon="-48.58215666666667"><ele>8.7</ele></trkpt><trkpt lat="-27.033111666666667" lon="-48.58218"><ele>8.8</ele></trkpt><trkpt lat="-27.033121666666663" lon="-48.582190000000004"><ele>8.8</ele></trkpt><trkpt lat="-27.033123333333332" lon="-48.582188333333335"><ele>8.9</ele></trkpt><trkpt lat="-27.033121666666663" lon="-48.58218166666667"><ele>8.8</ele></trkpt><trkpt lat="-27.033128333333334" lon="-48.582161666666664"><ele>9.1</ele></trkpt><trkpt lat="-27.033136666666664" lon="-48.582139999999995"><ele>9.7</ele></trkpt><trkpt lat="-27.033136666666664" lon="-48.582139999999995"><ele>9.7</ele></trkpt><trkpt lat="-27.033144999999998" lon="-48.58211333333334"><ele>9.799999999999999</ele></trkpt><trkpt lat="-27.033156666666667" lon="-48.58209166666667"><ele>10.2</ele></trkpt><trkpt lat="-27.033168333333332" lon="-48.582073333333334"><ele>10.2</ele></trkpt><trkpt lat="-27.033189999999998" lon="-48.582051666666665"><ele>10.2</ele></trkpt><trkpt lat="-27.033205" lon="-48.582026666666664"><ele>9.9</ele></trkpt><trkpt lat="-27.033218333333334" lon="-48.582010000000004"><ele>9.5</ele></trkpt><trkpt lat="-27.033218333333334" lon="-48.582010000000004"><ele>9.5</ele></trkpt><trkpt lat="-27.033245000000004" lon="-48.582008333333334"><ele>8.9</ele></trkpt><trkpt lat="-27.033279999999998" lon="-48.582015"><ele>8</ele></trkpt><trkpt lat="-27.033315" lon="-48.582015"><ele>7.300000000000001</ele></trkpt><trkpt lat="-27.033350000000002" lon="-48.58201833333332"><ele>7.300000000000001</ele></trkpt><trkpt lat="-27.033385" lon="-48.58202166666667"><ele>7.4</ele></trkpt><trkpt lat="-27.033421666666662" lon="-48.58201999999999"><ele>7.1</ele></trkpt><trkpt lat="-27.033458333333336" lon="-48.58202166666667"><ele>6.9</ele></trkpt><trkpt lat="-27.033495000000002" lon="-48.58202166666667"><ele>6.6</ele></trkpt><trkpt lat="-27.033525" lon="-48.58201833333332"><ele>6</ele></trkpt><trkpt lat="-27.033548333333336" lon="-48.58201666666667"><ele>5.9</ele></trkpt><trkpt lat="-27.033561666666667" lon="-48.58201833333332"><ele>5.5</ele></trkpt><trkpt lat="-27.033560000000005" lon="-48.582015"><ele>6.1</ele></trkpt><trkpt lat="-27.033565" lon="-48.58201666666667"><ele>5.5</ele></trkpt><trkpt lat="-27.033563333333337" lon="-48.58201833333332"><ele>5.2</ele></trkpt><trkpt lat="-27.033561666666667" lon="-48.58202333333334"><ele>4.7</ele></trkpt><trkpt lat="-27.033561666666667" lon="-48.58202333333334"><ele>4.7</ele></trkpt><trkpt lat="-27.033565" lon="-48.58203166666667"><ele>4.5</ele></trkpt><trkpt lat="-27.03356666666667" lon="-48.58203333333333"><ele>5</ele></trkpt><trkpt lat="-27.03356666666667" lon="-48.58203333333333"><ele>5</ele></trkpt><trkpt lat="-27.033565" lon="-48.58203166666667"><ele>5.6</ele></trkpt><trkpt lat="-27.03357" lon="-48.58203"><ele>5.800000000000001</ele></trkpt><trkpt lat="-27.033573333333333" lon="-48.582028333333334"><ele>6.1</ele></trkpt><trkpt lat="-27.03358166666667" lon="-48.582026666666664"><ele>6.199999999999999</ele></trkpt><trkpt lat="-27.033593333333336" lon="-48.58203"><ele>6</ele></trkpt><trkpt lat="-27.033608333333337" lon="-48.58203666666667"><ele>6.1</ele></trkpt><trkpt lat="-27.033630000000002" lon="-48.582040000000006"><ele>6.199999999999999</ele></trkpt><trkpt lat="-27.03365666666667" lon="-48.58204333333333"><ele>6.4</ele></trkpt><trkpt lat="-27.03368833333333" lon="-48.58204333333333"><ele>6.300000000000001</ele></trkpt><trkpt lat="-27.033721666666665" lon="-48.582045"><ele>6.1</ele></trkpt><trkpt lat="-27.033754999999996" lon="-48.582045"><ele>6.300000000000001</ele></trkpt><trkpt lat="-27.03379" lon="-48.582045"><ele>6.4</ele></trkpt><trkpt lat="-27.033826666666663" lon="-48.58204333333333"><ele>6.5</ele></trkpt><trkpt lat="-27.03386833333333" lon="-48.58204333333333"><ele>6.300000000000001</ele></trkpt><trkpt lat="-27.03391" lon="-48.58204666666667"><ele>6.300000000000001</ele></trkpt><trkpt lat="-27.033949999999997" lon="-48.582048333333326"><ele>6.199999999999999</ele></trkpt><trkpt lat="-27.033988333333333" lon="-48.582049999999995"><ele>6.300000000000001</ele></trkpt><trkpt lat="-27.034028333333335" lon="-48.582053333333334"><ele>6.300000000000001</ele></trkpt><trkpt lat="-27.034068333333334" lon="-48.58205833333333"><ele>6.6</ele></trkpt><trkpt lat="-27.034108333333332" lon="-48.58206333333332"><ele>6.6</ele></trkpt><trkpt lat="-27.03414833333333" lon="-48.58206833333334"><ele>6.800000000000001</ele></trkpt><trkpt lat="-27.034188333333336" lon="-48.582071666666664"><ele>6.9</ele></trkpt><trkpt lat="-27.03422833333333" lon="-48.58207833333333"><ele>7.1</ele></trkpt><trkpt lat="-27.034266666666667" lon="-48.58208166666667"><ele>6.9</ele></trkpt><trkpt lat="-27.03430166666667" lon="-48.58208166666667"><ele>6.699999999999999</ele></trkpt><trkpt lat="-27.034333333333333" lon="-48.58208"><ele>6.699999999999999</ele></trkpt><trkpt lat="-27.03436" lon="-48.58208"><ele>6.699999999999999</ele></trkpt><trkpt lat="-27.03436" lon="-48.58208"><ele>6.699999999999999</ele></trkpt><trkpt lat="-27.03437166666667" lon="-48.58207833333333"><ele>6.800000000000001</ele></trkpt><trkpt lat="-27.034383333333334" lon="-48.58207833333333"><ele>6.699999999999999</ele></trkpt><trkpt lat="-27.03439" lon="-48.58208166666667"><ele>7.1</ele></trkpt><trkpt lat="-27.034393333333334" lon="-48.58207833333333"><ele>6.9</ele></trkpt><trkpt lat="-27.034395000000004" lon="-48.582075"><ele>7</ele></trkpt><trkpt lat="-27.034395000000004" lon="-48.582075"><ele>7</ele></trkpt><trkpt lat="-27.034395000000004" lon="-48.582071666666664"><ele>7.5</ele></trkpt><trkpt lat="-27.034395000000004" lon="-48.58206833333334"><ele>8</ele></trkpt><trkpt lat="-27.034393333333334" lon="-48.58206833333334"><ele>8</ele></trkpt><trkpt lat="-27.03439" lon="-48.58207000000001"><ele>8</ele></trkpt><trkpt lat="-27.03439" lon="-48.582071666666664"><ele>8</ele></trkpt><trkpt lat="-27.03439" lon="-48.58206833333334"><ele>8.1</ele></trkpt><trkpt lat="-27.03439166666667" lon="-48.582071666666664"><ele>8.2</ele></trkpt><trkpt lat="-27.03439" lon="-48.582075"><ele>8.1</ele></trkpt><trkpt lat="-27.03439" lon="-48.58208333333334"><ele>7.800000000000001</ele></trkpt><trkpt lat="-27.03439" lon="-48.58208333333334"><ele>7.800000000000001</ele></trkpt><trkpt lat="-27.034386666666666" lon="-48.58208666666666"><ele>7.6</ele></trkpt><trkpt lat="-27.034386666666666" lon="-48.58208666666666"><ele>7.6</ele></trkpt><trkpt lat="-27.034395000000004" lon="-48.58208166666667"><ele>8</ele></trkpt><trkpt lat="-27.03440833333333" lon="-48.58207833333333"><ele>8.1</ele></trkpt><trkpt lat="-27.034426666666665" lon="-48.58208"><ele>8</ele></trkpt><trkpt lat="-27.034455" lon="-48.58208166666667"><ele>7.6</ele></trkpt><trkpt lat="-27.03448166666667" lon="-48.582093333333326"><ele>7.199999999999999</ele></trkpt><trkpt lat="-27.034515000000003" lon="-48.582105"><ele>6.9</ele></trkpt><trkpt lat="-27.034548333333337" lon="-48.58210833333332"><ele>6.5</ele></trkpt><trkpt lat="-27.03458333333333" lon="-48.58210833333332"><ele>6.199999999999999</ele></trkpt><trkpt lat="-27.034620000000004" lon="-48.58210999999999"><ele>6.1</ele></trkpt><trkpt lat="-27.034656666666667" lon="-48.58211166666667"><ele>6.1</ele></trkpt><trkpt lat="-27.034693333333333" lon="-48.58211166666667"><ele>6.1</ele></trkpt><trkpt lat="-27.034725" lon="-48.58211166666667"><ele>6.199999999999999</ele></trkpt><trkpt lat="-27.03475" lon="-48.58211166666667"><ele>6.1</ele></trkpt><trkpt lat="-27.034761666666668" lon="-48.58210999999999"><ele>7.5</ele></trkpt><trkpt lat="-27.034761666666668" lon="-48.58210666666667"><ele>7.800000000000001</ele></trkpt><trkpt lat="-27.034758333333336" lon="-48.58210666666667"><ele>7.9</ele></trkpt><trkpt lat="-27.034756666666667" lon="-48.582105"><ele>8.4</ele></trkpt><trkpt lat="-27.034755000000004" lon="-48.58210333333333"><ele>8.2</ele></trkpt><trkpt lat="-27.034755000000004" lon="-48.582100000000004"><ele>8.3</ele></trkpt><trkpt lat="-27.034756666666667" lon="-48.582100000000004"><ele>9</ele></trkpt><trkpt lat="-27.034755000000004" lon="-48.582100000000004"><ele>8.9</ele></trkpt><trkpt lat="-27.03475" lon="-48.582100000000004"><ele>8.9</ele></trkpt><trkpt lat="-27.03475166666666" lon="-48.582094999999995"><ele>9.2</ele></trkpt><trkpt lat="-27.03475" lon="-48.582100000000004"><ele>9.1</ele></trkpt><trkpt lat="-27.03475" lon="-48.582100000000004"><ele>9.1</ele></trkpt><trkpt lat="-27.03475" lon="-48.582100000000004"><ele>9.1</ele></trkpt><trkpt lat="-27.03475" lon="-48.582100000000004"><ele>9.1</ele></trkpt><trkpt lat="-27.03475" lon="-48.582100000000004"><ele>9.1</ele></trkpt><trkpt lat="-27.03475" lon="-48.582100000000004"><ele>9.1</ele></trkpt><trkpt lat="-27.03475" lon="-48.582100000000004"><ele>9.1</ele></trkpt><trkpt lat="-27.03475" lon="-48.582100000000004"><ele>9.1</ele></trkpt><trkpt lat="-27.03475" lon="-48.582100000000004"><ele>9.1</ele></trkpt><trkpt lat="-27.03475" lon="-48.582100000000004"><ele>9.1</ele></trkpt><trkpt lat="-27.03475" lon="-48.582100000000004"><ele>9.1</ele></trkpt><trkpt lat="-27.03475" lon="-48.582100000000004"><ele>9.1</ele></trkpt><trkpt lat="-27.03475" lon="-48.582100000000004"><ele>9.1</ele></trkpt><trkpt lat="-27.03475" lon="-48.582100000000004"><ele>9.1</ele></trkpt><trkpt lat="-27.03475" lon="-48.582100000000004"><ele>9.1</ele></trkpt><trkpt lat="-27.03475" lon="-48.582100000000004"><ele>9.1</ele></trkpt><trkpt lat="-27.03475" lon="-48.582100000000004"><ele>9.1</ele></trkpt><trkpt lat="-27.03475" lon="-48.582100000000004"><ele>9.1</ele></trkpt><trkpt lat="-27.03475" lon="-48.582100000000004"><ele>9.1</ele></trkpt><trkpt lat="-27.03475" lon="-48.582100000000004"><ele>9.1</ele></trkpt><trkpt lat="-27.03475" lon="-48.582100000000004"><ele>9.1</ele></trkpt><trkpt lat="-27.03475" lon="-48.582100000000004"><ele>9.1</ele></trkpt><trkpt lat="-27.03475" lon="-48.582100000000004"><ele>9.1</ele></trkpt><trkpt lat="-27.03475" lon="-48.582100000000004"><ele>9.1</ele></trkpt><trkpt lat="-27.03475" lon="-48.582100000000004"><ele>9.1</ele></trkpt><trkpt lat="-27.03475" lon="-48.582100000000004"><ele>9.1</ele></trkpt><trkpt lat="-27.03475" lon="-48.582100000000004"><ele>9.1</ele></trkpt><trkpt lat="-27.03475" lon="-48.582100000000004"><ele>9.1</ele></trkpt><trkpt lat="-27.03475" lon="-48.582100000000004"><ele>9.1</ele></trkpt><trkpt lat="-27.03475" lon="-48.582100000000004"><ele>9.1</ele></trkpt><trkpt lat="-27.03475" lon="-48.582100000000004"><ele>9.1</ele></trkpt><trkpt lat="-27.03475" lon="-48.582100000000004"><ele>9.1</ele></trkpt><trkpt lat="-27.03475" lon="-48.582100000000004"><ele>9.1</ele></trkpt><trkpt lat="-27.03475" lon="-48.582100000000004"><ele>9.1</ele></trkpt><trkpt lat="-27.03475" lon="-48.582100000000004"><ele>9.1</ele></trkpt><trkpt lat="-27.03475" lon="-48.582100000000004"><ele>9.1</ele></trkpt><trkpt lat="-27.03475" lon="-48.582100000000004"><ele>9.1</ele></trkpt><trkpt lat="-27.03475" lon="-48.582100000000004"><ele>9.1</ele></trkpt><trkpt lat="-27.03475" lon="-48.582100000000004"><ele>9.1</ele></trkpt><trkpt lat="-27.03475" lon="-48.582100000000004"><ele>9.1</ele></trkpt><trkpt lat="-27.03475" lon="-48.582100000000004"><ele>9.1</ele></trkpt><trkpt lat="-27.03475" lon="-48.582100000000004"><ele>9.1</ele></trkpt><trkpt lat="-27.03475" lon="-48.582100000000004"><ele>9.1</ele></trkpt><trkpt lat="-27.03475" lon="-48.582100000000004"><ele>9.1</ele></trkpt><trkpt lat="-27.03475" lon="-48.582100000000004"><ele>9.1</ele></trkpt><trkpt lat="-27.03475" lon="-48.582100000000004"><ele>9.1</ele></trkpt><trkpt lat="-27.03475" lon="-48.582100000000004"><ele>9.1</ele></trkpt><trkpt lat="-27.03475" lon="-48.582100000000004"><ele>9.1</ele></trkpt><trkpt lat="-27.03475" lon="-48.582100000000004"><ele>9.1</ele></trkpt><trkpt lat="-27.03475" lon="-48.582100000000004"><ele>9.1</ele></trkpt><trkpt lat="-27.03475" lon="-48.582100000000004"><ele>9.1</ele></trkpt><trkpt lat="-27.03475" lon="-48.582100000000004"><ele>9.1</ele></trkpt><trkpt lat="-27.03475" lon="-48.582100000000004"><ele>9.1</ele></trkpt><trkpt lat="-27.03475166666666" lon="-48.582098333333334"><ele>8.8</ele></trkpt><trkpt lat="-27.034766666666663" lon="-48.582096666666665"><ele>8.8</ele></trkpt><trkpt lat="-27.034783333333333" lon="-48.582098333333334"><ele>8.8</ele></trkpt><trkpt lat="-27.034803333333336" lon="-48.58210166666666"><ele>8.9</ele></trkpt><trkpt lat="-27.034836666666667" lon="-48.58211166666667"><ele>9</ele></trkpt><trkpt lat="-27.034876666666666" lon="-48.582125"><ele>9.3</ele></trkpt><trkpt lat="-27.034913333333332" lon="-48.58213000000001"><ele>9.4</ele></trkpt><trkpt lat="-27.034948333333332" lon="-48.58213166666666"><ele>9.4</ele></trkpt><trkpt lat="-27.03497666666666" lon="-48.58213166666666"><ele>9.2</ele></trkpt><trkpt lat="-27.035005" lon="-48.58213166666666"><ele>9.2</ele></trkpt><trkpt lat="-27.035038333333333" lon="-48.582138333333326"><ele>8.9</ele></trkpt><trkpt lat="-27.035070000000005" lon="-48.582145000000004"><ele>8.7</ele></trkpt><trkpt lat="-27.035093333333332" lon="-48.58215"><ele>8.6</ele></trkpt><trkpt lat="-27.03512166666667" lon="-48.58215499999999"><ele>8.7</ele></trkpt><trkpt lat="-27.035158333333335" lon="-48.58215499999999"><ele>9.3</ele></trkpt><trkpt lat="-27.035188333333334" lon="-48.58215833333334"><ele>9.3</ele></trkpt><trkpt lat="-27.035216666666663" lon="-48.58216000000001"><ele>9.3</ele></trkpt><trkpt lat="-27.035238333333336" lon="-48.582161666666664"><ele>8.9</ele></trkpt><trkpt lat="-27.035266666666665" lon="-48.58215"><ele>8.1</ele></trkpt><trkpt lat="-27.035286666666668" lon="-48.58214833333333"><ele>6.6</ele></trkpt><trkpt lat="-27.035291666666662" lon="-48.58214833333333"><ele>6</ele></trkpt><trkpt lat="-27.03528833333333" lon="-48.58214833333333"><ele>5.699999999999999</ele></trkpt><trkpt lat="-27.035285" lon="-48.582145000000004"><ele>5.699999999999999</ele></trkpt><trkpt lat="-27.035279999999997" lon="-48.582143333333335"><ele>5.6</ele></trkpt><trkpt lat="-27.035276666666665" lon="-48.582145000000004"><ele>5.5</ele></trkpt><trkpt lat="-27.03527" lon="-48.58215166666667"><ele>5.5</ele></trkpt><trkpt lat="-27.035268333333338" lon="-48.58215333333332"><ele>5.4</ele></trkpt><trkpt lat="-27.035268333333338" lon="-48.58215333333332"><ele>5.4</ele></trkpt><trkpt lat="-27.035275000000002" lon="-48.58215499999999"><ele>5.1</ele></trkpt><trkpt lat="-27.035281666666666" lon="-48.58215666666667"><ele>4.800000000000001</ele></trkpt><trkpt lat="-27.03528833333333" lon="-48.58216000000001"><ele>4.800000000000001</ele></trkpt><trkpt lat="-27.03528833333333" lon="-48.58216000000001"><ele>4.800000000000001</ele></trkpt><trkpt lat="-27.035285" lon="-48.582165"><ele>5.1</ele></trkpt><trkpt lat="-27.035285" lon="-48.582165"><ele>5.1</ele></trkpt><trkpt lat="-27.035285" lon="-48.582165"><ele>5.1</ele></trkpt><trkpt lat="-27.035285" lon="-48.582165"><ele>5.1</ele></trkpt><trkpt lat="-27.035285" lon="-48.582165"><ele>5.1</ele></trkpt><trkpt lat="-27.035308333333333" lon="-48.58216666666667"><ele>5.6</ele></trkpt><trkpt lat="-27.035324999999997" lon="-48.58216666666667"><ele>5.800000000000001</ele></trkpt><trkpt lat="-27.035343333333337" lon="-48.58216833333333"><ele>5.9</ele></trkpt><trkpt lat="-27.035363333333333" lon="-48.58217"><ele>6.1</ele></trkpt><trkpt lat="-27.035375" lon="-48.58217666666666"><ele>6.6</ele></trkpt><trkpt lat="-27.035383333333336" lon="-48.582186666666665"><ele>7.5</ele></trkpt><trkpt lat="-27.035386666666668" lon="-48.58219666666667"><ele>7.9</ele></trkpt><trkpt lat="-27.035386666666668" lon="-48.58219666666667"><ele>7.9</ele></trkpt><trkpt lat="-27.035383333333336" lon="-48.58221833333334"><ele>7.800000000000001</ele></trkpt><trkpt lat="-27.035373333333336" lon="-48.58224499999999"><ele>7.699999999999999</ele></trkpt><trkpt lat="-27.035366666666665" lon="-48.58227166666667"><ele>7.300000000000001</ele></trkpt><trkpt lat="-27.035354999999996" lon="-48.582300000000004"><ele>7.4</ele></trkpt><trkpt lat="-27.035345" lon="-48.58232833333333"><ele>7.5</ele></trkpt><trkpt lat="-27.035339999999998" lon="-48.58236"><ele>7</ele></trkpt><trkpt lat="-27.035335" lon="-48.58239333333333"><ele>6.5</ele></trkpt><trkpt lat="-27.035331666666668" lon="-48.58242499999999"><ele>6.300000000000001</ele></trkpt><trkpt lat="-27.035328333333336" lon="-48.58245166666667"><ele>6.1</ele></trkpt><trkpt lat="-27.035326666666666" lon="-48.58247333333334"><ele>5.9</ele></trkpt><trkpt lat="-27.035320000000002" lon="-48.582480000000004"><ele>6.199999999999999</ele></trkpt><trkpt lat="-27.03530166666667" lon="-48.582501666666666"><ele>5.6</ele></trkpt><trkpt lat="-27.03529" lon="-48.58251833333334"><ele>5.6</ele></trkpt><trkpt lat="-27.035276666666665" lon="-48.58253666666666"><ele>4.7</ele></trkpt><trkpt lat="-27.035268333333338" lon="-48.58255333333333"><ele>3.6</ele></trkpt><trkpt lat="-27.035261666666663" lon="-48.582568333333334"><ele>3.2</ele></trkpt><trkpt lat="-27.03526" lon="-48.58257833333334"><ele>3.2</ele></trkpt><trkpt lat="-27.035263333333333" lon="-48.582585"><ele>3.8000000000000003</ele></trkpt><trkpt lat="-27.035266666666665" lon="-48.58258666666667"><ele>4.4</ele></trkpt><trkpt lat="-27.03527166666667" lon="-48.58258166666666"><ele>4.6</ele></trkpt><trkpt lat="-27.035273333333333" lon="-48.58258000000001"><ele>4.800000000000001</ele></trkpt><trkpt lat="-27.035273333333333" lon="-48.58257666666667"><ele>5.2</ele></trkpt><trkpt lat="-27.035275000000002" lon="-48.582575"><ele>5.300000000000001</ele></trkpt><trkpt lat="-27.035275000000002" lon="-48.582575"><ele>5.4</ele></trkpt><trkpt lat="-27.035273333333333" lon="-48.58257666666667"><ele>5.5</ele></trkpt><trkpt lat="-27.035266666666665" lon="-48.58257666666667"><ele>5.699999999999999</ele></trkpt><trkpt lat="-27.035261666666663" lon="-48.582575"><ele>5.699999999999999</ele></trkpt><trkpt lat="-27.035261666666663" lon="-48.582575"><ele>5.699999999999999</ele></trkpt><trkpt lat="-27.035261666666663" lon="-48.582575"><ele>5.699999999999999</ele></trkpt><trkpt lat="-27.035261666666663" lon="-48.582575"><ele>5.699999999999999</ele></trkpt><trkpt lat="-27.035261666666663" lon="-48.582575"><ele>5.699999999999999</ele></trkpt><trkpt lat="-27.035261666666663" lon="-48.582575"><ele>5.699999999999999</ele></trkpt><trkpt lat="-27.035261666666663" lon="-48.582575"><ele>5.699999999999999</ele></trkpt><trkpt lat="-27.035261666666663" lon="-48.582575"><ele>5.699999999999999</ele></trkpt><trkpt lat="-27.035261666666663" lon="-48.582575"><ele>5.699999999999999</ele></trkpt><trkpt lat="-27.035261666666663" lon="-48.582575"><ele>5.699999999999999</ele></trkpt><trkpt lat="-27.035261666666663" lon="-48.582575"><ele>5.699999999999999</ele></trkpt><trkpt lat="-27.035261666666663" lon="-48.582575"><ele>5.699999999999999</ele></trkpt><trkpt lat="-27.035261666666663" lon="-48.582575"><ele>5.699999999999999</ele></trkpt><trkpt lat="-27.035261666666663" lon="-48.582575"><ele>5.699999999999999</ele></trkpt><trkpt lat="-27.035261666666663" lon="-48.582575"><ele>5.699999999999999</ele></trkpt><trkpt lat="-27.035261666666663" lon="-48.582575"><ele>5.699999999999999</ele></trkpt><trkpt lat="-27.035261666666663" lon="-48.582575"><ele>5.699999999999999</ele></trkpt><trkpt lat="-27.035261666666663" lon="-48.582575"><ele>5.699999999999999</ele></trkpt><trkpt lat="-27.035261666666663" lon="-48.582575"><ele>5.699999999999999</ele></trkpt><trkpt lat="-27.035261666666663" lon="-48.582575"><ele>5.699999999999999</ele></trkpt><trkpt lat="-27.035261666666663" lon="-48.582575"><ele>5.699999999999999</ele></trkpt><trkpt lat="-27.035261666666663" lon="-48.582575"><ele>5.699999999999999</ele></trkpt><trkpt lat="-27.035261666666663" lon="-48.582575"><ele>5.699999999999999</ele></trkpt><trkpt lat="-27.035261666666663" lon="-48.582575"><ele>5.699999999999999</ele></trkpt><trkpt lat="-27.035261666666663" lon="-48.582575"><ele>5.699999999999999</ele></trkpt><trkpt lat="-27.035261666666663" lon="-48.582575"><ele>5.699999999999999</ele></trkpt><trkpt lat="-27.035261666666663" lon="-48.582575"><ele>5.699999999999999</ele></trkpt><trkpt lat="-27.035261666666663" lon="-48.582575"><ele>5.699999999999999</ele></trkpt><trkpt lat="-27.035261666666663" lon="-48.582575"><ele>5.699999999999999</ele></trkpt><trkpt lat="-27.035261666666663" lon="-48.582575"><ele>5.699999999999999</ele></trkpt><trkpt lat="-27.035261666666663" lon="-48.582575"><ele>5.699999999999999</ele></trkpt><trkpt lat="-27.035261666666663" lon="-48.582575"><ele>5.699999999999999</ele></trkpt><trkpt lat="-27.035261666666663" lon="-48.582575"><ele>5.699999999999999</ele></trkpt><trkpt lat="-27.035261666666663" lon="-48.582575"><ele>5.699999999999999</ele></trkpt><trkpt lat="-27.035261666666663" lon="-48.582575"><ele>5.699999999999999</ele></trkpt><trkpt lat="-27.035261666666663" lon="-48.582575"><ele>5.699999999999999</ele></trkpt><trkpt lat="-27.035261666666663" lon="-48.582575"><ele>5.699999999999999</ele></trkpt><trkpt lat="-27.035261666666663" lon="-48.582575"><ele>5.699999999999999</ele></trkpt><trkpt lat="-27.035261666666663" lon="-48.582575"><ele>5.699999999999999</ele></trkpt><trkpt lat="-27.035261666666663" lon="-48.582575"><ele>5.699999999999999</ele></trkpt><trkpt lat="-27.035261666666663" lon="-48.582575"><ele>5.699999999999999</ele></trkpt><trkpt lat="-27.035261666666663" lon="-48.582575"><ele>5.699999999999999</ele></trkpt><trkpt lat="-27.035261666666663" lon="-48.582575"><ele>5.699999999999999</ele></trkpt><trkpt lat="-27.035261666666663" lon="-48.582575"><ele>5.699999999999999</ele></trkpt><trkpt lat="-27.035261666666663" lon="-48.582575"><ele>5.699999999999999</ele></trkpt><trkpt lat="-27.035261666666663" lon="-48.582575"><ele>5.699999999999999</ele></trkpt><trkpt lat="-27.035261666666663" lon="-48.582575"><ele>5.699999999999999</ele></trkpt><trkpt lat="-27.035261666666663" lon="-48.582575"><ele>5.699999999999999</ele></trkpt><trkpt lat="-27.035261666666663" lon="-48.582575"><ele>5.699999999999999</ele></trkpt><trkpt lat="-27.035261666666663" lon="-48.582575"><ele>5.699999999999999</ele></trkpt><trkpt lat="-27.035261666666663" lon="-48.582575"><ele>5.699999999999999</ele></trkpt><trkpt lat="-27.03530166666667" lon="-48.582603333333324"><ele>10.799999999999999</ele></trkpt><trkpt lat="-27.035291666666662" lon="-48.582613333333335"><ele>11</ele></trkpt><trkpt lat="-27.035278333333334" lon="-48.58262500000001"><ele>11.2</ele></trkpt><trkpt lat="-27.035268333333338" lon="-48.582660000000004"><ele>11.6</ele></trkpt><trkpt lat="-27.035264999999995" lon="-48.58268666666666"><ele>11.7</ele></trkpt><trkpt lat="-27.03526" lon="-48.58271166666667"><ele>11.299999999999999</ele></trkpt><trkpt lat="-27.03526" lon="-48.58271166666667"><ele>11.299999999999999</ele></trkpt><trkpt lat="-27.03525666666667" lon="-48.582730000000005"><ele>11.1</ele></trkpt><trkpt lat="-27.035251666666667" lon="-48.582746666666665"><ele>10.4</ele></trkpt><trkpt lat="-27.035245" lon="-48.58275833333334"><ele>9.799999999999999</ele></trkpt><trkpt lat="-27.035231666666665" lon="-48.58277833333333"><ele>8.8</ele></trkpt><trkpt lat="-27.035218333333333" lon="-48.58280166666667"><ele>8.1</ele></trkpt><trkpt lat="-27.035215" lon="-48.582836666666665"><ele>6.9</ele></trkpt><trkpt lat="-27.03521" lon="-48.58287166666667"><ele>5.9</ele></trkpt><trkpt lat="-27.035206666666667" lon="-48.582906666666666"><ele>5.2</ele></trkpt><trkpt lat="-27.0352" lon="-48.58293833333334"><ele>4.7</ele></trkpt><trkpt lat="-27.035196666666668" lon="-48.582973333333335"><ele>4.300000000000001</ele></trkpt><trkpt lat="-27.035191666666666" lon="-48.583008333333325"><ele>3.9</ele></trkpt><trkpt lat="-27.035186666666664" lon="-48.58304166666667"><ele>3.4000000000000004</ele></trkpt><trkpt lat="-27.03518166666667" lon="-48.583074999999994"><ele>2.7</ele></trkpt><trkpt lat="-27.035173333333333" lon="-48.583104999999996"><ele>2.3</ele></trkpt><trkpt lat="-27.03516666666667" lon="-48.583133333333336"><ele>1.9000000000000001</ele></trkpt><trkpt lat="-27.035159999999998" lon="-48.58316166666667"><ele>1.5</ele></trkpt><trkpt lat="-27.035159999999998" lon="-48.58316166666667"><ele>1.5</ele></trkpt><trkpt lat="-27.03515333333333" lon="-48.58319166666667"><ele>2.6</ele></trkpt><trkpt lat="-27.035151666666668" lon="-48.583211666666664"><ele>3.7</ele></trkpt><trkpt lat="-27.035156666666662" lon="-48.583234999999995"><ele>4.1</ele></trkpt><trkpt lat="-27.035165" lon="-48.583256666666664"><ele>4.6</ele></trkpt><trkpt lat="-27.03517" lon="-48.58327166666666"><ele>5.300000000000001</ele></trkpt><trkpt lat="-27.03516833333333" lon="-48.58327166666666"><ele>6.4</ele></trkpt><trkpt lat="-27.03516666666667" lon="-48.58327166666666"><ele>7.1</ele></trkpt><trkpt lat="-27.03516666666667" lon="-48.58327333333333"><ele>7.199999999999999</ele></trkpt><trkpt lat="-27.03516666666667" lon="-48.58327333333333"><ele>7.199999999999999</ele></trkpt><trkpt lat="-27.03516833333333" lon="-48.58327166666666"><ele>8</ele></trkpt><trkpt lat="-27.035173333333333" lon="-48.58326999999999"><ele>8.8</ele></trkpt><trkpt lat="-27.035174999999995" lon="-48.58326999999999"><ele>9.3</ele></trkpt><trkpt lat="-27.035176666666665" lon="-48.58326999999999"><ele>9.9</ele></trkpt><trkpt lat="-27.035174999999995" lon="-48.58326999999999"><ele>10</ele></trkpt><trkpt lat="-27.035171666666663" lon="-48.58326999999999"><ele>10</ele></trkpt><trkpt lat="-27.03517" lon="-48.58326333333333"><ele>10.5</ele></trkpt><trkpt lat="-27.03517" lon="-48.58326333333333"><ele>10.5</ele></trkpt><trkpt lat="-27.035158333333335" lon="-48.58325833333333"><ele>10.7</ele></trkpt><trkpt lat="-27.035155" lon="-48.58325333333334"><ele>11.5</ele></trkpt><trkpt lat="-27.035155" lon="-48.58325333333334"><ele>11.5</ele></trkpt><trkpt lat="-27.03515333333333" lon="-48.58325333333334"><ele>11.7</ele></trkpt><trkpt lat="-27.03515333333333" lon="-48.58325333333334"><ele>11.7</ele></trkpt><trkpt lat="-27.03515333333333" lon="-48.58325333333334"><ele>11.7</ele></trkpt><trkpt lat="-27.03515333333333" lon="-48.58325333333334"><ele>11.7</ele></trkpt><trkpt lat="-27.03515333333333" lon="-48.58325333333334"><ele>11.7</ele></trkpt><trkpt lat="-27.03515333333333" lon="-48.58325333333334"><ele>11.7</ele></trkpt><trkpt lat="-27.03515333333333" lon="-48.58325333333334"><ele>11.7</ele></trkpt><trkpt lat="-27.03515333333333" lon="-48.58325333333334"><ele>11.7</ele></trkpt><trkpt lat="-27.03515333333333" lon="-48.58325333333334"><ele>11.7</ele></trkpt><trkpt lat="-27.03515333333333" lon="-48.58325333333334"><ele>11.7</ele></trkpt><trkpt lat="-27.03515333333333" lon="-48.58325333333334"><ele>11.7</ele></trkpt><trkpt lat="-27.03515333333333" lon="-48.58325333333334"><ele>11.7</ele></trkpt><trkpt lat="-27.03515333333333" lon="-48.58325333333334"><ele>11.7</ele></trkpt><trkpt lat="-27.03515333333333" lon="-48.58325333333334"><ele>11.7</ele></trkpt><trkpt lat="-27.03515333333333" lon="-48.58325333333334"><ele>11.7</ele></trkpt><trkpt lat="-27.03515333333333" lon="-48.58325333333334"><ele>11.7</ele></trkpt><trkpt lat="-27.03515333333333" lon="-48.58325333333334"><ele>11.7</ele></trkpt><trkpt lat="-27.03515333333333" lon="-48.58325333333334"><ele>11.7</ele></trkpt><trkpt lat="-27.03515333333333" lon="-48.58325333333334"><ele>11.7</ele></trkpt><trkpt lat="-27.03515333333333" lon="-48.58325333333334"><ele>11.7</ele></trkpt><trkpt lat="-27.03515333333333" lon="-48.58325333333334"><ele>11.7</ele></trkpt><trkpt lat="-27.03515333333333" lon="-48.58325333333334"><ele>11.7</ele></trkpt><trkpt lat="-27.03515333333333" lon="-48.58325333333334"><ele>11.7</ele></trkpt><trkpt lat="-27.03515333333333" lon="-48.58325333333334"><ele>11.7</ele></trkpt><trkpt lat="-27.03515333333333" lon="-48.58325333333334"><ele>11.7</ele></trkpt><trkpt lat="-27.03515333333333" lon="-48.58325333333334"><ele>11.7</ele></trkpt><trkpt lat="-27.03515333333333" lon="-48.58325333333334"><ele>11.7</ele></trkpt><trkpt lat="-27.03515333333333" lon="-48.58325333333334"><ele>11.7</ele></trkpt><trkpt lat="-27.03515333333333" lon="-48.58325333333334"><ele>11.7</ele></trkpt><trkpt lat="-27.03515333333333" lon="-48.58325333333334"><ele>11.7</ele></trkpt><trkpt lat="-27.03515333333333" lon="-48.58325333333334"><ele>11.7</ele></trkpt><trkpt lat="-27.03515333333333" lon="-48.58325333333334"><ele>11.7</ele></trkpt><trkpt lat="-27.03515333333333" lon="-48.58325333333334"><ele>11.7</ele></trkpt><trkpt lat="-27.03515333333333" lon="-48.58325333333334"><ele>11.7</ele></trkpt><trkpt lat="-27.03515333333333" lon="-48.58325333333334"><ele>11.7</ele></trkpt><trkpt lat="-27.03515333333333" lon="-48.58325333333334"><ele>11.7</ele></trkpt><trkpt lat="-27.03515333333333" lon="-48.58325333333334"><ele>11.7</ele></trkpt><trkpt lat="-27.03515333333333" lon="-48.58325333333334"><ele>11.7</ele></trkpt><trkpt lat="-27.03515333333333" lon="-48.58325333333334"><ele>11.7</ele></trkpt><trkpt lat="-27.03515333333333" lon="-48.58325333333334"><ele>11.7</ele></trkpt><trkpt lat="-27.03515333333333" lon="-48.58325333333334"><ele>11.7</ele></trkpt><trkpt lat="-27.03515333333333" lon="-48.58325333333334"><ele>11.7</ele></trkpt><trkpt lat="-27.03515333333333" lon="-48.58325333333334"><ele>11.7</ele></trkpt><trkpt lat="-27.03515333333333" lon="-48.58325333333334"><ele>11.7</ele></trkpt><trkpt lat="-27.03515333333333" lon="-48.58325333333334"><ele>11.7</ele></trkpt><trkpt lat="-27.03515333333333" lon="-48.58325333333334"><ele>11.7</ele></trkpt><trkpt lat="-27.03515333333333" lon="-48.58325333333334"><ele>11.7</ele></trkpt><trkpt lat="-27.03515333333333" lon="-48.58325333333334"><ele>11.7</ele></trkpt><trkpt lat="-27.03515333333333" lon="-48.58325333333334"><ele>11.7</ele></trkpt><trkpt lat="-27.03515333333333" lon="-48.58325333333334"><ele>11.7</ele></trkpt><trkpt lat="-27.03515333333333" lon="-48.58325333333334"><ele>11.7</ele></trkpt><trkpt lat="-27.03515333333333" lon="-48.58325333333334"><ele>11.7</ele></trkpt><trkpt lat="-27.03515333333333" lon="-48.58325333333334"><ele>11.7</ele></trkpt><trkpt lat="-27.03515333333333" lon="-48.58325333333334"><ele>11.7</ele></trkpt><trkpt lat="-27.03515333333333" lon="-48.58325333333334"><ele>11.7</ele></trkpt><trkpt lat="-27.03515333333333" lon="-48.58325333333334"><ele>11.7</ele></trkpt><trkpt lat="-27.03515333333333" lon="-48.58325333333334"><ele>11.7</ele></trkpt><trkpt lat="-27.03515333333333" lon="-48.58325333333334"><ele>11.7</ele></trkpt><trkpt lat="-27.03515333333333" lon="-48.58325333333334"><ele>11.7</ele></trkpt><trkpt lat="-27.03515333333333" lon="-48.58325333333334"><ele>11.7</ele></trkpt><trkpt lat="-27.03515333333333" lon="-48.58325333333334"><ele>11.7</ele></trkpt><trkpt lat="-27.03515333333333" lon="-48.58325333333334"><ele>11.7</ele></trkpt><trkpt lat="-27.035191666666666" lon="-48.583301666666664"><ele>11.299999999999999</ele></trkpt><trkpt lat="-27.035183333333332" lon="-48.58331"><ele>11.5</ele></trkpt><trkpt lat="-27.035163333333337" lon="-48.58332"><ele>11.6</ele></trkpt><trkpt lat="-27.035158333333335" lon="-48.583324999999995"><ele>12.1</ele></trkpt><trkpt lat="-27.035143333333334" lon="-48.58334"><ele>12.299999999999999</ele></trkpt><trkpt lat="-27.035135" lon="-48.58335833333334"><ele>12</ele></trkpt><trkpt lat="-27.035126666666663" lon="-48.58338333333333"><ele>12.299999999999999</ele></trkpt><trkpt lat="-27.03512" lon="-48.58341166666667"><ele>12.5</ele></trkpt><trkpt lat="-27.035111666666662" lon="-48.583436666666664"><ele>12.7</ele></trkpt><trkpt lat="-27.035104999999998" lon="-48.583458333333326"><ele>13.2</ele></trkpt><trkpt lat="-27.035100000000003" lon="-48.58347333333333"><ele>13.6</ele></trkpt><trkpt lat="-27.035096666666664" lon="-48.583481666666664"><ele>13.9</ele></trkpt><trkpt lat="-27.035093333333332" lon="-48.583483333333334"><ele>14.299999999999999</ele></trkpt><trkpt lat="-27.03509166666667" lon="-48.583485"><ele>14.799999999999999</ele></trkpt><trkpt lat="-27.035098333333334" lon="-48.583481666666664"><ele>14.5</ele></trkpt><trkpt lat="-27.035096666666664" lon="-48.58348666666667"><ele>14.6</ele></trkpt><trkpt lat="-27.035096666666664" lon="-48.58349"><ele>14.799999999999999</ele></trkpt><trkpt lat="-27.035098333333334" lon="-48.58349166666667"><ele>14.7</ele></trkpt><trkpt lat="-27.035096666666664" lon="-48.58349333333334"><ele>14.799999999999999</ele></trkpt><trkpt lat="-27.035096666666664" lon="-48.58349499999999"><ele>14.7</ele></trkpt><trkpt lat="-27.03509" lon="-48.5835"><ele>14.6</ele></trkpt><trkpt lat="-27.035085000000002" lon="-48.58350833333334"><ele>14.4</ele></trkpt><trkpt lat="-27.035083333333333" lon="-48.583515000000006"><ele>14.4</ele></trkpt><trkpt lat="-27.035083333333333" lon="-48.583515000000006"><ele>14.4</ele></trkpt><trkpt lat="-27.035083333333333" lon="-48.583515000000006"><ele>14.4</ele></trkpt><trkpt lat="-27.035083333333333" lon="-48.583515000000006"><ele>14.4</ele></trkpt><trkpt lat="-27.035083333333333" lon="-48.583515000000006"><ele>14.4</ele></trkpt><trkpt lat="-27.035083333333333" lon="-48.583515000000006"><ele>14.4</ele></trkpt><trkpt lat="-27.035083333333333" lon="-48.583515000000006"><ele>14.4</ele></trkpt><trkpt lat="-27.035083333333333" lon="-48.583515000000006"><ele>14.4</ele></trkpt><trkpt lat="-27.035083333333333" lon="-48.583515000000006"><ele>14.4</ele></trkpt><trkpt lat="-27.035081666666663" lon="-48.58352166666667"><ele>14.9</ele></trkpt><trkpt lat="-27.035085000000002" lon="-48.58352"><ele>15</ele></trkpt><trkpt lat="-27.035085000000002" lon="-48.58352333333334"><ele>15</ele></trkpt><trkpt lat="-27.035085000000002" lon="-48.58352333333334"><ele>15</ele></trkpt><trkpt lat="-27.035081666666663" lon="-48.58352166666667"><ele>15.4</ele></trkpt><trkpt lat="-27.035081666666663" lon="-48.58352333333334"><ele>15.799999999999999</ele></trkpt><trkpt lat="-27.035083333333333" lon="-48.58352166666667"><ele>15.9</ele></trkpt><trkpt lat="-27.03508" lon="-48.58353166666667"><ele>16.3</ele></trkpt><trkpt lat="-27.03508" lon="-48.58353166666667"><ele>16.3</ele></trkpt><trkpt lat="-27.03508" lon="-48.58353166666667"><ele>16.3</ele></trkpt><trkpt lat="-27.03508" lon="-48.58353166666667"><ele>16.3</ele></trkpt><trkpt lat="-27.03508" lon="-48.58353166666667"><ele>16.3</ele></trkpt><trkpt lat="-27.035086666666665" lon="-48.58349666666666"><ele>17</ele></trkpt><trkpt lat="-27.035096666666664" lon="-48.58347333333333"><ele>16.6</ele></trkpt><trkpt lat="-27.035115000000005" lon="-48.583445"><ele>16.8</ele></trkpt><trkpt lat="-27.035130000000002" lon="-48.583413333333326"><ele>16.2</ele></trkpt><trkpt lat="-27.035151666666668" lon="-48.58337333333334"><ele>16</ele></trkpt><trkpt lat="-27.035161666666667" lon="-48.583336666666675"><ele>15.799999999999999</ele></trkpt><trkpt lat="-27.035173333333333" lon="-48.583295"><ele>15.299999999999999</ele></trkpt><trkpt lat="-27.03518" lon="-48.583245000000005"><ele>15.1</ele></trkpt><trkpt lat="-27.035189999999997" lon="-48.583198333333335"><ele>14.6</ele></trkpt><trkpt lat="-27.035204999999998" lon="-48.58314833333334"><ele>13.9</ele></trkpt><trkpt lat="-27.035216666666663" lon="-48.58309666666667"><ele>13.5</ele></trkpt><trkpt lat="-27.03522666666667" lon="-48.583043333333336"><ele>13.2</ele></trkpt><trkpt lat="-27.035241666666668" lon="-48.58299166666667"><ele>12.6</ele></trkpt><trkpt lat="-27.035253333333337" lon="-48.58293833333334"><ele>12.299999999999999</ele></trkpt><trkpt lat="-27.035261666666663" lon="-48.58288833333333"><ele>12.1</ele></trkpt><trkpt lat="-27.03527166666667" lon="-48.582836666666665"><ele>11.7</ele></trkpt><trkpt lat="-27.035281666666666" lon="-48.58279833333333"><ele>11.4</ele></trkpt><trkpt lat="-27.03529" lon="-48.58276166666666"><ele>11.2</ele></trkpt><trkpt lat="-27.035293333333335" lon="-48.58273166666666"><ele>11.1</ele></trkpt><trkpt lat="-27.035294999999998" lon="-48.582705000000004"><ele>10.9</ele></trkpt><trkpt lat="-27.035291666666662" lon="-48.58269"><ele>9.799999999999999</ele></trkpt><trkpt lat="-27.035273333333333" lon="-48.58267333333333"><ele>9.1</ele></trkpt><trkpt lat="-27.03526" lon="-48.582661666666674"><ele>7.699999999999999</ele></trkpt><trkpt lat="-27.035246666666662" lon="-48.582661666666674"><ele>8</ele></trkpt><trkpt lat="-27.035234999999997" lon="-48.58266833333334"><ele>7.1</ele></trkpt><trkpt lat="-27.035234999999997" lon="-48.58266833333334"><ele>7.1</ele></trkpt><trkpt lat="-27.03522666666667" lon="-48.58267666666667"><ele>6.6</ele></trkpt><trkpt lat="-27.035223333333338" lon="-48.582685000000005"><ele>6.4</ele></trkpt><trkpt lat="-27.035218333333333" lon="-48.58270833333333"><ele>6.699999999999999</ele></trkpt><trkpt lat="-27.035219999999995" lon="-48.58273333333333"><ele>6.9</ele></trkpt><trkpt lat="-27.035221666666665" lon="-48.58275666666667"><ele>6.800000000000001</ele></trkpt><trkpt lat="-27.035225" lon="-48.58277833333333"><ele>6.800000000000001</ele></trkpt><trkpt lat="-27.035228333333333" lon="-48.58280333333334"><ele>6.800000000000001</ele></trkpt><trkpt lat="-27.03522666666667" lon="-48.58283166666667"><ele>7</ele></trkpt><trkpt lat="-27.035221666666665" lon="-48.58285666666667"><ele>7.199999999999999</ele></trkpt><trkpt lat="-27.035215" lon="-48.58287833333334"><ele>7.699999999999999</ele></trkpt><trkpt lat="-27.035208333333337" lon="-48.5829"><ele>8</ele></trkpt><trkpt lat="-27.0352" lon="-48.582931666666674"><ele>8.3</ele></trkpt><trkpt lat="-27.035191666666666" lon="-48.58295666666666"><ele>9</ele></trkpt><trkpt lat="-27.03518166666667" lon="-48.58298"><ele>9.1</ele></trkpt><trkpt lat="-27.035176666666665" lon="-48.58299166666667"><ele>9.3</ele></trkpt><trkpt lat="-27.035176666666665" lon="-48.58299166666667"><ele>9.3</ele></trkpt><trkpt lat="-27.03518166666667" lon="-48.583014999999996"><ele>9.4</ele></trkpt><trkpt lat="-27.03518" lon="-48.583043333333336"><ele>9.5</ele></trkpt><trkpt lat="-27.035173333333333" lon="-48.58306833333333"><ele>9.6</ele></trkpt><trkpt lat="-27.03516833333333" lon="-48.58309166666666"><ele>10</ele></trkpt><trkpt lat="-27.03516666666667" lon="-48.58311833333334"><ele>9.9</ele></trkpt><trkpt lat="-27.035165" lon="-48.583144999999995"><ele>10.2</ele></trkpt><trkpt lat="-27.035165" lon="-48.58316833333333"><ele>10.5</ele></trkpt><trkpt lat="-27.035163333333337" lon="-48.583196666666666"><ele>10.7</ele></trkpt><trkpt lat="-27.035163333333337" lon="-48.583196666666666"><ele>10.7</ele></trkpt><trkpt lat="-27.035156666666662" lon="-48.58322499999999"><ele>10.7</ele></trkpt><trkpt lat="-27.035151666666668" lon="-48.58324833333333"><ele>11</ele></trkpt><trkpt lat="-27.035146666666666" lon="-48.58326999999999"><ele>11.299999999999999</ele></trkpt><trkpt lat="-27.035146666666666" lon="-48.583286666666666"><ele>11.9</ele></trkpt><trkpt lat="-27.035148333333336" lon="-48.58330666666667"><ele>12.5</ele></trkpt><trkpt lat="-27.035143333333334" lon="-48.58332166666667"><ele>13</ele></trkpt><trkpt lat="-27.035138333333332" lon="-48.58334333333334"><ele>13.299999999999999</ele></trkpt><trkpt lat="-27.035130000000002" lon="-48.58336666666667"><ele>13.6</ele></trkpt><trkpt lat="-27.035130000000002" lon="-48.583391666666664"><ele>13.9</ele></trkpt><trkpt lat="-27.035130000000002" lon="-48.583391666666664"><ele>13.9</ele></trkpt><trkpt lat="-27.035130000000002" lon="-48.583413333333326"><ele>14</ele></trkpt><trkpt lat="-27.03512166666667" lon="-48.58343"><ele>13.799999999999999</ele></trkpt><trkpt lat="-27.035116666666667" lon="-48.58345166666666"><ele>13.2</ele></trkpt><trkpt lat="-27.035111666666662" lon="-48.58347666666667"><ele>13.2</ele></trkpt><trkpt lat="-27.035106666666668" lon="-48.58349833333333"><ele>13.1</ele></trkpt><trkpt lat="-27.035104999999998" lon="-48.583515000000006"><ele>13.299999999999999</ele></trkpt><trkpt lat="-27.035104999999998" lon="-48.58353166666667"><ele>13.799999999999999</ele></trkpt><trkpt lat="-27.035101666666666" lon="-48.583549999999995"><ele>14.2</ele></trkpt><trkpt lat="-27.035096666666664" lon="-48.58356833333334"><ele>14.299999999999999</ele></trkpt><trkpt lat="-27.035096666666664" lon="-48.58356833333334"><ele>14.299999999999999</ele></trkpt><trkpt lat="-27.03509" lon="-48.58358499999999"><ele>14.4</ele></trkpt><trkpt lat="-27.035086666666665" lon="-48.58360166666667"><ele>14.6</ele></trkpt><trkpt lat="-27.035083333333333" lon="-48.583616666666664"><ele>14.4</ele></trkpt><trkpt lat="-27.03508" lon="-48.583625"><ele>14.299999999999999</ele></trkpt><trkpt lat="-27.03508" lon="-48.583625"><ele>14.299999999999999</ele></trkpt><trkpt lat="-27.035075" lon="-48.58364166666667"><ele>14.1</ele></trkpt><trkpt lat="-27.035070000000005" lon="-48.583661666666664"><ele>13.5</ele></trkpt><trkpt lat="-27.035068333333335" lon="-48.58368"><ele>13.2</ele></trkpt><trkpt lat="-27.035068333333335" lon="-48.58368"><ele>13.2</ele></trkpt><trkpt lat="-27.035070000000005" lon="-48.58369833333333"><ele>12.9</ele></trkpt><trkpt lat="-27.035066666666662" lon="-48.58371333333333"><ele>12.6</ele></trkpt><trkpt lat="-27.03506333333333" lon="-48.58372666666667"><ele>12.4</ele></trkpt><trkpt lat="-27.035059999999998" lon="-48.58374666666667"><ele>12.4</ele></trkpt><trkpt lat="-27.035059999999998" lon="-48.58376666666666"><ele>12.299999999999999</ele></trkpt><trkpt lat="-27.035056666666666" lon="-48.58377666666667"><ele>12.4</ele></trkpt><trkpt lat="-27.035053333333334" lon="-48.58378166666667"><ele>12.6</ele></trkpt><trkpt lat="-27.035053333333334" lon="-48.58378166666667"><ele>12.6</ele></trkpt><trkpt lat="-27.035051666666664" lon="-48.58378"><ele>12.799999999999999</ele></trkpt><trkpt lat="-27.035051666666664" lon="-48.58378"><ele>13</ele></trkpt><trkpt lat="-27.035050000000002" lon="-48.58378166666667"><ele>12.9</ele></trkpt><trkpt lat="-27.035048333333332" lon="-48.58377833333334"><ele>12.799999999999999</ele></trkpt><trkpt lat="-27.035045" lon="-48.58377666666667"><ele>12.799999999999999</ele></trkpt><trkpt lat="-27.035043333333338" lon="-48.58377666666667"><ele>12.9</ele></trkpt><trkpt lat="-27.035041666666665" lon="-48.583774999999996"><ele>13</ele></trkpt><trkpt lat="-27.035041666666665" lon="-48.58377833333334"><ele>13</ele></trkpt><trkpt lat="-27.035038333333333" lon="-48.58377833333334"><ele>13.799999999999999</ele></trkpt><trkpt lat="-27.035038333333333" lon="-48.583785000000006"><ele>14.1</ele></trkpt><trkpt lat="-27.035038333333333" lon="-48.583785000000006"><ele>14.1</ele></trkpt><trkpt lat="-27.03503333333333" lon="-48.58379"><ele>15</ele></trkpt><trkpt lat="-27.03503333333333" lon="-48.58378833333333"><ele>15.299999999999999</ele></trkpt><trkpt lat="-27.035036666666663" lon="-48.58378833333333"><ele>15.6</ele></trkpt><trkpt lat="-27.035040000000002" lon="-48.583786666666676"><ele>15.9</ele></trkpt><trkpt lat="-27.035040000000002" lon="-48.583786666666676"><ele>15.9</ele></trkpt><trkpt lat="-27.035040000000002" lon="-48.583786666666676"><ele>15.9</ele></trkpt><trkpt lat="-27.035040000000002" lon="-48.583786666666676"><ele>15.9</ele></trkpt></trkseg></trk></gpx>