<?xml version="1.0" encoding="UTF-8"?>
<gpx xmlns="http://www.topografix.com/GPX/1/1" version="1.1" creator="@dwayneparton/geojson-to-gpx"><wpt lat="-26.983693" lon="-48.635827"><ele>0.6</ele><name>1 faixa</name></wpt><wpt lat="-26.983693" lon="-48.635827"><ele>0.6</ele><name>22</name></wpt><wpt lat="-26.98368" lon="-48.63687"><ele>17</ele><name>50km/h</name></wpt><wpt lat="-26.983693" lon="-48.635827"><ele>0.6</ele><name>175</name></wpt><wpt lat="-26.983702" lon="-48.635818"><ele>-1.3</ele><name>333</name></wpt><wpt lat="-26.983688" lon="-48.635822"><ele>0.6</ele><name>782</name></wpt><wpt lat="-26.983777" lon="-48.639263"><ele>0.5</ele><name>A ciclo é completamente reta.</name></wpt><wpt lat="-26.983765" lon="-48.639243"><ele>-8</ele><name>A pintura está boa, COMPLETA e visível</name></wpt><wpt lat="-26.983659" lon="-48.637435"><name>Ambas: Alguns trechos sem segregadores. Automóvel consegue passar por entre estes com facilidade</name></wpt><wpt lat="-26.983693" lon="-48.635827"><ele>0.6</ele><name>Apenas faixas vermelhas nas bordas</name></wpt><wpt lat="-26.983693" lon="-48.635827"><ele>0.6</ele><name>Área de amortecimento da ciclo (cm)</name></wpt><wpt lat="-26.983693" lon="-48.635827"><ele>0.6</ele><name>Área transitável da ciclo (cm)</name></wpt><wpt lat="-26.983693" lon="-48.635827"><ele>0.6</ele><name>Asfalto</name></wpt><wpt lat="-26.983663" lon="-48.635725"><name>Ausência de conexão entre ciclos.</name></wpt><wpt lat="-26.983693" lon="-48.635827"><ele>0.6</ele><name>Bidirecional</name></wpt><wpt lat="-26.983718" lon="-48.636468"><ele>31.8</ele><name>Bueiro</name></wpt><wpt lat="-26.983703" lon="-48.636835"><ele>19.6</ele><name>Bueiro</name></wpt><wpt lat="-26.98365" lon="-48.63727"><ele>12</ele><name>Bueiro</name></wpt><wpt lat="-26.983642" lon="-48.637825"><ele>8.5</ele><name>Bueiro</name></wpt><wpt lat="-26.983588" lon="-48.637982"><ele>11.1</ele><name>Bueiro</name></wpt><wpt lat="-26.983683" lon="-48.63842"><ele>29.7</ele><name>Bueiro</name></wpt><wpt lat="-26.983777" lon="-48.639263"><ele>0.5</ele><name>Bueiro</name></wpt><wpt lat="-26.983693" lon="-48.635827"><ele>0.6</ele><name>Ciclofaixa</name></wpt><wpt lat="-26.983735" lon="-48.639288"><ele>17</ele><name>Entorta roda</name></wpt><wpt lat="-26.983693" lon="-48.635827"><ele>0.6</ele><name>Estacionamento dedicado de um lado, segregado da circulação</name></wpt><wpt lat="-26.983702" lon="-48.635818"><ele>-1.3</ele><name>Faixa de carros logo ao lado da ciclo (cm)</name></wpt><wpt lat="-26.983707" lon="-48.635827"><ele>8.2</ele><name>Foto</name></wpt><wpt lat="-26.983707" lon="-48.635837"><ele>47.3</ele><name>Foto</name></wpt><wpt lat="-26.983688" lon="-48.635967"><ele>40.9</ele><name>Foto</name></wpt><wpt lat="-26.983632" lon="-48.636355"><ele>37</ele><name>Foto</name></wpt><wpt lat="-26.983697" lon="-48.636467"><ele>31</ele><name>Foto</name></wpt><wpt lat="-26.983703" lon="-48.636835"><ele>18.4</ele><name>Foto</name></wpt><wpt lat="-26.983685" lon="-48.636877"><ele>16.1</ele><name>Foto</name></wpt><wpt lat="-26.98365" lon="-48.637047"><ele>16.1</ele><name>Foto</name></wpt><wpt lat="-26.983605" lon="-48.63727"><ele>15.6</ele><name>Foto</name></wpt><wpt lat="-26.983603" lon="-48.637385"><ele>2.6</ele><name>Foto</name></wpt><wpt lat="-26.98363" lon="-48.637843"><ele>8.9</ele><name>Foto</name></wpt><wpt lat="-26.983642" lon="-48.63802"><ele>39.1</ele><name>Foto</name></wpt><wpt lat="-26.98368" lon="-48.638395"><ele>30.6</ele><name>Foto</name></wpt><wpt lat="-26.983692" lon="-48.638443"><ele>29.5</ele><name>Foto</name></wpt><wpt lat="-26.983582" lon="-48.638757"><ele>10.4</ele><name>Foto</name></wpt><wpt lat="-26.983503" lon="-48.63894"><ele>7.5</ele><name>Foto</name></wpt><wpt lat="-26.983562" lon="-48.639115"><ele>5.8</ele><name>Foto</name></wpt><wpt lat="-26.983735" lon="-48.639288"><ele>17</ele><name>Foto</name></wpt><wpt lat="-26.983735" lon="-48.639288"><ele>17</ele><name>Foto</name></wpt><wpt lat="-26.983777" lon="-48.639263"><ele>0.5</ele><name>Foto</name></wpt><wpt lat="-26.983693" lon="-48.635827"><ele>0.6</ele><name>Mão Única</name></wpt><wpt lat="-26.983777" lon="-48.639263"><ele>0.5</ele><name>Não há árvores nem mudas</name></wpt><wpt lat="-26.983659" lon="-48.637944"><name>Nenhum elemento de controle de velocidade na via</name></wpt><wpt lat="-26.983693" lon="-48.635827"><ele>0.6</ele><name>No bordo esquerdo de Via de Mão Única</name></wpt><wpt lat="-26.983585" lon="-48.638765"><ele>15.3</ele><name>Outro obstáculo</name></wpt><wpt lat="-26.98378" lon="-48.639262"><ele>0.9</ele><name>Outro obstáculo</name></wpt><wpt lat="-26.983765" lon="-48.639243"><ele>-8</ele><name>Pequenas imperfeições, como fissuras</name></wpt><wpt lat="-26.983653" lon="-48.636367"><ele>37</ele><name>R-34</name></wpt><wpt lat="-26.983597" lon="-48.637262"><ele>16.1</ele><name>R-34</name></wpt><wpt lat="-26.983618" lon="-48.638207"><ele>33.4</ele><name>R-34</name></wpt><wpt lat="-26.983585" lon="-48.638763"><ele>14.4</ele><name>rampa</name></wpt><wpt lat="-26.983777" lon="-48.639263"><ele>0.5</ele><name>SE CICLOFAIXA: para invadir a ciclo parte do automóvel passa obrigatoriamente por cima de segregadores</name></wpt><wpt lat="-26.983777" lon="-48.639263"><ele>0.5</ele><name>tachão redondo </name></wpt><wpt lat="-26.983693" lon="-48.635827"><ele>0.6</ele><name>Tachões</name></wpt><wpt lat="-26.983688" lon="-48.635822"><ele>0.6</ele><name>Total da via (incluindo a ciclo) (cm)</name></wpt><trk><name>Ciclofaixa R. 1001 T2 - BC</name><trkseg><trkpt lat="-26.98372" lon="-48.635507"><ele>-1.2</ele></trkpt><trkpt lat="-26.983717" lon="-48.635523"><ele>-1.2</ele></trkpt><trkpt lat="-26.983713" lon="-48.63554"><ele>-1.2</ele></trkpt><trkpt lat="-26.983717" lon="-48.635543"><ele>-1.2</ele></trkpt><trkpt lat="-26.983717" lon="-48.635547"><ele>-1.2</ele></trkpt><trkpt lat="-26.983712" lon="-48.635555"><ele>-1.2</ele></trkpt><trkpt lat="-26.983707" lon="-48.63557"><ele>-1.2</ele></trkpt><trkpt lat="-26.983698" lon="-48.635597"><ele>-1.3</ele></trkpt><trkpt lat="-26.983695" lon="-48.635612"><ele>-1.3</ele></trkpt><trkpt lat="-26.983685" lon="-48.63567"><ele>-1.4</ele></trkpt><trkpt lat="-26.983678" lon="-48.635705"><ele>-1.3</ele></trkpt><trkpt lat="-26.983673" lon="-48.635735"><ele>-1.2</ele></trkpt><trkpt lat="-26.983683" lon="-48.63577"><ele>-1.3</ele></trkpt><trkpt lat="-26.983703" lon="-48.635815"><ele>-1.2</ele></trkpt><trkpt lat="-26.983722" lon="-48.635863"><ele>-1.3</ele></trkpt><trkpt lat="-26.98372" lon="-48.635878"><ele>-1.1</ele></trkpt><trkpt lat="-26.983715" lon="-48.635885"><ele>-1.1</ele></trkpt><trkpt lat="-26.98371" lon="-48.635887"><ele>-1.1</ele></trkpt><trkpt lat="-26.983707" lon="-48.63589"><ele>-1.1</ele></trkpt><trkpt lat="-26.983705" lon="-48.63589"><ele>-1.1</ele></trkpt><trkpt lat="-26.983702" lon="-48.635887"><ele>-1.1</ele></trkpt><trkpt lat="-26.983703" lon="-48.63588"><ele>-1.1</ele></trkpt><trkpt lat="-26.983707" lon="-48.635878"><ele>-1.3</ele></trkpt><trkpt lat="-26.983712" lon="-48.63587"><ele>-1.2</ele></trkpt><trkpt lat="-26.983712" lon="-48.635862"><ele>-1</ele></trkpt><trkpt lat="-26.98371" lon="-48.635857"><ele>-1</ele></trkpt><trkpt lat="-26.983707" lon="-48.63585"><ele>-1</ele></trkpt><trkpt lat="-26.983705" lon="-48.635847"><ele>-0.9</ele></trkpt><trkpt lat="-26.983703" lon="-48.635843"><ele>-1</ele></trkpt><trkpt lat="-26.983703" lon="-48.635838"><ele>-1</ele></trkpt><trkpt lat="-26.983703" lon="-48.635835"><ele>-1.1</ele></trkpt><trkpt lat="-26.983702" lon="-48.63583"><ele>-1.1</ele></trkpt><trkpt lat="-26.983703" lon="-48.635825"><ele>-1.1</ele></trkpt><trkpt lat="-26.9837" lon="-48.635823"><ele>-1.1</ele></trkpt><trkpt lat="-26.983702" lon="-48.635825"><ele>-1.1</ele></trkpt><trkpt lat="-26.9837" lon="-48.635825"><ele>-1.2</ele></trkpt><trkpt lat="-26.9837" lon="-48.635823"><ele>-1.2</ele></trkpt><trkpt lat="-26.9837" lon="-48.635822"><ele>-1.3</ele></trkpt><trkpt lat="-26.9837" lon="-48.63582"><ele>-1.3</ele></trkpt><trkpt lat="-26.983702" lon="-48.635818"><ele>-1.3</ele></trkpt><trkpt lat="-26.983702" lon="-48.635818"><ele>-1.3</ele></trkpt><trkpt lat="-26.983702" lon="-48.635818"><ele>-1.3</ele></trkpt><trkpt lat="-26.983702" lon="-48.635818"><ele>-1.3</ele></trkpt><trkpt lat="-26.983702" lon="-48.635818"><ele>-1.3</ele></trkpt><trkpt lat="-26.983702" lon="-48.635818"><ele>-1.3</ele></trkpt><trkpt lat="-26.983702" lon="-48.635818"><ele>-1.3</ele></trkpt><trkpt lat="-26.983702" lon="-48.635818"><ele>-1.3</ele></trkpt><trkpt lat="-26.983702" lon="-48.635818"><ele>-1.3</ele></trkpt><trkpt lat="-26.983702" lon="-48.635818"><ele>-1.3</ele></trkpt><trkpt lat="-26.983702" lon="-48.635818"><ele>-1.3</ele></trkpt><trkpt lat="-26.983702" lon="-48.635818"><ele>-1.3</ele></trkpt><trkpt lat="-26.983702" lon="-48.635818"><ele>-1.3</ele></trkpt><trkpt lat="-26.983702" lon="-48.635818"><ele>-1.3</ele></trkpt><trkpt lat="-26.983702" lon="-48.635818"><ele>-1.3</ele></trkpt><trkpt lat="-26.983702" lon="-48.635818"><ele>-1.3</ele></trkpt><trkpt lat="-26.983702" lon="-48.635818"><ele>-1.3</ele></trkpt><trkpt lat="-26.983702" lon="-48.635818"><ele>-1.3</ele></trkpt><trkpt lat="-26.983702" lon="-48.635818"><ele>-1.3</ele></trkpt><trkpt lat="-26.983702" lon="-48.635818"><ele>-1.3</ele></trkpt><trkpt lat="-26.983702" lon="-48.635818"><ele>-1.3</ele></trkpt><trkpt lat="-26.983702" lon="-48.635818"><ele>-1.3</ele></trkpt><trkpt lat="-26.983702" lon="-48.635818"><ele>-1.3</ele></trkpt><trkpt lat="-26.983702" lon="-48.635818"><ele>-1.3</ele></trkpt><trkpt lat="-26.983702" lon="-48.635818"><ele>-1.3</ele></trkpt><trkpt lat="-26.983702" lon="-48.635818"><ele>-1.3</ele></trkpt><trkpt lat="-26.983702" lon="-48.635818"><ele>-1.3</ele></trkpt><trkpt lat="-26.983702" lon="-48.635818"><ele>-1.3</ele></trkpt><trkpt lat="-26.983702" lon="-48.635818"><ele>-1.3</ele></trkpt><trkpt lat="-26.983702" lon="-48.635818"><ele>-1.3</ele></trkpt><trkpt lat="-26.983702" lon="-48.635818"><ele>-1.3</ele></trkpt><trkpt lat="-26.983702" lon="-48.635818"><ele>-1.3</ele></trkpt><trkpt lat="-26.983702" lon="-48.635818"><ele>-1.3</ele></trkpt><trkpt lat="-26.983702" lon="-48.635818"><ele>-1.3</ele></trkpt><trkpt lat="-26.983702" lon="-48.635818"><ele>-1.3</ele></trkpt><trkpt lat="-26.983702" lon="-48.635818"><ele>-1.3</ele></trkpt><trkpt lat="-26.983702" lon="-48.635818"><ele>-1.3</ele></trkpt><trkpt lat="-26.983702" lon="-48.635818"><ele>-1.3</ele></trkpt><trkpt lat="-26.983702" lon="-48.635818"><ele>-1.3</ele></trkpt><trkpt lat="-26.983702" lon="-48.635818"><ele>-1.3</ele></trkpt><trkpt lat="-26.983702" lon="-48.635818"><ele>-1.3</ele></trkpt><trkpt lat="-26.983702" lon="-48.635818"><ele>-1.3</ele></trkpt><trkpt lat="-26.983702" lon="-48.635818"><ele>-1.3</ele></trkpt><trkpt lat="-26.983702" lon="-48.635818"><ele>-1.3</ele></trkpt><trkpt lat="-26.983702" lon="-48.635818"><ele>-1.3</ele></trkpt><trkpt lat="-26.983702" lon="-48.635818"><ele>-1.3</ele></trkpt><trkpt lat="-26.983702" lon="-48.635818"><ele>-1.3</ele></trkpt><trkpt lat="-26.983702" lon="-48.635818"><ele>-1.3</ele></trkpt><trkpt lat="-26.983702" lon="-48.635818"><ele>-1.3</ele></trkpt><trkpt lat="-26.983702" lon="-48.635818"><ele>-1.3</ele></trkpt><trkpt lat="-26.983702" lon="-48.635818"><ele>-1.3</ele></trkpt><trkpt lat="-26.983702" lon="-48.635818"><ele>-1.3</ele></trkpt><trkpt lat="-26.983702" lon="-48.635818"><ele>-1.3</ele></trkpt><trkpt lat="-26.983702" lon="-48.635818"><ele>-1.3</ele></trkpt><trkpt lat="-26.983702" lon="-48.635818"><ele>-1.3</ele></trkpt><trkpt lat="-26.983702" lon="-48.635818"><ele>-1.3</ele></trkpt><trkpt lat="-26.983702" lon="-48.635818"><ele>-1.3</ele></trkpt><trkpt lat="-26.983702" lon="-48.635818"><ele>-1.3</ele></trkpt><trkpt lat="-26.983702" lon="-48.635818"><ele>-1.3</ele></trkpt><trkpt lat="-26.983702" lon="-48.635818"><ele>-1.3</ele></trkpt><trkpt lat="-26.983702" lon="-48.635818"><ele>-1.3</ele></trkpt><trkpt lat="-26.983702" lon="-48.635818"><ele>-1.3</ele></trkpt><trkpt lat="-26.983702" lon="-48.635818"><ele>-1.3</ele></trkpt><trkpt lat="-26.983702" lon="-48.635818"><ele>-1.3</ele></trkpt><trkpt lat="-26.983702" lon="-48.635818"><ele>-1.3</ele></trkpt><trkpt lat="-26.983702" lon="-48.635818"><ele>-1.3</ele></trkpt><trkpt lat="-26.983702" lon="-48.635818"><ele>-1.3</ele></trkpt><trkpt lat="-26.983702" lon="-48.635818"><ele>-1.3</ele></trkpt><trkpt lat="-26.983702" lon="-48.635818"><ele>-1.3</ele></trkpt><trkpt lat="-26.983702" lon="-48.635818"><ele>-1.3</ele></trkpt><trkpt lat="-26.983702" lon="-48.635818"><ele>-1.3</ele></trkpt><trkpt lat="-26.983702" lon="-48.635818"><ele>-1.3</ele></trkpt><trkpt lat="-26.983702" lon="-48.635818"><ele>-1.3</ele></trkpt><trkpt lat="-26.98369" lon="-48.635875"><ele>-3.3</ele></trkpt><trkpt lat="-26.983688" lon="-48.635877"><ele>-3.2</ele></trkpt><trkpt lat="-26.983685" lon="-48.635878"><ele>-3.1</ele></trkpt><trkpt lat="-26.983685" lon="-48.635882"><ele>-3</ele></trkpt><trkpt lat="-26.983685" lon="-48.635882"><ele>-3</ele></trkpt><trkpt lat="-26.983685" lon="-48.635882"><ele>-3</ele></trkpt><trkpt lat="-26.983685" lon="-48.635882"><ele>-3</ele></trkpt><trkpt lat="-26.983685" lon="-48.635882"><ele>-3</ele></trkpt><trkpt lat="-26.983685" lon="-48.635882"><ele>-3</ele></trkpt><trkpt lat="-26.983685" lon="-48.635882"><ele>-3</ele></trkpt><trkpt lat="-26.983685" lon="-48.635882"><ele>-3</ele></trkpt><trkpt lat="-26.983685" lon="-48.635882"><ele>-3</ele></trkpt><trkpt lat="-26.983685" lon="-48.635882"><ele>-3</ele></trkpt><trkpt lat="-26.983685" lon="-48.635882"><ele>-3</ele></trkpt><trkpt lat="-26.983685" lon="-48.635882"><ele>-3</ele></trkpt><trkpt lat="-26.983685" lon="-48.635882"><ele>-3</ele></trkpt><trkpt lat="-26.983685" lon="-48.635882"><ele>-3</ele></trkpt><trkpt lat="-26.983685" lon="-48.635882"><ele>-3</ele></trkpt><trkpt lat="-26.983685" lon="-48.635882"><ele>-3</ele></trkpt><trkpt lat="-26.983685" lon="-48.635882"><ele>-3</ele></trkpt><trkpt lat="-26.983685" lon="-48.635882"><ele>-3</ele></trkpt><trkpt lat="-26.983685" lon="-48.635882"><ele>-3</ele></trkpt><trkpt lat="-26.983685" lon="-48.635882"><ele>-3</ele></trkpt><trkpt lat="-26.983685" lon="-48.635882"><ele>-3</ele></trkpt><trkpt lat="-26.983685" lon="-48.635882"><ele>-3</ele></trkpt><trkpt lat="-26.983685" lon="-48.635882"><ele>-3</ele></trkpt><trkpt lat="-26.983685" lon="-48.635882"><ele>-3</ele></trkpt><trkpt lat="-26.983685" lon="-48.635882"><ele>-3</ele></trkpt><trkpt lat="-26.983685" lon="-48.635882"><ele>-3</ele></trkpt><trkpt lat="-26.983685" lon="-48.635882"><ele>-3</ele></trkpt><trkpt lat="-26.983685" lon="-48.635882"><ele>-3</ele></trkpt><trkpt lat="-26.983685" lon="-48.635882"><ele>-3</ele></trkpt><trkpt lat="-26.983685" lon="-48.635882"><ele>-3</ele></trkpt><trkpt lat="-26.983685" lon="-48.635882"><ele>-3</ele></trkpt><trkpt lat="-26.983705" lon="-48.635882"><ele>-0.6</ele></trkpt><trkpt lat="-26.983707" lon="-48.635872"><ele>-0.7</ele></trkpt><trkpt lat="-26.983707" lon="-48.635862"><ele>-0.8</ele></trkpt><trkpt lat="-26.983707" lon="-48.635853"><ele>-0.8</ele></trkpt><trkpt lat="-26.983708" lon="-48.635847"><ele>-0.6</ele></trkpt><trkpt lat="-26.983707" lon="-48.635843"><ele>-0.4</ele></trkpt><trkpt lat="-26.983703" lon="-48.635838"><ele>-0.2</ele></trkpt><trkpt lat="-26.9837" lon="-48.635833"><ele>0</ele></trkpt><trkpt lat="-26.983695" lon="-48.635828"><ele>0.1</ele></trkpt><trkpt lat="-26.983692" lon="-48.635827"><ele>0.1</ele></trkpt><trkpt lat="-26.983688" lon="-48.635825"><ele>0.3</ele></trkpt><trkpt lat="-26.983688" lon="-48.635823"><ele>0.4</ele></trkpt><trkpt lat="-26.983688" lon="-48.635823"><ele>0.5</ele></trkpt><trkpt lat="-26.983688" lon="-48.635822"><ele>0.6</ele></trkpt><trkpt lat="-26.983688" lon="-48.635822"><ele>0.6</ele></trkpt><trkpt lat="-26.983688" lon="-48.635822"><ele>0.6</ele></trkpt><trkpt lat="-26.983688" lon="-48.635822"><ele>0.6</ele></trkpt><trkpt lat="-26.983688" lon="-48.635822"><ele>0.6</ele></trkpt><trkpt lat="-26.983688" lon="-48.635822"><ele>0.6</ele></trkpt><trkpt lat="-26.983688" lon="-48.635822"><ele>0.6</ele></trkpt><trkpt lat="-26.983688" lon="-48.635822"><ele>0.6</ele></trkpt><trkpt lat="-26.983688" lon="-48.635822"><ele>0.6</ele></trkpt><trkpt lat="-26.983688" lon="-48.635822"><ele>0.6</ele></trkpt><trkpt lat="-26.983688" lon="-48.635822"><ele>0.6</ele></trkpt><trkpt lat="-26.983688" lon="-48.635822"><ele>0.6</ele></trkpt><trkpt lat="-26.983688" lon="-48.635822"><ele>0.6</ele></trkpt><trkpt lat="-26.983688" lon="-48.635822"><ele>0.6</ele></trkpt><trkpt lat="-26.983688" lon="-48.635822"><ele>0.6</ele></trkpt><trkpt lat="-26.983688" lon="-48.635822"><ele>0.6</ele></trkpt><trkpt lat="-26.983688" lon="-48.635822"><ele>0.6</ele></trkpt><trkpt lat="-26.983688" lon="-48.635822"><ele>0.6</ele></trkpt><trkpt lat="-26.983688" lon="-48.635822"><ele>0.6</ele></trkpt><trkpt lat="-26.983688" lon="-48.635822"><ele>0.6</ele></trkpt><trkpt lat="-26.983688" lon="-48.635822"><ele>0.6</ele></trkpt><trkpt lat="-26.983688" lon="-48.635822"><ele>0.6</ele></trkpt><trkpt lat="-26.983688" lon="-48.635822"><ele>0.6</ele></trkpt><trkpt lat="-26.983688" lon="-48.635822"><ele>0.6</ele></trkpt><trkpt lat="-26.983688" lon="-48.635822"><ele>0.6</ele></trkpt><trkpt lat="-26.983688" lon="-48.635822"><ele>0.6</ele></trkpt><trkpt lat="-26.983688" lon="-48.635822"><ele>0.6</ele></trkpt><trkpt lat="-26.983688" lon="-48.635822"><ele>0.6</ele></trkpt><trkpt lat="-26.983718" lon="-48.635875"><ele>1.5</ele></trkpt><trkpt lat="-26.983718" lon="-48.635868"><ele>1.5</ele></trkpt><trkpt lat="-26.983718" lon="-48.635858"><ele>1.4</ele></trkpt><trkpt lat="-26.983718" lon="-48.635852"><ele>1.4</ele></trkpt><trkpt lat="-26.983717" lon="-48.63585"><ele>1.4</ele></trkpt><trkpt lat="-26.983713" lon="-48.635845"><ele>1.2</ele></trkpt><trkpt lat="-26.983708" lon="-48.635845"><ele>1.1</ele></trkpt><trkpt lat="-26.983708" lon="-48.635845"><ele>1.1</ele></trkpt><trkpt lat="-26.983708" lon="-48.635845"><ele>1.1</ele></trkpt><trkpt lat="-26.98369" lon="-48.635838"><ele>1</ele></trkpt><trkpt lat="-26.983688" lon="-48.635835"><ele>0.8</ele></trkpt><trkpt lat="-26.98369" lon="-48.635832"><ele>0.4</ele></trkpt><trkpt lat="-26.983692" lon="-48.635828"><ele>0.5</ele></trkpt><trkpt lat="-26.983693" lon="-48.635827"><ele>0.6</ele></trkpt><trkpt lat="-26.983693" lon="-48.635827"><ele>0.6</ele></trkpt><trkpt lat="-26.983693" lon="-48.635827"><ele>0.6</ele></trkpt><trkpt lat="-26.983693" lon="-48.635827"><ele>0.6</ele></trkpt><trkpt lat="-26.983693" lon="-48.635827"><ele>0.6</ele></trkpt><trkpt lat="-26.983693" lon="-48.635827"><ele>0.6</ele></trkpt><trkpt lat="-26.983693" lon="-48.635827"><ele>0.6</ele></trkpt><trkpt lat="-26.983693" lon="-48.635827"><ele>0.6</ele></trkpt><trkpt lat="-26.983693" lon="-48.635827"><ele>0.6</ele></trkpt><trkpt lat="-26.983693" lon="-48.635827"><ele>0.6</ele></trkpt><trkpt lat="-26.983693" lon="-48.635827"><ele>0.6</ele></trkpt><trkpt lat="-26.983693" lon="-48.635827"><ele>0.6</ele></trkpt><trkpt lat="-26.983693" lon="-48.635827"><ele>0.6</ele></trkpt><trkpt lat="-26.983693" lon="-48.635827"><ele>0.6</ele></trkpt><trkpt lat="-26.983693" lon="-48.635827"><ele>0.6</ele></trkpt><trkpt lat="-26.983693" lon="-48.635827"><ele>0.6</ele></trkpt><trkpt lat="-26.983693" lon="-48.635827"><ele>0.6</ele></trkpt><trkpt lat="-26.983693" lon="-48.635827"><ele>0.6</ele></trkpt><trkpt lat="-26.983693" lon="-48.635827"><ele>0.6</ele></trkpt><trkpt lat="-26.983693" lon="-48.635827"><ele>0.6</ele></trkpt><trkpt lat="-26.983693" lon="-48.635827"><ele>0.6</ele></trkpt><trkpt lat="-26.983693" lon="-48.635827"><ele>0.6</ele></trkpt><trkpt lat="-26.983693" lon="-48.635827"><ele>0.6</ele></trkpt><trkpt lat="-26.983693" lon="-48.635827"><ele>0.6</ele></trkpt><trkpt lat="-26.983693" lon="-48.635827"><ele>0.6</ele></trkpt><trkpt lat="-26.983693" lon="-48.635827"><ele>0.6</ele></trkpt><trkpt lat="-26.983693" lon="-48.635827"><ele>0.6</ele></trkpt><trkpt lat="-26.983693" lon="-48.635827"><ele>0.6</ele></trkpt><trkpt lat="-26.983693" lon="-48.635827"><ele>0.6</ele></trkpt><trkpt lat="-26.983693" lon="-48.635827"><ele>0.6</ele></trkpt><trkpt lat="-26.983693" lon="-48.635827"><ele>0.6</ele></trkpt><trkpt lat="-26.983693" lon="-48.635827"><ele>0.6</ele></trkpt><trkpt lat="-26.983693" lon="-48.635827"><ele>0.6</ele></trkpt><trkpt lat="-26.983693" lon="-48.635827"><ele>0.6</ele></trkpt><trkpt lat="-26.983693" lon="-48.635827"><ele>0.6</ele></trkpt><trkpt lat="-26.983693" lon="-48.635827"><ele>0.6</ele></trkpt><trkpt lat="-26.983693" lon="-48.635827"><ele>0.6</ele></trkpt><trkpt lat="-26.983693" lon="-48.635827"><ele>0.6</ele></trkpt><trkpt lat="-26.983693" lon="-48.635827"><ele>0.6</ele></trkpt><trkpt lat="-26.983693" lon="-48.635827"><ele>0.6</ele></trkpt><trkpt lat="-26.983693" lon="-48.635827"><ele>0.6</ele></trkpt><trkpt lat="-26.983693" lon="-48.635827"><ele>0.6</ele></trkpt><trkpt lat="-26.983693" lon="-48.635827"><ele>0.6</ele></trkpt><trkpt lat="-26.983693" lon="-48.635827"><ele>0.6</ele></trkpt><trkpt lat="-26.983693" lon="-48.635827"><ele>0.6</ele></trkpt><trkpt lat="-26.983693" lon="-48.635827"><ele>0.6</ele></trkpt><trkpt lat="-26.983693" lon="-48.635827"><ele>0.6</ele></trkpt><trkpt lat="-26.983693" lon="-48.635827"><ele>0.6</ele></trkpt><trkpt lat="-26.983693" lon="-48.635827"><ele>0.6</ele></trkpt><trkpt lat="-26.983693" lon="-48.635827"><ele>0.6</ele></trkpt><trkpt lat="-26.983693" lon="-48.635827"><ele>0.6</ele></trkpt><trkpt lat="-26.983693" lon="-48.635827"><ele>0.6</ele></trkpt><trkpt lat="-26.983693" lon="-48.635827"><ele>0.6</ele></trkpt><trkpt lat="-26.983693" lon="-48.635827"><ele>0.6</ele></trkpt><trkpt lat="-26.983693" lon="-48.635827"><ele>0.6</ele></trkpt><trkpt lat="-26.983693" lon="-48.635827"><ele>0.6</ele></trkpt><trkpt lat="-26.983693" lon="-48.635827"><ele>0.6</ele></trkpt><trkpt lat="-26.983693" lon="-48.635827"><ele>0.6</ele></trkpt><trkpt lat="-26.983693" lon="-48.635827"><ele>0.6</ele></trkpt><trkpt lat="-26.983693" lon="-48.635827"><ele>0.6</ele></trkpt><trkpt lat="-26.983693" lon="-48.635827"><ele>0.6</ele></trkpt><trkpt lat="-26.983693" lon="-48.635827"><ele>0.6</ele></trkpt><trkpt lat="-26.983693" lon="-48.635827"><ele>0.6</ele></trkpt><trkpt lat="-26.983693" lon="-48.635827"><ele>0.6</ele></trkpt><trkpt lat="-26.983693" lon="-48.635827"><ele>0.6</ele></trkpt><trkpt lat="-26.983693" lon="-48.635827"><ele>0.6</ele></trkpt><trkpt lat="-26.983693" lon="-48.635827"><ele>0.6</ele></trkpt><trkpt lat="-26.983693" lon="-48.635827"><ele>0.6</ele></trkpt><trkpt lat="-26.983693" lon="-48.635827"><ele>0.6</ele></trkpt><trkpt lat="-26.983693" lon="-48.635827"><ele>0.6</ele></trkpt><trkpt lat="-26.983693" lon="-48.635827"><ele>0.6</ele></trkpt><trkpt lat="-26.983693" lon="-48.635827"><ele>0.6</ele></trkpt><trkpt lat="-26.983693" lon="-48.635827"><ele>0.6</ele></trkpt><trkpt lat="-26.983693" lon="-48.635827"><ele>0.6</ele></trkpt><trkpt lat="-26.983693" lon="-48.635827"><ele>0.6</ele></trkpt><trkpt lat="-26.983693" lon="-48.635827"><ele>0.6</ele></trkpt><trkpt lat="-26.983693" lon="-48.635827"><ele>0.6</ele></trkpt><trkpt lat="-26.983693" lon="-48.635827"><ele>0.6</ele></trkpt><trkpt lat="-26.983693" lon="-48.635827"><ele>0.6</ele></trkpt><trkpt lat="-26.983693" lon="-48.635827"><ele>0.6</ele></trkpt><trkpt lat="-26.983693" lon="-48.635827"><ele>0.6</ele></trkpt><trkpt lat="-26.983693" lon="-48.635827"><ele>0.6</ele></trkpt><trkpt lat="-26.983693" lon="-48.635827"><ele>0.6</ele></trkpt><trkpt lat="-26.983693" lon="-48.635827"><ele>0.6</ele></trkpt><trkpt lat="-26.983693" lon="-48.635827"><ele>0.6</ele></trkpt><trkpt lat="-26.983693" lon="-48.635827"><ele>0.6</ele></trkpt><trkpt lat="-26.983693" lon="-48.635827"><ele>0.6</ele></trkpt><trkpt lat="-26.983693" lon="-48.635827"><ele>0.6</ele></trkpt><trkpt lat="-26.983693" lon="-48.635827"><ele>0.6</ele></trkpt><trkpt lat="-26.983693" lon="-48.635827"><ele>0.6</ele></trkpt><trkpt lat="-26.983693" lon="-48.635827"><ele>0.6</ele></trkpt><trkpt lat="-26.983693" lon="-48.635827"><ele>0.6</ele></trkpt><trkpt lat="-26.983693" lon="-48.635827"><ele>0.6</ele></trkpt><trkpt lat="-26.983693" lon="-48.635827"><ele>0.6</ele></trkpt><trkpt lat="-26.983693" lon="-48.635827"><ele>0.6</ele></trkpt><trkpt lat="-26.983693" lon="-48.635827"><ele>0.6</ele></trkpt><trkpt lat="-26.983693" lon="-48.635827"><ele>0.6</ele></trkpt><trkpt lat="-26.983693" lon="-48.635827"><ele>0.6</ele></trkpt><trkpt lat="-26.983693" lon="-48.635827"><ele>0.6</ele></trkpt><trkpt lat="-26.983693" lon="-48.635827"><ele>0.6</ele></trkpt><trkpt lat="-26.983693" lon="-48.635827"><ele>0.6</ele></trkpt><trkpt lat="-26.983693" lon="-48.635827"><ele>0.6</ele></trkpt><trkpt lat="-26.983693" lon="-48.635827"><ele>0.6</ele></trkpt><trkpt lat="-26.983693" lon="-48.635827"><ele>0.6</ele></trkpt><trkpt lat="-26.983693" lon="-48.635827"><ele>0.6</ele></trkpt><trkpt lat="-26.983693" lon="-48.635827"><ele>0.6</ele></trkpt><trkpt lat="-26.983693" lon="-48.635827"><ele>0.6</ele></trkpt><trkpt lat="-26.983693" lon="-48.635827"><ele>0.6</ele></trkpt><trkpt lat="-26.983693" lon="-48.635827"><ele>0.6</ele></trkpt><trkpt lat="-26.983693" lon="-48.635827"><ele>0.6</ele></trkpt><trkpt lat="-26.983693" lon="-48.635827"><ele>0.6</ele></trkpt><trkpt lat="-26.983693" lon="-48.635827"><ele>0.6</ele></trkpt><trkpt lat="-26.983693" lon="-48.635827"><ele>0.6</ele></trkpt><trkpt lat="-26.983693" lon="-48.635827"><ele>0.6</ele></trkpt><trkpt lat="-26.983693" lon="-48.635827"><ele>0.6</ele></trkpt><trkpt lat="-26.983693" lon="-48.635827"><ele>0.6</ele></trkpt><trkpt lat="-26.983693" lon="-48.635827"><ele>0.6</ele></trkpt><trkpt lat="-26.983693" lon="-48.635827"><ele>0.6</ele></trkpt><trkpt lat="-26.983693" lon="-48.635827"><ele>0.6</ele></trkpt><trkpt lat="-26.983693" lon="-48.635827"><ele>0.6</ele></trkpt><trkpt lat="-26.983693" lon="-48.635827"><ele>0.6</ele></trkpt><trkpt lat="-26.983693" lon="-48.635827"><ele>0.6</ele></trkpt><trkpt lat="-26.983693" lon="-48.635827"><ele>0.6</ele></trkpt><trkpt lat="-26.983693" lon="-48.635827"><ele>0.6</ele></trkpt><trkpt lat="-26.983693" lon="-48.635827"><ele>0.6</ele></trkpt><trkpt lat="-26.983693" lon="-48.635827"><ele>0.6</ele></trkpt><trkpt lat="-26.983693" lon="-48.635827"><ele>0.6</ele></trkpt><trkpt lat="-26.983693" lon="-48.635827"><ele>0.6</ele></trkpt><trkpt lat="-26.983693" lon="-48.635827"><ele>0.6</ele></trkpt><trkpt lat="-26.983693" lon="-48.635827"><ele>0.6</ele></trkpt><trkpt lat="-26.983693" lon="-48.635827"><ele>0.6</ele></trkpt><trkpt lat="-26.983693" lon="-48.635827"><ele>0.6</ele></trkpt><trkpt lat="-26.983693" lon="-48.635827"><ele>0.6</ele></trkpt><trkpt lat="-26.983693" lon="-48.635827"><ele>0.6</ele></trkpt><trkpt lat="-26.983693" lon="-48.635827"><ele>0.6</ele></trkpt><trkpt lat="-26.983693" lon="-48.635827"><ele>0.6</ele></trkpt><trkpt lat="-26.983693" lon="-48.635827"><ele>0.6</ele></trkpt><trkpt lat="-26.983693" lon="-48.635827"><ele>0.6</ele></trkpt><trkpt lat="-26.983693" lon="-48.635827"><ele>0.6</ele></trkpt><trkpt lat="-26.983693" lon="-48.635827"><ele>0.6</ele></trkpt><trkpt lat="-26.983693" lon="-48.635827"><ele>0.6</ele></trkpt><trkpt lat="-26.983693" lon="-48.635827"><ele>0.6</ele></trkpt><trkpt lat="-26.983693" lon="-48.635827"><ele>0.6</ele></trkpt><trkpt lat="-26.983693" lon="-48.635827"><ele>0.6</ele></trkpt><trkpt lat="-26.983693" lon="-48.635827"><ele>0.6</ele></trkpt><trkpt lat="-26.983693" lon="-48.635827"><ele>0.6</ele></trkpt><trkpt lat="-26.983693" lon="-48.635827"><ele>0.6</ele></trkpt><trkpt lat="-26.983693" lon="-48.635827"><ele>0.6</ele></trkpt><trkpt lat="-26.983693" lon="-48.635827"><ele>0.6</ele></trkpt><trkpt lat="-26.983693" lon="-48.635827"><ele>0.6</ele></trkpt><trkpt lat="-26.983693" lon="-48.635827"><ele>0.6</ele></trkpt><trkpt lat="-26.983693" lon="-48.635827"><ele>0.6</ele></trkpt><trkpt lat="-26.983693" lon="-48.635827"><ele>0.6</ele></trkpt><trkpt lat="-26.983693" lon="-48.635827"><ele>0.6</ele></trkpt><trkpt lat="-26.983693" lon="-48.635827"><ele>0.6</ele></trkpt><trkpt lat="-26.983693" lon="-48.635827"><ele>0.6</ele></trkpt><trkpt lat="-26.983693" lon="-48.635827"><ele>0.6</ele></trkpt><trkpt lat="-26.983693" lon="-48.635827"><ele>0.6</ele></trkpt><trkpt lat="-26.983693" lon="-48.635827"><ele>0.6</ele></trkpt><trkpt lat="-26.983693" lon="-48.635827"><ele>0.6</ele></trkpt><trkpt lat="-26.983693" lon="-48.635827"><ele>0.6</ele></trkpt><trkpt lat="-26.983693" lon="-48.635827"><ele>0.6</ele></trkpt><trkpt lat="-26.983693" lon="-48.635827"><ele>0.6</ele></trkpt><trkpt lat="-26.983693" lon="-48.635827"><ele>0.6</ele></trkpt><trkpt lat="-26.983693" lon="-48.635827"><ele>0.6</ele></trkpt><trkpt lat="-26.983693" lon="-48.635827"><ele>0.6</ele></trkpt><trkpt lat="-26.983693" lon="-48.635827"><ele>0.6</ele></trkpt><trkpt lat="-26.983693" lon="-48.635827"><ele>0.6</ele></trkpt><trkpt lat="-26.983693" lon="-48.635827"><ele>0.6</ele></trkpt><trkpt lat="-26.983693" lon="-48.635827"><ele>0.6</ele></trkpt><trkpt lat="-26.983693" lon="-48.635827"><ele>0.6</ele></trkpt><trkpt lat="-26.983693" lon="-48.635827"><ele>0.6</ele></trkpt><trkpt lat="-26.983693" lon="-48.635827"><ele>0.6</ele></trkpt><trkpt lat="-26.983693" lon="-48.635827"><ele>0.6</ele></trkpt><trkpt lat="-26.983693" lon="-48.635827"><ele>0.6</ele></trkpt><trkpt lat="-26.983693" lon="-48.635827"><ele>0.6</ele></trkpt><trkpt lat="-26.983693" lon="-48.635827"><ele>0.6</ele></trkpt><trkpt lat="-26.983693" lon="-48.635827"><ele>0.6</ele></trkpt><trkpt lat="-26.983693" lon="-48.635827"><ele>0.6</ele></trkpt><trkpt lat="-26.983693" lon="-48.635827"><ele>0.6</ele></trkpt><trkpt lat="-26.983693" lon="-48.635827"><ele>0.6</ele></trkpt><trkpt lat="-26.983693" lon="-48.635827"><ele>0.6</ele></trkpt><trkpt lat="-26.983693" lon="-48.635827"><ele>0.6</ele></trkpt><trkpt lat="-26.983668" lon="-48.63583"><ele>13.3</ele></trkpt><trkpt lat="-26.983663" lon="-48.635827"><ele>13.5</ele></trkpt><trkpt lat="-26.983667" lon="-48.635827"><ele>13.5</ele></trkpt><trkpt lat="-26.983667" lon="-48.635827"><ele>13.6</ele></trkpt><trkpt lat="-26.983667" lon="-48.635827"><ele>13.6</ele></trkpt><trkpt lat="-26.983667" lon="-48.635827"><ele>13.6</ele></trkpt><trkpt lat="-26.983667" lon="-48.635827"><ele>13.6</ele></trkpt><trkpt lat="-26.983667" lon="-48.635827"><ele>13.6</ele></trkpt><trkpt lat="-26.983667" lon="-48.635827"><ele>13.6</ele></trkpt><trkpt lat="-26.983667" lon="-48.635827"><ele>13.6</ele></trkpt><trkpt lat="-26.983667" lon="-48.635827"><ele>13.6</ele></trkpt><trkpt lat="-26.983667" lon="-48.635827"><ele>13.6</ele></trkpt><trkpt lat="-26.983667" lon="-48.635827"><ele>13.6</ele></trkpt><trkpt lat="-26.983667" lon="-48.635827"><ele>13.6</ele></trkpt><trkpt lat="-26.983667" lon="-48.635827"><ele>13.6</ele></trkpt><trkpt lat="-26.983667" lon="-48.635827"><ele>13.6</ele></trkpt><trkpt lat="-26.983667" lon="-48.635827"><ele>13.6</ele></trkpt><trkpt lat="-26.983667" lon="-48.635827"><ele>13.6</ele></trkpt><trkpt lat="-26.983667" lon="-48.635827"><ele>13.6</ele></trkpt><trkpt lat="-26.983667" lon="-48.635827"><ele>13.6</ele></trkpt><trkpt lat="-26.983667" lon="-48.635827"><ele>13.6</ele></trkpt><trkpt lat="-26.983667" lon="-48.635827"><ele>13.6</ele></trkpt><trkpt lat="-26.983667" lon="-48.635827"><ele>13.6</ele></trkpt><trkpt lat="-26.983697" lon="-48.635848"><ele>14.2</ele></trkpt><trkpt lat="-26.983692" lon="-48.635853"><ele>14.2</ele></trkpt><trkpt lat="-26.98369" lon="-48.635855"><ele>14.4</ele></trkpt><trkpt lat="-26.983688" lon="-48.635853"><ele>14.4</ele></trkpt><trkpt lat="-26.983688" lon="-48.635853"><ele>14.4</ele></trkpt><trkpt lat="-26.983688" lon="-48.635853"><ele>14.4</ele></trkpt><trkpt lat="-26.983688" lon="-48.635853"><ele>14.4</ele></trkpt><trkpt lat="-26.983688" lon="-48.635853"><ele>14.4</ele></trkpt><trkpt lat="-26.983688" lon="-48.635853"><ele>14.4</ele></trkpt><trkpt lat="-26.983688" lon="-48.635853"><ele>14.4</ele></trkpt><trkpt lat="-26.983688" lon="-48.635853"><ele>14.4</ele></trkpt><trkpt lat="-26.983697" lon="-48.63585"><ele>14.8</ele></trkpt><trkpt lat="-26.983703" lon="-48.635847"><ele>15.2</ele></trkpt><trkpt lat="-26.983705" lon="-48.635838"><ele>15.2</ele></trkpt><trkpt lat="-26.983702" lon="-48.635828"><ele>15.1</ele></trkpt><trkpt lat="-26.983697" lon="-48.635823"><ele>14.9</ele></trkpt><trkpt lat="-26.983692" lon="-48.635822"><ele>14.7</ele></trkpt><trkpt lat="-26.983685" lon="-48.635822"><ele>14.2</ele></trkpt><trkpt lat="-26.983682" lon="-48.63582"><ele>13.6</ele></trkpt><trkpt lat="-26.983675" lon="-48.635823"><ele>13.4</ele></trkpt><trkpt lat="-26.983672" lon="-48.63583"><ele>12.9</ele></trkpt><trkpt lat="-26.983675" lon="-48.63583"><ele>12.6</ele></trkpt><trkpt lat="-26.983675" lon="-48.63583"><ele>12.6</ele></trkpt><trkpt lat="-26.983677" lon="-48.635828"><ele>12.5</ele></trkpt><trkpt lat="-26.983672" lon="-48.635828"><ele>12.3</ele></trkpt><trkpt lat="-26.98367" lon="-48.635823"><ele>12</ele></trkpt><trkpt lat="-26.983663" lon="-48.635823"><ele>11.9</ele></trkpt><trkpt lat="-26.98366" lon="-48.635828"><ele>11.7</ele></trkpt><trkpt lat="-26.983658" lon="-48.635833"><ele>11.2</ele></trkpt><trkpt lat="-26.983662" lon="-48.635842"><ele>11</ele></trkpt><trkpt lat="-26.983663" lon="-48.635848"><ele>10.6</ele></trkpt><trkpt lat="-26.983667" lon="-48.635852"><ele>10.4</ele></trkpt><trkpt lat="-26.983668" lon="-48.63585"><ele>10</ele></trkpt><trkpt lat="-26.983672" lon="-48.635853"><ele>9.6</ele></trkpt><trkpt lat="-26.983677" lon="-48.635855"><ele>9.1</ele></trkpt><trkpt lat="-26.983685" lon="-48.635853"><ele>8.9</ele></trkpt><trkpt lat="-26.983687" lon="-48.63585"><ele>8.4</ele></trkpt><trkpt lat="-26.983683" lon="-48.635847"><ele>7.9</ele></trkpt><trkpt lat="-26.983682" lon="-48.635838"><ele>7.4</ele></trkpt><trkpt lat="-26.983693" lon="-48.635832"><ele>7.3</ele></trkpt><trkpt lat="-26.983707" lon="-48.635827"><ele>8.2</ele></trkpt><trkpt lat="-26.983707" lon="-48.635827"><ele>8.2</ele></trkpt><trkpt lat="-26.983707" lon="-48.635827"><ele>8.2</ele></trkpt><trkpt lat="-26.983707" lon="-48.635827"><ele>8.2</ele></trkpt><trkpt lat="-26.983707" lon="-48.635827"><ele>8.2</ele></trkpt><trkpt lat="-26.983707" lon="-48.635827"><ele>8.2</ele></trkpt><trkpt lat="-26.983707" lon="-48.635827"><ele>8.2</ele></trkpt><trkpt lat="-26.983815" lon="-48.635732"><ele>59.7</ele></trkpt><trkpt lat="-26.983818" lon="-48.635728"><ele>58.4</ele></trkpt><trkpt lat="-26.98381" lon="-48.635728"><ele>57.7</ele></trkpt><trkpt lat="-26.983788" lon="-48.635738"><ele>57.7</ele></trkpt><trkpt lat="-26.983772" lon="-48.635783"><ele>57.2</ele></trkpt><trkpt lat="-26.983775" lon="-48.635788"><ele>56.3</ele></trkpt><trkpt lat="-26.983773" lon="-48.6358"><ele>55.7</ele></trkpt><trkpt lat="-26.983778" lon="-48.635807"><ele>55.2</ele></trkpt><trkpt lat="-26.983778" lon="-48.635812"><ele>54.8</ele></trkpt><trkpt lat="-26.983782" lon="-48.635813"><ele>54.4</ele></trkpt><trkpt lat="-26.983775" lon="-48.63581"><ele>54.2</ele></trkpt><trkpt lat="-26.983772" lon="-48.635808"><ele>53.8</ele></trkpt><trkpt lat="-26.983767" lon="-48.635807"><ele>53.4</ele></trkpt><trkpt lat="-26.983748" lon="-48.635805"><ele>52.5</ele></trkpt><trkpt lat="-26.983733" lon="-48.635802"><ele>51.6</ele></trkpt><trkpt lat="-26.983723" lon="-48.635803"><ele>51.1</ele></trkpt><trkpt lat="-26.983717" lon="-48.635798"><ele>51.1</ele></trkpt><trkpt lat="-26.983718" lon="-48.635797"><ele>50.6</ele></trkpt><trkpt lat="-26.983715" lon="-48.635797"><ele>50.5</ele></trkpt><trkpt lat="-26.98371" lon="-48.635798"><ele>50.3</ele></trkpt><trkpt lat="-26.98371" lon="-48.635807"><ele>49.7</ele></trkpt><trkpt lat="-26.983708" lon="-48.635815"><ele>49.3</ele></trkpt><trkpt lat="-26.983707" lon="-48.635825"><ele>48.7</ele></trkpt><trkpt lat="-26.983707" lon="-48.635832"><ele>48.1</ele></trkpt><trkpt lat="-26.983707" lon="-48.635837"><ele>47.3</ele></trkpt><trkpt lat="-26.983707" lon="-48.635837"><ele>47.3</ele></trkpt><trkpt lat="-26.983707" lon="-48.635842"><ele>46.4</ele></trkpt><trkpt lat="-26.983705" lon="-48.635848"><ele>45.6</ele></trkpt><trkpt lat="-26.9837" lon="-48.63585"><ele>44.9</ele></trkpt><trkpt lat="-26.9837" lon="-48.635855"><ele>44.2</ele></trkpt><trkpt lat="-26.983702" lon="-48.635855"><ele>43.5</ele></trkpt><trkpt lat="-26.983703" lon="-48.635858"><ele>43.4</ele></trkpt><trkpt lat="-26.983702" lon="-48.635863"><ele>42.9</ele></trkpt><trkpt lat="-26.983698" lon="-48.635875"><ele>42.5</ele></trkpt><trkpt lat="-26.983695" lon="-48.635892"><ele>42.1</ele></trkpt><trkpt lat="-26.983695" lon="-48.63591"><ele>41.7</ele></trkpt><trkpt lat="-26.983693" lon="-48.635923"><ele>41.3</ele></trkpt><trkpt lat="-26.983698" lon="-48.635933"><ele>41.1</ele></trkpt><trkpt lat="-26.983697" lon="-48.63593"><ele>40.8</ele></trkpt><trkpt lat="-26.983695" lon="-48.635937"><ele>40.9</ele></trkpt><trkpt lat="-26.983692" lon="-48.635952"><ele>40.9</ele></trkpt><trkpt lat="-26.983688" lon="-48.635967"><ele>40.9</ele></trkpt><trkpt lat="-26.983688" lon="-48.635967"><ele>40.9</ele></trkpt><trkpt lat="-26.983685" lon="-48.635977"><ele>41</ele></trkpt><trkpt lat="-26.98368" lon="-48.63599"><ele>41.4</ele></trkpt><trkpt lat="-26.983673" lon="-48.636003"><ele>41.6</ele></trkpt><trkpt lat="-26.98366" lon="-48.636038"><ele>42</ele></trkpt><trkpt lat="-26.983647" lon="-48.636075"><ele>42.1</ele></trkpt><trkpt lat="-26.983638" lon="-48.636097"><ele>42.1</ele></trkpt><trkpt lat="-26.983627" lon="-48.636123"><ele>42.1</ele></trkpt><trkpt lat="-26.983622" lon="-48.636147"><ele>42.2</ele></trkpt><trkpt lat="-26.983618" lon="-48.636165"><ele>42.1</ele></trkpt><trkpt lat="-26.983613" lon="-48.636198"><ele>42</ele></trkpt><trkpt lat="-26.983605" lon="-48.636217"><ele>41.8</ele></trkpt><trkpt lat="-26.983603" lon="-48.636235"><ele>41.7</ele></trkpt><trkpt lat="-26.983603" lon="-48.636257"><ele>40.9</ele></trkpt><trkpt lat="-26.983607" lon="-48.636272"><ele>39.8</ele></trkpt><trkpt lat="-26.983607" lon="-48.63628"><ele>39.4</ele></trkpt><trkpt lat="-26.983607" lon="-48.636282"><ele>39</ele></trkpt><trkpt lat="-26.983602" lon="-48.636303"><ele>38.8</ele></trkpt><trkpt lat="-26.983603" lon="-48.636313"><ele>38.6</ele></trkpt><trkpt lat="-26.983605" lon="-48.636322"><ele>38.2</ele></trkpt><trkpt lat="-26.98361" lon="-48.636332"><ele>38.2</ele></trkpt><trkpt lat="-26.983617" lon="-48.636343"><ele>37.5</ele></trkpt><trkpt lat="-26.983632" lon="-48.636355"><ele>37</ele></trkpt><trkpt lat="-26.983632" lon="-48.636355"><ele>37</ele></trkpt><trkpt lat="-26.98364" lon="-48.636365"><ele>36.9</ele></trkpt><trkpt lat="-26.983635" lon="-48.63636"><ele>36.2</ele></trkpt><trkpt lat="-26.983635" lon="-48.636362"><ele>36.4</ele></trkpt><trkpt lat="-26.983642" lon="-48.636365"><ele>36.7</ele></trkpt><trkpt lat="-26.983653" lon="-48.636367"><ele>37</ele></trkpt><trkpt lat="-26.983653" lon="-48.636367"><ele>37</ele></trkpt><trkpt lat="-26.98367" lon="-48.636377"><ele>36.8</ele></trkpt><trkpt lat="-26.983698" lon="-48.636395"><ele>36.1</ele></trkpt><trkpt lat="-26.9837" lon="-48.636398"><ele>36.7</ele></trkpt><trkpt lat="-26.983698" lon="-48.6364"><ele>36.9</ele></trkpt><trkpt lat="-26.98371" lon="-48.636403"><ele>36.4</ele></trkpt><trkpt lat="-26.983717" lon="-48.636408"><ele>35.3</ele></trkpt><trkpt lat="-26.983722" lon="-48.636415"><ele>34.2</ele></trkpt><trkpt lat="-26.983722" lon="-48.636417"><ele>33.6</ele></trkpt><trkpt lat="-26.983723" lon="-48.63642"><ele>32.9</ele></trkpt><trkpt lat="-26.98372" lon="-48.636428"><ele>32.7</ele></trkpt><trkpt lat="-26.983718" lon="-48.636432"><ele>33</ele></trkpt><trkpt lat="-26.983718" lon="-48.63644"><ele>32.7</ele></trkpt><trkpt lat="-26.983713" lon="-48.636448"><ele>32.4</ele></trkpt><trkpt lat="-26.983715" lon="-48.636457"><ele>32.1</ele></trkpt><trkpt lat="-26.983718" lon="-48.636468"><ele>31.8</ele></trkpt><trkpt lat="-26.983718" lon="-48.636468"><ele>31.8</ele></trkpt><trkpt lat="-26.983723" lon="-48.636477"><ele>31.6</ele></trkpt><trkpt lat="-26.983713" lon="-48.636473"><ele>31.5</ele></trkpt><trkpt lat="-26.983708" lon="-48.636472"><ele>31.4</ele></trkpt><trkpt lat="-26.983697" lon="-48.63647"><ele>30.8</ele></trkpt><trkpt lat="-26.98369" lon="-48.636465"><ele>30.9</ele></trkpt><trkpt lat="-26.983692" lon="-48.636465"><ele>31.2</ele></trkpt><trkpt lat="-26.983697" lon="-48.636467"><ele>31</ele></trkpt><trkpt lat="-26.983697" lon="-48.636467"><ele>31</ele></trkpt><trkpt lat="-26.983698" lon="-48.636467"><ele>30.9</ele></trkpt><trkpt lat="-26.983703" lon="-48.636472"><ele>31</ele></trkpt><trkpt lat="-26.9837" lon="-48.636477"><ele>30.8</ele></trkpt><trkpt lat="-26.983698" lon="-48.636488"><ele>30.4</ele></trkpt><trkpt lat="-26.983702" lon="-48.63651"><ele>30</ele></trkpt><trkpt lat="-26.983703" lon="-48.63653"><ele>29.6</ele></trkpt><trkpt lat="-26.983707" lon="-48.636552"><ele>29.5</ele></trkpt><trkpt lat="-26.98371" lon="-48.63658"><ele>29.1</ele></trkpt><trkpt lat="-26.98371" lon="-48.636592"><ele>27.4</ele></trkpt><trkpt lat="-26.98371" lon="-48.63661"><ele>26.8</ele></trkpt><trkpt lat="-26.98371" lon="-48.63663"><ele>26.6</ele></trkpt><trkpt lat="-26.983712" lon="-48.636648"><ele>25.1</ele></trkpt><trkpt lat="-26.98371" lon="-48.636663"><ele>23.7</ele></trkpt><trkpt lat="-26.983707" lon="-48.636683"><ele>22.5</ele></trkpt><trkpt lat="-26.983703" lon="-48.636712"><ele>21.3</ele></trkpt><trkpt lat="-26.983702" lon="-48.636748"><ele>20.9</ele></trkpt><trkpt lat="-26.983698" lon="-48.636775"><ele>19.7</ele></trkpt><trkpt lat="-26.983697" lon="-48.636795"><ele>18.9</ele></trkpt><trkpt lat="-26.983697" lon="-48.636812"><ele>18.8</ele></trkpt><trkpt lat="-26.9837" lon="-48.636823"><ele>19.1</ele></trkpt><trkpt lat="-26.983702" lon="-48.636832"><ele>19.7</ele></trkpt><trkpt lat="-26.983702" lon="-48.636833"><ele>19.5</ele></trkpt><trkpt lat="-26.983702" lon="-48.636833"><ele>19.6</ele></trkpt><trkpt lat="-26.983703" lon="-48.636835"><ele>19.6</ele></trkpt><trkpt lat="-26.983703" lon="-48.636835"><ele>19.6</ele></trkpt><trkpt lat="-26.983702" lon="-48.636837"><ele>19.5</ele></trkpt><trkpt lat="-26.983702" lon="-48.636835"><ele>19.3</ele></trkpt><trkpt lat="-26.983702" lon="-48.636838"><ele>19</ele></trkpt><trkpt lat="-26.983702" lon="-48.636838"><ele>18.7</ele></trkpt><trkpt lat="-26.983703" lon="-48.636835"><ele>18.4</ele></trkpt><trkpt lat="-26.983703" lon="-48.636835"><ele>18.4</ele></trkpt><trkpt lat="-26.983703" lon="-48.636835"><ele>18.4</ele></trkpt><trkpt lat="-26.983703" lon="-48.636835"><ele>18.4</ele></trkpt><trkpt lat="-26.983703" lon="-48.636835"><ele>18.4</ele></trkpt><trkpt lat="-26.983703" lon="-48.636835"><ele>18.4</ele></trkpt><trkpt lat="-26.983703" lon="-48.636835"><ele>18.4</ele></trkpt><trkpt lat="-26.983703" lon="-48.636835"><ele>18.4</ele></trkpt><trkpt lat="-26.983695" lon="-48.636837"><ele>17.1</ele></trkpt><trkpt lat="-26.983688" lon="-48.636848"><ele>17.3</ele></trkpt><trkpt lat="-26.983683" lon="-48.636857"><ele>17.3</ele></trkpt><trkpt lat="-26.98368" lon="-48.636865"><ele>17.1</ele></trkpt><trkpt lat="-26.98368" lon="-48.63687"><ele>17</ele></trkpt><trkpt lat="-26.98368" lon="-48.63687"><ele>17</ele></trkpt><trkpt lat="-26.98368" lon="-48.63687"><ele>17</ele></trkpt><trkpt lat="-26.98368" lon="-48.63687"><ele>17</ele></trkpt><trkpt lat="-26.98368" lon="-48.63687"><ele>17</ele></trkpt><trkpt lat="-26.98368" lon="-48.63687"><ele>17</ele></trkpt><trkpt lat="-26.98368" lon="-48.63687"><ele>17</ele></trkpt><trkpt lat="-26.98368" lon="-48.63687"><ele>17</ele></trkpt><trkpt lat="-26.98368" lon="-48.63687"><ele>17</ele></trkpt><trkpt lat="-26.983693" lon="-48.636887"><ele>16</ele></trkpt><trkpt lat="-26.983693" lon="-48.636883"><ele>16.1</ele></trkpt><trkpt lat="-26.98369" lon="-48.63688"><ele>16.1</ele></trkpt><trkpt lat="-26.983685" lon="-48.636877"><ele>16.1</ele></trkpt><trkpt lat="-26.983685" lon="-48.636877"><ele>16.1</ele></trkpt><trkpt lat="-26.983685" lon="-48.636877"><ele>16.1</ele></trkpt><trkpt lat="-26.983685" lon="-48.636877"><ele>16.1</ele></trkpt><trkpt lat="-26.983685" lon="-48.636877"><ele>16.1</ele></trkpt><trkpt lat="-26.983685" lon="-48.636877"><ele>16.1</ele></trkpt><trkpt lat="-26.983685" lon="-48.636877"><ele>16.1</ele></trkpt><trkpt lat="-26.983685" lon="-48.636877"><ele>16.1</ele></trkpt><trkpt lat="-26.983685" lon="-48.636877"><ele>16.1</ele></trkpt><trkpt lat="-26.983653" lon="-48.636857"><ele>16.1</ele></trkpt><trkpt lat="-26.983652" lon="-48.636855"><ele>16.3</ele></trkpt><trkpt lat="-26.983648" lon="-48.636857"><ele>16.3</ele></trkpt><trkpt lat="-26.98364" lon="-48.636857"><ele>16.2</ele></trkpt><trkpt lat="-26.98364" lon="-48.63686"><ele>15.9</ele></trkpt><trkpt lat="-26.983638" lon="-48.636863"><ele>15.8</ele></trkpt><trkpt lat="-26.983638" lon="-48.636865"><ele>16</ele></trkpt><trkpt lat="-26.983643" lon="-48.636878"><ele>15.8</ele></trkpt><trkpt lat="-26.983645" lon="-48.636897"><ele>15.5</ele></trkpt><trkpt lat="-26.983653" lon="-48.63691"><ele>15.3</ele></trkpt><trkpt lat="-26.983657" lon="-48.636925"><ele>15.3</ele></trkpt><trkpt lat="-26.98366" lon="-48.636942"><ele>15.5</ele></trkpt><trkpt lat="-26.983668" lon="-48.636953"><ele>15.8</ele></trkpt><trkpt lat="-26.983682" lon="-48.636968"><ele>16</ele></trkpt><trkpt lat="-26.983687" lon="-48.63698"><ele>16.4</ele></trkpt><trkpt lat="-26.983683" lon="-48.636993"><ele>16.5</ele></trkpt><trkpt lat="-26.983678" lon="-48.636993"><ele>16.3</ele></trkpt><trkpt lat="-26.983678" lon="-48.636997"><ele>16.1</ele></trkpt><trkpt lat="-26.983665" lon="-48.637022"><ele>15.9</ele></trkpt><trkpt lat="-26.983657" lon="-48.637038"><ele>15.9</ele></trkpt><trkpt lat="-26.983653" lon="-48.637045"><ele>15.7</ele></trkpt><trkpt lat="-26.98365" lon="-48.637047"><ele>16.1</ele></trkpt><trkpt lat="-26.98365" lon="-48.637047"><ele>16.1</ele></trkpt><trkpt lat="-26.983655" lon="-48.63705"><ele>16.2</ele></trkpt><trkpt lat="-26.983655" lon="-48.637053"><ele>16.4</ele></trkpt><trkpt lat="-26.983655" lon="-48.637053"><ele>16.5</ele></trkpt><trkpt lat="-26.983653" lon="-48.637058"><ele>16.6</ele></trkpt><trkpt lat="-26.98365" lon="-48.637067"><ele>16.7</ele></trkpt><trkpt lat="-26.983647" lon="-48.63708"><ele>16.6</ele></trkpt><trkpt lat="-26.983637" lon="-48.637098"><ele>16.6</ele></trkpt><trkpt lat="-26.983628" lon="-48.637122"><ele>16.6</ele></trkpt><trkpt lat="-26.983625" lon="-48.637143"><ele>16.6</ele></trkpt><trkpt lat="-26.983622" lon="-48.637163"><ele>16.6</ele></trkpt><trkpt lat="-26.98362" lon="-48.63719"><ele>16.5</ele></trkpt><trkpt lat="-26.983618" lon="-48.637208"><ele>16.5</ele></trkpt><trkpt lat="-26.98361" lon="-48.637227"><ele>16.4</ele></trkpt><trkpt lat="-26.983602" lon="-48.637243"><ele>16.4</ele></trkpt><trkpt lat="-26.983598" lon="-48.637247"><ele>16.4</ele></trkpt><trkpt lat="-26.983593" lon="-48.637248"><ele>16.5</ele></trkpt><trkpt lat="-26.983595" lon="-48.637252"><ele>16.5</ele></trkpt><trkpt lat="-26.983598" lon="-48.63725"><ele>16.4</ele></trkpt><trkpt lat="-26.983597" lon="-48.637248"><ele>16.2</ele></trkpt><trkpt lat="-26.983597" lon="-48.637257"><ele>16.1</ele></trkpt><trkpt lat="-26.983597" lon="-48.637262"><ele>16.1</ele></trkpt><trkpt lat="-26.983597" lon="-48.637262"><ele>16.1</ele></trkpt><trkpt lat="-26.9836" lon="-48.637263"><ele>16.2</ele></trkpt><trkpt lat="-26.983602" lon="-48.637265"><ele>16</ele></trkpt><trkpt lat="-26.983603" lon="-48.637268"><ele>15.8</ele></trkpt><trkpt lat="-26.983605" lon="-48.63727"><ele>15.6</ele></trkpt><trkpt lat="-26.983605" lon="-48.63727"><ele>15.6</ele></trkpt><trkpt lat="-26.983605" lon="-48.63727"><ele>15.6</ele></trkpt><trkpt lat="-26.983605" lon="-48.63727"><ele>15.6</ele></trkpt><trkpt lat="-26.983605" lon="-48.63727"><ele>15.6</ele></trkpt><trkpt lat="-26.983605" lon="-48.63727"><ele>15.6</ele></trkpt><trkpt lat="-26.983605" lon="-48.63727"><ele>15.6</ele></trkpt><trkpt lat="-26.983605" lon="-48.63727"><ele>15.6</ele></trkpt><trkpt lat="-26.983605" lon="-48.63727"><ele>15.6</ele></trkpt><trkpt lat="-26.983605" lon="-48.63727"><ele>15.6</ele></trkpt><trkpt lat="-26.983605" lon="-48.63727"><ele>15.6</ele></trkpt><trkpt lat="-26.983605" lon="-48.63727"><ele>15.6</ele></trkpt><trkpt lat="-26.983605" lon="-48.63727"><ele>15.6</ele></trkpt><trkpt lat="-26.983605" lon="-48.63727"><ele>15.6</ele></trkpt><trkpt lat="-26.983605" lon="-48.63727"><ele>15.6</ele></trkpt><trkpt lat="-26.98365" lon="-48.63727"><ele>12</ele></trkpt><trkpt lat="-26.98365" lon="-48.63727"><ele>12</ele></trkpt><trkpt lat="-26.983648" lon="-48.637273"><ele>11.2</ele></trkpt><trkpt lat="-26.983645" lon="-48.637275"><ele>10.2</ele></trkpt><trkpt lat="-26.98364" lon="-48.637278"><ele>9.4</ele></trkpt><trkpt lat="-26.98364" lon="-48.637282"><ele>8.4</ele></trkpt><trkpt lat="-26.983635" lon="-48.637288"><ele>7.5</ele></trkpt><trkpt lat="-26.98363" lon="-48.637287"><ele>6.6</ele></trkpt><trkpt lat="-26.983627" lon="-48.637283"><ele>6.4</ele></trkpt><trkpt lat="-26.98363" lon="-48.63728"><ele>5.8</ele></trkpt><trkpt lat="-26.98362" lon="-48.637282"><ele>5.7</ele></trkpt><trkpt lat="-26.98362" lon="-48.637283"><ele>5.2</ele></trkpt><trkpt lat="-26.983617" lon="-48.637292"><ele>4.4</ele></trkpt><trkpt lat="-26.98361" lon="-48.637307"><ele>4</ele></trkpt><trkpt lat="-26.983607" lon="-48.637325"><ele>3.6</ele></trkpt><trkpt lat="-26.983603" lon="-48.637357"><ele>3</ele></trkpt><trkpt lat="-26.983603" lon="-48.637385"><ele>2.6</ele></trkpt><trkpt lat="-26.983603" lon="-48.637385"><ele>2.6</ele></trkpt><trkpt lat="-26.983602" lon="-48.637422"><ele>1.9</ele></trkpt><trkpt lat="-26.983612" lon="-48.637457"><ele>2.8</ele></trkpt><trkpt lat="-26.983618" lon="-48.637483"><ele>4</ele></trkpt><trkpt lat="-26.983625" lon="-48.637517"><ele>6.1</ele></trkpt><trkpt lat="-26.983638" lon="-48.637553"><ele>7.7</ele></trkpt><trkpt lat="-26.983638" lon="-48.637602"><ele>8.3</ele></trkpt><trkpt lat="-26.983642" lon="-48.637648"><ele>8.2</ele></trkpt><trkpt lat="-26.983647" lon="-48.637693"><ele>8.2</ele></trkpt><trkpt lat="-26.983655" lon="-48.63773"><ele>8.2</ele></trkpt><trkpt lat="-26.983663" lon="-48.637762"><ele>9.6</ele></trkpt><trkpt lat="-26.983647" lon="-48.63778"><ele>9.5</ele></trkpt><trkpt lat="-26.983647" lon="-48.637795"><ele>9</ele></trkpt><trkpt lat="-26.983645" lon="-48.637803"><ele>8.7</ele></trkpt><trkpt lat="-26.983647" lon="-48.637807"><ele>8.2</ele></trkpt><trkpt lat="-26.983645" lon="-48.637808"><ele>8.1</ele></trkpt><trkpt lat="-26.983643" lon="-48.637818"><ele>8.2</ele></trkpt><trkpt lat="-26.98364" lon="-48.637822"><ele>8.3</ele></trkpt><trkpt lat="-26.983642" lon="-48.637825"><ele>8.5</ele></trkpt><trkpt lat="-26.983642" lon="-48.637825"><ele>8.5</ele></trkpt><trkpt lat="-26.98364" lon="-48.637828"><ele>8.8</ele></trkpt><trkpt lat="-26.983635" lon="-48.637833"><ele>8.9</ele></trkpt><trkpt lat="-26.98363" lon="-48.63784"><ele>8.9</ele></trkpt><trkpt lat="-26.983628" lon="-48.637843"><ele>9</ele></trkpt><trkpt lat="-26.98363" lon="-48.637843"><ele>8.9</ele></trkpt><trkpt lat="-26.98363" lon="-48.637843"><ele>8.9</ele></trkpt><trkpt lat="-26.98363" lon="-48.637843"><ele>8.9</ele></trkpt><trkpt lat="-26.98363" lon="-48.637843"><ele>8.9</ele></trkpt><trkpt lat="-26.98363" lon="-48.637843"><ele>8.9</ele></trkpt><trkpt lat="-26.98363" lon="-48.637843"><ele>8.9</ele></trkpt><trkpt lat="-26.98363" lon="-48.637843"><ele>8.9</ele></trkpt><trkpt lat="-26.98363" lon="-48.637843"><ele>8.9</ele></trkpt><trkpt lat="-26.983625" lon="-48.63787"><ele>9.8</ele></trkpt><trkpt lat="-26.98362" lon="-48.637887"><ele>10.4</ele></trkpt><trkpt lat="-26.983608" lon="-48.637898"><ele>10.6</ele></trkpt><trkpt lat="-26.983598" lon="-48.637917"><ele>10.8</ele></trkpt><trkpt lat="-26.983593" lon="-48.637942"><ele>10.8</ele></trkpt><trkpt lat="-26.983597" lon="-48.637963"><ele>10.6</ele></trkpt><trkpt lat="-26.983592" lon="-48.637977"><ele>10.8</ele></trkpt><trkpt lat="-26.983592" lon="-48.637983"><ele>10.8</ele></trkpt><trkpt lat="-26.98359" lon="-48.637983"><ele>10.7</ele></trkpt><trkpt lat="-26.983592" lon="-48.63798"><ele>10.8</ele></trkpt><trkpt lat="-26.983588" lon="-48.637982"><ele>11.1</ele></trkpt><trkpt lat="-26.983588" lon="-48.637982"><ele>11.1</ele></trkpt><trkpt lat="-26.983587" lon="-48.637982"><ele>11.3</ele></trkpt><trkpt lat="-26.983592" lon="-48.637987"><ele>11.5</ele></trkpt><trkpt lat="-26.983598" lon="-48.637987"><ele>11.7</ele></trkpt><trkpt lat="-26.983598" lon="-48.637987"><ele>11.9</ele></trkpt><trkpt lat="-26.983638" lon="-48.638025"><ele>39</ele></trkpt><trkpt lat="-26.98364" lon="-48.638023"><ele>39.1</ele></trkpt><trkpt lat="-26.983642" lon="-48.63802"><ele>39.1</ele></trkpt><trkpt lat="-26.983642" lon="-48.63802"><ele>39.1</ele></trkpt><trkpt lat="-26.983642" lon="-48.63802"><ele>39.1</ele></trkpt><trkpt lat="-26.983642" lon="-48.63802"><ele>39.1</ele></trkpt><trkpt lat="-26.983642" lon="-48.63802"><ele>39.1</ele></trkpt><trkpt lat="-26.983642" lon="-48.63802"><ele>39.1</ele></trkpt><trkpt lat="-26.983642" lon="-48.63802"><ele>39.1</ele></trkpt><trkpt lat="-26.983645" lon="-48.638048"><ele>38.7</ele></trkpt><trkpt lat="-26.98364" lon="-48.63806"><ele>38.6</ele></trkpt><trkpt lat="-26.983637" lon="-48.638075"><ele>37.8</ele></trkpt><trkpt lat="-26.983633" lon="-48.638095"><ele>37.4</ele></trkpt><trkpt lat="-26.983625" lon="-48.638115"><ele>36.4</ele></trkpt><trkpt lat="-26.983622" lon="-48.638138"><ele>35.4</ele></trkpt><trkpt lat="-26.983622" lon="-48.638163"><ele>34.9</ele></trkpt><trkpt lat="-26.983627" lon="-48.638188"><ele>34.3</ele></trkpt><trkpt lat="-26.983627" lon="-48.638202"><ele>34</ele></trkpt><trkpt lat="-26.983623" lon="-48.638208"><ele>33.6</ele></trkpt><trkpt lat="-26.983618" lon="-48.638207"><ele>33.4</ele></trkpt><trkpt lat="-26.983618" lon="-48.638207"><ele>33.4</ele></trkpt><trkpt lat="-26.983618" lon="-48.63821"><ele>33.2</ele></trkpt><trkpt lat="-26.983622" lon="-48.638212"><ele>32.9</ele></trkpt><trkpt lat="-26.983625" lon="-48.638215"><ele>32.4</ele></trkpt><trkpt lat="-26.983627" lon="-48.638217"><ele>32.2</ele></trkpt><trkpt lat="-26.983625" lon="-48.638217"><ele>32.2</ele></trkpt><trkpt lat="-26.983632" lon="-48.638217"><ele>31.9</ele></trkpt><trkpt lat="-26.983633" lon="-48.63822"><ele>31.8</ele></trkpt><trkpt lat="-26.983633" lon="-48.638223"><ele>31.8</ele></trkpt><trkpt lat="-26.983633" lon="-48.638223"><ele>31.8</ele></trkpt><trkpt lat="-26.983633" lon="-48.638223"><ele>31.8</ele></trkpt><trkpt lat="-26.983633" lon="-48.638223"><ele>31.8</ele></trkpt><trkpt lat="-26.983643" lon="-48.638263"><ele>31.7</ele></trkpt><trkpt lat="-26.983665" lon="-48.638277"><ele>31.4</ele></trkpt><trkpt lat="-26.983673" lon="-48.638288"><ele>31.4</ele></trkpt><trkpt lat="-26.983677" lon="-48.638303"><ele>31.4</ele></trkpt><trkpt lat="-26.983682" lon="-48.638323"><ele>31.2</ele></trkpt><trkpt lat="-26.98368" lon="-48.638348"><ele>31.3</ele></trkpt><trkpt lat="-26.98368" lon="-48.638378"><ele>30.7</ele></trkpt><trkpt lat="-26.98368" lon="-48.638395"><ele>30.6</ele></trkpt><trkpt lat="-26.98368" lon="-48.638395"><ele>30.6</ele></trkpt><trkpt lat="-26.983677" lon="-48.638403"><ele>30.5</ele></trkpt><trkpt lat="-26.983677" lon="-48.63841"><ele>30.2</ele></trkpt><trkpt lat="-26.983678" lon="-48.638418"><ele>29.9</ele></trkpt><trkpt lat="-26.983685" lon="-48.63842"><ele>29.5</ele></trkpt><trkpt lat="-26.983683" lon="-48.63842"><ele>29.7</ele></trkpt><trkpt lat="-26.983683" lon="-48.63842"><ele>29.7</ele></trkpt><trkpt lat="-26.983683" lon="-48.638422"><ele>29.9</ele></trkpt><trkpt lat="-26.983687" lon="-48.63842"><ele>30.1</ele></trkpt><trkpt lat="-26.983688" lon="-48.638422"><ele>30.2</ele></trkpt><trkpt lat="-26.983687" lon="-48.638428"><ele>30.3</ele></trkpt><trkpt lat="-26.983692" lon="-48.638443"><ele>29.5</ele></trkpt><trkpt lat="-26.983692" lon="-48.638443"><ele>29.5</ele></trkpt><trkpt lat="-26.983692" lon="-48.638443"><ele>29.5</ele></trkpt><trkpt lat="-26.983692" lon="-48.638443"><ele>29.5</ele></trkpt><trkpt lat="-26.983692" lon="-48.638443"><ele>29.5</ele></trkpt><trkpt lat="-26.983692" lon="-48.638443"><ele>29.5</ele></trkpt><trkpt lat="-26.983692" lon="-48.638443"><ele>29.5</ele></trkpt><trkpt lat="-26.983692" lon="-48.638443"><ele>29.5</ele></trkpt><trkpt lat="-26.983692" lon="-48.638443"><ele>29.5</ele></trkpt><trkpt lat="-26.983618" lon="-48.638488"><ele>33</ele></trkpt><trkpt lat="-26.98361" lon="-48.638532"><ele>32.3</ele></trkpt><trkpt lat="-26.983595" lon="-48.638567"><ele>31</ele></trkpt><trkpt lat="-26.983593" lon="-48.638607"><ele>29.7</ele></trkpt><trkpt lat="-26.983593" lon="-48.638635"><ele>28.6</ele></trkpt><trkpt lat="-26.983592" lon="-48.63866"><ele>27</ele></trkpt><trkpt lat="-26.983588" lon="-48.638688"><ele>25.2</ele></trkpt><trkpt lat="-26.98359" lon="-48.638712"><ele>23.8</ele></trkpt><trkpt lat="-26.983597" lon="-48.638737"><ele>21.7</ele></trkpt><trkpt lat="-26.983595" lon="-48.638755"><ele>19.1</ele></trkpt><trkpt lat="-26.983588" lon="-48.638757"><ele>17.4</ele></trkpt><trkpt lat="-26.98359" lon="-48.638763"><ele>17</ele></trkpt><trkpt lat="-26.983585" lon="-48.638763"><ele>16.6</ele></trkpt><trkpt lat="-26.983587" lon="-48.638765"><ele>16</ele></trkpt><trkpt lat="-26.983585" lon="-48.638765"><ele>15.3</ele></trkpt><trkpt lat="-26.983585" lon="-48.638765"><ele>15.3</ele></trkpt><trkpt lat="-26.983585" lon="-48.638763"><ele>14.4</ele></trkpt><trkpt lat="-26.983585" lon="-48.638763"><ele>14.4</ele></trkpt><trkpt lat="-26.983585" lon="-48.638763"><ele>13.6</ele></trkpt><trkpt lat="-26.983588" lon="-48.638762"><ele>12.6</ele></trkpt><trkpt lat="-26.983588" lon="-48.63876"><ele>12.1</ele></trkpt><trkpt lat="-26.983583" lon="-48.63876"><ele>11.2</ele></trkpt><trkpt lat="-26.983582" lon="-48.638757"><ele>10.4</ele></trkpt><trkpt lat="-26.983582" lon="-48.638757"><ele>10.4</ele></trkpt><trkpt lat="-26.983582" lon="-48.638757"><ele>10.4</ele></trkpt><trkpt lat="-26.983582" lon="-48.638757"><ele>10.4</ele></trkpt><trkpt lat="-26.983582" lon="-48.638757"><ele>10.4</ele></trkpt><trkpt lat="-26.983582" lon="-48.638757"><ele>10.4</ele></trkpt><trkpt lat="-26.983582" lon="-48.638757"><ele>10.4</ele></trkpt><trkpt lat="-26.983582" lon="-48.638757"><ele>10.4</ele></trkpt><trkpt lat="-26.983582" lon="-48.638757"><ele>10.4</ele></trkpt><trkpt lat="-26.983582" lon="-48.638757"><ele>10.4</ele></trkpt><trkpt lat="-26.983582" lon="-48.638757"><ele>10.4</ele></trkpt><trkpt lat="-26.983582" lon="-48.638757"><ele>10.4</ele></trkpt><trkpt lat="-26.983582" lon="-48.638757"><ele>10.4</ele></trkpt><trkpt lat="-26.983582" lon="-48.638757"><ele>10.4</ele></trkpt><trkpt lat="-26.98354" lon="-48.638777"><ele>7.2</ele></trkpt><trkpt lat="-26.983538" lon="-48.638793"><ele>6.8</ele></trkpt><trkpt lat="-26.983545" lon="-48.638823"><ele>6.6</ele></trkpt><trkpt lat="-26.983543" lon="-48.638855"><ele>6.4</ele></trkpt><trkpt lat="-26.983537" lon="-48.638885"><ele>6</ele></trkpt><trkpt lat="-26.983532" lon="-48.638912"><ele>5.8</ele></trkpt><trkpt lat="-26.983525" lon="-48.638925"><ele>5.9</ele></trkpt><trkpt lat="-26.983523" lon="-48.638932"><ele>6.1</ele></trkpt><trkpt lat="-26.983517" lon="-48.63893"><ele>6.2</ele></trkpt><trkpt lat="-26.983517" lon="-48.63893"><ele>6.1</ele></trkpt><trkpt lat="-26.983513" lon="-48.63893"><ele>6.2</ele></trkpt><trkpt lat="-26.98351" lon="-48.63893"><ele>6.6</ele></trkpt><trkpt lat="-26.983508" lon="-48.638932"><ele>6.8</ele></trkpt><trkpt lat="-26.983512" lon="-48.638935"><ele>6.9</ele></trkpt><trkpt lat="-26.98351" lon="-48.638937"><ele>7.1</ele></trkpt><trkpt lat="-26.983508" lon="-48.638938"><ele>7.3</ele></trkpt><trkpt lat="-26.983505" lon="-48.638938"><ele>7.5</ele></trkpt><trkpt lat="-26.983503" lon="-48.63894"><ele>7.5</ele></trkpt><trkpt lat="-26.983503" lon="-48.63894"><ele>7.5</ele></trkpt><trkpt lat="-26.983503" lon="-48.63894"><ele>7.5</ele></trkpt><trkpt lat="-26.983503" lon="-48.63894"><ele>7.5</ele></trkpt><trkpt lat="-26.983503" lon="-48.63894"><ele>7.5</ele></trkpt><trkpt lat="-26.983503" lon="-48.63894"><ele>7.5</ele></trkpt><trkpt lat="-26.983503" lon="-48.63894"><ele>7.5</ele></trkpt><trkpt lat="-26.983503" lon="-48.63894"><ele>7.5</ele></trkpt><trkpt lat="-26.98353" lon="-48.638967"><ele>7.3</ele></trkpt><trkpt lat="-26.983532" lon="-48.638978"><ele>7.3</ele></trkpt><trkpt lat="-26.983533" lon="-48.638988"><ele>7.1</ele></trkpt><trkpt lat="-26.983545" lon="-48.639012"><ele>7.3</ele></trkpt><trkpt lat="-26.983552" lon="-48.639032"><ele>7.3</ele></trkpt><trkpt lat="-26.983555" lon="-48.639048"><ele>7.1</ele></trkpt><trkpt lat="-26.98356" lon="-48.639062"><ele>7.2</ele></trkpt><trkpt lat="-26.983563" lon="-48.639068"><ele>7.2</ele></trkpt><trkpt lat="-26.98356" lon="-48.639075"><ele>6.9</ele></trkpt><trkpt lat="-26.983558" lon="-48.639085"><ele>6.5</ele></trkpt><trkpt lat="-26.98356" lon="-48.639093"><ele>6.4</ele></trkpt><trkpt lat="-26.98356" lon="-48.639102"><ele>6</ele></trkpt><trkpt lat="-26.983562" lon="-48.639115"><ele>5.8</ele></trkpt><trkpt lat="-26.983562" lon="-48.639115"><ele>5.8</ele></trkpt><trkpt lat="-26.983565" lon="-48.639135"><ele>5.4</ele></trkpt><trkpt lat="-26.98357" lon="-48.639158"><ele>5.2</ele></trkpt><trkpt lat="-26.98359" lon="-48.639187"><ele>4.8</ele></trkpt><trkpt lat="-26.983605" lon="-48.639205"><ele>4.2</ele></trkpt><trkpt lat="-26.983613" lon="-48.639213"><ele>3.7</ele></trkpt><trkpt lat="-26.98362" lon="-48.639215"><ele>3.3</ele></trkpt><trkpt lat="-26.983622" lon="-48.63922"><ele>3</ele></trkpt><trkpt lat="-26.983632" lon="-48.639225"><ele>2.4</ele></trkpt><trkpt lat="-26.983637" lon="-48.639235"><ele>1.7</ele></trkpt><trkpt lat="-26.983638" lon="-48.63924"><ele>1</ele></trkpt><trkpt lat="-26.983643" lon="-48.639245"><ele>0.5</ele></trkpt><trkpt lat="-26.983653" lon="-48.639255"><ele>0.2</ele></trkpt><trkpt lat="-26.983663" lon="-48.639263"><ele>-0.1</ele></trkpt><trkpt lat="-26.983682" lon="-48.639272"><ele>-0.3</ele></trkpt><trkpt lat="-26.983697" lon="-48.639275"><ele>-0.3</ele></trkpt><trkpt lat="-26.983708" lon="-48.639275"><ele>-0.2</ele></trkpt><trkpt lat="-26.983725" lon="-48.63928"><ele>-0.3</ele></trkpt><trkpt lat="-26.983738" lon="-48.639285"><ele>-0.3</ele></trkpt><trkpt lat="-26.98375" lon="-48.639283"><ele>-0.3</ele></trkpt><trkpt lat="-26.98376" lon="-48.639282"><ele>-0.6</ele></trkpt><trkpt lat="-26.983758" lon="-48.63928"><ele>-0.7</ele></trkpt><trkpt lat="-26.983755" lon="-48.639283"><ele>-0.8</ele></trkpt><trkpt lat="-26.983752" lon="-48.639283"><ele>-0.7</ele></trkpt><trkpt lat="-26.983745" lon="-48.639288"><ele>-0.2</ele></trkpt><trkpt lat="-26.98374" lon="-48.639293"><ele>0.1</ele></trkpt><trkpt lat="-26.983743" lon="-48.639297"><ele>0.4</ele></trkpt><trkpt lat="-26.983745" lon="-48.639297"><ele>0.5</ele></trkpt><trkpt lat="-26.983743" lon="-48.639297"><ele>0.6</ele></trkpt><trkpt lat="-26.983738" lon="-48.639295"><ele>0.3</ele></trkpt><trkpt lat="-26.983733" lon="-48.639293"><ele>0.2</ele></trkpt><trkpt lat="-26.983728" lon="-48.639293"><ele>0.2</ele></trkpt><trkpt lat="-26.983723" lon="-48.639292"><ele>0.3</ele></trkpt><trkpt lat="-26.983718" lon="-48.639295"><ele>0.4</ele></trkpt><trkpt lat="-26.983718" lon="-48.639295"><ele>0.4</ele></trkpt><trkpt lat="-26.983718" lon="-48.639295"><ele>1.2</ele></trkpt><trkpt lat="-26.983722" lon="-48.639295"><ele>1.6</ele></trkpt><trkpt lat="-26.983725" lon="-48.639293"><ele>1.7</ele></trkpt><trkpt lat="-26.983727" lon="-48.639292"><ele>2</ele></trkpt><trkpt lat="-26.983732" lon="-48.63929"><ele>1.9</ele></trkpt><trkpt lat="-26.983738" lon="-48.639288"><ele>2.3</ele></trkpt><trkpt lat="-26.983743" lon="-48.639283"><ele>2.3</ele></trkpt><trkpt lat="-26.98375" lon="-48.639283"><ele>2.2</ele></trkpt><trkpt lat="-26.98376" lon="-48.639297"><ele>2.2</ele></trkpt><trkpt lat="-26.983768" lon="-48.639305"><ele>3.1</ele></trkpt><trkpt lat="-26.983778" lon="-48.639307"><ele>3.4</ele></trkpt><trkpt lat="-26.983792" lon="-48.63931"><ele>3.6</ele></trkpt><trkpt lat="-26.98381" lon="-48.639318"><ele>6.4</ele></trkpt><trkpt lat="-26.983827" lon="-48.639325"><ele>8.7</ele></trkpt><trkpt lat="-26.983843" lon="-48.639327"><ele>9.4</ele></trkpt><trkpt lat="-26.983858" lon="-48.639328"><ele>9.9</ele></trkpt><trkpt lat="-26.983867" lon="-48.639332"><ele>10.4</ele></trkpt><trkpt lat="-26.983873" lon="-48.639328"><ele>10</ele></trkpt><trkpt lat="-26.983878" lon="-48.639328"><ele>10.2</ele></trkpt><trkpt lat="-26.983883" lon="-48.639328"><ele>10</ele></trkpt><trkpt lat="-26.983888" lon="-48.639328"><ele>9.9</ele></trkpt><trkpt lat="-26.983893" lon="-48.63933"><ele>10</ele></trkpt><trkpt lat="-26.983905" lon="-48.639335"><ele>10</ele></trkpt><trkpt lat="-26.983918" lon="-48.63934"><ele>10.2</ele></trkpt><trkpt lat="-26.983932" lon="-48.639352"><ele>10.6</ele></trkpt><trkpt lat="-26.98395" lon="-48.63937"><ele>12.7</ele></trkpt><trkpt lat="-26.983972" lon="-48.639373"><ele>13.3</ele></trkpt><trkpt lat="-26.983985" lon="-48.639377"><ele>13.4</ele></trkpt><trkpt lat="-26.983993" lon="-48.639375"><ele>14</ele></trkpt><trkpt lat="-26.983995" lon="-48.639365"><ele>14.1</ele></trkpt><trkpt lat="-26.983995" lon="-48.639357"><ele>14</ele></trkpt><trkpt lat="-26.984" lon="-48.639343"><ele>13.5</ele></trkpt><trkpt lat="-26.984" lon="-48.639338"><ele>12.8</ele></trkpt><trkpt lat="-26.983998" lon="-48.639333"><ele>12.6</ele></trkpt><trkpt lat="-26.983992" lon="-48.639325"><ele>12.4</ele></trkpt><trkpt lat="-26.983987" lon="-48.63932"><ele>12.3</ele></trkpt><trkpt lat="-26.983983" lon="-48.639317"><ele>12.2</ele></trkpt><trkpt lat="-26.983978" lon="-48.639312"><ele>11.9</ele></trkpt><trkpt lat="-26.983975" lon="-48.63931"><ele>11.6</ele></trkpt><trkpt lat="-26.983967" lon="-48.63931"><ele>11.4</ele></trkpt><trkpt lat="-26.983957" lon="-48.639308"><ele>11.6</ele></trkpt><trkpt lat="-26.983943" lon="-48.639308"><ele>11.9</ele></trkpt><trkpt lat="-26.983932" lon="-48.639308"><ele>12.8</ele></trkpt><trkpt lat="-26.983917" lon="-48.639308"><ele>13.4</ele></trkpt><trkpt lat="-26.9839" lon="-48.639315"><ele>14.2</ele></trkpt><trkpt lat="-26.983885" lon="-48.63932"><ele>14.9</ele></trkpt><trkpt lat="-26.98387" lon="-48.639322"><ele>15.2</ele></trkpt><trkpt lat="-26.983855" lon="-48.639325"><ele>15.7</ele></trkpt><trkpt lat="-26.983843" lon="-48.639325"><ele>16.2</ele></trkpt><trkpt lat="-26.983832" lon="-48.63933"><ele>16.6</ele></trkpt><trkpt lat="-26.98382" lon="-48.639337"><ele>17.1</ele></trkpt><trkpt lat="-26.983808" lon="-48.639352"><ele>19.2</ele></trkpt><trkpt lat="-26.983795" lon="-48.639362"><ele>21</ele></trkpt><trkpt lat="-26.983783" lon="-48.639363"><ele>21.4</ele></trkpt><trkpt lat="-26.983773" lon="-48.639365"><ele>21.5</ele></trkpt><trkpt lat="-26.983765" lon="-48.639365"><ele>21.9</ele></trkpt><trkpt lat="-26.98376" lon="-48.639362"><ele>22.2</ele></trkpt><trkpt lat="-26.983753" lon="-48.639357"><ele>22</ele></trkpt><trkpt lat="-26.98375" lon="-48.639353"><ele>21.6</ele></trkpt><trkpt lat="-26.983748" lon="-48.639353"><ele>21.4</ele></trkpt><trkpt lat="-26.98375" lon="-48.639352"><ele>20.8</ele></trkpt><trkpt lat="-26.983747" lon="-48.639342"><ele>20.2</ele></trkpt><trkpt lat="-26.983745" lon="-48.639328"><ele>19.6</ele></trkpt><trkpt lat="-26.983748" lon="-48.639318"><ele>19.2</ele></trkpt><trkpt lat="-26.983748" lon="-48.639305"><ele>18.8</ele></trkpt><trkpt lat="-26.983745" lon="-48.639302"><ele>18.4</ele></trkpt><trkpt lat="-26.98374" lon="-48.639295"><ele>17.7</ele></trkpt><trkpt lat="-26.983735" lon="-48.639288"><ele>17</ele></trkpt><trkpt lat="-26.983735" lon="-48.639288"><ele>17</ele></trkpt><trkpt lat="-26.983735" lon="-48.639288"><ele>17</ele></trkpt><trkpt lat="-26.983735" lon="-48.639288"><ele>17</ele></trkpt><trkpt lat="-26.983735" lon="-48.639288"><ele>17</ele></trkpt><trkpt lat="-26.983735" lon="-48.639288"><ele>17</ele></trkpt><trkpt lat="-26.983735" lon="-48.639288"><ele>17</ele></trkpt><trkpt lat="-26.983735" lon="-48.639288"><ele>17</ele></trkpt><trkpt lat="-26.983735" lon="-48.639288"><ele>17</ele></trkpt><trkpt lat="-26.983735" lon="-48.639288"><ele>17</ele></trkpt><trkpt lat="-26.983735" lon="-48.639288"><ele>17</ele></trkpt><trkpt lat="-26.983735" lon="-48.639288"><ele>17</ele></trkpt><trkpt lat="-26.983735" lon="-48.639288"><ele>17</ele></trkpt><trkpt lat="-26.983735" lon="-48.639288"><ele>17</ele></trkpt><trkpt lat="-26.983735" lon="-48.639288"><ele>17</ele></trkpt><trkpt lat="-26.983735" lon="-48.639288"><ele>17</ele></trkpt><trkpt lat="-26.983735" lon="-48.639288"><ele>17</ele></trkpt><trkpt lat="-26.983735" lon="-48.639288"><ele>17</ele></trkpt><trkpt lat="-26.983735" lon="-48.639288"><ele>17</ele></trkpt><trkpt lat="-26.983735" lon="-48.639288"><ele>17</ele></trkpt><trkpt lat="-26.983735" lon="-48.639288"><ele>17</ele></trkpt><trkpt lat="-26.983735" lon="-48.639288"><ele>17</ele></trkpt><trkpt lat="-26.983763" lon="-48.63923"><ele>8.4</ele></trkpt><trkpt lat="-26.983767" lon="-48.639223"><ele>8.3</ele></trkpt><trkpt lat="-26.98377" lon="-48.63922"><ele>7.9</ele></trkpt><trkpt lat="-26.983777" lon="-48.639225"><ele>7.4</ele></trkpt><trkpt lat="-26.98378" lon="-48.639233"><ele>6.8</ele></trkpt><trkpt lat="-26.983777" lon="-48.639238"><ele>6.3</ele></trkpt><trkpt lat="-26.983777" lon="-48.639245"><ele>5.6</ele></trkpt><trkpt lat="-26.983775" lon="-48.639253"><ele>4.9</ele></trkpt><trkpt lat="-26.98377" lon="-48.639257"><ele>4.1</ele></trkpt><trkpt lat="-26.983772" lon="-48.63926"><ele>3.5</ele></trkpt><trkpt lat="-26.983773" lon="-48.639262"><ele>3</ele></trkpt><trkpt lat="-26.983773" lon="-48.639265"><ele>2.4</ele></trkpt><trkpt lat="-26.983773" lon="-48.639267"><ele>1.8</ele></trkpt><trkpt lat="-26.983775" lon="-48.639268"><ele>1.4</ele></trkpt><trkpt lat="-26.983777" lon="-48.639268"><ele>1.2</ele></trkpt><trkpt lat="-26.983778" lon="-48.639265"><ele>1</ele></trkpt><trkpt lat="-26.983778" lon="-48.639263"><ele>1</ele></trkpt><trkpt lat="-26.98378" lon="-48.639262"><ele>0.9</ele></trkpt><trkpt lat="-26.98378" lon="-48.639262"><ele>0.9</ele></trkpt><trkpt lat="-26.983778" lon="-48.639263"><ele>0.8</ele></trkpt><trkpt lat="-26.983777" lon="-48.639263"><ele>0.5</ele></trkpt><trkpt lat="-26.983777" lon="-48.639263"><ele>0.5</ele></trkpt><trkpt lat="-26.983777" lon="-48.639263"><ele>0.5</ele></trkpt><trkpt lat="-26.983777" lon="-48.639263"><ele>0.5</ele></trkpt><trkpt lat="-26.983777" lon="-48.639263"><ele>0.5</ele></trkpt><trkpt lat="-26.983777" lon="-48.639263"><ele>0.5</ele></trkpt><trkpt lat="-26.983777" lon="-48.639263"><ele>0.5</ele></trkpt><trkpt lat="-26.983777" lon="-48.639263"><ele>0.5</ele></trkpt><trkpt lat="-26.983777" lon="-48.639263"><ele>0.5</ele></trkpt><trkpt lat="-26.983777" lon="-48.639263"><ele>0.5</ele></trkpt><trkpt lat="-26.983777" lon="-48.639263"><ele>0.5</ele></trkpt><trkpt lat="-26.983777" lon="-48.639263"><ele>0.5</ele></trkpt><trkpt lat="-26.983777" lon="-48.639263"><ele>0.5</ele></trkpt><trkpt lat="-26.983777" lon="-48.639263"><ele>0.5</ele></trkpt><trkpt lat="-26.983777" lon="-48.639263"><ele>0.5</ele></trkpt><trkpt lat="-26.983777" lon="-48.639263"><ele>0.5</ele></trkpt><trkpt lat="-26.983777" lon="-48.639263"><ele>0.5</ele></trkpt><trkpt lat="-26.983777" lon="-48.639263"><ele>0.5</ele></trkpt><trkpt lat="-26.983777" lon="-48.639263"><ele>0.5</ele></trkpt><trkpt lat="-26.983777" lon="-48.639263"><ele>0.5</ele></trkpt><trkpt lat="-26.983777" lon="-48.639263"><ele>0.5</ele></trkpt><trkpt lat="-26.983777" lon="-48.639263"><ele>0.5</ele></trkpt><trkpt lat="-26.983777" lon="-48.639263"><ele>0.5</ele></trkpt><trkpt lat="-26.983777" lon="-48.639263"><ele>0.5</ele></trkpt><trkpt lat="-26.983777" lon="-48.639263"><ele>0.5</ele></trkpt><trkpt lat="-26.983777" lon="-48.639263"><ele>0.5</ele></trkpt><trkpt lat="-26.983777" lon="-48.639263"><ele>0.5</ele></trkpt><trkpt lat="-26.983777" lon="-48.639263"><ele>0.5</ele></trkpt><trkpt lat="-26.983777" lon="-48.639263"><ele>0.5</ele></trkpt><trkpt lat="-26.983777" lon="-48.639263"><ele>0.5</ele></trkpt><trkpt lat="-26.983777" lon="-48.639263"><ele>0.5</ele></trkpt><trkpt lat="-26.983777" lon="-48.639263"><ele>0.5</ele></trkpt><trkpt lat="-26.983777" lon="-48.639263"><ele>0.5</ele></trkpt><trkpt lat="-26.983777" lon="-48.639263"><ele>0.5</ele></trkpt><trkpt lat="-26.983777" lon="-48.639263"><ele>0.5</ele></trkpt><trkpt lat="-26.983777" lon="-48.639263"><ele>0.5</ele></trkpt><trkpt lat="-26.983777" lon="-48.639263"><ele>0.5</ele></trkpt><trkpt lat="-26.983777" lon="-48.639263"><ele>0.5</ele></trkpt><trkpt lat="-26.983777" lon="-48.639263"><ele>0.5</ele></trkpt><trkpt lat="-26.983777" lon="-48.639263"><ele>0.5</ele></trkpt><trkpt lat="-26.983777" lon="-48.639263"><ele>0.5</ele></trkpt><trkpt lat="-26.983777" lon="-48.639263"><ele>0.5</ele></trkpt><trkpt lat="-26.983777" lon="-48.639263"><ele>0.5</ele></trkpt><trkpt lat="-26.983777" lon="-48.639263"><ele>0.5</ele></trkpt><trkpt lat="-26.983777" lon="-48.639263"><ele>0.5</ele></trkpt><trkpt lat="-26.983777" lon="-48.639263"><ele>0.5</ele></trkpt><trkpt lat="-26.983777" lon="-48.639263"><ele>0.5</ele></trkpt><trkpt lat="-26.983777" lon="-48.639263"><ele>0.5</ele></trkpt><trkpt lat="-26.983777" lon="-48.639263"><ele>0.5</ele></trkpt><trkpt lat="-26.983777" lon="-48.639263"><ele>0.5</ele></trkpt><trkpt lat="-26.983777" lon="-48.639263"><ele>0.5</ele></trkpt><trkpt lat="-26.983777" lon="-48.639263"><ele>0.5</ele></trkpt><trkpt lat="-26.983777" lon="-48.639263"><ele>0.5</ele></trkpt><trkpt lat="-26.983777" lon="-48.639263"><ele>0.5</ele></trkpt><trkpt lat="-26.983777" lon="-48.639263"><ele>0.5</ele></trkpt><trkpt lat="-26.983777" lon="-48.639263"><ele>0.5</ele></trkpt><trkpt lat="-26.983777" lon="-48.639263"><ele>0.5</ele></trkpt><trkpt lat="-26.983777" lon="-48.639263"><ele>0.5</ele></trkpt><trkpt lat="-26.983777" lon="-48.639263"><ele>0.5</ele></trkpt><trkpt lat="-26.983777" lon="-48.639263"><ele>0.5</ele></trkpt><trkpt lat="-26.983777" lon="-48.639263"><ele>0.5</ele></trkpt><trkpt lat="-26.983777" lon="-48.639263"><ele>0.5</ele></trkpt><trkpt lat="-26.983777" lon="-48.639263"><ele>0.5</ele></trkpt><trkpt lat="-26.983777" lon="-48.639263"><ele>0.5</ele></trkpt><trkpt lat="-26.983777" lon="-48.639263"><ele>0.5</ele></trkpt><trkpt lat="-26.983777" lon="-48.639263"><ele>0.5</ele></trkpt><trkpt lat="-26.983777" lon="-48.639263"><ele>0.5</ele></trkpt><trkpt lat="-26.983777" lon="-48.639263"><ele>0.5</ele></trkpt><trkpt lat="-26.983777" lon="-48.639263"><ele>0.5</ele></trkpt><trkpt lat="-26.983777" lon="-48.639263"><ele>0.5</ele></trkpt><trkpt lat="-26.983777" lon="-48.639263"><ele>0.5</ele></trkpt><trkpt lat="-26.983777" lon="-48.639263"><ele>0.5</ele></trkpt><trkpt lat="-26.983777" lon="-48.639263"><ele>0.5</ele></trkpt><trkpt lat="-26.983777" lon="-48.639263"><ele>0.5</ele></trkpt><trkpt lat="-26.983777" lon="-48.639263"><ele>0.5</ele></trkpt><trkpt lat="-26.983777" lon="-48.639263"><ele>0.5</ele></trkpt><trkpt lat="-26.983777" lon="-48.639263"><ele>0.5</ele></trkpt><trkpt lat="-26.983777" lon="-48.639263"><ele>0.5</ele></trkpt><trkpt lat="-26.983777" lon="-48.639263"><ele>0.5</ele></trkpt><trkpt lat="-26.983777" lon="-48.639263"><ele>0.5</ele></trkpt><trkpt lat="-26.983777" lon="-48.639263"><ele>0.5</ele></trkpt><trkpt lat="-26.983777" lon="-48.639263"><ele>0.5</ele></trkpt><trkpt lat="-26.983777" lon="-48.639263"><ele>0.5</ele></trkpt><trkpt lat="-26.983777" lon="-48.639263"><ele>0.5</ele></trkpt><trkpt lat="-26.983777" lon="-48.639263"><ele>0.5</ele></trkpt><trkpt lat="-26.983777" lon="-48.639263"><ele>0.5</ele></trkpt><trkpt lat="-26.983777" lon="-48.639263"><ele>0.5</ele></trkpt><trkpt lat="-26.983777" lon="-48.639263"><ele>0.5</ele></trkpt><trkpt lat="-26.983777" lon="-48.639263"><ele>0.5</ele></trkpt><trkpt lat="-26.983777" lon="-48.639263"><ele>0.5</ele></trkpt><trkpt lat="-26.983777" lon="-48.639263"><ele>0.5</ele></trkpt><trkpt lat="-26.983777" lon="-48.639263"><ele>0.5</ele></trkpt><trkpt lat="-26.983777" lon="-48.639263"><ele>0.5</ele></trkpt><trkpt lat="-26.983777" lon="-48.639263"><ele>0.5</ele></trkpt><trkpt lat="-26.983777" lon="-48.639263"><ele>0.5</ele></trkpt><trkpt lat="-26.983777" lon="-48.639263"><ele>0.5</ele></trkpt><trkpt lat="-26.983777" lon="-48.639263"><ele>0.5</ele></trkpt><trkpt lat="-26.983777" lon="-48.639263"><ele>0.5</ele></trkpt><trkpt lat="-26.983777" lon="-48.639263"><ele>0.5</ele></trkpt><trkpt lat="-26.983777" lon="-48.639263"><ele>0.5</ele></trkpt><trkpt lat="-26.983777" lon="-48.639263"><ele>0.5</ele></trkpt><trkpt lat="-26.983777" lon="-48.639263"><ele>0.5</ele></trkpt><trkpt lat="-26.983777" lon="-48.639263"><ele>0.5</ele></trkpt><trkpt lat="-26.983777" lon="-48.639263"><ele>0.5</ele></trkpt><trkpt lat="-26.983777" lon="-48.639263"><ele>0.5</ele></trkpt><trkpt lat="-26.983777" lon="-48.639263"><ele>0.5</ele></trkpt><trkpt lat="-26.983777" lon="-48.639263"><ele>0.5</ele></trkpt><trkpt lat="-26.983777" lon="-48.639263"><ele>0.5</ele></trkpt><trkpt lat="-26.983777" lon="-48.639263"><ele>0.5</ele></trkpt><trkpt lat="-26.983777" lon="-48.639263"><ele>0.5</ele></trkpt><trkpt lat="-26.983777" lon="-48.639263"><ele>0.5</ele></trkpt><trkpt lat="-26.983777" lon="-48.639263"><ele>0.5</ele></trkpt><trkpt lat="-26.983777" lon="-48.639263"><ele>0.5</ele></trkpt><trkpt lat="-26.983777" lon="-48.639263"><ele>0.5</ele></trkpt><trkpt lat="-26.983777" lon="-48.639263"><ele>0.5</ele></trkpt><trkpt lat="-26.983777" lon="-48.639263"><ele>0.5</ele></trkpt><trkpt lat="-26.983777" lon="-48.639263"><ele>0.5</ele></trkpt><trkpt lat="-26.983777" lon="-48.639263"><ele>0.5</ele></trkpt><trkpt lat="-26.983777" lon="-48.639263"><ele>0.5</ele></trkpt><trkpt lat="-26.983777" lon="-48.639263"><ele>0.5</ele></trkpt><trkpt lat="-26.983777" lon="-48.639263"><ele>0.5</ele></trkpt><trkpt lat="-26.983777" lon="-48.639263"><ele>0.5</ele></trkpt><trkpt lat="-26.983777" lon="-48.639263"><ele>0.5</ele></trkpt><trkpt lat="-26.983777" lon="-48.639263"><ele>0.5</ele></trkpt><trkpt lat="-26.983777" lon="-48.639263"><ele>0.5</ele></trkpt><trkpt lat="-26.983777" lon="-48.639263"><ele>0.5</ele></trkpt><trkpt lat="-26.983777" lon="-48.639263"><ele>0.5</ele></trkpt><trkpt lat="-26.983777" lon="-48.639263"><ele>0.5</ele></trkpt><trkpt lat="-26.983777" lon="-48.639263"><ele>0.5</ele></trkpt><trkpt lat="-26.983777" lon="-48.639263"><ele>0.5</ele></trkpt><trkpt lat="-26.983777" lon="-48.639263"><ele>0.5</ele></trkpt><trkpt lat="-26.983777" lon="-48.639263"><ele>0.5</ele></trkpt><trkpt lat="-26.983777" lon="-48.639263"><ele>0.5</ele></trkpt><trkpt lat="-26.983777" lon="-48.639263"><ele>0.5</ele></trkpt><trkpt lat="-26.983777" lon="-48.639263"><ele>0.5</ele></trkpt><trkpt lat="-26.983777" lon="-48.639263"><ele>0.5</ele></trkpt><trkpt lat="-26.983777" lon="-48.639263"><ele>0.5</ele></trkpt><trkpt lat="-26.983777" lon="-48.639263"><ele>0.5</ele></trkpt><trkpt lat="-26.983777" lon="-48.639263"><ele>0.5</ele></trkpt><trkpt lat="-26.983777" lon="-48.639263"><ele>0.5</ele></trkpt><trkpt lat="-26.983777" lon="-48.639263"><ele>0.5</ele></trkpt><trkpt lat="-26.983777" lon="-48.639263"><ele>0.5</ele></trkpt><trkpt lat="-26.983777" lon="-48.639263"><ele>0.5</ele></trkpt><trkpt lat="-26.983777" lon="-48.639263"><ele>0.5</ele></trkpt><trkpt lat="-26.98377" lon="-48.63924"><ele>-6.8</ele></trkpt><trkpt lat="-26.983773" lon="-48.639233"><ele>-7.2</ele></trkpt><trkpt lat="-26.983775" lon="-48.639227"><ele>-7.4</ele></trkpt><trkpt lat="-26.983777" lon="-48.639217"><ele>-7.5</ele></trkpt><trkpt lat="-26.983775" lon="-48.639212"><ele>-7.7</ele></trkpt><trkpt lat="-26.983775" lon="-48.639207"><ele>-7.6</ele></trkpt><trkpt lat="-26.983775" lon="-48.639203"><ele>-7.6</ele></trkpt><trkpt lat="-26.983775" lon="-48.639202"><ele>-7.6</ele></trkpt><trkpt lat="-26.983773" lon="-48.6392"><ele>-7.7</ele></trkpt><trkpt lat="-26.983772" lon="-48.6392"><ele>-8</ele></trkpt><trkpt lat="-26.983768" lon="-48.6392"><ele>-7.8</ele></trkpt><trkpt lat="-26.983763" lon="-48.639198"><ele>-7.8</ele></trkpt><trkpt lat="-26.98376" lon="-48.639198"><ele>-7.9</ele></trkpt><trkpt lat="-26.98376" lon="-48.639198"><ele>-7.9</ele></trkpt><trkpt lat="-26.98376" lon="-48.639198"><ele>-7.9</ele></trkpt><trkpt lat="-26.98376" lon="-48.63919"><ele>-7.9</ele></trkpt><trkpt lat="-26.983758" lon="-48.639187"><ele>-7.9</ele></trkpt><trkpt lat="-26.983757" lon="-48.63918"><ele>-7.8</ele></trkpt><trkpt lat="-26.983755" lon="-48.639182"><ele>-7.8</ele></trkpt><trkpt lat="-26.983748" lon="-48.639183"><ele>-7.2</ele></trkpt><trkpt lat="-26.983745" lon="-48.639185"><ele>-7</ele></trkpt><trkpt lat="-26.983745" lon="-48.639185"><ele>-7</ele></trkpt><trkpt lat="-26.983745" lon="-48.639185"><ele>-7</ele></trkpt><trkpt lat="-26.98374" lon="-48.639207"><ele>-6.8</ele></trkpt><trkpt lat="-26.983747" lon="-48.639218"><ele>-7.1</ele></trkpt><trkpt lat="-26.983752" lon="-48.63923"><ele>-7.3</ele></trkpt><trkpt lat="-26.98375" lon="-48.639233"><ele>-7.6</ele></trkpt><trkpt lat="-26.983753" lon="-48.63924"><ele>-7.7</ele></trkpt><trkpt lat="-26.983762" lon="-48.639242"><ele>-7.6</ele></trkpt><trkpt lat="-26.983763" lon="-48.639242"><ele>-7.7</ele></trkpt><trkpt lat="-26.983763" lon="-48.639242"><ele>-7.7</ele></trkpt><trkpt lat="-26.983763" lon="-48.639242"><ele>-7.7</ele></trkpt><trkpt lat="-26.983763" lon="-48.639243"><ele>-7.9</ele></trkpt><trkpt lat="-26.983763" lon="-48.639243"><ele>-7.9</ele></trkpt><trkpt lat="-26.983765" lon="-48.639243"><ele>-8</ele></trkpt><trkpt lat="-26.983765" lon="-48.639243"><ele>-8</ele></trkpt><trkpt lat="-26.983765" lon="-48.639243"><ele>-8</ele></trkpt><trkpt lat="-26.983765" lon="-48.639243"><ele>-8</ele></trkpt><trkpt lat="-26.983765" lon="-48.639243"><ele>-8</ele></trkpt><trkpt lat="-26.983765" lon="-48.639243"><ele>-8</ele></trkpt><trkpt lat="-26.983765" lon="-48.639243"><ele>-8</ele></trkpt><trkpt lat="-26.983765" lon="-48.639243"><ele>-8</ele></trkpt><trkpt lat="-26.983765" lon="-48.639243"><ele>-8</ele></trkpt><trkpt lat="-26.983765" lon="-48.639243"><ele>-8</ele></trkpt><trkpt lat="-26.983765" lon="-48.639243"><ele>-8</ele></trkpt><trkpt lat="-26.983765" lon="-48.639243"><ele>-8</ele></trkpt><trkpt lat="-26.983765" lon="-48.639243"><ele>-8</ele></trkpt><trkpt lat="-26.983765" lon="-48.639243"><ele>-8</ele></trkpt><trkpt lat="-26.983765" lon="-48.639243"><ele>-8</ele></trkpt><trkpt lat="-26.983765" lon="-48.639243"><ele>-8</ele></trkpt><trkpt lat="-26.983765" lon="-48.639243"><ele>-8</ele></trkpt><trkpt lat="-26.983765" lon="-48.639243"><ele>-8</ele></trkpt><trkpt lat="-26.983765" lon="-48.639243"><ele>-8</ele></trkpt><trkpt lat="-26.983765" lon="-48.639243"><ele>-8</ele></trkpt><trkpt lat="-26.983765" lon="-48.639243"><ele>-8</ele></trkpt><trkpt lat="-26.983765" lon="-48.639243"><ele>-8</ele></trkpt><trkpt lat="-26.983765" lon="-48.639243"><ele>-8</ele></trkpt><trkpt lat="-26.983765" lon="-48.639243"><ele>-8</ele></trkpt><trkpt lat="-26.983765" lon="-48.639243"><ele>-8</ele></trkpt><trkpt lat="-26.983765" lon="-48.639243"><ele>-8</ele></trkpt><trkpt lat="-26.983765" lon="-48.639243"><ele>-8</ele></trkpt><trkpt lat="-26.983765" lon="-48.639243"><ele>-8</ele></trkpt><trkpt lat="-26.983765" lon="-48.639243"><ele>-8</ele></trkpt><trkpt lat="-26.983765" lon="-48.639243"><ele>-8</ele></trkpt><trkpt lat="-26.983765" lon="-48.639243"><ele>-8</ele></trkpt><trkpt lat="-26.983765" lon="-48.639243"><ele>-8</ele></trkpt><trkpt lat="-26.983765" lon="-48.639243"><ele>-8</ele></trkpt><trkpt lat="-26.983765" lon="-48.639243"><ele>-8</ele></trkpt><trkpt lat="-26.983765" lon="-48.639243"><ele>-8</ele></trkpt><trkpt lat="-26.983765" lon="-48.639243"><ele>-8</ele></trkpt><trkpt lat="-26.983765" lon="-48.639243"><ele>-8</ele></trkpt><trkpt lat="-26.983765" lon="-48.639243"><ele>-8</ele></trkpt><trkpt lat="-26.983765" lon="-48.639243"><ele>-8</ele></trkpt><trkpt lat="-26.983765" lon="-48.639243"><ele>-8</ele></trkpt><trkpt lat="-26.983765" lon="-48.639243"><ele>-8</ele></trkpt><trkpt lat="-26.983765" lon="-48.639243"><ele>-8</ele></trkpt><trkpt lat="-26.983765" lon="-48.639243"><ele>-8</ele></trkpt><trkpt lat="-26.983765" lon="-48.639243"><ele>-8</ele></trkpt></trkseg></trk></gpx>