<?xml version="1.0" encoding="UTF-8"?>
<gpx xmlns="http://www.topografix.com/GPX/1/1" version="1.1" creator="@dwayneparton/geojson-to-gpx"><wpt lat="-27.016426" lon="-48.629363"><ele>6.749969</ele><name>2 faixas</name></wpt><wpt lat="-27.016572" lon="-48.629326"><ele>5.962402</ele><name>25</name></wpt><wpt lat="-27.018814" lon="-48.629237"><ele>12.205017</ele><name>25</name></wpt><wpt lat="-27.020315" lon="-48.626998"><ele>16.86676</ele><name>25</name></wpt><wpt lat="-27.016855" lon="-48.629312"><ele>6.795166</ele><name>40km/h</name></wpt><wpt lat="-27.017999" lon="-48.629407"><ele>9.575531</ele><name>40km/h</name></wpt><wpt lat="-27.018221" lon="-48.629364"><ele>9.564026</ele><name>40km/h</name></wpt><wpt lat="-27.020407" lon="-48.625984"><ele>23.931824</ele><name>40km/h</name></wpt><wpt lat="-27.020312" lon="-48.627002"><ele>15.443848</ele><name>127</name></wpt><wpt lat="-27.018815" lon="-48.629237"><ele>11.211121</ele><name>135</name></wpt><wpt lat="-27.016598" lon="-48.629324"><ele>-0.806335</ele><name>142</name></wpt><wpt lat="-27.016571" lon="-48.629325"><ele>4.786743</ele><name>324</name></wpt><wpt lat="-27.018812" lon="-48.629234"><ele>11.47467</ele><name>332</name></wpt><wpt lat="-27.020315" lon="-48.626998"><ele>16.868835</ele><name>332</name></wpt><wpt lat="-27.016564" lon="-48.629329"><ele>6.241302</ele><name>826</name></wpt><wpt lat="-27.020316" lon="-48.627006"><ele>17.04541</ele><name>838</name></wpt><wpt lat="-27.018813" lon="-48.629236"><ele>12.282104</ele><name>842</name></wpt><wpt lat="-27.020439" lon="-48.625892"><ele>24.733643</ele><name>A ciclo é sinuosa, exigindo atenção</name></wpt><wpt lat="-27.016419" lon="-48.629368"><ele>7.005585</ele><name>A ciclo troca de lado na via, sem redutores de velocidade ou semáforos</name></wpt><wpt lat="-27.020437" lon="-48.625889"><ele>21.964539</ele><name>A pintura é falha em VÁRIOS pontos</name></wpt><wpt lat="-27.016441" lon="-48.62935"><ele>5.583679</ele><name>Apenas faixas vermelhas nas bordas, com travessias pintadas nos cruzamentos</name></wpt><wpt lat="-27.016572" lon="-48.629318"><ele>5.615967</ele><name>Área de amortecimento da ciclo (cm)</name></wpt><wpt lat="-27.018816" lon="-48.629237"><ele>11.284058</ele><name>Área de amortecimento da ciclo (cm)</name></wpt><wpt lat="-27.018814" lon="-48.629237"><ele>12.206909</ele><name>Área de amortecimento da ciclo (cm)</name></wpt><wpt lat="-27.020315" lon="-48.626998"><ele>16.86676</ele><name>Área de amortecimento da ciclo (cm)</name></wpt><wpt lat="-27.016598" lon="-48.629324"><ele>-0.806335</ele><name>Área transitável da ciclo (cm)</name></wpt><wpt lat="-27.018807" lon="-48.629235"><ele>11.208466</ele><name>Área transitável da ciclo (cm)</name></wpt><wpt lat="-27.020312" lon="-48.627002"><ele>15.443848</ele><name>Área transitável da ciclo (cm)</name></wpt><wpt lat="-27.016427" lon="-48.629362"><ele>6.759644</ele><name>Asfalto</name></wpt><wpt lat="-27.016442" lon="-48.629344"><ele>5.688263</ele><name>Bidirecional</name></wpt><wpt lat="-27.016456" lon="-48.629355"><ele>5.542175</ele><name>Bueiro</name></wpt><wpt lat="-27.016439" lon="-48.629348"><ele>5.785126</ele><name>Ciclofaixa</name></wpt><wpt lat="-27.019166" lon="-48.628981"><ele>12.497925</ele><name>Desnível</name></wpt><wpt lat="-27.020244" lon="-48.627136"><ele>15.908203</ele><name>Desnível</name></wpt><wpt lat="-27.020447" lon="-48.626407"><ele>47.430969</ele><name>Desnível</name></wpt><wpt lat="-27.016441" lon="-48.629346"><ele>5.722534</ele><name>Em bordo de Via de Mão Dupla</name></wpt><wpt lat="-27.016422" lon="-48.629365"><ele>7.026672</ele><name>Estacionamento proibido na via</name></wpt><wpt lat="-27.016572" lon="-48.629323"><ele>4.613586</ele><name>Faixa de carros logo ao lado da ciclo (cm)</name></wpt><wpt lat="-27.018812" lon="-48.629234"><ele>11.47467</ele><name>Faixa de carros logo ao lado da ciclo (cm)</name></wpt><wpt lat="-27.020315" lon="-48.626998"><ele>16.868652</ele><name>Faixa de carros logo ao lado da ciclo (cm)</name></wpt><wpt lat="-27.020324" lon="-48.627007"><ele>16.923218</ele><name>Faixa de carros logo ao lado da ciclo (cm)</name></wpt><wpt lat="-27.016455" lon="-48.629357"><ele>6.574524</ele><name>Foto</name></wpt><wpt lat="-27.016422" lon="-48.629379"><ele>7.12912</ele><name>Foto</name></wpt><wpt lat="-27.01645" lon="-48.629361"><ele>6.146393</ele><name>Foto</name></wpt><wpt lat="-27.016564" lon="-48.629335"><ele>5.599091</ele><name>Foto</name></wpt><wpt lat="-27.016942" lon="-48.629317"><ele>6.919403</ele><name>Foto</name></wpt><wpt lat="-27.018509" lon="-48.629266"><ele>10.926941</ele><name>Foto</name></wpt><wpt lat="-27.018872" lon="-48.629251"><ele>19.274597</ele><name>Foto</name></wpt><wpt lat="-27.019166" lon="-48.62898"><ele>13.109009</ele><name>Foto</name></wpt><wpt lat="-27.019745" lon="-48.628548"><ele>14.957825</ele><name>Foto</name></wpt><wpt lat="-27.020109" lon="-48.627965"><ele>13.265137</ele><name>Foto</name></wpt><wpt lat="-27.020253" lon="-48.627136"><ele>15.104614</ele><name>Foto</name></wpt><wpt lat="-27.020443" lon="-48.625928"><ele>21.635742</ele><name>Foto</name></wpt><wpt lat="-27.020441" lon="-48.625926"><ele>24.582214</ele><name>Foto</name></wpt><wpt lat="-27.020438" lon="-48.625889"><ele>21.788147</ele><name>Iluminação geral na via do mesmo lado da estrutura</name></wpt><wpt lat="-27.020437" lon="-48.625889"><ele>21.955566</ele><name>Irregularidades que demandam desvio para circulação</name></wpt><wpt lat="-27.016441" lon="-48.629345"><ele>5.725281</ele><name>Mão Dupla</name></wpt><wpt lat="-27.018499" lon="-48.629261"><ele>11.157654</ele><name>Outro obstáculo</name></wpt><wpt lat="-27.019742" lon="-48.628547"><ele>13.956543</ele><name>Outro obstáculo</name></wpt><wpt lat="-27.020056" lon="-48.628076"><ele>15.546204</ele><name>Outro obstáculo</name></wpt><wpt lat="-27.020108" lon="-48.627971"><ele>13.996155</ele><name>Outro obstáculo</name></wpt><wpt lat="-27.016565" lon="-48.629334"><ele>5.67804</ele><name>Pictograma MÁ condição</name></wpt><wpt lat="-27.018753" lon="-48.629236"><ele>14.092102</ele><name>Pictograma MÁ condição</name></wpt><wpt lat="-27.018832" lon="-48.629238"><ele>15.116394</ele><name>Pictograma MÁ condição</name></wpt><wpt lat="-27.020118" lon="-48.627913"><ele>13.539673</ele><name>Pictograma MÁ condição</name></wpt><wpt lat="-27.020145" lon="-48.62784"><ele>13.209229</ele><name>Pictograma MÁ condição</name></wpt><wpt lat="-27.020426" lon="-48.6259"><ele>25.886963</ele><name>Pictograma MÁ condição</name></wpt><wpt lat="-27.0185" lon="-48.62926"><ele>11.107605</ele><name>rampa</name></wpt><wpt lat="-27.019742" lon="-48.628547"><ele>13.956543</ele><name>rampa</name></wpt><wpt lat="-27.020108" lon="-48.627969"><ele>13.819824</ele><name>rampa</name></wpt><wpt lat="-27.020056" lon="-48.628076"><ele>15.622559</ele><name>rampa </name></wpt><wpt lat="-27.020443" lon="-48.625893"><ele>24.776245</ele><name>SE CICLOFAIXA: para invadir a ciclo parte do automóvel passa obrigatoriamente por cima de segregadores</name></wpt><wpt lat="-27.02044" lon="-48.625892"><ele>24.727478</ele><name>Segregadores NÃO DIFICULTAM o acesso de ciclistas</name></wpt><wpt lat="-27.016424" lon="-48.629369"><ele>7.490784</ele><name>SEM pintura no cruzamento</name></wpt><wpt lat="-27.020437" lon="-48.62589"><ele>21.089539</ele><name>Sombras em alguns trechos, SEM mudas novas</name></wpt><wpt lat="-27.016434" lon="-48.629353"><ele>6.647675</ele><name>Tachões</name></wpt><wpt lat="-27.020443" lon="-48.625916"><ele>24.572937</ele><name>Termina ciclo com ciclista na contramão</name></wpt><wpt lat="-27.016565" lon="-48.629329"><ele>6.016449</ele><name>Total da via (incluindo a ciclo) (cm)</name></wpt><wpt lat="-27.018813" lon="-48.629236"><ele>12.282104</ele><name>Total da via (incluindo a ciclo) (cm)</name></wpt><wpt lat="-27.02032" lon="-48.627007"><ele>17.22406</ele><name>Total da via (incluindo a ciclo) (cm)</name></wpt><wpt lat="-27.017654" lon="-48.629382"><ele>8.673096</ele><name>Travessia de pedestre em nível (lombofaixa)</name></wpt><wpt lat="-27.020287" lon="-48.627051"><ele>15.940796</ele><name>Travessia de pedestre em nível (lombofaixa)</name></wpt><trk><name>Ciclofaixa R. São Miguel - Cb</name><trkseg><trkpt lat="-27.016073" lon="-48.629187"><ele>-58.182739</ele></trkpt><trkpt lat="-27.016354" lon="-48.629424"><ele>1.702484</ele></trkpt><trkpt lat="-27.016386" lon="-48.629423"><ele>5.725494</ele></trkpt><trkpt lat="-27.01643" lon="-48.629382"><ele>5.292877</ele></trkpt><trkpt lat="-27.016447" lon="-48.62937"><ele>5.951447</ele></trkpt><trkpt lat="-27.016456" lon="-48.629362"><ele>5.594879</ele></trkpt><trkpt lat="-27.016458" lon="-48.62936"><ele>5.449738</ele></trkpt><trkpt lat="-27.016458" lon="-48.62936"><ele>5.23233</ele></trkpt><trkpt lat="-27.016455" lon="-48.629357"><ele>6.574524</ele></trkpt><trkpt lat="-27.016455" lon="-48.629357"><ele>6.574524</ele></trkpt><trkpt lat="-27.016448" lon="-48.629355"><ele>6.079926</ele></trkpt><trkpt lat="-27.01644" lon="-48.629355"><ele>5.509583</ele></trkpt><trkpt lat="-27.016436" lon="-48.629357"><ele>5.117401</ele></trkpt><trkpt lat="-27.016436" lon="-48.629353"><ele>5.182983</ele></trkpt><trkpt lat="-27.016436" lon="-48.629352"><ele>5.34726</ele></trkpt><trkpt lat="-27.016435" lon="-48.629351"><ele>5.910156</ele></trkpt><trkpt lat="-27.016439" lon="-48.629348"><ele>5.785126</ele></trkpt><trkpt lat="-27.016439" lon="-48.629348"><ele>5.785126</ele></trkpt><trkpt lat="-27.016442" lon="-48.629344"><ele>5.688263</ele></trkpt><trkpt lat="-27.016442" lon="-48.629344"><ele>5.688263</ele></trkpt><trkpt lat="-27.016443" lon="-48.629343"><ele>5.720947</ele></trkpt><trkpt lat="-27.016443" lon="-48.629343"><ele>5.690186</ele></trkpt><trkpt lat="-27.016443" lon="-48.629344"><ele>5.738953</ele></trkpt><trkpt lat="-27.016442" lon="-48.629345"><ele>5.731995</ele></trkpt><trkpt lat="-27.016441" lon="-48.629345"><ele>5.725281</ele></trkpt><trkpt lat="-27.016441" lon="-48.629345"><ele>5.725281</ele></trkpt><trkpt lat="-27.016441" lon="-48.629346"><ele>5.743561</ele></trkpt><trkpt lat="-27.016441" lon="-48.629346"><ele>5.729187</ele></trkpt><trkpt lat="-27.016441" lon="-48.629346"><ele>5.723328</ele></trkpt><trkpt lat="-27.016441" lon="-48.629346"><ele>5.725433</ele></trkpt><trkpt lat="-27.016441" lon="-48.629346"><ele>5.722534</ele></trkpt><trkpt lat="-27.016441" lon="-48.629346"><ele>5.722534</ele></trkpt><trkpt lat="-27.016441" lon="-48.629346"><ele>5.726227</ele></trkpt><trkpt lat="-27.016441" lon="-48.629346"><ele>5.729187</ele></trkpt><trkpt lat="-27.016441" lon="-48.629346"><ele>5.729065</ele></trkpt><trkpt lat="-27.016441" lon="-48.629346"><ele>5.720734</ele></trkpt><trkpt lat="-27.016441" lon="-48.629346"><ele>5.7117</ele></trkpt><trkpt lat="-27.016441" lon="-48.629346"><ele>5.706421</ele></trkpt><trkpt lat="-27.016441" lon="-48.629346"><ele>5.69577</ele></trkpt><trkpt lat="-27.016441" lon="-48.62935"><ele>5.583679</ele></trkpt><trkpt lat="-27.016441" lon="-48.62935"><ele>5.583679</ele></trkpt><trkpt lat="-27.016441" lon="-48.62935"><ele>5.948822</ele></trkpt><trkpt lat="-27.016439" lon="-48.62935"><ele>5.964722</ele></trkpt><trkpt lat="-27.016434" lon="-48.629353"><ele>6.647675</ele></trkpt><trkpt lat="-27.016434" lon="-48.629353"><ele>6.647675</ele></trkpt><trkpt lat="-27.016429" lon="-48.629358"><ele>6.639496</ele></trkpt><trkpt lat="-27.016428" lon="-48.62936"><ele>6.638702</ele></trkpt><trkpt lat="-27.016427" lon="-48.629362"><ele>6.759644</ele></trkpt><trkpt lat="-27.016427" lon="-48.629362"><ele>6.759644</ele></trkpt><trkpt lat="-27.016426" lon="-48.629363"><ele>6.754547</ele></trkpt><trkpt lat="-27.016426" lon="-48.629363"><ele>6.754395</ele></trkpt><trkpt lat="-27.016426" lon="-48.629363"><ele>6.753632</ele></trkpt><trkpt lat="-27.016426" lon="-48.629363"><ele>6.749969</ele></trkpt><trkpt lat="-27.016426" lon="-48.629363"><ele>6.749969</ele></trkpt><trkpt lat="-27.016426" lon="-48.629363"><ele>6.749786</ele></trkpt><trkpt lat="-27.016426" lon="-48.629364"><ele>6.753784</ele></trkpt><trkpt lat="-27.016426" lon="-48.629364"><ele>6.750946</ele></trkpt><trkpt lat="-27.016423" lon="-48.629365"><ele>7.018982</ele></trkpt><trkpt lat="-27.016422" lon="-48.629365"><ele>7.023285</ele></trkpt><trkpt lat="-27.016422" lon="-48.629365"><ele>7.026672</ele></trkpt><trkpt lat="-27.016422" lon="-48.629365"><ele>7.026672</ele></trkpt><trkpt lat="-27.016421" lon="-48.629365"><ele>7.029449</ele></trkpt><trkpt lat="-27.016421" lon="-48.629365"><ele>7.031036</ele></trkpt><trkpt lat="-27.016423" lon="-48.629368"><ele>7.313873</ele></trkpt><trkpt lat="-27.016423" lon="-48.629369"><ele>7.361664</ele></trkpt><trkpt lat="-27.016423" lon="-48.629369"><ele>7.361908</ele></trkpt><trkpt lat="-27.016423" lon="-48.629369"><ele>7.358582</ele></trkpt><trkpt lat="-27.016423" lon="-48.629369"><ele>7.357178</ele></trkpt><trkpt lat="-27.016423" lon="-48.62937"><ele>7.360779</ele></trkpt><trkpt lat="-27.016423" lon="-48.62937"><ele>7.365112</ele></trkpt><trkpt lat="-27.016423" lon="-48.62937"><ele>7.369324</ele></trkpt><trkpt lat="-27.016423" lon="-48.62937"><ele>7.366486</ele></trkpt><trkpt lat="-27.016423" lon="-48.629369"><ele>6.806702</ele></trkpt><trkpt lat="-27.016422" lon="-48.629369"><ele>6.800262</ele></trkpt><trkpt lat="-27.016422" lon="-48.629369"><ele>6.801971</ele></trkpt><trkpt lat="-27.016422" lon="-48.629369"><ele>6.80246</ele></trkpt><trkpt lat="-27.016422" lon="-48.629369"><ele>6.81369</ele></trkpt><trkpt lat="-27.016422" lon="-48.629369"><ele>6.820404</ele></trkpt><trkpt lat="-27.016424" lon="-48.629367"><ele>6.712158</ele></trkpt><trkpt lat="-27.016426" lon="-48.629367"><ele>6.719543</ele></trkpt><trkpt lat="-27.016426" lon="-48.629367"><ele>6.722748</ele></trkpt><trkpt lat="-27.016424" lon="-48.629369"><ele>7.490784</ele></trkpt><trkpt lat="-27.016424" lon="-48.629369"><ele>7.490784</ele></trkpt><trkpt lat="-27.016422" lon="-48.62937"><ele>7.542725</ele></trkpt><trkpt lat="-27.016421" lon="-48.62937"><ele>7.521454</ele></trkpt><trkpt lat="-27.016422" lon="-48.62937"><ele>7.388092</ele></trkpt><trkpt lat="-27.016423" lon="-48.629367"><ele>6.934875</ele></trkpt><trkpt lat="-27.016424" lon="-48.629366"><ele>6.980469</ele></trkpt><trkpt lat="-27.016424" lon="-48.629366"><ele>6.974823</ele></trkpt><trkpt lat="-27.016424" lon="-48.629366"><ele>6.965393</ele></trkpt><trkpt lat="-27.016424" lon="-48.629366"><ele>6.963684</ele></trkpt><trkpt lat="-27.016424" lon="-48.629366"><ele>6.960327</ele></trkpt><trkpt lat="-27.01642" lon="-48.629367"><ele>7.138275</ele></trkpt><trkpt lat="-27.016419" lon="-48.629368"><ele>7.016663</ele></trkpt><trkpt lat="-27.016419" lon="-48.629368"><ele>7.014557</ele></trkpt><trkpt lat="-27.016419" lon="-48.629368"><ele>7.011627</ele></trkpt><trkpt lat="-27.016419" lon="-48.629368"><ele>7.005585</ele></trkpt><trkpt lat="-27.016419" lon="-48.629368"><ele>7.005585</ele></trkpt><trkpt lat="-27.016419" lon="-48.629368"><ele>7.008545</ele></trkpt><trkpt lat="-27.016419" lon="-48.629368"><ele>7.009583</ele></trkpt><trkpt lat="-27.016419" lon="-48.629368"><ele>7.00882</ele></trkpt><trkpt lat="-27.016419" lon="-48.629368"><ele>7.00473</ele></trkpt><trkpt lat="-27.016419" lon="-48.629368"><ele>6.999634</ele></trkpt><trkpt lat="-27.016419" lon="-48.629368"><ele>6.999481</ele></trkpt><trkpt lat="-27.016421" lon="-48.629364"><ele>7.071564</ele></trkpt><trkpt lat="-27.016422" lon="-48.629364"><ele>7.425018</ele></trkpt><trkpt lat="-27.016425" lon="-48.629367"><ele>7.354431</ele></trkpt><trkpt lat="-27.016425" lon="-48.629374"><ele>7.229156</ele></trkpt><trkpt lat="-27.016423" lon="-48.629379"><ele>7.217407</ele></trkpt><trkpt lat="-27.016423" lon="-48.62938"><ele>7.216492</ele></trkpt><trkpt lat="-27.016423" lon="-48.62938"><ele>7.2146</ele></trkpt><trkpt lat="-27.016422" lon="-48.629379"><ele>7.12912</ele></trkpt><trkpt lat="-27.016422" lon="-48.629379"><ele>7.12912</ele></trkpt><trkpt lat="-27.016421" lon="-48.62938"><ele>7.036743</ele></trkpt><trkpt lat="-27.01642" lon="-48.629379"><ele>6.27597</ele></trkpt><trkpt lat="-27.016418" lon="-48.629375"><ele>6.095764</ele></trkpt><trkpt lat="-27.016417" lon="-48.629373"><ele>6.028809</ele></trkpt><trkpt lat="-27.016404" lon="-48.629358"><ele>5.039398</ele></trkpt><trkpt lat="-27.0164" lon="-48.629352"><ele>5.258148</ele></trkpt><trkpt lat="-27.016398" lon="-48.629353"><ele>5.311554</ele></trkpt><trkpt lat="-27.016399" lon="-48.629354"><ele>5.140839</ele></trkpt><trkpt lat="-27.016404" lon="-48.62936"><ele>5.334961</ele></trkpt><trkpt lat="-27.016406" lon="-48.629361"><ele>5.332855</ele></trkpt><trkpt lat="-27.016411" lon="-48.629361"><ele>5.318817</ele></trkpt><trkpt lat="-27.016421" lon="-48.629365"><ele>5.769318</ele></trkpt><trkpt lat="-27.016428" lon="-48.629364"><ele>5.060181</ele></trkpt><trkpt lat="-27.016441" lon="-48.62936"><ele>4.896423</ele></trkpt><trkpt lat="-27.01645" lon="-48.629358"><ele>5.69458</ele></trkpt><trkpt lat="-27.016453" lon="-48.629357"><ele>5.598053</ele></trkpt><trkpt lat="-27.016454" lon="-48.629356"><ele>5.534454</ele></trkpt><trkpt lat="-27.016455" lon="-48.629355"><ele>5.537354</ele></trkpt><trkpt lat="-27.016456" lon="-48.629355"><ele>5.539581</ele></trkpt><trkpt lat="-27.016456" lon="-48.629355"><ele>5.542175</ele></trkpt><trkpt lat="-27.016456" lon="-48.629355"><ele>5.542175</ele></trkpt><trkpt lat="-27.016456" lon="-48.629355"><ele>5.545898</ele></trkpt><trkpt lat="-27.016456" lon="-48.629355"><ele>5.549683</ele></trkpt><trkpt lat="-27.016456" lon="-48.629355"><ele>5.550873</ele></trkpt><trkpt lat="-27.016452" lon="-48.629359"><ele>6.148926</ele></trkpt><trkpt lat="-27.016451" lon="-48.62936"><ele>6.149292</ele></trkpt><trkpt lat="-27.01645" lon="-48.629361"><ele>6.149017</ele></trkpt><trkpt lat="-27.01645" lon="-48.629361"><ele>6.146393</ele></trkpt><trkpt lat="-27.01645" lon="-48.629361"><ele>6.146393</ele></trkpt><trkpt lat="-27.016451" lon="-48.629359"><ele>5.686768</ele></trkpt><trkpt lat="-27.016452" lon="-48.629354"><ele>5.405762</ele></trkpt><trkpt lat="-27.016458" lon="-48.629351"><ele>6.033844</ele></trkpt><trkpt lat="-27.016464" lon="-48.629348"><ele>6.083649</ele></trkpt><trkpt lat="-27.016474" lon="-48.629346"><ele>5.788574</ele></trkpt><trkpt lat="-27.016484" lon="-48.629344"><ele>6.064026</ele></trkpt><trkpt lat="-27.016495" lon="-48.629342"><ele>5.777222</ele></trkpt><trkpt lat="-27.016504" lon="-48.629338"><ele>5.835175</ele></trkpt><trkpt lat="-27.016513" lon="-48.629335"><ele>5.139465</ele></trkpt><trkpt lat="-27.016525" lon="-48.629333"><ele>5.056976</ele></trkpt><trkpt lat="-27.016535" lon="-48.62933"><ele>5.033356</ele></trkpt><trkpt lat="-27.016544" lon="-48.629329"><ele>4.792694</ele></trkpt><trkpt lat="-27.016551" lon="-48.629329"><ele>5.038422</ele></trkpt><trkpt lat="-27.01656" lon="-48.629327"><ele>5.076355</ele></trkpt><trkpt lat="-27.016561" lon="-48.62933"><ele>5.453064</ele></trkpt><trkpt lat="-27.01657" lon="-48.629332"><ele>5.066925</ele></trkpt><trkpt lat="-27.016567" lon="-48.629333"><ele>5.36673</ele></trkpt><trkpt lat="-27.016566" lon="-48.629334"><ele>5.368378</ele></trkpt><trkpt lat="-27.016565" lon="-48.629334"><ele>5.373352</ele></trkpt><trkpt lat="-27.016565" lon="-48.629334"><ele>5.671143</ele></trkpt><trkpt lat="-27.016565" lon="-48.629334"><ele>5.67392</ele></trkpt><trkpt lat="-27.016565" lon="-48.629334"><ele>5.674927</ele></trkpt><trkpt lat="-27.016565" lon="-48.629334"><ele>5.677704</ele></trkpt><trkpt lat="-27.016565" lon="-48.629334"><ele>5.67804</ele></trkpt><trkpt lat="-27.016565" lon="-48.629334"><ele>5.67804</ele></trkpt><trkpt lat="-27.016565" lon="-48.629334"><ele>5.680756</ele></trkpt><trkpt lat="-27.016565" lon="-48.629334"><ele>5.68103</ele></trkpt><trkpt lat="-27.016565" lon="-48.629334"><ele>5.684357</ele></trkpt><trkpt lat="-27.016565" lon="-48.629334"><ele>5.377136</ele></trkpt><trkpt lat="-27.016566" lon="-48.629334"><ele>5.210785</ele></trkpt><trkpt lat="-27.016565" lon="-48.629335"><ele>5.606689</ele></trkpt><trkpt lat="-27.016564" lon="-48.629335"><ele>5.599091</ele></trkpt><trkpt lat="-27.016564" lon="-48.629335"><ele>5.599091</ele></trkpt><trkpt lat="-27.016564" lon="-48.629335"><ele>5.599426</ele></trkpt><trkpt lat="-27.016562" lon="-48.629333"><ele>5.309723</ele></trkpt><trkpt lat="-27.01656" lon="-48.629332"><ele>5.413239</ele></trkpt><trkpt lat="-27.016557" lon="-48.629333"><ele>4.400024</ele></trkpt><trkpt lat="-27.016553" lon="-48.62934"><ele>4.30127</ele></trkpt><trkpt lat="-27.016561" lon="-48.629334"><ele>5.717377</ele></trkpt><trkpt lat="-27.016564" lon="-48.629331"><ele>5.72287</ele></trkpt><trkpt lat="-27.016566" lon="-48.629326"><ele>5.947388</ele></trkpt><trkpt lat="-27.016572" lon="-48.629321"><ele>6.278503</ele></trkpt><trkpt lat="-27.016582" lon="-48.629318"><ele>6.237549</ele></trkpt><trkpt lat="-27.016594" lon="-48.629318"><ele>5.61026</ele></trkpt><trkpt lat="-27.016597" lon="-48.629322"><ele>5.651855</ele></trkpt><trkpt lat="-27.016598" lon="-48.629336"><ele>5.67041</ele></trkpt><trkpt lat="-27.016601" lon="-48.629341"><ele>6.137451</ele></trkpt><trkpt lat="-27.016602" lon="-48.629343"><ele>6.163727</ele></trkpt><trkpt lat="-27.016602" lon="-48.629344"><ele>6.097565</ele></trkpt><trkpt lat="-27.016602" lon="-48.629344"><ele>6.289795</ele></trkpt><trkpt lat="-27.016607" lon="-48.629347"><ele>6.150116</ele></trkpt><trkpt lat="-27.016612" lon="-48.629356"><ele>5.884155</ele></trkpt><trkpt lat="-27.016614" lon="-48.629361"><ele>5.873566</ele></trkpt><trkpt lat="-27.016617" lon="-48.629377"><ele>5.719025</ele></trkpt><trkpt lat="-27.016616" lon="-48.629382"><ele>5.834229</ele></trkpt><trkpt lat="-27.016615" lon="-48.629382"><ele>5.878571</ele></trkpt><trkpt lat="-27.016614" lon="-48.629382"><ele>5.876678</ele></trkpt><trkpt lat="-27.016611" lon="-48.629388"><ele>6.197693</ele></trkpt><trkpt lat="-27.016609" lon="-48.629391"><ele>5.967682</ele></trkpt><trkpt lat="-27.016609" lon="-48.629383"><ele>5.974213</ele></trkpt><trkpt lat="-27.016609" lon="-48.62938"><ele>5.974823</ele></trkpt><trkpt lat="-27.016615" lon="-48.62937"><ele>5.911896</ele></trkpt><trkpt lat="-27.01662" lon="-48.629363"><ele>5.384338</ele></trkpt><trkpt lat="-27.016623" lon="-48.629361"><ele>5.43808</ele></trkpt><trkpt lat="-27.016624" lon="-48.629361"><ele>5.435242</ele></trkpt><trkpt lat="-27.016637" lon="-48.629361"><ele>5.927368</ele></trkpt><trkpt lat="-27.01664" lon="-48.629361"><ele>5.506042</ele></trkpt><trkpt lat="-27.016637" lon="-48.62936"><ele>5.509674</ele></trkpt><trkpt lat="-27.016638" lon="-48.629357"><ele>5.457123</ele></trkpt><trkpt lat="-27.016637" lon="-48.629355"><ele>5.426849</ele></trkpt><trkpt lat="-27.016637" lon="-48.629354"><ele>5.427277</ele></trkpt><trkpt lat="-27.016636" lon="-48.629354"><ele>5.348724</ele></trkpt><trkpt lat="-27.016635" lon="-48.629354"><ele>5.271362</ele></trkpt><trkpt lat="-27.016635" lon="-48.629354"><ele>5.271393</ele></trkpt><trkpt lat="-27.016637" lon="-48.629355"><ele>5.374756</ele></trkpt><trkpt lat="-27.01664" lon="-48.629367"><ele>5.476715</ele></trkpt><trkpt lat="-27.016638" lon="-48.629371"><ele>5.759003</ele></trkpt><trkpt lat="-27.016634" lon="-48.62937"><ele>5.823456</ele></trkpt><trkpt lat="-27.016631" lon="-48.62936"><ele>5.838257</ele></trkpt><trkpt lat="-27.016628" lon="-48.629356"><ele>5.74295</ele></trkpt><trkpt lat="-27.016627" lon="-48.629355"><ele>5.74588</ele></trkpt><trkpt lat="-27.016627" lon="-48.629355"><ele>5.747375</ele></trkpt><trkpt lat="-27.016628" lon="-48.629351"><ele>5.618713</ele></trkpt><trkpt lat="-27.016626" lon="-48.629348"><ele>5.801453</ele></trkpt><trkpt lat="-27.016623" lon="-48.629347"><ele>5.619476</ele></trkpt><trkpt lat="-27.016631" lon="-48.629333"><ele>6.012451</ele></trkpt><trkpt lat="-27.016631" lon="-48.629331"><ele>6.259064</ele></trkpt><trkpt lat="-27.016631" lon="-48.629331"><ele>6.260437</ele></trkpt><trkpt lat="-27.016631" lon="-48.629331"><ele>6.26178</ele></trkpt><trkpt lat="-27.016645" lon="-48.629328"><ele>6.504913</ele></trkpt><trkpt lat="-27.016655" lon="-48.629335"><ele>6.438843</ele></trkpt><trkpt lat="-27.016652" lon="-48.629345"><ele>8.111847</ele></trkpt><trkpt lat="-27.016644" lon="-48.629351"><ele>7.787384</ele></trkpt><trkpt lat="-27.016642" lon="-48.629352"><ele>7.783691</ele></trkpt><trkpt lat="-27.016644" lon="-48.629356"><ele>7.686951</ele></trkpt><trkpt lat="-27.016641" lon="-48.629379"><ele>7.56546</ele></trkpt><trkpt lat="-27.01664" lon="-48.629394"><ele>7.879608</ele></trkpt><trkpt lat="-27.016642" lon="-48.629407"><ele>7.724335</ele></trkpt><trkpt lat="-27.016649" lon="-48.629418"><ele>7.498352</ele></trkpt><trkpt lat="-27.016646" lon="-48.629419"><ele>7.219543</ele></trkpt><trkpt lat="-27.01664" lon="-48.629417"><ele>7.061096</ele></trkpt><trkpt lat="-27.016636" lon="-48.629419"><ele>6.382538</ele></trkpt><trkpt lat="-27.016634" lon="-48.629421"><ele>6.787689</ele></trkpt><trkpt lat="-27.016633" lon="-48.629422"><ele>6.564209</ele></trkpt><trkpt lat="-27.016626" lon="-48.629417"><ele>6.954926</ele></trkpt><trkpt lat="-27.016624" lon="-48.629416"><ele>7.085663</ele></trkpt><trkpt lat="-27.016624" lon="-48.629416"><ele>7.085571</ele></trkpt><trkpt lat="-27.016624" lon="-48.629416"><ele>7.080963</ele></trkpt><trkpt lat="-27.016624" lon="-48.629416"><ele>7.077759</ele></trkpt><trkpt lat="-27.016621" lon="-48.62941"><ele>7.148712</ele></trkpt><trkpt lat="-27.016615" lon="-48.629399"><ele>7.453125</ele></trkpt><trkpt lat="-27.01661" lon="-48.629384"><ele>7.940033</ele></trkpt><trkpt lat="-27.016606" lon="-48.629372"><ele>8.183685</ele></trkpt><trkpt lat="-27.0166" lon="-48.629363"><ele>8.122833</ele></trkpt><trkpt lat="-27.016628" lon="-48.629329"><ele>-0.398499</ele></trkpt><trkpt lat="-27.016598" lon="-48.629324"><ele>-0.806335</ele></trkpt><trkpt lat="-27.016598" lon="-48.629324"><ele>-0.806335</ele></trkpt><trkpt lat="-27.016598" lon="-48.629324"><ele>-0.806335</ele></trkpt><trkpt lat="-27.016584" lon="-48.629325"><ele>4.367188</ele></trkpt><trkpt lat="-27.016582" lon="-48.62932"><ele>3.393707</ele></trkpt><trkpt lat="-27.016579" lon="-48.629319"><ele>2.852295</ele></trkpt><trkpt lat="-27.016576" lon="-48.629317"><ele>5.142975</ele></trkpt><trkpt lat="-27.016572" lon="-48.629318"><ele>5.615967</ele></trkpt><trkpt lat="-27.016572" lon="-48.629318"><ele>5.615967</ele></trkpt><trkpt lat="-27.016572" lon="-48.629326"><ele>5.962402</ele></trkpt><trkpt lat="-27.016572" lon="-48.629326"><ele>5.962402</ele></trkpt><trkpt lat="-27.01657" lon="-48.629322"><ele>5.143616</ele></trkpt><trkpt lat="-27.016567" lon="-48.62932"><ele>5.05368</ele></trkpt><trkpt lat="-27.016572" lon="-48.629323"><ele>4.613586</ele></trkpt><trkpt lat="-27.016572" lon="-48.629323"><ele>4.613586</ele></trkpt><trkpt lat="-27.016571" lon="-48.629325"><ele>4.786743</ele></trkpt><trkpt lat="-27.016571" lon="-48.629325"><ele>4.786743</ele></trkpt><trkpt lat="-27.016567" lon="-48.629327"><ele>5.514893</ele></trkpt><trkpt lat="-27.016565" lon="-48.629327"><ele>5.940216</ele></trkpt><trkpt lat="-27.016565" lon="-48.629327"><ele>6.109467</ele></trkpt><trkpt lat="-27.016563" lon="-48.629326"><ele>6.108093</ele></trkpt><trkpt lat="-27.016565" lon="-48.629326"><ele>5.752319</ele></trkpt><trkpt lat="-27.016566" lon="-48.629327"><ele>5.640228</ele></trkpt><trkpt lat="-27.016567" lon="-48.629328"><ele>5.582153</ele></trkpt><trkpt lat="-27.016565" lon="-48.629329"><ele>6.016449</ele></trkpt><trkpt lat="-27.016565" lon="-48.629329"><ele>6.016449</ele></trkpt><trkpt lat="-27.016564" lon="-48.629329"><ele>6.241302</ele></trkpt><trkpt lat="-27.016564" lon="-48.629329"><ele>6.241302</ele></trkpt><trkpt lat="-27.016564" lon="-48.629328"><ele>6.138916</ele></trkpt><trkpt lat="-27.016563" lon="-48.629328"><ele>6.362061</ele></trkpt><trkpt lat="-27.016563" lon="-48.629328"><ele>6.396729</ele></trkpt><trkpt lat="-27.016562" lon="-48.629327"><ele>6.670898</ele></trkpt><trkpt lat="-27.016562" lon="-48.629326"><ele>6.741241</ele></trkpt><trkpt lat="-27.016563" lon="-48.629325"><ele>6.734283</ele></trkpt><trkpt lat="-27.016562" lon="-48.629325"><ele>6.707367</ele></trkpt><trkpt lat="-27.016561" lon="-48.629325"><ele>6.702759</ele></trkpt><trkpt lat="-27.016559" lon="-48.629324"><ele>7.115082</ele></trkpt><trkpt lat="-27.016559" lon="-48.629323"><ele>6.784821</ele></trkpt><trkpt lat="-27.01656" lon="-48.629323"><ele>6.668579</ele></trkpt><trkpt lat="-27.016562" lon="-48.629323"><ele>6.726135</ele></trkpt><trkpt lat="-27.016564" lon="-48.629321"><ele>6.698944</ele></trkpt><trkpt lat="-27.016564" lon="-48.629321"><ele>6.519501</ele></trkpt><trkpt lat="-27.016576" lon="-48.629322"><ele>6.667511</ele></trkpt><trkpt lat="-27.016591" lon="-48.629321"><ele>6.831482</ele></trkpt><trkpt lat="-27.016608" lon="-48.629319"><ele>6.799866</ele></trkpt><trkpt lat="-27.016626" lon="-48.629315"><ele>6.717651</ele></trkpt><trkpt lat="-27.016649" lon="-48.629311"><ele>6.846405</ele></trkpt><trkpt lat="-27.016671" lon="-48.629309"><ele>6.65097</ele></trkpt><trkpt lat="-27.016692" lon="-48.629309"><ele>6.300537</ele></trkpt><trkpt lat="-27.016714" lon="-48.629308"><ele>6.274078</ele></trkpt><trkpt lat="-27.016735" lon="-48.629308"><ele>6.368347</ele></trkpt><trkpt lat="-27.016756" lon="-48.629308"><ele>6.326538</ele></trkpt><trkpt lat="-27.01678" lon="-48.629309"><ele>6.429321</ele></trkpt><trkpt lat="-27.016804" lon="-48.62931"><ele>6.553802</ele></trkpt><trkpt lat="-27.01683" lon="-48.629311"><ele>6.705109</ele></trkpt><trkpt lat="-27.016855" lon="-48.629312"><ele>6.795166</ele></trkpt><trkpt lat="-27.016855" lon="-48.629312"><ele>6.795166</ele></trkpt><trkpt lat="-27.016878" lon="-48.629313"><ele>6.856384</ele></trkpt><trkpt lat="-27.0169" lon="-48.629315"><ele>6.708038</ele></trkpt><trkpt lat="-27.016918" lon="-48.629317"><ele>6.49646</ele></trkpt><trkpt lat="-27.016935" lon="-48.629318"><ele>6.410614</ele></trkpt><trkpt lat="-27.016945" lon="-48.629319"><ele>6.924438</ele></trkpt><trkpt lat="-27.016947" lon="-48.629319"><ele>6.855347</ele></trkpt><trkpt lat="-27.016945" lon="-48.629318"><ele>6.92511</ele></trkpt><trkpt lat="-27.016943" lon="-48.629317"><ele>6.923981</ele></trkpt><trkpt lat="-27.016942" lon="-48.629317"><ele>6.919403</ele></trkpt><trkpt lat="-27.016942" lon="-48.629317"><ele>6.919403</ele></trkpt><trkpt lat="-27.016941" lon="-48.629314"><ele>6.818909</ele></trkpt><trkpt lat="-27.016942" lon="-48.62931"><ele>7.064362</ele></trkpt><trkpt lat="-27.016954" lon="-48.62931"><ele>6.927368</ele></trkpt><trkpt lat="-27.01697" lon="-48.629312"><ele>7.225433</ele></trkpt><trkpt lat="-27.016989" lon="-48.629315"><ele>7.271088</ele></trkpt><trkpt lat="-27.01701" lon="-48.629319"><ele>7.471497</ele></trkpt><trkpt lat="-27.017031" lon="-48.629322"><ele>7.32309</ele></trkpt><trkpt lat="-27.017049" lon="-48.629325"><ele>7.477478</ele></trkpt><trkpt lat="-27.01707" lon="-48.629327"><ele>7.683441</ele></trkpt><trkpt lat="-27.017092" lon="-48.629328"><ele>7.502991</ele></trkpt><trkpt lat="-27.017114" lon="-48.629329"><ele>7.470825</ele></trkpt><trkpt lat="-27.017136" lon="-48.62933"><ele>7.656342</ele></trkpt><trkpt lat="-27.017158" lon="-48.629333"><ele>7.725433</ele></trkpt><trkpt lat="-27.017178" lon="-48.629335"><ele>7.664886</ele></trkpt><trkpt lat="-27.017199" lon="-48.629336"><ele>7.621155</ele></trkpt><trkpt lat="-27.017218" lon="-48.629338"><ele>7.671997</ele></trkpt><trkpt lat="-27.017238" lon="-48.629341"><ele>7.85257</ele></trkpt><trkpt lat="-27.01726" lon="-48.62934"><ele>8.133484</ele></trkpt><trkpt lat="-27.017282" lon="-48.62934"><ele>8.093445</ele></trkpt><trkpt lat="-27.017306" lon="-48.629341"><ele>7.946991</ele></trkpt><trkpt lat="-27.017329" lon="-48.629347"><ele>8.321442</ele></trkpt><trkpt lat="-27.017354" lon="-48.62935"><ele>8.218445</ele></trkpt><trkpt lat="-27.017379" lon="-48.629351"><ele>8.404053</ele></trkpt><trkpt lat="-27.017405" lon="-48.629351"><ele>8.554565</ele></trkpt><trkpt lat="-27.017429" lon="-48.629353"><ele>8.78009</ele></trkpt><trkpt lat="-27.017454" lon="-48.629356"><ele>8.730377</ele></trkpt><trkpt lat="-27.017479" lon="-48.62936"><ele>8.981232</ele></trkpt><trkpt lat="-27.017501" lon="-48.629364"><ele>9.06897</ele></trkpt><trkpt lat="-27.017524" lon="-48.629368"><ele>9.128357</ele></trkpt><trkpt lat="-27.017549" lon="-48.629369"><ele>9.218109</ele></trkpt><trkpt lat="-27.017572" lon="-48.629369"><ele>9.218536</ele></trkpt><trkpt lat="-27.017595" lon="-48.629371"><ele>9.303558</ele></trkpt><trkpt lat="-27.017616" lon="-48.629373"><ele>8.837067</ele></trkpt><trkpt lat="-27.017635" lon="-48.629377"><ele>8.796844</ele></trkpt><trkpt lat="-27.017654" lon="-48.629382"><ele>8.673096</ele></trkpt><trkpt lat="-27.017654" lon="-48.629382"><ele>8.673096</ele></trkpt><trkpt lat="-27.017669" lon="-48.629386"><ele>8.628235</ele></trkpt><trkpt lat="-27.017684" lon="-48.629391"><ele>8.662354</ele></trkpt><trkpt lat="-27.0177" lon="-48.629396"><ele>8.651184</ele></trkpt><trkpt lat="-27.017722" lon="-48.629398"><ele>8.881805</ele></trkpt><trkpt lat="-27.017748" lon="-48.629401"><ele>8.871277</ele></trkpt><trkpt lat="-27.017774" lon="-48.629403"><ele>8.809906</ele></trkpt><trkpt lat="-27.0178" lon="-48.629405"><ele>8.771606</ele></trkpt><trkpt lat="-27.017825" lon="-48.629404"><ele>8.84964</ele></trkpt><trkpt lat="-27.01785" lon="-48.629405"><ele>8.863403</ele></trkpt><trkpt lat="-27.017874" lon="-48.629406"><ele>8.804718</ele></trkpt><trkpt lat="-27.017898" lon="-48.629408"><ele>8.990051</ele></trkpt><trkpt lat="-27.017921" lon="-48.629411"><ele>9.196289</ele></trkpt><trkpt lat="-27.017941" lon="-48.629413"><ele>9.53009</ele></trkpt><trkpt lat="-27.017962" lon="-48.629413"><ele>9.499695</ele></trkpt><trkpt lat="-27.017982" lon="-48.62941"><ele>9.397614</ele></trkpt><trkpt lat="-27.017999" lon="-48.629407"><ele>9.575531</ele></trkpt><trkpt lat="-27.017999" lon="-48.629407"><ele>9.575531</ele></trkpt><trkpt lat="-27.018017" lon="-48.629404"><ele>9.868073</ele></trkpt><trkpt lat="-27.018036" lon="-48.629402"><ele>9.789734</ele></trkpt><trkpt lat="-27.018055" lon="-48.629399"><ele>9.47757</ele></trkpt><trkpt lat="-27.018077" lon="-48.629401"><ele>9.377228</ele></trkpt><trkpt lat="-27.018097" lon="-48.629396"><ele>9.39267</ele></trkpt><trkpt lat="-27.018117" lon="-48.629393"><ele>9.024689</ele></trkpt><trkpt lat="-27.018137" lon="-48.629387"><ele>9.181274</ele></trkpt><trkpt lat="-27.018159" lon="-48.629379"><ele>9.4646</ele></trkpt><trkpt lat="-27.018181" lon="-48.629375"><ele>9.376862</ele></trkpt><trkpt lat="-27.018202" lon="-48.629369"><ele>9.309509</ele></trkpt><trkpt lat="-27.018221" lon="-48.629364"><ele>9.564026</ele></trkpt><trkpt lat="-27.018221" lon="-48.629364"><ele>9.564026</ele></trkpt><trkpt lat="-27.018237" lon="-48.629359"><ele>9.596344</ele></trkpt><trkpt lat="-27.018255" lon="-48.629356"><ele>8.907593</ele></trkpt><trkpt lat="-27.018273" lon="-48.629352"><ele>9.408752</ele></trkpt><trkpt lat="-27.018292" lon="-48.629345"><ele>9.824188</ele></trkpt><trkpt lat="-27.018312" lon="-48.629338"><ele>10.157013</ele></trkpt><trkpt lat="-27.018335" lon="-48.62933"><ele>10.105042</ele></trkpt><trkpt lat="-27.018359" lon="-48.629322"><ele>10.221466</ele></trkpt><trkpt lat="-27.018383" lon="-48.629316"><ele>10.657745</ele></trkpt><trkpt lat="-27.0184" lon="-48.62931"><ele>11.308594</ele></trkpt><trkpt lat="-27.018421" lon="-48.629301"><ele>10.752045</ele></trkpt><trkpt lat="-27.018442" lon="-48.629291"><ele>10.617706</ele></trkpt><trkpt lat="-27.018462" lon="-48.62928"><ele>10.687103</ele></trkpt><trkpt lat="-27.018478" lon="-48.629272"><ele>10.596924</ele></trkpt><trkpt lat="-27.018481" lon="-48.629269"><ele>10.807281</ele></trkpt><trkpt lat="-27.01848" lon="-48.629268"><ele>10.805511</ele></trkpt><trkpt lat="-27.018493" lon="-48.629264"><ele>10.962585</ele></trkpt><trkpt lat="-27.018499" lon="-48.629261"><ele>11.157654</ele></trkpt><trkpt lat="-27.018499" lon="-48.629261"><ele>11.157654</ele></trkpt><trkpt lat="-27.0185" lon="-48.62926"><ele>11.107605</ele></trkpt><trkpt lat="-27.0185" lon="-48.62926"><ele>11.107605</ele></trkpt><trkpt lat="-27.0185" lon="-48.62926"><ele>11.110443</ele></trkpt><trkpt lat="-27.018503" lon="-48.62926"><ele>11.011414</ele></trkpt><trkpt lat="-27.018504" lon="-48.62926"><ele>11.022644</ele></trkpt><trkpt lat="-27.018505" lon="-48.62926"><ele>11.02243</ele></trkpt><trkpt lat="-27.018505" lon="-48.62926"><ele>11.023987</ele></trkpt><trkpt lat="-27.018506" lon="-48.629262"><ele>10.800751</ele></trkpt><trkpt lat="-27.018508" lon="-48.629264"><ele>10.908417</ele></trkpt><trkpt lat="-27.018509" lon="-48.629265"><ele>10.930328</ele></trkpt><trkpt lat="-27.018509" lon="-48.629266"><ele>10.929565</ele></trkpt><trkpt lat="-27.018509" lon="-48.629266"><ele>10.926941</ele></trkpt><trkpt lat="-27.018509" lon="-48.629266"><ele>10.926941</ele></trkpt><trkpt lat="-27.018509" lon="-48.629267"><ele>10.757324</ele></trkpt><trkpt lat="-27.018513" lon="-48.629267"><ele>10.596313</ele></trkpt><trkpt lat="-27.018516" lon="-48.629268"><ele>10.326874</ele></trkpt><trkpt lat="-27.018532" lon="-48.629269"><ele>10.540863</ele></trkpt><trkpt lat="-27.018552" lon="-48.629267"><ele>10.572754</ele></trkpt><trkpt lat="-27.018573" lon="-48.629265"><ele>11.009857</ele></trkpt><trkpt lat="-27.018595" lon="-48.629261"><ele>11.518219</ele></trkpt><trkpt lat="-27.018618" lon="-48.629255"><ele>11.869476</ele></trkpt><trkpt lat="-27.018641" lon="-48.629248"><ele>11.949371</ele></trkpt><trkpt lat="-27.018664" lon="-48.629241"><ele>12.407288</ele></trkpt><trkpt lat="-27.018688" lon="-48.629235"><ele>12.721008</ele></trkpt><trkpt lat="-27.018709" lon="-48.629232"><ele>12.481628</ele></trkpt><trkpt lat="-27.018726" lon="-48.629229"><ele>12.074463</ele></trkpt><trkpt lat="-27.018724" lon="-48.629232"><ele>12.056824</ele></trkpt><trkpt lat="-27.018732" lon="-48.629231"><ele>12.590942</ele></trkpt><trkpt lat="-27.018743" lon="-48.629233"><ele>13.771484</ele></trkpt><trkpt lat="-27.018753" lon="-48.629236"><ele>14.092102</ele></trkpt><trkpt lat="-27.018753" lon="-48.629236"><ele>14.092102</ele></trkpt><trkpt lat="-27.018756" lon="-48.629239"><ele>13.973389</ele></trkpt><trkpt lat="-27.018757" lon="-48.629239"><ele>12.580566</ele></trkpt><trkpt lat="-27.018759" lon="-48.629239"><ele>13.880371</ele></trkpt><trkpt lat="-27.018772" lon="-48.629238"><ele>14.295227</ele></trkpt><trkpt lat="-27.018785" lon="-48.629241"><ele>14.838806</ele></trkpt><trkpt lat="-27.018797" lon="-48.629242"><ele>15.182251</ele></trkpt><trkpt lat="-27.018808" lon="-48.629242"><ele>14.716003</ele></trkpt><trkpt lat="-27.018819" lon="-48.629241"><ele>15.268372</ele></trkpt><trkpt lat="-27.018828" lon="-48.629238"><ele>14.725952</ele></trkpt><trkpt lat="-27.018833" lon="-48.629237"><ele>14.944031</ele></trkpt><trkpt lat="-27.018832" lon="-48.629238"><ele>15.116394</ele></trkpt><trkpt lat="-27.018832" lon="-48.629238"><ele>15.116394</ele></trkpt><trkpt lat="-27.018831" lon="-48.62924"><ele>15.335632</ele></trkpt><trkpt lat="-27.018831" lon="-48.629241"><ele>15.432068</ele></trkpt><trkpt lat="-27.018831" lon="-48.629242"><ele>15.538086</ele></trkpt><trkpt lat="-27.018833" lon="-48.629245"><ele>15.682678</ele></trkpt><trkpt lat="-27.018832" lon="-48.629247"><ele>15.602539</ele></trkpt><trkpt lat="-27.018832" lon="-48.629247"><ele>15.602966</ele></trkpt><trkpt lat="-27.018833" lon="-48.629242"><ele>15.411438</ele></trkpt><trkpt lat="-27.018836" lon="-48.629238"><ele>16.11554</ele></trkpt><trkpt lat="-27.018849" lon="-48.629236"><ele>16.966431</ele></trkpt><trkpt lat="-27.018853" lon="-48.629235"><ele>16.719727</ele></trkpt><trkpt lat="-27.018864" lon="-48.629237"><ele>16.948181</ele></trkpt><trkpt lat="-27.018866" lon="-48.629241"><ele>16.766113</ele></trkpt><trkpt lat="-27.018872" lon="-48.629251"><ele>19.274597</ele></trkpt><trkpt lat="-27.018872" lon="-48.629251"><ele>19.274597</ele></trkpt><trkpt lat="-27.018876" lon="-48.629259"><ele>17.894348</ele></trkpt><trkpt lat="-27.018877" lon="-48.62926"><ele>17.887329</ele></trkpt><trkpt lat="-27.018877" lon="-48.62926"><ele>17.886353</ele></trkpt><trkpt lat="-27.018877" lon="-48.62926"><ele>17.882446</ele></trkpt><trkpt lat="-27.018877" lon="-48.62926"><ele>17.881042</ele></trkpt><trkpt lat="-27.018877" lon="-48.62926"><ele>17.878113</ele></trkpt><trkpt lat="-27.018877" lon="-48.62926"><ele>17.875793</ele></trkpt><trkpt lat="-27.018877" lon="-48.62926"><ele>17.872253</ele></trkpt><trkpt lat="-27.018876" lon="-48.62926"><ele>17.724243</ele></trkpt><trkpt lat="-27.018875" lon="-48.62926"><ele>17.334778</ele></trkpt><trkpt lat="-27.018877" lon="-48.629253"><ele>17.094299</ele></trkpt><trkpt lat="-27.018886" lon="-48.629246"><ele>16.990723</ele></trkpt><trkpt lat="-27.018895" lon="-48.62925"><ele>17.321899</ele></trkpt><trkpt lat="-27.018897" lon="-48.629256"><ele>17.32489</ele></trkpt><trkpt lat="-27.018897" lon="-48.629257"><ele>17.50769</ele></trkpt><trkpt lat="-27.018897" lon="-48.629257"><ele>17.498596</ele></trkpt><trkpt lat="-27.018897" lon="-48.629257"><ele>17.500366</ele></trkpt><trkpt lat="-27.018897" lon="-48.629257"><ele>19.046997</ele></trkpt><trkpt lat="-27.018897" lon="-48.629257"><ele>19.314453</ele></trkpt><trkpt lat="-27.018897" lon="-48.629257"><ele>19.607666</ele></trkpt><trkpt lat="-27.018895" lon="-48.629256"><ele>19.419434</ele></trkpt><trkpt lat="-27.018878" lon="-48.629248"><ele>19.117188</ele></trkpt><trkpt lat="-27.018876" lon="-48.629242"><ele>18.913574</ele></trkpt><trkpt lat="-27.018879" lon="-48.629243"><ele>19.436646</ele></trkpt><trkpt lat="-27.018883" lon="-48.629244"><ele>19.458496</ele></trkpt><trkpt lat="-27.018878" lon="-48.629245"><ele>18.969055</ele></trkpt><trkpt lat="-27.018876" lon="-48.629245"><ele>18.964233</ele></trkpt><trkpt lat="-27.018874" lon="-48.629245"><ele>19.015625</ele></trkpt><trkpt lat="-27.018873" lon="-48.629244"><ele>19.020386</ele></trkpt><trkpt lat="-27.018877" lon="-48.629242"><ele>19.278259</ele></trkpt><trkpt lat="-27.018886" lon="-48.629243"><ele>19.157959</ele></trkpt><trkpt lat="-27.018893" lon="-48.629257"><ele>19.924744</ele></trkpt><trkpt lat="-27.018893" lon="-48.62927"><ele>20.193359</ele></trkpt><trkpt lat="-27.018892" lon="-48.629277"><ele>20.235046</ele></trkpt><trkpt lat="-27.018891" lon="-48.629276"><ele>20.784485</ele></trkpt><trkpt lat="-27.018892" lon="-48.629269"><ele>21.26062</ele></trkpt><trkpt lat="-27.018891" lon="-48.629264"><ele>19.173096</ele></trkpt><trkpt lat="-27.018889" lon="-48.629258"><ele>18.11792</ele></trkpt><trkpt lat="-27.018886" lon="-48.629254"><ele>18.017944</ele></trkpt><trkpt lat="-27.018878" lon="-48.62925"><ele>17.727417</ele></trkpt><trkpt lat="-27.018874" lon="-48.629248"><ele>17.700745</ele></trkpt><trkpt lat="-27.018876" lon="-48.629254"><ele>17.604919</ele></trkpt><trkpt lat="-27.018876" lon="-48.629272"><ele>17.763245</ele></trkpt><trkpt lat="-27.018876" lon="-48.629284"><ele>17.093079</ele></trkpt><trkpt lat="-27.018874" lon="-48.629294"><ele>16.842468</ele></trkpt><trkpt lat="-27.018867" lon="-48.629302"><ele>15.664368</ele></trkpt><trkpt lat="-27.01885" lon="-48.629302"><ele>14.129456</ele></trkpt><trkpt lat="-27.018841" lon="-48.629295"><ele>13.667297</ele></trkpt><trkpt lat="-27.018839" lon="-48.629286"><ele>13.36554</ele></trkpt><trkpt lat="-27.01884" lon="-48.629286"><ele>12.997192</ele></trkpt><trkpt lat="-27.018833" lon="-48.629288"><ele>13.004639</ele></trkpt><trkpt lat="-27.018832" lon="-48.629292"><ele>12.984192</ele></trkpt><trkpt lat="-27.01883" lon="-48.629292"><ele>13.069153</ele></trkpt><trkpt lat="-27.018829" lon="-48.629292"><ele>13.188965</ele></trkpt><trkpt lat="-27.018829" lon="-48.629292"><ele>13.300903</ele></trkpt><trkpt lat="-27.018829" lon="-48.629292"><ele>13.42395</ele></trkpt><trkpt lat="-27.018829" lon="-48.629292"><ele>13.437134</ele></trkpt><trkpt lat="-27.018829" lon="-48.629292"><ele>12.833557</ele></trkpt><trkpt lat="-27.018829" lon="-48.629292"><ele>12.834045</ele></trkpt><trkpt lat="-27.018827" lon="-48.629292"><ele>12.563538</ele></trkpt><trkpt lat="-27.018825" lon="-48.629291"><ele>12.652405</ele></trkpt><trkpt lat="-27.01882" lon="-48.629288"><ele>12.867737</ele></trkpt><trkpt lat="-27.018811" lon="-48.629278"><ele>12.463135</ele></trkpt><trkpt lat="-27.018804" lon="-48.629269"><ele>11.640167</ele></trkpt><trkpt lat="-27.018801" lon="-48.629258"><ele>11.473785</ele></trkpt><trkpt lat="-27.018795" lon="-48.629252"><ele>10.670624</ele></trkpt><trkpt lat="-27.018789" lon="-48.629247"><ele>10.30072</ele></trkpt><trkpt lat="-27.018784" lon="-48.629236"><ele>9.659851</ele></trkpt><trkpt lat="-27.018783" lon="-48.629229"><ele>9.368866</ele></trkpt><trkpt lat="-27.018787" lon="-48.629228"><ele>9.748169</ele></trkpt><trkpt lat="-27.018796" lon="-48.629232"><ele>10.782745</ele></trkpt><trkpt lat="-27.018801" lon="-48.629234"><ele>11.106293</ele></trkpt><trkpt lat="-27.018807" lon="-48.629235"><ele>11.208466</ele></trkpt><trkpt lat="-27.018807" lon="-48.629235"><ele>11.208466</ele></trkpt><trkpt lat="-27.018814" lon="-48.629237"><ele>11.20401</ele></trkpt><trkpt lat="-27.018815" lon="-48.629237"><ele>11.211121</ele></trkpt><trkpt lat="-27.018815" lon="-48.629237"><ele>11.211121</ele></trkpt><trkpt lat="-27.018816" lon="-48.629237"><ele>11.176453</ele></trkpt><trkpt lat="-27.018816" lon="-48.629238"><ele>11.311493</ele></trkpt><trkpt lat="-27.018816" lon="-48.629237"><ele>11.284058</ele></trkpt><trkpt lat="-27.018816" lon="-48.629237"><ele>11.284058</ele></trkpt><trkpt lat="-27.018816" lon="-48.629236"><ele>11.284088</ele></trkpt><trkpt lat="-27.018816" lon="-48.629236"><ele>11.284088</ele></trkpt><trkpt lat="-27.018816" lon="-48.629236"><ele>11.26355</ele></trkpt><trkpt lat="-27.018815" lon="-48.629234"><ele>11.672729</ele></trkpt><trkpt lat="-27.018814" lon="-48.629234"><ele>12.023926</ele></trkpt><trkpt lat="-27.018814" lon="-48.629236"><ele>12.20636</ele></trkpt><trkpt lat="-27.018814" lon="-48.629236"><ele>12.20636</ele></trkpt><trkpt lat="-27.018814" lon="-48.629237"><ele>12.207397</ele></trkpt><trkpt lat="-27.018814" lon="-48.629237"><ele>12.206909</ele></trkpt><trkpt lat="-27.018814" lon="-48.629237"><ele>12.206909</ele></trkpt><trkpt lat="-27.018814" lon="-48.629237"><ele>12.205017</ele></trkpt><trkpt lat="-27.018814" lon="-48.629237"><ele>12.205017</ele></trkpt><trkpt lat="-27.018814" lon="-48.629236"><ele>11.419739</ele></trkpt><trkpt lat="-27.018814" lon="-48.629237"><ele>11.43576</ele></trkpt><trkpt lat="-27.018814" lon="-48.629237"><ele>11.431946</ele></trkpt><trkpt lat="-27.018814" lon="-48.629237"><ele>11.43457</ele></trkpt><trkpt lat="-27.018814" lon="-48.629237"><ele>11.433624</ele></trkpt><trkpt lat="-27.018814" lon="-48.629237"><ele>11.43634</ele></trkpt><trkpt lat="-27.018814" lon="-48.629237"><ele>11.433228</ele></trkpt><trkpt lat="-27.018814" lon="-48.629237"><ele>11.433167</ele></trkpt><trkpt lat="-27.018812" lon="-48.629235"><ele>11.483368</ele></trkpt><trkpt lat="-27.018812" lon="-48.629234"><ele>11.47467</ele></trkpt><trkpt lat="-27.018812" lon="-48.629234"><ele>11.47467</ele></trkpt><trkpt lat="-27.018812" lon="-48.629234"><ele>11.47467</ele></trkpt><trkpt lat="-27.018812" lon="-48.629234"><ele>11.477905</ele></trkpt><trkpt lat="-27.018812" lon="-48.629234"><ele>11.476501</ele></trkpt><trkpt lat="-27.018813" lon="-48.629236"><ele>12.28302</ele></trkpt><trkpt lat="-27.018813" lon="-48.629236"><ele>12.282104</ele></trkpt><trkpt lat="-27.018813" lon="-48.629236"><ele>12.282104</ele></trkpt><trkpt lat="-27.018813" lon="-48.629236"><ele>12.282104</ele></trkpt><trkpt lat="-27.018813" lon="-48.629236"><ele>12.282654</ele></trkpt><trkpt lat="-27.018815" lon="-48.629236"><ele>12.22168</ele></trkpt><trkpt lat="-27.018817" lon="-48.629237"><ele>12.231934</ele></trkpt><trkpt lat="-27.018817" lon="-48.629237"><ele>12.231934</ele></trkpt><trkpt lat="-27.018818" lon="-48.629238"><ele>12.250366</ele></trkpt><trkpt lat="-27.018818" lon="-48.629239"><ele>12.252319</ele></trkpt><trkpt lat="-27.018815" lon="-48.629242"><ele>12.360046</ele></trkpt><trkpt lat="-27.018813" lon="-48.629242"><ele>11.971893</ele></trkpt><trkpt lat="-27.018813" lon="-48.629242"><ele>12.265564</ele></trkpt><trkpt lat="-27.018813" lon="-48.629241"><ele>12.210266</ele></trkpt><trkpt lat="-27.018813" lon="-48.629242"><ele>12.289551</ele></trkpt><trkpt lat="-27.018814" lon="-48.629242"><ele>12.298401</ele></trkpt><trkpt lat="-27.018814" lon="-48.629242"><ele>12.299438</ele></trkpt><trkpt lat="-27.018814" lon="-48.629242"><ele>12.274597</ele></trkpt><trkpt lat="-27.018814" lon="-48.629242"><ele>12.255249</ele></trkpt><trkpt lat="-27.018815" lon="-48.629243"><ele>12.198425</ele></trkpt><trkpt lat="-27.018827" lon="-48.629242"><ele>12.257935</ele></trkpt><trkpt lat="-27.018847" lon="-48.629235"><ele>12.217224</ele></trkpt><trkpt lat="-27.018869" lon="-48.629226"><ele>12.236084</ele></trkpt><trkpt lat="-27.018895" lon="-48.629212"><ele>12.815674</ele></trkpt><trkpt lat="-27.018921" lon="-48.629202"><ele>13.428589</ele></trkpt><trkpt lat="-27.018948" lon="-48.629191"><ele>13.873657</ele></trkpt><trkpt lat="-27.018971" lon="-48.629177"><ele>12.869873</ele></trkpt><trkpt lat="-27.018989" lon="-48.629153"><ele>13.448242</ele></trkpt><trkpt lat="-27.019008" lon="-48.629131"><ele>13.138123</ele></trkpt><trkpt lat="-27.019033" lon="-48.629107"><ele>12.202881</ele></trkpt><trkpt lat="-27.019055" lon="-48.629084"><ele>12.444092</ele></trkpt><trkpt lat="-27.019079" lon="-48.629062"><ele>12.839478</ele></trkpt><trkpt lat="-27.0191" lon="-48.629044"><ele>13.062073</ele></trkpt><trkpt lat="-27.019119" lon="-48.629026"><ele>13.879761</ele></trkpt><trkpt lat="-27.019134" lon="-48.629004"><ele>13.628967</ele></trkpt><trkpt lat="-27.019147" lon="-48.62899"><ele>13.936218</ele></trkpt><trkpt lat="-27.019149" lon="-48.628986"><ele>13.610046</ele></trkpt><trkpt lat="-27.019152" lon="-48.628985"><ele>13.642456</ele></trkpt><trkpt lat="-27.019159" lon="-48.62898"><ele>13.483337</ele></trkpt><trkpt lat="-27.019163" lon="-48.628988"><ele>12.549805</ele></trkpt><trkpt lat="-27.019165" lon="-48.628983"><ele>12.499878</ele></trkpt><trkpt lat="-27.019165" lon="-48.628982"><ele>12.492798</ele></trkpt><trkpt lat="-27.019165" lon="-48.628981"><ele>12.495056</ele></trkpt><trkpt lat="-27.019166" lon="-48.628981"><ele>12.497925</ele></trkpt><trkpt lat="-27.019166" lon="-48.628981"><ele>12.497925</ele></trkpt><trkpt lat="-27.019166" lon="-48.628981"><ele>12.498901</ele></trkpt><trkpt lat="-27.019166" lon="-48.628981"><ele>12.499573</ele></trkpt><trkpt lat="-27.019166" lon="-48.628981"><ele>12.499756</ele></trkpt><trkpt lat="-27.019166" lon="-48.628981"><ele>12.49231</ele></trkpt><trkpt lat="-27.019166" lon="-48.62898"><ele>12.618835</ele></trkpt><trkpt lat="-27.019166" lon="-48.62898"><ele>13.125244</ele></trkpt><trkpt lat="-27.019166" lon="-48.62898"><ele>13.109009</ele></trkpt><trkpt lat="-27.019166" lon="-48.62898"><ele>13.109009</ele></trkpt><trkpt lat="-27.019162" lon="-48.628981"><ele>13.396057</ele></trkpt><trkpt lat="-27.019165" lon="-48.628978"><ele>13.975952</ele></trkpt><trkpt lat="-27.019177" lon="-48.628973"><ele>13.841492</ele></trkpt><trkpt lat="-27.019191" lon="-48.628968"><ele>13.378967</ele></trkpt><trkpt lat="-27.019203" lon="-48.62896"><ele>12.980164</ele></trkpt><trkpt lat="-27.019213" lon="-48.628951"><ele>13.100098</ele></trkpt><trkpt lat="-27.019224" lon="-48.628933"><ele>13.842407</ele></trkpt><trkpt lat="-27.019242" lon="-48.628919"><ele>13.933594</ele></trkpt><trkpt lat="-27.019264" lon="-48.628907"><ele>13.483948</ele></trkpt><trkpt lat="-27.01928" lon="-48.628897"><ele>13.627808</ele></trkpt><trkpt lat="-27.019295" lon="-48.628885"><ele>14.031372</ele></trkpt><trkpt lat="-27.019313" lon="-48.62887"><ele>14.24585</ele></trkpt><trkpt lat="-27.019327" lon="-48.628858"><ele>14.533386</ele></trkpt><trkpt lat="-27.019341" lon="-48.628849"><ele>15.224548</ele></trkpt><trkpt lat="-27.019355" lon="-48.628839"><ele>14.751221</ele></trkpt><trkpt lat="-27.019366" lon="-48.628826"><ele>14.32373</ele></trkpt><trkpt lat="-27.019376" lon="-48.628815"><ele>13.948853</ele></trkpt><trkpt lat="-27.01939" lon="-48.628805"><ele>13.989502</ele></trkpt><trkpt lat="-27.019401" lon="-48.628794"><ele>13.862793</ele></trkpt><trkpt lat="-27.019414" lon="-48.628781"><ele>14.02179</ele></trkpt><trkpt lat="-27.019432" lon="-48.628767"><ele>14.15979</ele></trkpt><trkpt lat="-27.019453" lon="-48.628754"><ele>14.076111</ele></trkpt><trkpt lat="-27.019474" lon="-48.62874"><ele>14.134399</ele></trkpt><trkpt lat="-27.019498" lon="-48.628725"><ele>14.338989</ele></trkpt><trkpt lat="-27.019522" lon="-48.628707"><ele>14.280457</ele></trkpt><trkpt lat="-27.01955" lon="-48.628686"><ele>14.191223</ele></trkpt><trkpt lat="-27.019584" lon="-48.628662"><ele>14.193359</ele></trkpt><trkpt lat="-27.019621" lon="-48.628638"><ele>13.826782</ele></trkpt><trkpt lat="-27.01966" lon="-48.628614"><ele>13.878723</ele></trkpt><trkpt lat="-27.019694" lon="-48.628591"><ele>15.775757</ele></trkpt><trkpt lat="-27.019722" lon="-48.628573"><ele>15.701782</ele></trkpt><trkpt lat="-27.019739" lon="-48.628555"><ele>11.654816</ele></trkpt><trkpt lat="-27.019748" lon="-48.628547"><ele>11.757629</ele></trkpt><trkpt lat="-27.019743" lon="-48.628553"><ele>11.236725</ele></trkpt><trkpt lat="-27.019743" lon="-48.628553"><ele>11.298828</ele></trkpt><trkpt lat="-27.019743" lon="-48.628552"><ele>11.171173</ele></trkpt><trkpt lat="-27.01974" lon="-48.628547"><ele>11.100525</ele></trkpt><trkpt lat="-27.01974" lon="-48.628547"><ele>11.16272</ele></trkpt><trkpt lat="-27.01974" lon="-48.628549"><ele>10.886597</ele></trkpt><trkpt lat="-27.019741" lon="-48.628549"><ele>11.069366</ele></trkpt><trkpt lat="-27.019742" lon="-48.628547"><ele>13.956543</ele></trkpt><trkpt lat="-27.019742" lon="-48.628547"><ele>13.956543</ele></trkpt><trkpt lat="-27.019742" lon="-48.628547"><ele>13.956543</ele></trkpt><trkpt lat="-27.019743" lon="-48.628547"><ele>13.960815</ele></trkpt><trkpt lat="-27.019745" lon="-48.628547"><ele>13.961731</ele></trkpt><trkpt lat="-27.019745" lon="-48.628547"><ele>14.103699</ele></trkpt><trkpt lat="-27.019744" lon="-48.628546"><ele>14.205872</ele></trkpt><trkpt lat="-27.019744" lon="-48.628546"><ele>14.273865</ele></trkpt><trkpt lat="-27.019744" lon="-48.628548"><ele>14.496216</ele></trkpt><trkpt lat="-27.019744" lon="-48.628548"><ele>14.572266</ele></trkpt><trkpt lat="-27.019745" lon="-48.628547"><ele>14.625244</ele></trkpt><trkpt lat="-27.019745" lon="-48.628548"><ele>14.957825</ele></trkpt><trkpt lat="-27.019745" lon="-48.628548"><ele>14.957825</ele></trkpt><trkpt lat="-27.019745" lon="-48.628548"><ele>14.98291</ele></trkpt><trkpt lat="-27.019749" lon="-48.628546"><ele>15.128113</ele></trkpt><trkpt lat="-27.019759" lon="-48.628538"><ele>14.723633</ele></trkpt><trkpt lat="-27.019776" lon="-48.628527"><ele>14.672791</ele></trkpt><trkpt lat="-27.019796" lon="-48.628511"><ele>14.876831</ele></trkpt><trkpt lat="-27.019815" lon="-48.628494"><ele>14.82312</ele></trkpt><trkpt lat="-27.019829" lon="-48.628481"><ele>14.811523</ele></trkpt><trkpt lat="-27.019836" lon="-48.628476"><ele>14.235474</ele></trkpt><trkpt lat="-27.01984" lon="-48.628474"><ele>14.308167</ele></trkpt><trkpt lat="-27.019845" lon="-48.628474"><ele>14.763733</ele></trkpt><trkpt lat="-27.019849" lon="-48.628477"><ele>14.713989</ele></trkpt><trkpt lat="-27.01985" lon="-48.628477"><ele>14.709412</ele></trkpt><trkpt lat="-27.019853" lon="-48.628476"><ele>14.790833</ele></trkpt><trkpt lat="-27.019861" lon="-48.628472"><ele>15.317993</ele></trkpt><trkpt lat="-27.019873" lon="-48.628464"><ele>15.570435</ele></trkpt><trkpt lat="-27.019886" lon="-48.628456"><ele>15.37616</ele></trkpt><trkpt lat="-27.019903" lon="-48.628438"><ele>15.427002</ele></trkpt><trkpt lat="-27.019915" lon="-48.628419"><ele>14.512512</ele></trkpt><trkpt lat="-27.019928" lon="-48.628396"><ele>14.089233</ele></trkpt><trkpt lat="-27.019942" lon="-48.628369"><ele>14.136658</ele></trkpt><trkpt lat="-27.019955" lon="-48.628339"><ele>14.292297</ele></trkpt><trkpt lat="-27.019968" lon="-48.62831"><ele>14.980835</ele></trkpt><trkpt lat="-27.019981" lon="-48.628281"><ele>14.818542</ele></trkpt><trkpt lat="-27.019995" lon="-48.628253"><ele>14.881958</ele></trkpt><trkpt lat="-27.020009" lon="-48.628226"><ele>14.44574</ele></trkpt><trkpt lat="-27.020019" lon="-48.628192"><ele>15.697632</ele></trkpt><trkpt lat="-27.020029" lon="-48.62816"><ele>15.835266</ele></trkpt><trkpt lat="-27.020043" lon="-48.628126"><ele>14.598511</ele></trkpt><trkpt lat="-27.020052" lon="-48.628097"><ele>14.873413</ele></trkpt><trkpt lat="-27.020062" lon="-48.62807"><ele>15.148499</ele></trkpt><trkpt lat="-27.020061" lon="-48.628057"><ele>15.317444</ele></trkpt><trkpt lat="-27.020062" lon="-48.628048"><ele>14.410522</ele></trkpt><trkpt lat="-27.02006" lon="-48.628047"><ele>14.18811</ele></trkpt><trkpt lat="-27.020056" lon="-48.628052"><ele>14.228516</ele></trkpt><trkpt lat="-27.02005" lon="-48.628061"><ele>14.551575</ele></trkpt><trkpt lat="-27.020047" lon="-48.628069"><ele>14.328003</ele></trkpt><trkpt lat="-27.020046" lon="-48.628075"><ele>14.38501</ele></trkpt><trkpt lat="-27.020045" lon="-48.628079"><ele>14.375977</ele></trkpt><trkpt lat="-27.020048" lon="-48.628081"><ele>14.481323</ele></trkpt><trkpt lat="-27.020054" lon="-48.628079"><ele>15.633545</ele></trkpt><trkpt lat="-27.020056" lon="-48.628077"><ele>15.620178</ele></trkpt><trkpt lat="-27.020056" lon="-48.628076"><ele>15.619385</ele></trkpt><trkpt lat="-27.020056" lon="-48.628076"><ele>15.546204</ele></trkpt><trkpt lat="-27.020056" lon="-48.628076"><ele>15.546204</ele></trkpt><trkpt lat="-27.020056" lon="-48.628076"><ele>15.622559</ele></trkpt><trkpt lat="-27.020056" lon="-48.628076"><ele>15.622559</ele></trkpt><trkpt lat="-27.020056" lon="-48.628076"><ele>15.628418</ele></trkpt><trkpt lat="-27.020056" lon="-48.628076"><ele>15.59845</ele></trkpt><trkpt lat="-27.020056" lon="-48.628076"><ele>15.502075</ele></trkpt><trkpt lat="-27.020056" lon="-48.628077"><ele>15.43158</ele></trkpt><trkpt lat="-27.020059" lon="-48.628075"><ele>15.237366</ele></trkpt><trkpt lat="-27.020065" lon="-48.62807"><ele>15.467651</ele></trkpt><trkpt lat="-27.020071" lon="-48.628063"><ele>14.910767</ele></trkpt><trkpt lat="-27.02008" lon="-48.628051"><ele>14.895325</ele></trkpt><trkpt lat="-27.020089" lon="-48.628036"><ele>14.843506</ele></trkpt><trkpt lat="-27.020096" lon="-48.62801"><ele>14.935425</ele></trkpt><trkpt lat="-27.020102" lon="-48.627986"><ele>15.088867</ele></trkpt><trkpt lat="-27.020106" lon="-48.627972"><ele>15.166504</ele></trkpt><trkpt lat="-27.020107" lon="-48.627971"><ele>14.346436</ele></trkpt><trkpt lat="-27.020108" lon="-48.627971"><ele>13.996155</ele></trkpt><trkpt lat="-27.020108" lon="-48.627971"><ele>13.996155</ele></trkpt><trkpt lat="-27.020108" lon="-48.627969"><ele>13.819824</ele></trkpt><trkpt lat="-27.020108" lon="-48.627969"><ele>13.819824</ele></trkpt><trkpt lat="-27.020108" lon="-48.627969"><ele>13.822937</ele></trkpt><trkpt lat="-27.020107" lon="-48.627969"><ele>13.821472</ele></trkpt><trkpt lat="-27.020107" lon="-48.627969"><ele>13.820251</ele></trkpt><trkpt lat="-27.020109" lon="-48.627967"><ele>13.40448</ele></trkpt><trkpt lat="-27.020109" lon="-48.627965"><ele>13.38092</ele></trkpt><trkpt lat="-27.020109" lon="-48.627965"><ele>13.387878</ele></trkpt><trkpt lat="-27.020109" lon="-48.627965"><ele>13.391174</ele></trkpt><trkpt lat="-27.020109" lon="-48.627965"><ele>13.337646</ele></trkpt><trkpt lat="-27.020109" lon="-48.627965"><ele>13.265137</ele></trkpt><trkpt lat="-27.020109" lon="-48.627965"><ele>13.265137</ele></trkpt><trkpt lat="-27.020109" lon="-48.627965"><ele>13.217712</ele></trkpt><trkpt lat="-27.020111" lon="-48.627957"><ele>13.233765</ele></trkpt><trkpt lat="-27.020115" lon="-48.627947"><ele>13.279175</ele></trkpt><trkpt lat="-27.020117" lon="-48.627935"><ele>13.429382</ele></trkpt><trkpt lat="-27.020117" lon="-48.627923"><ele>13.352722</ele></trkpt><trkpt lat="-27.020118" lon="-48.627913"><ele>13.539673</ele></trkpt><trkpt lat="-27.020118" lon="-48.627913"><ele>13.539673</ele></trkpt><trkpt lat="-27.020121" lon="-48.627903"><ele>13.773499</ele></trkpt><trkpt lat="-27.020124" lon="-48.627895"><ele>13.336304</ele></trkpt><trkpt lat="-27.020128" lon="-48.627884"><ele>13.129578</ele></trkpt><trkpt lat="-27.020132" lon="-48.627871"><ele>12.873596</ele></trkpt><trkpt lat="-27.020139" lon="-48.627854"><ele>13.1698</ele></trkpt><trkpt lat="-27.020145" lon="-48.62784"><ele>13.209229</ele></trkpt><trkpt lat="-27.020145" lon="-48.62784"><ele>13.209229</ele></trkpt><trkpt lat="-27.020147" lon="-48.627828"><ele>12.891113</ele></trkpt><trkpt lat="-27.02015" lon="-48.627814"><ele>12.676147</ele></trkpt><trkpt lat="-27.020153" lon="-48.627798"><ele>12.649963</ele></trkpt><trkpt lat="-27.020156" lon="-48.627783"><ele>12.357239</ele></trkpt><trkpt lat="-27.020159" lon="-48.627764"><ele>12.270325</ele></trkpt><trkpt lat="-27.020163" lon="-48.627741"><ele>11.967194</ele></trkpt><trkpt lat="-27.020168" lon="-48.62772"><ele>12.175232</ele></trkpt><trkpt lat="-27.020173" lon="-48.627698"><ele>12.245728</ele></trkpt><trkpt lat="-27.020178" lon="-48.627678"><ele>12.434448</ele></trkpt><trkpt lat="-27.020184" lon="-48.627652"><ele>12.771057</ele></trkpt><trkpt lat="-27.020189" lon="-48.627619"><ele>13.203552</ele></trkpt><trkpt lat="-27.020196" lon="-48.627585"><ele>13.649536</ele></trkpt><trkpt lat="-27.020201" lon="-48.627551"><ele>13.470398</ele></trkpt><trkpt lat="-27.020204" lon="-48.62752"><ele>13.255554</ele></trkpt><trkpt lat="-27.020207" lon="-48.627489"><ele>13.449829</ele></trkpt><trkpt lat="-27.020212" lon="-48.627466"><ele>14.250244</ele></trkpt><trkpt lat="-27.02022" lon="-48.627438"><ele>14.647217</ele></trkpt><trkpt lat="-27.020227" lon="-48.62741"><ele>14.416565</ele></trkpt><trkpt lat="-27.020227" lon="-48.627371"><ele>14.569336</ele></trkpt><trkpt lat="-27.020237" lon="-48.627335"><ele>15.219666</ele></trkpt><trkpt lat="-27.020244" lon="-48.627298"><ele>14.362183</ele></trkpt><trkpt lat="-27.020245" lon="-48.627264"><ele>14.632385</ele></trkpt><trkpt lat="-27.020246" lon="-48.627233"><ele>14.570557</ele></trkpt><trkpt lat="-27.020251" lon="-48.627207"><ele>14.485413</ele></trkpt><trkpt lat="-27.020251" lon="-48.62718"><ele>14.730713</ele></trkpt><trkpt lat="-27.020251" lon="-48.627157"><ele>14.770081</ele></trkpt><trkpt lat="-27.020251" lon="-48.627145"><ele>14.600708</ele></trkpt><trkpt lat="-27.020248" lon="-48.627141"><ele>14.918945</ele></trkpt><trkpt lat="-27.020245" lon="-48.627137"><ele>14.733765</ele></trkpt><trkpt lat="-27.020244" lon="-48.627136"><ele>15.960144</ele></trkpt><trkpt lat="-27.020244" lon="-48.627136"><ele>15.948425</ele></trkpt><trkpt lat="-27.020244" lon="-48.627136"><ele>15.940674</ele></trkpt><trkpt lat="-27.020244" lon="-48.627136"><ele>15.908203</ele></trkpt><trkpt lat="-27.020244" lon="-48.627136"><ele>15.908203</ele></trkpt><trkpt lat="-27.020248" lon="-48.627136"><ele>16.10022</ele></trkpt><trkpt lat="-27.02025" lon="-48.627136"><ele>16.070374</ele></trkpt><trkpt lat="-27.020251" lon="-48.627137"><ele>16.084961</ele></trkpt><trkpt lat="-27.020252" lon="-48.627136"><ele>14.936035</ele></trkpt><trkpt lat="-27.020253" lon="-48.627136"><ele>15.036926</ele></trkpt><trkpt lat="-27.020253" lon="-48.627136"><ele>15.104614</ele></trkpt><trkpt lat="-27.020253" lon="-48.627136"><ele>15.104614</ele></trkpt><trkpt lat="-27.020253" lon="-48.627136"><ele>15.100769</ele></trkpt><trkpt lat="-27.020252" lon="-48.627131"><ele>14.881226</ele></trkpt><trkpt lat="-27.020249" lon="-48.627127"><ele>14.640503</ele></trkpt><trkpt lat="-27.020249" lon="-48.627125"><ele>14.637756</ele></trkpt><trkpt lat="-27.020253" lon="-48.627134"><ele>13.675842</ele></trkpt><trkpt lat="-27.020258" lon="-48.627136"><ele>13.131531</ele></trkpt><trkpt lat="-27.020265" lon="-48.627119"><ele>13.695801</ele></trkpt><trkpt lat="-27.02027" lon="-48.627091"><ele>14.178223</ele></trkpt><trkpt lat="-27.020276" lon="-48.62707"><ele>14.313171</ele></trkpt><trkpt lat="-27.020278" lon="-48.627063"><ele>15.320801</ele></trkpt><trkpt lat="-27.020278" lon="-48.627059"><ele>15.827576</ele></trkpt><trkpt lat="-27.020282" lon="-48.627052"><ele>15.990417</ele></trkpt><trkpt lat="-27.020283" lon="-48.62705"><ele>15.992554</ele></trkpt><trkpt lat="-27.02029" lon="-48.627051"><ele>15.953918</ele></trkpt><trkpt lat="-27.020288" lon="-48.627051"><ele>15.787842</ele></trkpt><trkpt lat="-27.020287" lon="-48.627051"><ele>15.940796</ele></trkpt><trkpt lat="-27.020287" lon="-48.627051"><ele>15.940796</ele></trkpt><trkpt lat="-27.020287" lon="-48.627052"><ele>14.948181</ele></trkpt><trkpt lat="-27.020282" lon="-48.627051"><ele>15.178955</ele></trkpt><trkpt lat="-27.020279" lon="-48.627046"><ele>15.523315</ele></trkpt><trkpt lat="-27.020282" lon="-48.627035"><ele>15.528503</ele></trkpt><trkpt lat="-27.020285" lon="-48.627024"><ele>15.466125</ele></trkpt><trkpt lat="-27.020289" lon="-48.627012"><ele>15.516968</ele></trkpt><trkpt lat="-27.020292" lon="-48.627008"><ele>15.638184</ele></trkpt><trkpt lat="-27.020293" lon="-48.627008"><ele>15.63446</ele></trkpt><trkpt lat="-27.020297" lon="-48.627006"><ele>15.718872</ele></trkpt><trkpt lat="-27.0203" lon="-48.627005"><ele>16.559937</ele></trkpt><trkpt lat="-27.020299" lon="-48.627004"><ele>16.406128</ele></trkpt><trkpt lat="-27.020299" lon="-48.627004"><ele>16.431335</ele></trkpt><trkpt lat="-27.020302" lon="-48.627005"><ele>16.284058</ele></trkpt><trkpt lat="-27.020301" lon="-48.627008"><ele>16.280762</ele></trkpt><trkpt lat="-27.0203" lon="-48.627011"><ele>16.273376</ele></trkpt><trkpt lat="-27.0203" lon="-48.627012"><ele>15.210022</ele></trkpt><trkpt lat="-27.0203" lon="-48.627012"><ele>15.20752</ele></trkpt><trkpt lat="-27.0203" lon="-48.627012"><ele>15.20874</ele></trkpt><trkpt lat="-27.020301" lon="-48.627011"><ele>15.434509</ele></trkpt><trkpt lat="-27.020301" lon="-48.627013"><ele>15.712097</ele></trkpt><trkpt lat="-27.020301" lon="-48.627012"><ele>15.785645</ele></trkpt><trkpt lat="-27.020301" lon="-48.627007"><ele>15.933655</ele></trkpt><trkpt lat="-27.020305" lon="-48.627001"><ele>17.515259</ele></trkpt><trkpt lat="-27.020313" lon="-48.626995"><ele>17.068542</ele></trkpt><trkpt lat="-27.020321" lon="-48.626993"><ele>16.798889</ele></trkpt><trkpt lat="-27.020321" lon="-48.626993"><ele>16.38678</ele></trkpt><trkpt lat="-27.020325" lon="-48.626994"><ele>16.25708</ele></trkpt><trkpt lat="-27.020328" lon="-48.626991"><ele>15.983948</ele></trkpt><trkpt lat="-27.020327" lon="-48.626986"><ele>15.925476</ele></trkpt><trkpt lat="-27.020328" lon="-48.626979"><ele>15.861877</ele></trkpt><trkpt lat="-27.020331" lon="-48.626975"><ele>16.001221</ele></trkpt><trkpt lat="-27.020331" lon="-48.626974"><ele>15.993958</ele></trkpt><trkpt lat="-27.020332" lon="-48.626974"><ele>14.98999</ele></trkpt><trkpt lat="-27.020332" lon="-48.626973"><ele>14.985901</ele></trkpt><trkpt lat="-27.020331" lon="-48.626974"><ele>14.971741</ele></trkpt><trkpt lat="-27.020329" lon="-48.626975"><ele>15.034912</ele></trkpt><trkpt lat="-27.020329" lon="-48.626975"><ele>15.033936</ele></trkpt><trkpt lat="-27.020329" lon="-48.626975"><ele>15.036865</ele></trkpt><trkpt lat="-27.02033" lon="-48.626976"><ele>14.796021</ele></trkpt><trkpt lat="-27.020331" lon="-48.626976"><ele>14.788818</ele></trkpt><trkpt lat="-27.020335" lon="-48.626977"><ele>15.160828</ele></trkpt><trkpt lat="-27.020345" lon="-48.62698"><ele>15.684326</ele></trkpt><trkpt lat="-27.020351" lon="-48.626983"><ele>15.843689</ele></trkpt><trkpt lat="-27.02035" lon="-48.626981"><ele>17.13916</ele></trkpt><trkpt lat="-27.02035" lon="-48.62698"><ele>17.098572</ele></trkpt><trkpt lat="-27.020337" lon="-48.626974"><ele>16.458313</ele></trkpt><trkpt lat="-27.020325" lon="-48.626967"><ele>16.160278</ele></trkpt><trkpt lat="-27.020329" lon="-48.626968"><ele>15.948608</ele></trkpt><trkpt lat="-27.02031" lon="-48.626969"><ele>15.358276</ele></trkpt><trkpt lat="-27.020305" lon="-48.626973"><ele>15.008606</ele></trkpt><trkpt lat="-27.020314" lon="-48.626976"><ele>13.678406</ele></trkpt><trkpt lat="-27.020318" lon="-48.626979"><ele>13.590332</ele></trkpt><trkpt lat="-27.020312" lon="-48.62698"><ele>13.525879</ele></trkpt><trkpt lat="-27.020306" lon="-48.62698"><ele>13.265137</ele></trkpt><trkpt lat="-27.020303" lon="-48.62698"><ele>13.276001</ele></trkpt><trkpt lat="-27.020291" lon="-48.626977"><ele>12.580627</ele></trkpt><trkpt lat="-27.020287" lon="-48.626976"><ele>12.497681</ele></trkpt><trkpt lat="-27.020287" lon="-48.626976"><ele>12.981873</ele></trkpt><trkpt lat="-27.020287" lon="-48.626976"><ele>12.965515</ele></trkpt><trkpt lat="-27.020286" lon="-48.626977"><ele>13.526611</ele></trkpt><trkpt lat="-27.020278" lon="-48.626984"><ele>13.410461</ele></trkpt><trkpt lat="-27.020257" lon="-48.626986"><ele>12.973755</ele></trkpt><trkpt lat="-27.020253" lon="-48.626988"><ele>12.721619</ele></trkpt><trkpt lat="-27.020254" lon="-48.626994"><ele>12.669373</ele></trkpt><trkpt lat="-27.020256" lon="-48.626999"><ele>12.389954</ele></trkpt><trkpt lat="-27.020261" lon="-48.627008"><ele>13.185913</ele></trkpt><trkpt lat="-27.020267" lon="-48.627014"><ele>13.043762</ele></trkpt><trkpt lat="-27.020271" lon="-48.627015"><ele>13.654724</ele></trkpt><trkpt lat="-27.020275" lon="-48.627013"><ele>13.69281</ele></trkpt><trkpt lat="-27.020276" lon="-48.627012"><ele>13.695679</ele></trkpt><trkpt lat="-27.02028" lon="-48.627012"><ele>13.758179</ele></trkpt><trkpt lat="-27.02029" lon="-48.627013"><ele>13.871643</ele></trkpt><trkpt lat="-27.020305" lon="-48.62702"><ele>13.709778</ele></trkpt><trkpt lat="-27.020324" lon="-48.627022"><ele>13.252258</ele></trkpt><trkpt lat="-27.020337" lon="-48.627022"><ele>13.009644</ele></trkpt><trkpt lat="-27.020337" lon="-48.627015"><ele>13.28186</ele></trkpt><trkpt lat="-27.02034" lon="-48.62701"><ele>14.087402</ele></trkpt><trkpt lat="-27.020344" lon="-48.627007"><ele>14.471313</ele></trkpt><trkpt lat="-27.020351" lon="-48.627003"><ele>14.358459</ele></trkpt><trkpt lat="-27.02036" lon="-48.627001"><ele>14.311218</ele></trkpt><trkpt lat="-27.020359" lon="-48.627"><ele>14.322144</ele></trkpt><trkpt lat="-27.020358" lon="-48.627"><ele>14.326965</ele></trkpt><trkpt lat="-27.020357" lon="-48.627"><ele>14.32959</ele></trkpt><trkpt lat="-27.020355" lon="-48.627002"><ele>14.292786</ele></trkpt><trkpt lat="-27.020353" lon="-48.627"><ele>14.117126</ele></trkpt><trkpt lat="-27.02035" lon="-48.627"><ele>14.185974</ele></trkpt><trkpt lat="-27.020325" lon="-48.627005"><ele>14.872742</ele></trkpt><trkpt lat="-27.020297" lon="-48.62701"><ele>14.911133</ele></trkpt><trkpt lat="-27.020278" lon="-48.627012"><ele>14.870544</ele></trkpt><trkpt lat="-27.020269" lon="-48.627009"><ele>15.194641</ele></trkpt><trkpt lat="-27.020268" lon="-48.627005"><ele>15.270874</ele></trkpt><trkpt lat="-27.020274" lon="-48.626999"><ele>14.566711</ele></trkpt><trkpt lat="-27.02028" lon="-48.626995"><ele>15.135071</ele></trkpt><trkpt lat="-27.020289" lon="-48.626998"><ele>15.387451</ele></trkpt><trkpt lat="-27.020306" lon="-48.627002"><ele>15.460938</ele></trkpt><trkpt lat="-27.020311" lon="-48.627002"><ele>15.453125</ele></trkpt><trkpt lat="-27.020312" lon="-48.627002"><ele>15.443848</ele></trkpt><trkpt lat="-27.020312" lon="-48.627002"><ele>15.443848</ele></trkpt><trkpt lat="-27.020312" lon="-48.627002"><ele>15.443848</ele></trkpt><trkpt lat="-27.020315" lon="-48.627002"><ele>15.706421</ele></trkpt><trkpt lat="-27.020315" lon="-48.626999"><ele>15.529175</ele></trkpt><trkpt lat="-27.020315" lon="-48.626999"><ele>16.899841</ele></trkpt><trkpt lat="-27.020315" lon="-48.626998"><ele>16.86676</ele></trkpt><trkpt lat="-27.020315" lon="-48.626998"><ele>16.86676</ele></trkpt><trkpt lat="-27.020315" lon="-48.626998"><ele>16.86676</ele></trkpt><trkpt lat="-27.020315" lon="-48.626998"><ele>16.868774</ele></trkpt><trkpt lat="-27.020315" lon="-48.626998"><ele>16.870972</ele></trkpt><trkpt lat="-27.020315" lon="-48.626998"><ele>16.872681</ele></trkpt><trkpt lat="-27.020315" lon="-48.626998"><ele>16.868652</ele></trkpt><trkpt lat="-27.020315" lon="-48.626998"><ele>16.868652</ele></trkpt><trkpt lat="-27.020315" lon="-48.626998"><ele>16.868835</ele></trkpt><trkpt lat="-27.020315" lon="-48.626998"><ele>16.868835</ele></trkpt><trkpt lat="-27.020316" lon="-48.626997"><ele>16.659424</ele></trkpt><trkpt lat="-27.02032" lon="-48.627001"><ele>17.331055</ele></trkpt><trkpt lat="-27.020322" lon="-48.627004"><ele>17.465088</ele></trkpt><trkpt lat="-27.020322" lon="-48.627006"><ele>17.162109</ele></trkpt><trkpt lat="-27.020322" lon="-48.627007"><ele>17.02356</ele></trkpt><trkpt lat="-27.020323" lon="-48.627007"><ele>16.936707</ele></trkpt><trkpt lat="-27.020323" lon="-48.627007"><ele>16.93335</ele></trkpt><trkpt lat="-27.020323" lon="-48.627007"><ele>16.928162</ele></trkpt><trkpt lat="-27.020323" lon="-48.627007"><ele>16.930237</ele></trkpt><trkpt lat="-27.020324" lon="-48.627007"><ele>16.930542</ele></trkpt><trkpt lat="-27.020324" lon="-48.627007"><ele>16.927307</ele></trkpt><trkpt lat="-27.020324" lon="-48.627007"><ele>16.923401</ele></trkpt><trkpt lat="-27.020324" lon="-48.627007"><ele>16.921021</ele></trkpt><trkpt lat="-27.020324" lon="-48.627007"><ele>16.921021</ele></trkpt><trkpt lat="-27.020324" lon="-48.627007"><ele>16.922485</ele></trkpt><trkpt lat="-27.020324" lon="-48.627007"><ele>16.923218</ele></trkpt><trkpt lat="-27.020324" lon="-48.627007"><ele>16.923218</ele></trkpt><trkpt lat="-27.020324" lon="-48.627007"><ele>16.923218</ele></trkpt><trkpt lat="-27.020324" lon="-48.627008"><ele>17.358154</ele></trkpt><trkpt lat="-27.020324" lon="-48.627008"><ele>17.361938</ele></trkpt><trkpt lat="-27.020324" lon="-48.627008"><ele>17.362488</ele></trkpt><trkpt lat="-27.020324" lon="-48.627008"><ele>17.365417</ele></trkpt><trkpt lat="-27.020323" lon="-48.627007"><ele>17.22229</ele></trkpt><trkpt lat="-27.020322" lon="-48.627006"><ele>17.202515</ele></trkpt><trkpt lat="-27.02032" lon="-48.627007"><ele>17.22406</ele></trkpt><trkpt lat="-27.02032" lon="-48.627007"><ele>17.22406</ele></trkpt><trkpt lat="-27.020316" lon="-48.627006"><ele>17.04541</ele></trkpt><trkpt lat="-27.020316" lon="-48.627006"><ele>17.04541</ele></trkpt><trkpt lat="-27.020314" lon="-48.627006"><ele>17.026917</ele></trkpt><trkpt lat="-27.020314" lon="-48.627006"><ele>17.029663</ele></trkpt><trkpt lat="-27.020314" lon="-48.627006"><ele>17.031128</ele></trkpt><trkpt lat="-27.020314" lon="-48.627006"><ele>17.032837</ele></trkpt><trkpt lat="-27.020311" lon="-48.627006"><ele>17.025513</ele></trkpt><trkpt lat="-27.020309" lon="-48.627006"><ele>17.194763</ele></trkpt><trkpt lat="-27.020306" lon="-48.627002"><ele>17.413635</ele></trkpt><trkpt lat="-27.020308" lon="-48.626997"><ele>17.202881</ele></trkpt><trkpt lat="-27.020311" lon="-48.62699"><ele>17.192566</ele></trkpt><trkpt lat="-27.020313" lon="-48.626979"><ele>17.168152</ele></trkpt><trkpt lat="-27.020314" lon="-48.626966"><ele>17.057434</ele></trkpt><trkpt lat="-27.02032" lon="-48.626954"><ele>16.96344</ele></trkpt><trkpt lat="-27.020322" lon="-48.626952"><ele>17.026794</ele></trkpt><trkpt lat="-27.020326" lon="-48.626956"><ele>16.806458</ele></trkpt><trkpt lat="-27.020326" lon="-48.62696"><ele>16.744812</ele></trkpt><trkpt lat="-27.020322" lon="-48.62696"><ele>16.646179</ele></trkpt><trkpt lat="-27.020318" lon="-48.626956"><ele>16.641907</ele></trkpt><trkpt lat="-27.020317" lon="-48.626954"><ele>16.879639</ele></trkpt><trkpt lat="-27.020316" lon="-48.626956"><ele>16.883423</ele></trkpt><trkpt lat="-27.020317" lon="-48.626956"><ele>16.332214</ele></trkpt><trkpt lat="-27.020318" lon="-48.626959"><ele>16.045349</ele></trkpt><trkpt lat="-27.020318" lon="-48.626963"><ele>15.000549</ele></trkpt><trkpt lat="-27.020318" lon="-48.626964"><ele>15</ele></trkpt><trkpt lat="-27.020318" lon="-48.626964"><ele>15.000366</ele></trkpt><trkpt lat="-27.020318" lon="-48.626965"><ele>15.301086</ele></trkpt><trkpt lat="-27.020322" lon="-48.626968"><ele>15.277771</ele></trkpt><trkpt lat="-27.020319" lon="-48.626974"><ele>15.323364</ele></trkpt><trkpt lat="-27.020315" lon="-48.626984"><ele>15.427124</ele></trkpt><trkpt lat="-27.020311" lon="-48.626998"><ele>15.125183</ele></trkpt><trkpt lat="-27.020308" lon="-48.62701"><ele>15.023499</ele></trkpt><trkpt lat="-27.020305" lon="-48.627004"><ele>14.355347</ele></trkpt><trkpt lat="-27.020304" lon="-48.627001"><ele>14.358032</ele></trkpt><trkpt lat="-27.020306" lon="-48.627001"><ele>14.414917</ele></trkpt><trkpt lat="-27.020308" lon="-48.626999"><ele>14.455444</ele></trkpt><trkpt lat="-27.020311" lon="-48.626997"><ele>14.531128</ele></trkpt><trkpt lat="-27.02031" lon="-48.626994"><ele>14.369019</ele></trkpt><trkpt lat="-27.020308" lon="-48.626993"><ele>14.369751</ele></trkpt><trkpt lat="-27.020312" lon="-48.626995"><ele>14.150513</ele></trkpt><trkpt lat="-27.020314" lon="-48.626999"><ele>14.848389</ele></trkpt><trkpt lat="-27.020315" lon="-48.627"><ele>14.918457</ele></trkpt><trkpt lat="-27.020308" lon="-48.626998"><ele>14.809998</ele></trkpt><trkpt lat="-27.020304" lon="-48.626993"><ele>15.119263</ele></trkpt><trkpt lat="-27.020306" lon="-48.626978"><ele>14.80426</ele></trkpt><trkpt lat="-27.020306" lon="-48.626966"><ele>14.57074</ele></trkpt><trkpt lat="-27.020301" lon="-48.626964"><ele>14.009644</ele></trkpt><trkpt lat="-27.020299" lon="-48.626964"><ele>13.875671</ele></trkpt><trkpt lat="-27.020298" lon="-48.626965"><ele>13.87915</ele></trkpt><trkpt lat="-27.020298" lon="-48.626966"><ele>13.879395</ele></trkpt><trkpt lat="-27.020293" lon="-48.626965"><ele>13.874878</ele></trkpt><trkpt lat="-27.020295" lon="-48.626963"><ele>13.848328</ele></trkpt><trkpt lat="-27.020296" lon="-48.626961"><ele>13.677063</ele></trkpt><trkpt lat="-27.020293" lon="-48.626962"><ele>13.595764</ele></trkpt><trkpt lat="-27.020293" lon="-48.626964"><ele>13.937195</ele></trkpt><trkpt lat="-27.020295" lon="-48.626965"><ele>14.032776</ele></trkpt><trkpt lat="-27.020295" lon="-48.626965"><ele>14.034119</ele></trkpt><trkpt lat="-27.020295" lon="-48.626965"><ele>13.943542</ele></trkpt><trkpt lat="-27.020295" lon="-48.626965"><ele>13.607422</ele></trkpt><trkpt lat="-27.020297" lon="-48.626967"><ele>13.573364</ele></trkpt><trkpt lat="-27.020298" lon="-48.626968"><ele>13.576782</ele></trkpt><trkpt lat="-27.020298" lon="-48.626968"><ele>13.576294</ele></trkpt><trkpt lat="-27.020298" lon="-48.626968"><ele>13.579041</ele></trkpt><trkpt lat="-27.020298" lon="-48.626968"><ele>13.582336</ele></trkpt><trkpt lat="-27.020298" lon="-48.626968"><ele>13.584045</ele></trkpt><trkpt lat="-27.020298" lon="-48.626968"><ele>13.584106</ele></trkpt><trkpt lat="-27.020298" lon="-48.626968"><ele>13.585999</ele></trkpt><trkpt lat="-27.020298" lon="-48.626968"><ele>13.587402</ele></trkpt><trkpt lat="-27.0203" lon="-48.626966"><ele>13.785645</ele></trkpt><trkpt lat="-27.020301" lon="-48.626964"><ele>13.826477</ele></trkpt><trkpt lat="-27.020301" lon="-48.626964"><ele>13.825073</ele></trkpt><trkpt lat="-27.020301" lon="-48.626964"><ele>13.823853</ele></trkpt><trkpt lat="-27.020301" lon="-48.626964"><ele>13.821838</ele></trkpt><trkpt lat="-27.020301" lon="-48.626964"><ele>13.824158</ele></trkpt><trkpt lat="-27.020301" lon="-48.626964"><ele>13.823975</ele></trkpt><trkpt lat="-27.020301" lon="-48.626964"><ele>13.823059</ele></trkpt><trkpt lat="-27.0203" lon="-48.626963"><ele>13.99823</ele></trkpt><trkpt lat="-27.0203" lon="-48.626963"><ele>14.404175</ele></trkpt><trkpt lat="-27.020443" lon="-48.626392"><ele>40.334473</ele></trkpt><trkpt lat="-27.020447" lon="-48.626407"><ele>47.430969</ele></trkpt><trkpt lat="-27.020447" lon="-48.626407"><ele>47.430969</ele></trkpt><trkpt lat="-27.020455" lon="-48.626344"><ele>11.696869</ele></trkpt><trkpt lat="-27.020436" lon="-48.626336"><ele>11.966309</ele></trkpt><trkpt lat="-27.020411" lon="-48.626281"><ele>11.783997</ele></trkpt><trkpt lat="-27.020409" lon="-48.626275"><ele>13.089783</ele></trkpt><trkpt lat="-27.02041" lon="-48.626269"><ele>13.325562</ele></trkpt><trkpt lat="-27.020408" lon="-48.626274"><ele>13.626587</ele></trkpt><trkpt lat="-27.020405" lon="-48.626275"><ele>13.633484</ele></trkpt><trkpt lat="-27.020401" lon="-48.626277"><ele>13.828735</ele></trkpt><trkpt lat="-27.020401" lon="-48.626272"><ele>14.134155</ele></trkpt><trkpt lat="-27.020402" lon="-48.626267"><ele>14.082886</ele></trkpt><trkpt lat="-27.020397" lon="-48.626257"><ele>14.496948</ele></trkpt><trkpt lat="-27.020399" lon="-48.626253"><ele>14.649109</ele></trkpt><trkpt lat="-27.020399" lon="-48.626258"><ele>15.407471</ele></trkpt><trkpt lat="-27.020396" lon="-48.626264"><ele>15.976929</ele></trkpt><trkpt lat="-27.020395" lon="-48.62626"><ele>16.076538</ele></trkpt><trkpt lat="-27.020398" lon="-48.626246"><ele>15.877075</ele></trkpt><trkpt lat="-27.020386" lon="-48.626217"><ele>16.235046</ele></trkpt><trkpt lat="-27.020388" lon="-48.626219"><ele>15.518494</ele></trkpt><trkpt lat="-27.02039" lon="-48.626221"><ele>15.630188</ele></trkpt><trkpt lat="-27.020392" lon="-48.62622"><ele>16.07605</ele></trkpt><trkpt lat="-27.020394" lon="-48.626221"><ele>16.522217</ele></trkpt><trkpt lat="-27.020396" lon="-48.626225"><ele>17.058716</ele></trkpt><trkpt lat="-27.020398" lon="-48.626226"><ele>17.383423</ele></trkpt><trkpt lat="-27.020403" lon="-48.626237"><ele>17.288635</ele></trkpt><trkpt lat="-27.020401" lon="-48.626241"><ele>17.121582</ele></trkpt><trkpt lat="-27.020395" lon="-48.626245"><ele>17.802612</ele></trkpt><trkpt lat="-27.020396" lon="-48.626252"><ele>17.448608</ele></trkpt><trkpt lat="-27.020397" lon="-48.626256"><ele>17.537231</ele></trkpt><trkpt lat="-27.0204" lon="-48.626254"><ele>17.359558</ele></trkpt><trkpt lat="-27.0204" lon="-48.626248"><ele>16.930542</ele></trkpt><trkpt lat="-27.020398" lon="-48.626248"><ele>16.991882</ele></trkpt><trkpt lat="-27.020393" lon="-48.626246"><ele>17.281372</ele></trkpt><trkpt lat="-27.020391" lon="-48.626245"><ele>17.78064</ele></trkpt><trkpt lat="-27.020392" lon="-48.626245"><ele>17.969177</ele></trkpt><trkpt lat="-27.02039" lon="-48.626242"><ele>17.89209</ele></trkpt><trkpt lat="-27.02039" lon="-48.626228"><ele>20.747131</ele></trkpt><trkpt lat="-27.020389" lon="-48.626202"><ele>21.09552</ele></trkpt><trkpt lat="-27.020387" lon="-48.626178"><ele>21.968567</ele></trkpt><trkpt lat="-27.020389" lon="-48.626149"><ele>22.036865</ele></trkpt><trkpt lat="-27.020395" lon="-48.626118"><ele>22.605591</ele></trkpt><trkpt lat="-27.020401" lon="-48.626088"><ele>23.059509</ele></trkpt><trkpt lat="-27.020401" lon="-48.626059"><ele>22.976196</ele></trkpt><trkpt lat="-27.020402" lon="-48.626032"><ele>22.509888</ele></trkpt><trkpt lat="-27.020404" lon="-48.626008"><ele>23.078979</ele></trkpt><trkpt lat="-27.020402" lon="-48.625994"><ele>23.851074</ele></trkpt><trkpt lat="-27.020399" lon="-48.625985"><ele>24.710693</ele></trkpt><trkpt lat="-27.020402" lon="-48.625983"><ele>24.320984</ele></trkpt><trkpt lat="-27.020409" lon="-48.625987"><ele>24.321167</ele></trkpt><trkpt lat="-27.020408" lon="-48.625988"><ele>24.287598</ele></trkpt><trkpt lat="-27.020411" lon="-48.625986"><ele>24.14917</ele></trkpt><trkpt lat="-27.020409" lon="-48.625982"><ele>24.363403</ele></trkpt><trkpt lat="-27.020408" lon="-48.625984"><ele>24.12561</ele></trkpt><trkpt lat="-27.020407" lon="-48.625984"><ele>24.122375</ele></trkpt><trkpt lat="-27.020407" lon="-48.625984"><ele>24.090454</ele></trkpt><trkpt lat="-27.020407" lon="-48.625984"><ele>23.931824</ele></trkpt><trkpt lat="-27.020407" lon="-48.625984"><ele>23.931824</ele></trkpt><trkpt lat="-27.020407" lon="-48.625984"><ele>23.85083</ele></trkpt><trkpt lat="-27.020407" lon="-48.625978"><ele>24.067078</ele></trkpt><trkpt lat="-27.02041" lon="-48.625972"><ele>23.923035</ele></trkpt><trkpt lat="-27.020414" lon="-48.62596"><ele>23.876831</ele></trkpt><trkpt lat="-27.020416" lon="-48.625944"><ele>24.745239</ele></trkpt><trkpt lat="-27.020418" lon="-48.625927"><ele>25.431641</ele></trkpt><trkpt lat="-27.020419" lon="-48.62591"><ele>25.917297</ele></trkpt><trkpt lat="-27.02042" lon="-48.6259"><ele>25.913025</ele></trkpt><trkpt lat="-27.020419" lon="-48.625897"><ele>25.36145</ele></trkpt><trkpt lat="-27.020419" lon="-48.6259"><ele>25.899475</ele></trkpt><trkpt lat="-27.020424" lon="-48.6259"><ele>25.897034</ele></trkpt><trkpt lat="-27.020426" lon="-48.6259"><ele>25.893555</ele></trkpt><trkpt lat="-27.020426" lon="-48.6259"><ele>25.890381</ele></trkpt><trkpt lat="-27.020426" lon="-48.6259"><ele>25.886963</ele></trkpt><trkpt lat="-27.020426" lon="-48.6259"><ele>25.886963</ele></trkpt><trkpt lat="-27.020426" lon="-48.625899"><ele>25.888794</ele></trkpt><trkpt lat="-27.020426" lon="-48.625896"><ele>23.513</ele></trkpt><trkpt lat="-27.020433" lon="-48.625893"><ele>23.690491</ele></trkpt><trkpt lat="-27.020443" lon="-48.625885"><ele>23.136108</ele></trkpt><trkpt lat="-27.020445" lon="-48.625873"><ele>22.985657</ele></trkpt><trkpt lat="-27.020446" lon="-48.625874"><ele>23.361511</ele></trkpt><trkpt lat="-27.020446" lon="-48.625875"><ele>23.325867</ele></trkpt><trkpt lat="-27.020449" lon="-48.625877"><ele>22.897644</ele></trkpt><trkpt lat="-27.020451" lon="-48.625879"><ele>25.706299</ele></trkpt><trkpt lat="-27.020451" lon="-48.625875"><ele>26.467773</ele></trkpt><trkpt lat="-27.020451" lon="-48.625872"><ele>26.561157</ele></trkpt><trkpt lat="-27.020452" lon="-48.625873"><ele>25.619202</ele></trkpt><trkpt lat="-27.020446" lon="-48.625884"><ele>25.238159</ele></trkpt><trkpt lat="-27.020444" lon="-48.625894"><ele>25.227844</ele></trkpt><trkpt lat="-27.020444" lon="-48.625893"><ele>25.762207</ele></trkpt><trkpt lat="-27.020445" lon="-48.625883"><ele>26.315857</ele></trkpt><trkpt lat="-27.020446" lon="-48.625872"><ele>26.20874</ele></trkpt><trkpt lat="-27.020444" lon="-48.625863"><ele>26.306152</ele></trkpt><trkpt lat="-27.020441" lon="-48.625857"><ele>26.119751</ele></trkpt><trkpt lat="-27.020441" lon="-48.625856"><ele>25.518005</ele></trkpt><trkpt lat="-27.02044" lon="-48.625866"><ele>25.526611</ele></trkpt><trkpt lat="-27.020437" lon="-48.625877"><ele>25.465698</ele></trkpt><trkpt lat="-27.020438" lon="-48.625891"><ele>25.66156</ele></trkpt><trkpt lat="-27.020438" lon="-48.625903"><ele>25.56665</ele></trkpt><trkpt lat="-27.020438" lon="-48.625912"><ele>25.269348</ele></trkpt><trkpt lat="-27.020438" lon="-48.625915"><ele>24.727844</ele></trkpt><trkpt lat="-27.020443" lon="-48.625916"><ele>24.572937</ele></trkpt><trkpt lat="-27.020443" lon="-48.625916"><ele>24.572937</ele></trkpt><trkpt lat="-27.02045" lon="-48.625916"><ele>24.60144</ele></trkpt><trkpt lat="-27.020451" lon="-48.625916"><ele>24.890259</ele></trkpt><trkpt lat="-27.02045" lon="-48.625918"><ele>24.937439</ele></trkpt><trkpt lat="-27.020447" lon="-48.625926"><ele>24.478516</ele></trkpt><trkpt lat="-27.020448" lon="-48.625933"><ele>24.808105</ele></trkpt><trkpt lat="-27.020447" lon="-48.625934"><ele>24.5354</ele></trkpt><trkpt lat="-27.020447" lon="-48.625932"><ele>24.501465</ele></trkpt><trkpt lat="-27.020445" lon="-48.625928"><ele>24.547974</ele></trkpt><trkpt lat="-27.020445" lon="-48.625928"><ele>24.545654</ele></trkpt><trkpt lat="-27.020445" lon="-48.625927"><ele>24.552917</ele></trkpt><trkpt lat="-27.020445" lon="-48.625927"><ele>24.543091</ele></trkpt><trkpt lat="-27.020445" lon="-48.625927"><ele>22.008545</ele></trkpt><trkpt lat="-27.020445" lon="-48.625927"><ele>22.014648</ele></trkpt><trkpt lat="-27.020445" lon="-48.625927"><ele>22.019775</ele></trkpt><trkpt lat="-27.020445" lon="-48.625927"><ele>22.021301</ele></trkpt><trkpt lat="-27.020445" lon="-48.625927"><ele>21.861755</ele></trkpt><trkpt lat="-27.020445" lon="-48.625927"><ele>21.372681</ele></trkpt><trkpt lat="-27.020445" lon="-48.625927"><ele>20.838623</ele></trkpt><trkpt lat="-27.020445" lon="-48.625927"><ele>20.144409</ele></trkpt><trkpt lat="-27.020445" lon="-48.625927"><ele>20.164917</ele></trkpt><trkpt lat="-27.020445" lon="-48.625927"><ele>20.172852</ele></trkpt><trkpt lat="-27.020445" lon="-48.625927"><ele>20.072144</ele></trkpt><trkpt lat="-27.020445" lon="-48.625927"><ele>19.886597</ele></trkpt><trkpt lat="-27.020444" lon="-48.625928"><ele>19.808594</ele></trkpt><trkpt lat="-27.020443" lon="-48.625929"><ele>20.098083</ele></trkpt><trkpt lat="-27.020443" lon="-48.625929"><ele>20.436279</ele></trkpt><trkpt lat="-27.020443" lon="-48.625928"><ele>20.914246</ele></trkpt><trkpt lat="-27.020443" lon="-48.625928"><ele>21.083984</ele></trkpt><trkpt lat="-27.020443" lon="-48.625928"><ele>21.02832</ele></trkpt><trkpt lat="-27.020443" lon="-48.625928"><ele>21.4599</ele></trkpt><trkpt lat="-27.020443" lon="-48.625928"><ele>21.635742</ele></trkpt><trkpt lat="-27.020443" lon="-48.625928"><ele>21.635742</ele></trkpt><trkpt lat="-27.020443" lon="-48.625928"><ele>21.86908</ele></trkpt><trkpt lat="-27.020443" lon="-48.625928"><ele>21.733459</ele></trkpt><trkpt lat="-27.020443" lon="-48.625928"><ele>24.260742</ele></trkpt><trkpt lat="-27.020443" lon="-48.625928"><ele>24.459473</ele></trkpt><trkpt lat="-27.020441" lon="-48.625926"><ele>24.582214</ele></trkpt><trkpt lat="-27.020441" lon="-48.625926"><ele>24.582214</ele></trkpt><trkpt lat="-27.020438" lon="-48.625922"><ele>23.975769</ele></trkpt><trkpt lat="-27.02044" lon="-48.625916"><ele>23.056458</ele></trkpt><trkpt lat="-27.020439" lon="-48.62591"><ele>23.053345</ele></trkpt><trkpt lat="-27.020438" lon="-48.625903"><ele>23.578247</ele></trkpt><trkpt lat="-27.020438" lon="-48.6259"><ele>23.900574</ele></trkpt><trkpt lat="-27.020442" lon="-48.625894"><ele>24.198608</ele></trkpt><trkpt lat="-27.020443" lon="-48.625893"><ele>24.773865</ele></trkpt><trkpt lat="-27.020443" lon="-48.625893"><ele>24.776245</ele></trkpt><trkpt lat="-27.020443" lon="-48.625893"><ele>24.776245</ele></trkpt><trkpt lat="-27.020443" lon="-48.625892"><ele>24.781494</ele></trkpt><trkpt lat="-27.020443" lon="-48.625892"><ele>24.776489</ele></trkpt><trkpt lat="-27.020442" lon="-48.625891"><ele>24.710754</ele></trkpt><trkpt lat="-27.02044" lon="-48.625892"><ele>24.727478</ele></trkpt><trkpt lat="-27.02044" lon="-48.625892"><ele>24.727478</ele></trkpt><trkpt lat="-27.020439" lon="-48.625892"><ele>24.729736</ele></trkpt><trkpt lat="-27.020439" lon="-48.625892"><ele>24.734192</ele></trkpt><trkpt lat="-27.020439" lon="-48.625892"><ele>24.733643</ele></trkpt><trkpt lat="-27.020439" lon="-48.625892"><ele>24.733643</ele></trkpt><trkpt lat="-27.020439" lon="-48.625892"><ele>22.16449</ele></trkpt><trkpt lat="-27.020439" lon="-48.625892"><ele>22.178162</ele></trkpt><trkpt lat="-27.020439" lon="-48.625892"><ele>22.178528</ele></trkpt><trkpt lat="-27.020439" lon="-48.625892"><ele>22.176941</ele></trkpt><trkpt lat="-27.020439" lon="-48.625892"><ele>22.00061</ele></trkpt><trkpt lat="-27.020437" lon="-48.62589"><ele>21.661804</ele></trkpt><trkpt lat="-27.020437" lon="-48.62589"><ele>21.345459</ele></trkpt><trkpt lat="-27.020437" lon="-48.62589"><ele>21.409241</ele></trkpt><trkpt lat="-27.020437" lon="-48.62589"><ele>21.303223</ele></trkpt><trkpt lat="-27.020437" lon="-48.62589"><ele>21.089539</ele></trkpt><trkpt lat="-27.020437" lon="-48.62589"><ele>21.089539</ele></trkpt><trkpt lat="-27.020437" lon="-48.62589"><ele>21.028992</ele></trkpt><trkpt lat="-27.020437" lon="-48.62589"><ele>20.977234</ele></trkpt><trkpt lat="-27.020437" lon="-48.625889"><ele>20.866272</ele></trkpt><trkpt lat="-27.020437" lon="-48.625889"><ele>20.852966</ele></trkpt><trkpt lat="-27.020437" lon="-48.62589"><ele>21.04657</ele></trkpt><trkpt lat="-27.020437" lon="-48.62589"><ele>21.439697</ele></trkpt><trkpt lat="-27.020437" lon="-48.62589"><ele>21.547607</ele></trkpt><trkpt lat="-27.020437" lon="-48.625889"><ele>21.384644</ele></trkpt><trkpt lat="-27.020437" lon="-48.625889"><ele>21.964172</ele></trkpt><trkpt lat="-27.020437" lon="-48.625889"><ele>21.964539</ele></trkpt><trkpt lat="-27.020437" lon="-48.625889"><ele>21.964539</ele></trkpt><trkpt lat="-27.020437" lon="-48.625889"><ele>21.957825</ele></trkpt><trkpt lat="-27.020437" lon="-48.625889"><ele>21.959595</ele></trkpt><trkpt lat="-27.020437" lon="-48.625889"><ele>21.95697</ele></trkpt><trkpt lat="-27.020437" lon="-48.625889"><ele>21.956787</ele></trkpt><trkpt lat="-27.020437" lon="-48.625889"><ele>21.955566</ele></trkpt><trkpt lat="-27.020437" lon="-48.625889"><ele>21.955566</ele></trkpt><trkpt lat="-27.020437" lon="-48.625889"><ele>21.957275</ele></trkpt><trkpt lat="-27.020437" lon="-48.625889"><ele>21.950439</ele></trkpt><trkpt lat="-27.020437" lon="-48.625889"><ele>21.927246</ele></trkpt><trkpt lat="-27.020437" lon="-48.625889"><ele>21.456299</ele></trkpt><trkpt lat="-27.020437" lon="-48.625889"><ele>21.482971</ele></trkpt><trkpt lat="-27.020437" lon="-48.62589"><ele>21.77655</ele></trkpt><trkpt lat="-27.020438" lon="-48.625889"><ele>21.788147</ele></trkpt><trkpt lat="-27.020438" lon="-48.625889"><ele>21.788147</ele></trkpt><trkpt lat="-27.020439" lon="-48.625889"><ele>21.795715</ele></trkpt><trkpt lat="-27.020439" lon="-48.625889"><ele>21.80481</ele></trkpt><trkpt lat="-27.020439" lon="-48.625889"><ele>21.810547</ele></trkpt><trkpt lat="-27.020439" lon="-48.625889"><ele>21.809998</ele></trkpt><trkpt lat="-27.020439" lon="-48.625889"><ele>21.816528</ele></trkpt><trkpt lat="-27.020438" lon="-48.62589"><ele>22.149902</ele></trkpt><trkpt lat="-27.020438" lon="-48.625891"><ele>22.151367</ele></trkpt><trkpt lat="-27.020438" lon="-48.625891"><ele>22.15332</ele></trkpt><trkpt lat="-27.020438" lon="-48.625891"><ele>22.153687</ele></trkpt><trkpt lat="-27.020438" lon="-48.625891"><ele>22.148743</ele></trkpt><trkpt lat="-27.020438" lon="-48.625891"><ele>22.154663</ele></trkpt><trkpt lat="-27.020438" lon="-48.625893"><ele>22.38031</ele></trkpt></trkseg></trk></gpx>