<?xml version="1.0" encoding="UTF-8"?>
<gpx xmlns="http://www.topografix.com/GPX/1/1" version="1.1" creator="@dwayneparton/geojson-to-gpx"><wpt lat="-27.055236666666662" lon="-48.59636833333334"><ele>4.9</ele></wpt><wpt lat="-27.05776166666667" lon="-48.597080000000005"><ele>12.799999999999999</ele><name>2 faixas</name></wpt><wpt lat="-27.05451833333333" lon="-48.59625166666667"><ele>7.1</ele><name>A ciclo é completamente reta.</name></wpt><wpt lat="-27.05451833333333" lon="-48.59625166666667"><ele>7.1</ele><name>A pintura está boa, COMPLETA e visível</name></wpt><wpt lat="-27.05451833333333" lon="-48.59625166666667"><ele>7.1</ele><name>Apenas faixas vermelhas nas bordas, com travessias pintadas nos cruzamentos</name></wpt><wpt lat="-27.05776166666667" lon="-48.597080000000005"><ele>12.799999999999999</ele><name>Asfalto</name></wpt><wpt lat="-27.05777833333333" lon="-48.59706166666667"><ele>8.4</ele><name>Bidirecional</name></wpt><wpt lat="-27.055043333333334" lon="-48.59633333333333"><ele>5.6</ele><name>Buraco</name></wpt><wpt lat="-27.05777333333333" lon="-48.59704166666667"><ele>6.1</ele><name>Ciclofaixa</name></wpt><wpt lat="-27.057766666666666" lon="-48.597078333333336"><ele>11.9</ele><name>Em bordo de Via de Mão Dupla</name></wpt><wpt lat="-27.05776166666667" lon="-48.597080000000005"><ele>12.799999999999999</ele><name>Estacionamento de um lado, incluso na circulação</name></wpt><wpt lat="-27.05769" lon="-48.59701499999999"><ele>8.7</ele><name>Foto</name></wpt><wpt lat="-27.05778" lon="-48.59708166666666"><ele>9.5</ele><name>Foto</name></wpt><wpt lat="-27.05698" lon="-48.59655833333333"><ele>11.1</ele><name>Foto</name></wpt><wpt lat="-27.055976666666666" lon="-48.59630333333333"><ele>7.800000000000001</ele><name>Foto</name></wpt><wpt lat="-27.055631666666667" lon="-48.59633333333333"><ele>7.5</ele><name>Foto</name></wpt><wpt lat="-27.055285000000005" lon="-48.59636833333334"><ele>4.800000000000001</ele><name>Foto</name></wpt><wpt lat="-27.055043333333334" lon="-48.59633333333333"><ele>5.6</ele><name>Foto</name></wpt><wpt lat="-27.055043333333334" lon="-48.59633333333333"><ele>5.6</ele><name>Foto</name></wpt><wpt lat="-27.055236666666662" lon="-48.59636833333334"><ele>4.9</ele><name>Foto</name></wpt><wpt lat="-27.055236666666662" lon="-48.59636833333334"><ele>4.9</ele><name>Foto</name></wpt><wpt lat="-27.05511166666667" lon="-48.59633833333334"><ele>4.5</ele><name>Foto</name></wpt><wpt lat="-27.05487333333333" lon="-48.59629666666667"><ele>5.2</ele><name>Foto</name></wpt><wpt lat="-27.054516666666668" lon="-48.59624333333333"><ele>7.1</ele><name>Foto</name></wpt><wpt lat="-27.05451833333333" lon="-48.59625166666667"><ele>7.1</ele><name>Iluminação geral na via do mesmo lado da estrutura</name></wpt><wpt lat="-27.05776166666667" lon="-48.597080000000005"><ele>12.7</ele><name>Mão Dupla</name></wpt><wpt lat="-27.05451833333333" lon="-48.59625166666667"><ele>7.1</ele><name>Não há árvores nem mudas</name></wpt><wpt lat="-27.055236666666662" lon="-48.59636833333334"><ele>4.9</ele><name>Outro obstáculo</name></wpt><wpt lat="-27.05511166666667" lon="-48.59634333333334"><ele>4.6</ele><name>Outro obstáculo</name></wpt><wpt lat="-27.054875" lon="-48.596301666666676"><ele>5.800000000000001</ele><name>Outro obstáculo</name></wpt><wpt lat="-27.055236666666662" lon="-48.59636833333334"><ele>4.9</ele><name>outro obstáculo poste</name></wpt><wpt lat="-27.05511166666667" lon="-48.59634333333334"><ele>4.6</ele><name>outro obstáculo poste</name></wpt><wpt lat="-27.054875" lon="-48.596301666666676"><ele>5.800000000000001</ele><name>outro obstáculo poste</name></wpt><wpt lat="-27.05451833333333" lon="-48.59625166666667"><ele>7.1</ele><name>Pequenas imperfeições, como fissuras</name></wpt><wpt lat="-27.057503333333337" lon="-48.59690333333333"><ele>11.4</ele><name>Pictograma BOA condição</name></wpt><wpt lat="-27.05704166666667" lon="-48.59661500000001"><ele>10.799999999999999</ele><name>Pictograma BOA condição</name></wpt><wpt lat="-27.05686166666667" lon="-48.59648666666667"><ele>8.9</ele><name>Pictograma BOA condição</name></wpt><wpt lat="-27.056018333333334" lon="-48.59628666666667"><ele>8.2</ele><name>Pictograma BOA condição</name></wpt><wpt lat="-27.05583166666667" lon="-48.596336666666666"><ele>10.9</ele><name>Pictograma BOA condição</name></wpt><wpt lat="-27.055971666666665" lon="-48.59629833333334"><ele>8.1</ele><name>Em cruzamento BOA condição</name></wpt><wpt lat="-27.055631666666667" lon="-48.59633333333333"><ele>7.5</ele><name>Em cruzamento BOA condição</name></wpt><wpt lat="-27.055038333333332" lon="-48.59632499999999"><ele>5.800000000000001</ele><name>Em cruzamento BOA condição</name></wpt><wpt lat="-27.057721666666666" lon="-48.59704833333333"><ele>12.299999999999999</ele><name>R-34</name></wpt><wpt lat="-27.055285000000005" lon="-48.59636999999999"><ele>5.2</ele><name>R3m0v3r Controle de Velocidade 🗑️</name></wpt><wpt lat="-27.05451833333333" lon="-48.59625166666667"><ele>7.1</ele><name>SE CICLOFAIXA: para invadir a ciclo parte do automóvel passa obrigatoriamente por cima de segregadores</name></wpt><wpt lat="-27.05776166666667" lon="-48.597080000000005"><ele>12.799999999999999</ele><name>APENAS a Pintura</name></wpt><wpt lat="-27.05698" lon="-48.59655833333333"><ele>11.1</ele><name>Travessia de pedestre em nível (lombofaixa)</name></wpt><wpt lat="-27.055301666666665" lon="-48.59636999999999"><ele>5.2</ele><name>Travessia de pedestre em nível (lombofaixa)</name></wpt><trk><name>Ciclofaixa Av. Rodesindo Pavan T1 - BC</name><trkseg><trkpt lat="-27.057765000000003" lon="-48.59711333333333"><ele>-14.500000000000002</ele></trkpt><trkpt lat="-27.05778" lon="-48.5971"><ele>-6.199999999999999</ele></trkpt><trkpt lat="-27.05777666666667" lon="-48.597089999999994"><ele>0.9000000000000001</ele></trkpt><trkpt lat="-27.057576666666666" lon="-48.59701166666667"><ele>3.6</ele></trkpt><trkpt lat="-27.057771666666667" lon="-48.59707166666667"><ele>3.6</ele></trkpt><trkpt lat="-27.057769999999998" lon="-48.59705166666666"><ele>4.1</ele></trkpt><trkpt lat="-27.057771666666667" lon="-48.59704"><ele>4.5</ele></trkpt><trkpt lat="-27.057769999999998" lon="-48.597035000000005"><ele>4.800000000000001</ele></trkpt><trkpt lat="-27.057769999999998" lon="-48.59703666666666"><ele>5.300000000000001</ele></trkpt><trkpt lat="-27.05777333333333" lon="-48.59704166666667"><ele>6.1</ele></trkpt><trkpt lat="-27.05777333333333" lon="-48.59704166666667"><ele>6.1</ele></trkpt><trkpt lat="-27.05777333333333" lon="-48.59704833333333"><ele>7</ele></trkpt><trkpt lat="-27.05777666666667" lon="-48.597055"><ele>7.800000000000001</ele></trkpt><trkpt lat="-27.05777833333333" lon="-48.597058333333344"><ele>8.7</ele></trkpt><trkpt lat="-27.05777833333333" lon="-48.59706166666667"><ele>8.4</ele></trkpt><trkpt lat="-27.05777833333333" lon="-48.59706166666667"><ele>8.4</ele></trkpt><trkpt lat="-27.05777833333333" lon="-48.59706333333334"><ele>8.7</ele></trkpt><trkpt lat="-27.05777833333333" lon="-48.59706333333334"><ele>8.9</ele></trkpt><trkpt lat="-27.05777833333333" lon="-48.59706333333334"><ele>9.2</ele></trkpt><trkpt lat="-27.05777666666667" lon="-48.59706333333334"><ele>9.4</ele></trkpt><trkpt lat="-27.05777666666667" lon="-48.59706333333334"><ele>9.5</ele></trkpt><trkpt lat="-27.057775" lon="-48.59706166666667"><ele>9.799999999999999</ele></trkpt><trkpt lat="-27.05777333333333" lon="-48.59706166666667"><ele>10</ele></trkpt><trkpt lat="-27.05777333333333" lon="-48.59706333333334"><ele>10.2</ele></trkpt><trkpt lat="-27.057771666666667" lon="-48.59706500000001"><ele>10.4</ele></trkpt><trkpt lat="-27.057771666666667" lon="-48.59706666666666"><ele>10.6</ele></trkpt><trkpt lat="-27.057771666666667" lon="-48.59706833333333"><ele>10.799999999999999</ele></trkpt><trkpt lat="-27.057771666666667" lon="-48.59707166666667"><ele>11</ele></trkpt><trkpt lat="-27.057769999999998" lon="-48.59707333333334"><ele>11.2</ele></trkpt><trkpt lat="-27.057769999999998" lon="-48.597075"><ele>11.4</ele></trkpt><trkpt lat="-27.057768333333335" lon="-48.597075"><ele>11.6</ele></trkpt><trkpt lat="-27.057768333333335" lon="-48.597075"><ele>11.6</ele></trkpt><trkpt lat="-27.057768333333335" lon="-48.597076666666666"><ele>11.7</ele></trkpt><trkpt lat="-27.057768333333335" lon="-48.597076666666666"><ele>11.799999999999999</ele></trkpt><trkpt lat="-27.057766666666666" lon="-48.597078333333336"><ele>11.9</ele></trkpt><trkpt lat="-27.057766666666666" lon="-48.597078333333336"><ele>11.9</ele></trkpt><trkpt lat="-27.057766666666666" lon="-48.597078333333336"><ele>12</ele></trkpt><trkpt lat="-27.057766666666666" lon="-48.597078333333336"><ele>12.2</ele></trkpt><trkpt lat="-27.057765000000003" lon="-48.597078333333336"><ele>12.299999999999999</ele></trkpt><trkpt lat="-27.057763333333334" lon="-48.597080000000005"><ele>12.5</ele></trkpt><trkpt lat="-27.05776166666667" lon="-48.597080000000005"><ele>12.7</ele></trkpt><trkpt lat="-27.05776166666667" lon="-48.597080000000005"><ele>12.7</ele></trkpt><trkpt lat="-27.05776166666667" lon="-48.597080000000005"><ele>12.799999999999999</ele></trkpt><trkpt lat="-27.05776166666667" lon="-48.597080000000005"><ele>12.799999999999999</ele></trkpt><trkpt lat="-27.05776166666667" lon="-48.597080000000005"><ele>12.799999999999999</ele></trkpt><trkpt lat="-27.05776166666667" lon="-48.597080000000005"><ele>12.799999999999999</ele></trkpt><trkpt lat="-27.05776166666667" lon="-48.597080000000005"><ele>12.799999999999999</ele></trkpt><trkpt lat="-27.05776166666667" lon="-48.597080000000005"><ele>12.799999999999999</ele></trkpt><trkpt lat="-27.05776166666667" lon="-48.597080000000005"><ele>12.799999999999999</ele></trkpt><trkpt lat="-27.05776166666667" lon="-48.597080000000005"><ele>12.799999999999999</ele></trkpt><trkpt lat="-27.05776166666667" lon="-48.597080000000005"><ele>12.799999999999999</ele></trkpt><trkpt lat="-27.05776166666667" lon="-48.597080000000005"><ele>12.799999999999999</ele></trkpt><trkpt lat="-27.05776166666667" lon="-48.597080000000005"><ele>12.799999999999999</ele></trkpt><trkpt lat="-27.05776166666667" lon="-48.597080000000005"><ele>12.799999999999999</ele></trkpt><trkpt lat="-27.05776166666667" lon="-48.597080000000005"><ele>12.799999999999999</ele></trkpt><trkpt lat="-27.05776166666667" lon="-48.597080000000005"><ele>12.799999999999999</ele></trkpt><trkpt lat="-27.05776166666667" lon="-48.597080000000005"><ele>12.799999999999999</ele></trkpt><trkpt lat="-27.05776166666667" lon="-48.597080000000005"><ele>12.799999999999999</ele></trkpt><trkpt lat="-27.05776166666667" lon="-48.597080000000005"><ele>12.799999999999999</ele></trkpt><trkpt lat="-27.05776166666667" lon="-48.597080000000005"><ele>12.799999999999999</ele></trkpt><trkpt lat="-27.05776166666667" lon="-48.597080000000005"><ele>12.799999999999999</ele></trkpt><trkpt lat="-27.05776166666667" lon="-48.597080000000005"><ele>12.799999999999999</ele></trkpt><trkpt lat="-27.05776166666667" lon="-48.597080000000005"><ele>12.799999999999999</ele></trkpt><trkpt lat="-27.05776166666667" lon="-48.597080000000005"><ele>12.799999999999999</ele></trkpt><trkpt lat="-27.05776166666667" lon="-48.597080000000005"><ele>12.799999999999999</ele></trkpt><trkpt lat="-27.05776166666667" lon="-48.597080000000005"><ele>12.799999999999999</ele></trkpt><trkpt lat="-27.05776166666667" lon="-48.597080000000005"><ele>12.799999999999999</ele></trkpt><trkpt lat="-27.05776166666667" lon="-48.597080000000005"><ele>12.799999999999999</ele></trkpt><trkpt lat="-27.05776166666667" lon="-48.597080000000005"><ele>12.799999999999999</ele></trkpt><trkpt lat="-27.05776166666667" lon="-48.597080000000005"><ele>12.799999999999999</ele></trkpt><trkpt lat="-27.05776166666667" lon="-48.597080000000005"><ele>12.799999999999999</ele></trkpt><trkpt lat="-27.05776166666667" lon="-48.597080000000005"><ele>12.799999999999999</ele></trkpt><trkpt lat="-27.05776166666667" lon="-48.597080000000005"><ele>12.799999999999999</ele></trkpt><trkpt lat="-27.05776166666667" lon="-48.597080000000005"><ele>12.799999999999999</ele></trkpt><trkpt lat="-27.05776166666667" lon="-48.597080000000005"><ele>12.799999999999999</ele></trkpt><trkpt lat="-27.05776166666667" lon="-48.597080000000005"><ele>12.799999999999999</ele></trkpt><trkpt lat="-27.05776166666667" lon="-48.597080000000005"><ele>12.799999999999999</ele></trkpt><trkpt lat="-27.05776166666667" lon="-48.597080000000005"><ele>12.799999999999999</ele></trkpt><trkpt lat="-27.05776166666667" lon="-48.597080000000005"><ele>12.799999999999999</ele></trkpt><trkpt lat="-27.05776166666667" lon="-48.597080000000005"><ele>12.799999999999999</ele></trkpt><trkpt lat="-27.05776166666667" lon="-48.597080000000005"><ele>12.799999999999999</ele></trkpt><trkpt lat="-27.05776166666667" lon="-48.597080000000005"><ele>12.799999999999999</ele></trkpt><trkpt lat="-27.05776166666667" lon="-48.597080000000005"><ele>12.799999999999999</ele></trkpt><trkpt lat="-27.05776166666667" lon="-48.597080000000005"><ele>12.799999999999999</ele></trkpt><trkpt lat="-27.05776166666667" lon="-48.597080000000005"><ele>12.799999999999999</ele></trkpt><trkpt lat="-27.05776166666667" lon="-48.597080000000005"><ele>12.799999999999999</ele></trkpt><trkpt lat="-27.05776166666667" lon="-48.597080000000005"><ele>12.799999999999999</ele></trkpt><trkpt lat="-27.05776166666667" lon="-48.597080000000005"><ele>12.799999999999999</ele></trkpt><trkpt lat="-27.05776166666667" lon="-48.597080000000005"><ele>12.799999999999999</ele></trkpt><trkpt lat="-27.05776166666667" lon="-48.597080000000005"><ele>12.799999999999999</ele></trkpt><trkpt lat="-27.05776166666667" lon="-48.597080000000005"><ele>12.799999999999999</ele></trkpt><trkpt lat="-27.05776166666667" lon="-48.597080000000005"><ele>12.799999999999999</ele></trkpt><trkpt lat="-27.05776166666667" lon="-48.597080000000005"><ele>12.799999999999999</ele></trkpt><trkpt lat="-27.05776166666667" lon="-48.597080000000005"><ele>12.799999999999999</ele></trkpt><trkpt lat="-27.05776166666667" lon="-48.597080000000005"><ele>12.799999999999999</ele></trkpt><trkpt lat="-27.05776166666667" lon="-48.597080000000005"><ele>12.799999999999999</ele></trkpt><trkpt lat="-27.05776166666667" lon="-48.597080000000005"><ele>12.799999999999999</ele></trkpt><trkpt lat="-27.05776166666667" lon="-48.597080000000005"><ele>12.799999999999999</ele></trkpt><trkpt lat="-27.05776166666667" lon="-48.597080000000005"><ele>12.799999999999999</ele></trkpt><trkpt lat="-27.05776166666667" lon="-48.597080000000005"><ele>12.799999999999999</ele></trkpt><trkpt lat="-27.05776166666667" lon="-48.597080000000005"><ele>12.799999999999999</ele></trkpt><trkpt lat="-27.05776166666667" lon="-48.597080000000005"><ele>12.799999999999999</ele></trkpt><trkpt lat="-27.05776166666667" lon="-48.597080000000005"><ele>12.799999999999999</ele></trkpt><trkpt lat="-27.05776166666667" lon="-48.597080000000005"><ele>12.799999999999999</ele></trkpt><trkpt lat="-27.05776166666667" lon="-48.597080000000005"><ele>12.799999999999999</ele></trkpt><trkpt lat="-27.05776166666667" lon="-48.597080000000005"><ele>12.799999999999999</ele></trkpt><trkpt lat="-27.05776166666667" lon="-48.597080000000005"><ele>12.799999999999999</ele></trkpt><trkpt lat="-27.05776166666667" lon="-48.597080000000005"><ele>12.799999999999999</ele></trkpt><trkpt lat="-27.05776166666667" lon="-48.597080000000005"><ele>12.799999999999999</ele></trkpt><trkpt lat="-27.05776166666667" lon="-48.597080000000005"><ele>12.799999999999999</ele></trkpt><trkpt lat="-27.05776166666667" lon="-48.597080000000005"><ele>12.799999999999999</ele></trkpt><trkpt lat="-27.05776166666667" lon="-48.597080000000005"><ele>12.799999999999999</ele></trkpt><trkpt lat="-27.05776166666667" lon="-48.597080000000005"><ele>12.799999999999999</ele></trkpt><trkpt lat="-27.05776166666667" lon="-48.597080000000005"><ele>12.799999999999999</ele></trkpt><trkpt lat="-27.05776166666667" lon="-48.597080000000005"><ele>12.799999999999999</ele></trkpt><trkpt lat="-27.05776166666667" lon="-48.597080000000005"><ele>12.799999999999999</ele></trkpt><trkpt lat="-27.05776166666667" lon="-48.597080000000005"><ele>12.799999999999999</ele></trkpt><trkpt lat="-27.05776166666667" lon="-48.597080000000005"><ele>12.799999999999999</ele></trkpt><trkpt lat="-27.05776166666667" lon="-48.597080000000005"><ele>12.799999999999999</ele></trkpt><trkpt lat="-27.05776166666667" lon="-48.597080000000005"><ele>12.799999999999999</ele></trkpt><trkpt lat="-27.05776166666667" lon="-48.597080000000005"><ele>12.799999999999999</ele></trkpt><trkpt lat="-27.05776166666667" lon="-48.597080000000005"><ele>12.799999999999999</ele></trkpt><trkpt lat="-27.05776166666667" lon="-48.597080000000005"><ele>12.799999999999999</ele></trkpt><trkpt lat="-27.05776166666667" lon="-48.597080000000005"><ele>12.799999999999999</ele></trkpt><trkpt lat="-27.057768333333335" lon="-48.59706166666667"><ele>11.5</ele></trkpt><trkpt lat="-27.05776166666667" lon="-48.59706333333334"><ele>11.799999999999999</ele></trkpt><trkpt lat="-27.057753333333334" lon="-48.59706333333334"><ele>11.9</ele></trkpt><trkpt lat="-27.05774666666667" lon="-48.59705999999999"><ele>12</ele></trkpt><trkpt lat="-27.057738333333337" lon="-48.597055"><ele>12</ele></trkpt><trkpt lat="-27.05773" lon="-48.59705166666666"><ele>12.2</ele></trkpt><trkpt lat="-27.057721666666666" lon="-48.59704833333333"><ele>12.299999999999999</ele></trkpt><trkpt lat="-27.057721666666666" lon="-48.59704833333333"><ele>12.299999999999999</ele></trkpt><trkpt lat="-27.057711666666666" lon="-48.597046666666664"><ele>12.299999999999999</ele></trkpt><trkpt lat="-27.05770166666667" lon="-48.59704333333334"><ele>12.6</ele></trkpt><trkpt lat="-27.057695" lon="-48.59703833333333"><ele>13</ele></trkpt><trkpt lat="-27.05769" lon="-48.59703666666666"><ele>11.7</ele></trkpt><trkpt lat="-27.05768666666667" lon="-48.597031666666666"><ele>10.7</ele></trkpt><trkpt lat="-27.057685" lon="-48.59702666666667"><ele>10</ele></trkpt><trkpt lat="-27.05768833333333" lon="-48.59702166666666"><ele>9.7</ele></trkpt><trkpt lat="-27.05768833333333" lon="-48.59701833333334"><ele>9.1</ele></trkpt><trkpt lat="-27.05769" lon="-48.59701499999999"><ele>8.7</ele></trkpt><trkpt lat="-27.05769" lon="-48.59701499999999"><ele>8.7</ele></trkpt><trkpt lat="-27.05768833333333" lon="-48.59701499999999"><ele>8.4</ele></trkpt><trkpt lat="-27.05768833333333" lon="-48.59701166666667"><ele>8.1</ele></trkpt><trkpt lat="-27.05768666666667" lon="-48.597013333333344"><ele>7.699999999999999</ele></trkpt><trkpt lat="-27.05768666666667" lon="-48.59701166666667"><ele>7.4</ele></trkpt><trkpt lat="-27.057691666666663" lon="-48.59701499999999"><ele>7.1</ele></trkpt><trkpt lat="-27.0577" lon="-48.59701833333334"><ele>7</ele></trkpt><trkpt lat="-27.057708333333334" lon="-48.59702166666666"><ele>7</ele></trkpt><trkpt lat="-27.057718333333334" lon="-48.59702666666667"><ele>7</ele></trkpt><trkpt lat="-27.057724999999998" lon="-48.59703"><ele>7.199999999999999</ele></trkpt><trkpt lat="-27.05773166666667" lon="-48.59703833333333"><ele>7.5</ele></trkpt><trkpt lat="-27.05774166666667" lon="-48.59705"><ele>7.699999999999999</ele></trkpt><trkpt lat="-27.057750000000002" lon="-48.597058333333344"><ele>7.800000000000001</ele></trkpt><trkpt lat="-27.057756666666666" lon="-48.59706333333334"><ele>7.800000000000001</ele></trkpt><trkpt lat="-27.057765000000003" lon="-48.59706833333333"><ele>7.800000000000001</ele></trkpt><trkpt lat="-27.057775" lon="-48.59707166666667"><ele>7.699999999999999</ele></trkpt><trkpt lat="-27.05778" lon="-48.597075"><ele>7.300000000000001</ele></trkpt><trkpt lat="-27.057781666666664" lon="-48.597076666666666"><ele>7.300000000000001</ele></trkpt><trkpt lat="-27.05778" lon="-48.59708166666666"><ele>7.6</ele></trkpt><trkpt lat="-27.05778" lon="-48.59708333333333"><ele>7.9</ele></trkpt><trkpt lat="-27.05778" lon="-48.59708333333333"><ele>8.4</ele></trkpt><trkpt lat="-27.05778" lon="-48.59708166666666"><ele>8.9</ele></trkpt><trkpt lat="-27.05778" lon="-48.59708166666666"><ele>9.2</ele></trkpt><trkpt lat="-27.05778" lon="-48.59708166666666"><ele>9.5</ele></trkpt><trkpt lat="-27.05778" lon="-48.59708166666666"><ele>9.5</ele></trkpt><trkpt lat="-27.05778" lon="-48.59708166666666"><ele>9.799999999999999</ele></trkpt><trkpt lat="-27.05777833333333" lon="-48.597075"><ele>9.9</ele></trkpt><trkpt lat="-27.057775" lon="-48.59706833333333"><ele>10</ele></trkpt><trkpt lat="-27.057771666666667" lon="-48.59706500000001"><ele>10</ele></trkpt><trkpt lat="-27.057769999999998" lon="-48.59705999999999"><ele>10.5</ele></trkpt><trkpt lat="-27.057771666666667" lon="-48.597058333333344"><ele>10.799999999999999</ele></trkpt><trkpt lat="-27.057769999999998" lon="-48.597058333333344"><ele>11.2</ele></trkpt><trkpt lat="-27.057769999999998" lon="-48.597058333333344"><ele>11.2</ele></trkpt><trkpt lat="-27.057769999999998" lon="-48.597058333333344"><ele>11.2</ele></trkpt><trkpt lat="-27.057769999999998" lon="-48.597058333333344"><ele>11.2</ele></trkpt><trkpt lat="-27.057769999999998" lon="-48.597058333333344"><ele>11.2</ele></trkpt><trkpt lat="-27.057769999999998" lon="-48.597058333333344"><ele>11.2</ele></trkpt><trkpt lat="-27.057769999999998" lon="-48.597058333333344"><ele>11.2</ele></trkpt><trkpt lat="-27.057769999999998" lon="-48.597058333333344"><ele>11.2</ele></trkpt><trkpt lat="-27.057769999999998" lon="-48.597058333333344"><ele>11.2</ele></trkpt><trkpt lat="-27.057769999999998" lon="-48.597058333333344"><ele>11.2</ele></trkpt><trkpt lat="-27.057769999999998" lon="-48.597058333333344"><ele>11.2</ele></trkpt><trkpt lat="-27.057769999999998" lon="-48.597058333333344"><ele>11.2</ele></trkpt><trkpt lat="-27.057769999999998" lon="-48.597058333333344"><ele>11.2</ele></trkpt><trkpt lat="-27.057769999999998" lon="-48.597058333333344"><ele>11.2</ele></trkpt><trkpt lat="-27.057769999999998" lon="-48.597058333333344"><ele>11.2</ele></trkpt><trkpt lat="-27.057769999999998" lon="-48.597058333333344"><ele>11.2</ele></trkpt><trkpt lat="-27.057769999999998" lon="-48.597058333333344"><ele>11.2</ele></trkpt><trkpt lat="-27.057769999999998" lon="-48.597058333333344"><ele>11.2</ele></trkpt><trkpt lat="-27.057769999999998" lon="-48.597058333333344"><ele>11.2</ele></trkpt><trkpt lat="-27.057769999999998" lon="-48.597058333333344"><ele>11.2</ele></trkpt><trkpt lat="-27.057769999999998" lon="-48.597058333333344"><ele>11.2</ele></trkpt><trkpt lat="-27.057769999999998" lon="-48.597058333333344"><ele>11.2</ele></trkpt><trkpt lat="-27.057769999999998" lon="-48.597058333333344"><ele>11.2</ele></trkpt><trkpt lat="-27.057769999999998" lon="-48.597058333333344"><ele>11.2</ele></trkpt><trkpt lat="-27.057769999999998" lon="-48.597058333333344"><ele>11.2</ele></trkpt><trkpt lat="-27.057769999999998" lon="-48.597058333333344"><ele>11.2</ele></trkpt><trkpt lat="-27.057769999999998" lon="-48.597058333333344"><ele>11.2</ele></trkpt><trkpt lat="-27.057769999999998" lon="-48.597058333333344"><ele>11.2</ele></trkpt><trkpt lat="-27.057769999999998" lon="-48.597058333333344"><ele>11.2</ele></trkpt><trkpt lat="-27.057769999999998" lon="-48.597058333333344"><ele>11.2</ele></trkpt><trkpt lat="-27.057769999999998" lon="-48.597058333333344"><ele>11.2</ele></trkpt><trkpt lat="-27.057769999999998" lon="-48.597058333333344"><ele>11.2</ele></trkpt><trkpt lat="-27.057769999999998" lon="-48.597058333333344"><ele>11.2</ele></trkpt><trkpt lat="-27.057769999999998" lon="-48.597058333333344"><ele>11.2</ele></trkpt><trkpt lat="-27.057769999999998" lon="-48.597058333333344"><ele>11.2</ele></trkpt><trkpt lat="-27.057769999999998" lon="-48.597058333333344"><ele>11.2</ele></trkpt><trkpt lat="-27.057769999999998" lon="-48.597058333333344"><ele>11.2</ele></trkpt><trkpt lat="-27.057769999999998" lon="-48.597058333333344"><ele>11.2</ele></trkpt><trkpt lat="-27.057769999999998" lon="-48.597058333333344"><ele>11.2</ele></trkpt><trkpt lat="-27.057769999999998" lon="-48.597058333333344"><ele>11.2</ele></trkpt><trkpt lat="-27.057769999999998" lon="-48.597058333333344"><ele>11.2</ele></trkpt><trkpt lat="-27.057769999999998" lon="-48.597058333333344"><ele>11.2</ele></trkpt><trkpt lat="-27.057769999999998" lon="-48.597058333333344"><ele>11.2</ele></trkpt><trkpt lat="-27.057769999999998" lon="-48.597058333333344"><ele>11.2</ele></trkpt><trkpt lat="-27.057769999999998" lon="-48.597058333333344"><ele>11.2</ele></trkpt><trkpt lat="-27.057769999999998" lon="-48.597058333333344"><ele>11.2</ele></trkpt><trkpt lat="-27.057769999999998" lon="-48.597058333333344"><ele>11.2</ele></trkpt><trkpt lat="-27.057769999999998" lon="-48.597058333333344"><ele>11.2</ele></trkpt><trkpt lat="-27.057769999999998" lon="-48.597058333333344"><ele>11.2</ele></trkpt><trkpt lat="-27.057769999999998" lon="-48.597058333333344"><ele>11.2</ele></trkpt><trkpt lat="-27.057769999999998" lon="-48.597058333333344"><ele>11.2</ele></trkpt><trkpt lat="-27.057769999999998" lon="-48.597058333333344"><ele>11.2</ele></trkpt><trkpt lat="-27.057769999999998" lon="-48.597058333333344"><ele>11.2</ele></trkpt><trkpt lat="-27.057769999999998" lon="-48.597058333333344"><ele>11.2</ele></trkpt><trkpt lat="-27.057769999999998" lon="-48.597058333333344"><ele>11.2</ele></trkpt><trkpt lat="-27.057769999999998" lon="-48.597058333333344"><ele>11.2</ele></trkpt><trkpt lat="-27.057769999999998" lon="-48.597058333333344"><ele>11.2</ele></trkpt><trkpt lat="-27.057769999999998" lon="-48.597058333333344"><ele>11.2</ele></trkpt><trkpt lat="-27.057769999999998" lon="-48.597058333333344"><ele>11.2</ele></trkpt><trkpt lat="-27.057769999999998" lon="-48.597058333333344"><ele>11.2</ele></trkpt><trkpt lat="-27.057769999999998" lon="-48.597058333333344"><ele>11.2</ele></trkpt><trkpt lat="-27.057769999999998" lon="-48.597058333333344"><ele>11.2</ele></trkpt><trkpt lat="-27.057769999999998" lon="-48.597058333333344"><ele>11.2</ele></trkpt><trkpt lat="-27.057769999999998" lon="-48.597058333333344"><ele>11.2</ele></trkpt><trkpt lat="-27.057769999999998" lon="-48.597058333333344"><ele>11.2</ele></trkpt><trkpt lat="-27.057769999999998" lon="-48.597058333333344"><ele>11.2</ele></trkpt><trkpt lat="-27.057769999999998" lon="-48.597058333333344"><ele>11.2</ele></trkpt><trkpt lat="-27.057769999999998" lon="-48.597058333333344"><ele>11.2</ele></trkpt><trkpt lat="-27.057769999999998" lon="-48.597058333333344"><ele>11.2</ele></trkpt><trkpt lat="-27.057769999999998" lon="-48.597058333333344"><ele>11.2</ele></trkpt><trkpt lat="-27.057769999999998" lon="-48.597058333333344"><ele>11.2</ele></trkpt><trkpt lat="-27.057769999999998" lon="-48.597058333333344"><ele>11.2</ele></trkpt><trkpt lat="-27.057769999999998" lon="-48.597058333333344"><ele>11.2</ele></trkpt><trkpt lat="-27.057769999999998" lon="-48.597058333333344"><ele>11.2</ele></trkpt><trkpt lat="-27.057769999999998" lon="-48.597058333333344"><ele>11.2</ele></trkpt><trkpt lat="-27.057769999999998" lon="-48.597058333333344"><ele>11.2</ele></trkpt><trkpt lat="-27.057769999999998" lon="-48.597058333333344"><ele>11.2</ele></trkpt><trkpt lat="-27.057769999999998" lon="-48.597058333333344"><ele>11.2</ele></trkpt><trkpt lat="-27.05777833333333" lon="-48.59705333333333"><ele>12.9</ele></trkpt><trkpt lat="-27.057785" lon="-48.59706666666666"><ele>12.799999999999999</ele></trkpt><trkpt lat="-27.057796666666665" lon="-48.597076666666666"><ele>12.4</ele></trkpt><trkpt lat="-27.057814999999998" lon="-48.59708833333334"><ele>12.2</ele></trkpt><trkpt lat="-27.05783666666667" lon="-48.597103333333344"><ele>11.6</ele></trkpt><trkpt lat="-27.057856666666666" lon="-48.59711833333334"><ele>11.5</ele></trkpt><trkpt lat="-27.05787833333333" lon="-48.59713"><ele>11.5</ele></trkpt><trkpt lat="-27.057901666666666" lon="-48.59714333333333"><ele>11.1</ele></trkpt><trkpt lat="-27.05792333333333" lon="-48.59715333333334"><ele>10.9</ele></trkpt><trkpt lat="-27.057943333333334" lon="-48.59716166666667"><ele>10.7</ele></trkpt><trkpt lat="-27.05796666666667" lon="-48.597168333333336"><ele>10.2</ele></trkpt><trkpt lat="-27.057981666666667" lon="-48.597165"><ele>10</ele></trkpt><trkpt lat="-27.057993333333336" lon="-48.59715500000001"><ele>10.4</ele></trkpt><trkpt lat="-27.057988333333334" lon="-48.59714666666667"><ele>10.799999999999999</ele></trkpt><trkpt lat="-27.05798333333333" lon="-48.597148333333344"><ele>10.7</ele></trkpt><trkpt lat="-27.057981666666667" lon="-48.597148333333344"><ele>10.6</ele></trkpt><trkpt lat="-27.057981666666667" lon="-48.597148333333344"><ele>10.5</ele></trkpt><trkpt lat="-27.057981666666667" lon="-48.59714666666667"><ele>10.4</ele></trkpt><trkpt lat="-27.057981666666667" lon="-48.597145"><ele>10.5</ele></trkpt><trkpt lat="-27.057979999999997" lon="-48.59714333333333"><ele>10.6</ele></trkpt><trkpt lat="-27.057973333333333" lon="-48.59714333333333"><ele>10.799999999999999</ele></trkpt><trkpt lat="-27.05795666666667" lon="-48.59714166666666"><ele>11.1</ele></trkpt><trkpt lat="-27.057933333333335" lon="-48.59713333333334"><ele>11.6</ele></trkpt><trkpt lat="-27.057903333333336" lon="-48.597125000000005"><ele>12.1</ele></trkpt><trkpt lat="-27.05787666666667" lon="-48.59712"><ele>12.299999999999999</ele></trkpt><trkpt lat="-27.05785" lon="-48.59711166666666"><ele>12.5</ele></trkpt><trkpt lat="-27.057825" lon="-48.597103333333344"><ele>12.6</ele></trkpt><trkpt lat="-27.057799999999997" lon="-48.59708333333333"><ele>12.7</ele></trkpt><trkpt lat="-27.057775" lon="-48.59706333333334"><ele>12.799999999999999</ele></trkpt><trkpt lat="-27.057754999999997" lon="-48.597046666666664"><ele>12.799999999999999</ele></trkpt><trkpt lat="-27.05773166666667" lon="-48.59703666666666"><ele>12.6</ele></trkpt><trkpt lat="-27.057709999999997" lon="-48.59702666666667"><ele>11.799999999999999</ele></trkpt><trkpt lat="-27.057685" lon="-48.59701666666667"><ele>11.2</ele></trkpt><trkpt lat="-27.057661666666665" lon="-48.59700833333333"><ele>11.1</ele></trkpt><trkpt lat="-27.05763833333333" lon="-48.59699666666667"><ele>11.5</ele></trkpt><trkpt lat="-27.057613333333332" lon="-48.59698"><ele>11.7</ele></trkpt><trkpt lat="-27.057591666666667" lon="-48.59696166666666"><ele>11.4</ele></trkpt><trkpt lat="-27.057568333333332" lon="-48.59694666666666"><ele>11.4</ele></trkpt><trkpt lat="-27.057546666666667" lon="-48.59693333333333"><ele>11.2</ele></trkpt><trkpt lat="-27.057523333333332" lon="-48.59691833333333"><ele>11.4</ele></trkpt><trkpt lat="-27.057503333333337" lon="-48.59690333333333"><ele>11.4</ele></trkpt><trkpt lat="-27.057503333333337" lon="-48.59690333333333"><ele>11.4</ele></trkpt><trkpt lat="-27.057478333333332" lon="-48.59689333333334"><ele>12.2</ele></trkpt><trkpt lat="-27.057456666666667" lon="-48.59688333333334"><ele>12.7</ele></trkpt><trkpt lat="-27.057436666666664" lon="-48.59687"><ele>12.9</ele></trkpt><trkpt lat="-27.057415" lon="-48.596855000000005"><ele>13.1</ele></trkpt><trkpt lat="-27.05739" lon="-48.59683499999999"><ele>12.799999999999999</ele></trkpt><trkpt lat="-27.057358333333333" lon="-48.59681666666667"><ele>12.6</ele></trkpt><trkpt lat="-27.05732666666667" lon="-48.59679666666666"><ele>12.1</ele></trkpt><trkpt lat="-27.057291666666668" lon="-48.596774999999994"><ele>11.6</ele></trkpt><trkpt lat="-27.057253333333332" lon="-48.59675333333333"><ele>11.4</ele></trkpt><trkpt lat="-27.057216666666665" lon="-48.596729999999994"><ele>11</ele></trkpt><trkpt lat="-27.057180000000002" lon="-48.59670500000001"><ele>10.9</ele></trkpt><trkpt lat="-27.057143333333336" lon="-48.59668"><ele>10.4</ele></trkpt><trkpt lat="-27.05710333333333" lon="-48.59666000000001"><ele>10.9</ele></trkpt><trkpt lat="-27.05707" lon="-48.596635"><ele>10.7</ele></trkpt><trkpt lat="-27.05704166666667" lon="-48.59661500000001"><ele>10.799999999999999</ele></trkpt><trkpt lat="-27.05704166666667" lon="-48.59661500000001"><ele>10.799999999999999</ele></trkpt><trkpt lat="-27.057018333333335" lon="-48.59659666666666"><ele>10.5</ele></trkpt><trkpt lat="-27.056994999999997" lon="-48.59659"><ele>10.799999999999999</ele></trkpt><trkpt lat="-27.05698166666667" lon="-48.59657166666666"><ele>11.299999999999999</ele></trkpt><trkpt lat="-27.056976666666667" lon="-48.59656666666667"><ele>11.5</ele></trkpt><trkpt lat="-27.056978333333337" lon="-48.596561666666666"><ele>11.4</ele></trkpt><trkpt lat="-27.056978333333337" lon="-48.59656"><ele>11.2</ele></trkpt><trkpt lat="-27.05698" lon="-48.59656"><ele>11.2</ele></trkpt><trkpt lat="-27.056978333333337" lon="-48.596555"><ele>11.2</ele></trkpt><trkpt lat="-27.056976666666667" lon="-48.59655666666666"><ele>11.2</ele></trkpt><trkpt lat="-27.056975000000005" lon="-48.59655833333333"><ele>11.2</ele></trkpt><trkpt lat="-27.056976666666667" lon="-48.59655833333333"><ele>11.299999999999999</ele></trkpt><trkpt lat="-27.056976666666667" lon="-48.59655833333333"><ele>11.299999999999999</ele></trkpt><trkpt lat="-27.056978333333337" lon="-48.59655833333333"><ele>11.299999999999999</ele></trkpt><trkpt lat="-27.05698" lon="-48.59655833333333"><ele>11.1</ele></trkpt><trkpt lat="-27.05698" lon="-48.59655833333333"><ele>11.1</ele></trkpt><trkpt lat="-27.05698" lon="-48.59655833333333"><ele>11.1</ele></trkpt><trkpt lat="-27.05698" lon="-48.59655833333333"><ele>11.1</ele></trkpt><trkpt lat="-27.05698" lon="-48.59655833333333"><ele>11.1</ele></trkpt><trkpt lat="-27.05698" lon="-48.59655833333333"><ele>11.1</ele></trkpt><trkpt lat="-27.05698" lon="-48.59655833333333"><ele>11.1</ele></trkpt><trkpt lat="-27.05698" lon="-48.59655833333333"><ele>11.1</ele></trkpt><trkpt lat="-27.05698" lon="-48.59655833333333"><ele>11.1</ele></trkpt><trkpt lat="-27.05698" lon="-48.59655833333333"><ele>11.1</ele></trkpt><trkpt lat="-27.05698" lon="-48.59655833333333"><ele>11.1</ele></trkpt><trkpt lat="-27.05698" lon="-48.59655833333333"><ele>11.1</ele></trkpt><trkpt lat="-27.05698" lon="-48.59655833333333"><ele>11.1</ele></trkpt><trkpt lat="-27.05698" lon="-48.59655833333333"><ele>11.1</ele></trkpt><trkpt lat="-27.05698" lon="-48.59655833333333"><ele>11.1</ele></trkpt><trkpt lat="-27.05698" lon="-48.59655833333333"><ele>11.1</ele></trkpt><trkpt lat="-27.05698" lon="-48.59655833333333"><ele>11.1</ele></trkpt><trkpt lat="-27.05698" lon="-48.59655833333333"><ele>11.1</ele></trkpt><trkpt lat="-27.05698" lon="-48.59655833333333"><ele>11.1</ele></trkpt><trkpt lat="-27.05698" lon="-48.59655833333333"><ele>11.1</ele></trkpt><trkpt lat="-27.05698" lon="-48.59655833333333"><ele>11.1</ele></trkpt><trkpt lat="-27.05698" lon="-48.59655833333333"><ele>11.1</ele></trkpt><trkpt lat="-27.05698" lon="-48.59655833333333"><ele>11.1</ele></trkpt><trkpt lat="-27.05698" lon="-48.59655833333333"><ele>11.1</ele></trkpt><trkpt lat="-27.05698" lon="-48.59655833333333"><ele>11.1</ele></trkpt><trkpt lat="-27.05698" lon="-48.59655833333333"><ele>11.1</ele></trkpt><trkpt lat="-27.05698" lon="-48.59655833333333"><ele>11.1</ele></trkpt><trkpt lat="-27.05698" lon="-48.59655833333333"><ele>11.1</ele></trkpt><trkpt lat="-27.05698" lon="-48.59655833333333"><ele>11.1</ele></trkpt><trkpt lat="-27.05698" lon="-48.59655833333333"><ele>11.1</ele></trkpt><trkpt lat="-27.05698" lon="-48.59655833333333"><ele>11.1</ele></trkpt><trkpt lat="-27.05698" lon="-48.59655833333333"><ele>11.1</ele></trkpt><trkpt lat="-27.056963333333336" lon="-48.59654666666667"><ele>11.1</ele></trkpt><trkpt lat="-27.056948333333334" lon="-48.596540000000005"><ele>10.5</ele></trkpt><trkpt lat="-27.056928333333335" lon="-48.59652500000001"><ele>9.9</ele></trkpt><trkpt lat="-27.05690666666667" lon="-48.59651166666666"><ele>9.4</ele></trkpt><trkpt lat="-27.056885000000005" lon="-48.5965"><ele>9</ele></trkpt><trkpt lat="-27.05686166666667" lon="-48.59648666666667"><ele>8.9</ele></trkpt><trkpt lat="-27.05686166666667" lon="-48.59648666666667"><ele>8.9</ele></trkpt><trkpt lat="-27.056835" lon="-48.59647"><ele>9.2</ele></trkpt><trkpt lat="-27.056811666666665" lon="-48.59645666666667"><ele>9</ele></trkpt><trkpt lat="-27.056811666666665" lon="-48.59645666666667"><ele>9</ele></trkpt><trkpt lat="-27.056786666666667" lon="-48.59644"><ele>9.3</ele></trkpt><trkpt lat="-27.056761666666663" lon="-48.59642"><ele>9.4</ele></trkpt><trkpt lat="-27.056736666666666" lon="-48.596399999999996"><ele>9.6</ele></trkpt><trkpt lat="-27.05671333333333" lon="-48.596381666666666"><ele>10</ele></trkpt><trkpt lat="-27.056690000000003" lon="-48.59636666666667"><ele>9.799999999999999</ele></trkpt><trkpt lat="-27.05666833333333" lon="-48.59635"><ele>9.7</ele></trkpt><trkpt lat="-27.056648333333335" lon="-48.59633333333333"><ele>9.4</ele></trkpt><trkpt lat="-27.056625" lon="-48.596315000000004"><ele>9</ele></trkpt><trkpt lat="-27.056600000000003" lon="-48.59630000000001"><ele>8.9</ele></trkpt><trkpt lat="-27.056573333333336" lon="-48.59628333333333"><ele>8.2</ele></trkpt><trkpt lat="-27.056548333333332" lon="-48.596271666666674"><ele>8.1</ele></trkpt><trkpt lat="-27.05652" lon="-48.59626"><ele>8</ele></trkpt><trkpt lat="-27.05648833333333" lon="-48.596255000000006"><ele>8.4</ele></trkpt><trkpt lat="-27.05645666666667" lon="-48.59625166666667"><ele>9.4</ele></trkpt><trkpt lat="-27.056423333333335" lon="-48.596244999999996"><ele>9.4</ele></trkpt><trkpt lat="-27.056391666666666" lon="-48.59624166666667"><ele>9.4</ele></trkpt><trkpt lat="-27.056361666666664" lon="-48.59623666666666"><ele>9</ele></trkpt><trkpt lat="-27.05632666666667" lon="-48.59622833333333"><ele>9</ele></trkpt><trkpt lat="-27.05629333333333" lon="-48.59623"><ele>8.7</ele></trkpt><trkpt lat="-27.056261666666668" lon="-48.59623"><ele>8.1</ele></trkpt><trkpt lat="-27.056229999999996" lon="-48.59623499999999"><ele>7.6</ele></trkpt><trkpt lat="-27.056198333333334" lon="-48.59624166666667"><ele>7.1</ele></trkpt><trkpt lat="-27.056165000000004" lon="-48.59624833333334"><ele>7.4</ele></trkpt><trkpt lat="-27.05612833333333" lon="-48.59625166666667"><ele>8</ele></trkpt><trkpt lat="-27.05610166666667" lon="-48.59625333333334"><ele>7.800000000000001</ele></trkpt><trkpt lat="-27.056078333333335" lon="-48.59626"><ele>7.800000000000001</ele></trkpt><trkpt lat="-27.056055" lon="-48.596268333333335"><ele>7.699999999999999</ele></trkpt><trkpt lat="-27.05603833333333" lon="-48.59628166666666"><ele>8</ele></trkpt><trkpt lat="-27.056018333333334" lon="-48.59628666666667"><ele>8.2</ele></trkpt><trkpt lat="-27.056018333333334" lon="-48.59628666666667"><ele>8.2</ele></trkpt><trkpt lat="-27.05599666666667" lon="-48.596291666666666"><ele>8.7</ele></trkpt><trkpt lat="-27.055986666666666" lon="-48.59629666666667"><ele>8.9</ele></trkpt><trkpt lat="-27.055974999999997" lon="-48.59629833333334"><ele>8.9</ele></trkpt><trkpt lat="-27.055971666666665" lon="-48.59629833333334"><ele>8.9</ele></trkpt><trkpt lat="-27.055973333333334" lon="-48.59629833333334"><ele>8.5</ele></trkpt><trkpt lat="-27.055976666666666" lon="-48.59630000000001"><ele>8.3</ele></trkpt><trkpt lat="-27.055978333333336" lon="-48.59629833333334"><ele>8.2</ele></trkpt><trkpt lat="-27.055976666666666" lon="-48.59629833333334"><ele>8.2</ele></trkpt><trkpt lat="-27.055973333333334" lon="-48.59629666666667"><ele>8.3</ele></trkpt><trkpt lat="-27.055971666666665" lon="-48.59629833333334"><ele>8.1</ele></trkpt><trkpt lat="-27.055971666666665" lon="-48.59629833333334"><ele>8.1</ele></trkpt><trkpt lat="-27.055971666666665" lon="-48.59630000000001"><ele>8</ele></trkpt><trkpt lat="-27.055974999999997" lon="-48.59630333333333"><ele>8</ele></trkpt><trkpt lat="-27.055976666666666" lon="-48.59630333333333"><ele>7.800000000000001</ele></trkpt><trkpt lat="-27.055976666666666" lon="-48.59630333333333"><ele>7.800000000000001</ele></trkpt><trkpt lat="-27.055976666666666" lon="-48.59630333333333"><ele>7.800000000000001</ele></trkpt><trkpt lat="-27.055976666666666" lon="-48.59630333333333"><ele>7.800000000000001</ele></trkpt><trkpt lat="-27.055976666666666" lon="-48.59630333333333"><ele>7.800000000000001</ele></trkpt><trkpt lat="-27.055976666666666" lon="-48.59630333333333"><ele>7.800000000000001</ele></trkpt><trkpt lat="-27.055976666666666" lon="-48.59630333333333"><ele>7.800000000000001</ele></trkpt><trkpt lat="-27.055976666666666" lon="-48.59630333333333"><ele>7.800000000000001</ele></trkpt><trkpt lat="-27.055976666666666" lon="-48.59630333333333"><ele>7.800000000000001</ele></trkpt><trkpt lat="-27.055965" lon="-48.596305"><ele>9.4</ele></trkpt><trkpt lat="-27.055946666666667" lon="-48.596315000000004"><ele>10.5</ele></trkpt><trkpt lat="-27.055929999999996" lon="-48.59632499999999"><ele>12</ele></trkpt><trkpt lat="-27.055914999999995" lon="-48.59633833333334"><ele>13.6</ele></trkpt><trkpt lat="-27.05589166666667" lon="-48.59634166666667"><ele>12.7</ele></trkpt><trkpt lat="-27.055858333333337" lon="-48.596334999999996"><ele>11.6</ele></trkpt><trkpt lat="-27.05583166666667" lon="-48.596336666666666"><ele>10.9</ele></trkpt><trkpt lat="-27.05583166666667" lon="-48.596336666666666"><ele>10.9</ele></trkpt><trkpt lat="-27.055813333333337" lon="-48.596336666666666"><ele>10</ele></trkpt><trkpt lat="-27.055793333333334" lon="-48.596336666666666"><ele>9</ele></trkpt><trkpt lat="-27.05577333333333" lon="-48.59633999999999"><ele>8.7</ele></trkpt><trkpt lat="-27.055753333333335" lon="-48.59634166666667"><ele>8.1</ele></trkpt><trkpt lat="-27.05573" lon="-48.59634500000001"><ele>8.2</ele></trkpt><trkpt lat="-27.055708333333335" lon="-48.59635166666667"><ele>7.9</ele></trkpt><trkpt lat="-27.055688333333332" lon="-48.59635"><ele>7.5</ele></trkpt><trkpt lat="-27.055673333333335" lon="-48.59634333333334"><ele>7.4</ele></trkpt><trkpt lat="-27.055659999999996" lon="-48.59633833333334"><ele>7.1</ele></trkpt><trkpt lat="-27.055646666666668" lon="-48.59633833333334"><ele>7.5</ele></trkpt><trkpt lat="-27.05563833333333" lon="-48.596336666666666"><ele>7.6</ele></trkpt><trkpt lat="-27.055631666666667" lon="-48.59633333333333"><ele>7.699999999999999</ele></trkpt><trkpt lat="-27.055629999999997" lon="-48.59633333333333"><ele>7.699999999999999</ele></trkpt><trkpt lat="-27.055629999999997" lon="-48.59633333333333"><ele>7.6</ele></trkpt><trkpt lat="-27.055629999999997" lon="-48.59633333333333"><ele>7.699999999999999</ele></trkpt><trkpt lat="-27.055629999999997" lon="-48.596336666666666"><ele>7.6</ele></trkpt><trkpt lat="-27.055631666666667" lon="-48.59633833333334"><ele>7.699999999999999</ele></trkpt><trkpt lat="-27.055631666666667" lon="-48.596336666666666"><ele>7.6</ele></trkpt><trkpt lat="-27.055633333333336" lon="-48.596336666666666"><ele>7.699999999999999</ele></trkpt><trkpt lat="-27.055633333333336" lon="-48.596334999999996"><ele>7.6</ele></trkpt><trkpt lat="-27.055631666666667" lon="-48.59633333333333"><ele>7.5</ele></trkpt><trkpt lat="-27.055631666666667" lon="-48.59633333333333"><ele>7.5</ele></trkpt><trkpt lat="-27.055631666666667" lon="-48.59633333333333"><ele>7.5</ele></trkpt><trkpt lat="-27.055631666666667" lon="-48.59633333333333"><ele>7.5</ele></trkpt><trkpt lat="-27.055631666666667" lon="-48.59633333333333"><ele>7.5</ele></trkpt><trkpt lat="-27.055631666666667" lon="-48.59633333333333"><ele>7.5</ele></trkpt><trkpt lat="-27.055631666666667" lon="-48.59633333333333"><ele>7.5</ele></trkpt><trkpt lat="-27.055631666666667" lon="-48.59633333333333"><ele>7.5</ele></trkpt><trkpt lat="-27.055631666666667" lon="-48.59633333333333"><ele>7.5</ele></trkpt><trkpt lat="-27.055631666666667" lon="-48.59633333333333"><ele>7.5</ele></trkpt><trkpt lat="-27.055631666666667" lon="-48.59633333333333"><ele>7.5</ele></trkpt><trkpt lat="-27.055631666666667" lon="-48.59633333333333"><ele>7.5</ele></trkpt><trkpt lat="-27.055631666666667" lon="-48.59633333333333"><ele>7.5</ele></trkpt><trkpt lat="-27.055631666666667" lon="-48.59633333333333"><ele>7.5</ele></trkpt><trkpt lat="-27.055631666666667" lon="-48.59633333333333"><ele>7.5</ele></trkpt><trkpt lat="-27.055631666666667" lon="-48.59633333333333"><ele>7.5</ele></trkpt><trkpt lat="-27.055619999999998" lon="-48.59633333333333"><ele>7.6</ele></trkpt><trkpt lat="-27.05560666666667" lon="-48.59634333333334"><ele>7.5</ele></trkpt><trkpt lat="-27.055588333333336" lon="-48.59635"><ele>7.800000000000001</ele></trkpt><trkpt lat="-27.055571666666665" lon="-48.596354999999996"><ele>7.699999999999999</ele></trkpt><trkpt lat="-27.055556666666668" lon="-48.59636166666666"><ele>7.800000000000001</ele></trkpt><trkpt lat="-27.055539999999997" lon="-48.596375"><ele>7.800000000000001</ele></trkpt><trkpt lat="-27.055524999999996" lon="-48.596381666666666"><ele>7.800000000000001</ele></trkpt><trkpt lat="-27.055506666666663" lon="-48.59638333333334"><ele>7.1</ele></trkpt><trkpt lat="-27.055490000000002" lon="-48.59638333333334"><ele>6.9</ele></trkpt><trkpt lat="-27.05547166666667" lon="-48.596381666666666"><ele>7</ele></trkpt><trkpt lat="-27.055456666666668" lon="-48.596379999999996"><ele>7.4</ele></trkpt><trkpt lat="-27.055438333333335" lon="-48.596375"><ele>7.1</ele></trkpt><trkpt lat="-27.055423333333337" lon="-48.59637333333333"><ele>6.800000000000001</ele></trkpt><trkpt lat="-27.05541" lon="-48.59637333333333"><ele>6.6</ele></trkpt><trkpt lat="-27.055394999999997" lon="-48.59637166666666"><ele>6.1</ele></trkpt><trkpt lat="-27.05538" lon="-48.59637333333333"><ele>5.9</ele></trkpt><trkpt lat="-27.05537" lon="-48.59636999999999"><ele>5.6</ele></trkpt><trkpt lat="-27.055355000000002" lon="-48.59637166666666"><ele>4.9</ele></trkpt><trkpt lat="-27.055341666666664" lon="-48.59637333333333"><ele>4.7</ele></trkpt><trkpt lat="-27.055331666666667" lon="-48.59637166666666"><ele>4.9</ele></trkpt><trkpt lat="-27.055321666666668" lon="-48.59636833333334"><ele>5.300000000000001</ele></trkpt><trkpt lat="-27.055311666666665" lon="-48.59636833333334"><ele>5.2</ele></trkpt><trkpt lat="-27.055301666666665" lon="-48.59636999999999"><ele>5.2</ele></trkpt><trkpt lat="-27.055301666666665" lon="-48.59636999999999"><ele>5.2</ele></trkpt><trkpt lat="-27.05529166666667" lon="-48.59637166666666"><ele>5.2</ele></trkpt><trkpt lat="-27.055285000000005" lon="-48.59636999999999"><ele>5.2</ele></trkpt><trkpt lat="-27.055285000000005" lon="-48.59636999999999"><ele>5.2</ele></trkpt><trkpt lat="-27.055285000000005" lon="-48.59637166666666"><ele>5.5</ele></trkpt><trkpt lat="-27.055283333333332" lon="-48.59636999999999"><ele>5.5</ele></trkpt><trkpt lat="-27.055285000000005" lon="-48.59636999999999"><ele>5.2</ele></trkpt><trkpt lat="-27.055285000000005" lon="-48.59636999999999"><ele>5.1</ele></trkpt><trkpt lat="-27.055285000000005" lon="-48.59636833333334"><ele>4.800000000000001</ele></trkpt><trkpt lat="-27.055285000000005" lon="-48.59636833333334"><ele>4.800000000000001</ele></trkpt><trkpt lat="-27.055285000000005" lon="-48.59636833333334"><ele>4.800000000000001</ele></trkpt><trkpt lat="-27.055285000000005" lon="-48.59636833333334"><ele>4.800000000000001</ele></trkpt><trkpt lat="-27.055283333333332" lon="-48.59636999999999"><ele>4.6</ele></trkpt><trkpt lat="-27.05527833333333" lon="-48.59636666666667"><ele>4.4</ele></trkpt><trkpt lat="-27.05527833333333" lon="-48.59636666666667"><ele>4.4</ele></trkpt><trkpt lat="-27.05527833333333" lon="-48.59636666666667"><ele>4.4</ele></trkpt><trkpt lat="-27.055270000000004" lon="-48.596365"><ele>5.699999999999999</ele></trkpt><trkpt lat="-27.055256666666665" lon="-48.596360000000004"><ele>6.300000000000001</ele></trkpt><trkpt lat="-27.055241666666667" lon="-48.596358333333335"><ele>6.199999999999999</ele></trkpt><trkpt lat="-27.055226666666666" lon="-48.596356666666665"><ele>6</ele></trkpt><trkpt lat="-27.05521666666667" lon="-48.596356666666665"><ele>6.1</ele></trkpt><trkpt lat="-27.055205" lon="-48.596358333333335"><ele>6</ele></trkpt><trkpt lat="-27.05519333333333" lon="-48.596358333333335"><ele>3.6</ele></trkpt><trkpt lat="-27.055183333333336" lon="-48.59635333333334"><ele>3.4000000000000004</ele></trkpt><trkpt lat="-27.05517166666667" lon="-48.59635"><ele>3.5</ele></trkpt><trkpt lat="-27.05515833333333" lon="-48.596346666666676"><ele>4.1</ele></trkpt><trkpt lat="-27.055145" lon="-48.596346666666676"><ele>4.6</ele></trkpt><trkpt lat="-27.055133333333334" lon="-48.59634500000001"><ele>4.5</ele></trkpt><trkpt lat="-27.055116666666663" lon="-48.59634333333334"><ele>4.6</ele></trkpt><trkpt lat="-27.0551" lon="-48.59633833333334"><ele>4.7</ele></trkpt><trkpt lat="-27.055091666666666" lon="-48.596336666666666"><ele>5.1</ele></trkpt><trkpt lat="-27.055079999999997" lon="-48.596336666666666"><ele>5.4</ele></trkpt><trkpt lat="-27.05507" lon="-48.596334999999996"><ele>5.300000000000001</ele></trkpt><trkpt lat="-27.055056666666662" lon="-48.59633166666667"><ele>5.4</ele></trkpt><trkpt lat="-27.055045000000003" lon="-48.59632833333333"><ele>5.2</ele></trkpt><trkpt lat="-27.055038333333332" lon="-48.59632666666666"><ele>5.2</ele></trkpt><trkpt lat="-27.055038333333332" lon="-48.59632666666666"><ele>5.4</ele></trkpt><trkpt lat="-27.05503666666667" lon="-48.59632666666666"><ele>5.800000000000001</ele></trkpt><trkpt lat="-27.05503666666667" lon="-48.59632499999999"><ele>5.800000000000001</ele></trkpt><trkpt lat="-27.055038333333332" lon="-48.59632499999999"><ele>5.800000000000001</ele></trkpt><trkpt lat="-27.055038333333332" lon="-48.59632499999999"><ele>5.800000000000001</ele></trkpt><trkpt lat="-27.055038333333332" lon="-48.59632666666666"><ele>5.699999999999999</ele></trkpt><trkpt lat="-27.05504" lon="-48.59632833333333"><ele>5.699999999999999</ele></trkpt><trkpt lat="-27.055041666666664" lon="-48.59633"><ele>5.800000000000001</ele></trkpt><trkpt lat="-27.055043333333334" lon="-48.59633333333333"><ele>5.800000000000001</ele></trkpt><trkpt lat="-27.055043333333334" lon="-48.59633333333333"><ele>5.6</ele></trkpt><trkpt lat="-27.055043333333334" lon="-48.59633333333333"><ele>5.6</ele></trkpt><trkpt lat="-27.055043333333334" lon="-48.59633333333333"><ele>5.6</ele></trkpt><trkpt lat="-27.055043333333334" lon="-48.59633333333333"><ele>5.6</ele></trkpt><trkpt lat="-27.055043333333334" lon="-48.59633333333333"><ele>5.6</ele></trkpt><trkpt lat="-27.055043333333334" lon="-48.59633333333333"><ele>5.6</ele></trkpt><trkpt lat="-27.055043333333334" lon="-48.59633333333333"><ele>5.6</ele></trkpt><trkpt lat="-27.055043333333334" lon="-48.59633333333333"><ele>5.6</ele></trkpt><trkpt lat="-27.055043333333334" lon="-48.59633333333333"><ele>5.6</ele></trkpt><trkpt lat="-27.055043333333334" lon="-48.59633333333333"><ele>5.6</ele></trkpt><trkpt lat="-27.055043333333334" lon="-48.59633333333333"><ele>5.6</ele></trkpt><trkpt lat="-27.055043333333334" lon="-48.59633333333333"><ele>5.6</ele></trkpt><trkpt lat="-27.055043333333334" lon="-48.59633333333333"><ele>5.6</ele></trkpt><trkpt lat="-27.055043333333334" lon="-48.59633333333333"><ele>5.6</ele></trkpt><trkpt lat="-27.055043333333334" lon="-48.59633333333333"><ele>5.6</ele></trkpt><trkpt lat="-27.055043333333334" lon="-48.59633333333333"><ele>5.6</ele></trkpt><trkpt lat="-27.055043333333334" lon="-48.59633333333333"><ele>5.6</ele></trkpt><trkpt lat="-27.055043333333334" lon="-48.59633333333333"><ele>5.6</ele></trkpt><trkpt lat="-27.055043333333334" lon="-48.59633333333333"><ele>5.6</ele></trkpt><trkpt lat="-27.055043333333334" lon="-48.59633333333333"><ele>5.6</ele></trkpt><trkpt lat="-27.055043333333334" lon="-48.59633333333333"><ele>5.6</ele></trkpt><trkpt lat="-27.055043333333334" lon="-48.59633333333333"><ele>5.6</ele></trkpt><trkpt lat="-27.055043333333334" lon="-48.59633333333333"><ele>5.6</ele></trkpt><trkpt lat="-27.055043333333334" lon="-48.59633333333333"><ele>5.6</ele></trkpt><trkpt lat="-27.055043333333334" lon="-48.59633333333333"><ele>5.6</ele></trkpt><trkpt lat="-27.055043333333334" lon="-48.59633333333333"><ele>5.6</ele></trkpt><trkpt lat="-27.055006666666667" lon="-48.59633"><ele>6</ele></trkpt><trkpt lat="-27.05499166666667" lon="-48.59632833333333"><ele>6</ele></trkpt><trkpt lat="-27.05497666666667" lon="-48.59632166666667"><ele>5.9</ele></trkpt><trkpt lat="-27.05496333333333" lon="-48.59632"><ele>5.699999999999999</ele></trkpt><trkpt lat="-27.054951666666664" lon="-48.59631833333333"><ele>5.4</ele></trkpt><trkpt lat="-27.05495" lon="-48.59632"><ele>5.300000000000001</ele></trkpt><trkpt lat="-27.054951666666664" lon="-48.59632"><ele>5.4</ele></trkpt><trkpt lat="-27.054955000000003" lon="-48.596316666666674"><ele>5.300000000000001</ele></trkpt><trkpt lat="-27.054961666666667" lon="-48.596316666666674"><ele>5.300000000000001</ele></trkpt><trkpt lat="-27.05496833333333" lon="-48.596315000000004"><ele>5.1</ele></trkpt><trkpt lat="-27.05497833333333" lon="-48.59632"><ele>4.9</ele></trkpt><trkpt lat="-27.054989999999997" lon="-48.59632166666667"><ele>4.7</ele></trkpt><trkpt lat="-27.055000000000003" lon="-48.59632666666666"><ele>4.5</ele></trkpt><trkpt lat="-27.05501" lon="-48.596334999999996"><ele>4.4</ele></trkpt><trkpt lat="-27.05502333333333" lon="-48.59633833333334"><ele>4.2</ele></trkpt><trkpt lat="-27.055033333333334" lon="-48.59633833333334"><ele>4.300000000000001</ele></trkpt><trkpt lat="-27.055043333333334" lon="-48.596334999999996"><ele>4.5</ele></trkpt><trkpt lat="-27.055055" lon="-48.59633333333333"><ele>5</ele></trkpt><trkpt lat="-27.055065" lon="-48.59633"><ele>5.1</ele></trkpt><trkpt lat="-27.055078333333334" lon="-48.59633"><ele>5.4</ele></trkpt><trkpt lat="-27.055090000000003" lon="-48.59633333333333"><ele>5.6</ele></trkpt><trkpt lat="-27.05510333333333" lon="-48.59633999999999"><ele>5.6</ele></trkpt><trkpt lat="-27.055115" lon="-48.59634333333334"><ele>5.6</ele></trkpt><trkpt lat="-27.055130000000002" lon="-48.59634833333333"><ele>5.300000000000001</ele></trkpt><trkpt lat="-27.055141666666668" lon="-48.596354999999996"><ele>5.1</ele></trkpt><trkpt lat="-27.05516" lon="-48.59636166666666"><ele>4.9</ele></trkpt><trkpt lat="-27.05517166666667" lon="-48.59636666666667"><ele>4.4</ele></trkpt><trkpt lat="-27.055181666666666" lon="-48.59636666666667"><ele>3.9</ele></trkpt><trkpt lat="-27.055195000000005" lon="-48.59636666666667"><ele>3.4000000000000004</ele></trkpt><trkpt lat="-27.055208333333333" lon="-48.59637333333333"><ele>3.4000000000000004</ele></trkpt><trkpt lat="-27.055218333333332" lon="-48.596375"><ele>3.4000000000000004</ele></trkpt><trkpt lat="-27.055226666666666" lon="-48.596375"><ele>3.8000000000000003</ele></trkpt><trkpt lat="-27.05523333333333" lon="-48.596375"><ele>3.7</ele></trkpt><trkpt lat="-27.055236666666662" lon="-48.59636833333334"><ele>3.7</ele></trkpt><trkpt lat="-27.055236666666662" lon="-48.59636333333333"><ele>3.8000000000000003</ele></trkpt><trkpt lat="-27.05523333333333" lon="-48.59636166666666"><ele>4.1</ele></trkpt><trkpt lat="-27.055235" lon="-48.59636333333333"><ele>4.4</ele></trkpt><trkpt lat="-27.055236666666662" lon="-48.596365"><ele>4.300000000000001</ele></trkpt><trkpt lat="-27.055236666666662" lon="-48.596365"><ele>4.4</ele></trkpt><trkpt lat="-27.055236666666662" lon="-48.59636666666667"><ele>4.6</ele></trkpt><trkpt lat="-27.055236666666662" lon="-48.59636833333334"><ele>4.9</ele></trkpt><trkpt lat="-27.055236666666662" lon="-48.59636833333334"><ele>4.9</ele></trkpt><trkpt lat="-27.055236666666662" lon="-48.59636833333334"><ele>4.9</ele></trkpt><trkpt lat="-27.055236666666662" lon="-48.59636833333334"><ele>4.9</ele></trkpt><trkpt lat="-27.055236666666662" lon="-48.59636833333334"><ele>4.9</ele></trkpt><trkpt lat="-27.055236666666662" lon="-48.59636833333334"><ele>4.9</ele></trkpt><trkpt lat="-27.055236666666662" lon="-48.59636833333334"><ele>4.9</ele></trkpt><trkpt lat="-27.055236666666662" lon="-48.59636833333334"><ele>4.9</ele></trkpt><trkpt lat="-27.055236666666662" lon="-48.59636833333334"><ele>4.9</ele></trkpt><trkpt lat="-27.055236666666662" lon="-48.59636833333334"><ele>4.9</ele></trkpt><trkpt lat="-27.055236666666662" lon="-48.59636833333334"><ele>4.9</ele></trkpt><trkpt lat="-27.055236666666662" lon="-48.59636833333334"><ele>4.9</ele></trkpt><trkpt lat="-27.055236666666662" lon="-48.59636833333334"><ele>4.9</ele></trkpt><trkpt lat="-27.055236666666662" lon="-48.59636833333334"><ele>4.9</ele></trkpt><trkpt lat="-27.055236666666662" lon="-48.59636833333334"><ele>4.9</ele></trkpt><trkpt lat="-27.055236666666662" lon="-48.59636833333334"><ele>4.9</ele></trkpt><trkpt lat="-27.055236666666662" lon="-48.59636833333334"><ele>4.9</ele></trkpt><trkpt lat="-27.055236666666662" lon="-48.59636833333334"><ele>4.9</ele></trkpt><trkpt lat="-27.055236666666662" lon="-48.59636833333334"><ele>4.9</ele></trkpt><trkpt lat="-27.055236666666662" lon="-48.59636833333334"><ele>4.9</ele></trkpt><trkpt lat="-27.055236666666662" lon="-48.59636833333334"><ele>4.9</ele></trkpt><trkpt lat="-27.055236666666662" lon="-48.59636833333334"><ele>4.9</ele></trkpt><trkpt lat="-27.055236666666662" lon="-48.59636833333334"><ele>4.9</ele></trkpt><trkpt lat="-27.055236666666662" lon="-48.59636833333334"><ele>4.9</ele></trkpt><trkpt lat="-27.055236666666662" lon="-48.59636833333334"><ele>4.9</ele></trkpt><trkpt lat="-27.055236666666662" lon="-48.59636833333334"><ele>4.9</ele></trkpt><trkpt lat="-27.055236666666662" lon="-48.59636833333334"><ele>4.9</ele></trkpt><trkpt lat="-27.055236666666662" lon="-48.59636833333334"><ele>4.9</ele></trkpt><trkpt lat="-27.055236666666662" lon="-48.59636833333334"><ele>4.9</ele></trkpt><trkpt lat="-27.055236666666662" lon="-48.59636833333334"><ele>4.9</ele></trkpt><trkpt lat="-27.055236666666662" lon="-48.59636833333334"><ele>4.9</ele></trkpt><trkpt lat="-27.055236666666662" lon="-48.59636833333334"><ele>4.9</ele></trkpt><trkpt lat="-27.055236666666662" lon="-48.59636833333334"><ele>4.9</ele></trkpt><trkpt lat="-27.055236666666662" lon="-48.59636833333334"><ele>4.9</ele></trkpt><trkpt lat="-27.055236666666662" lon="-48.59636833333334"><ele>4.9</ele></trkpt><trkpt lat="-27.055236666666662" lon="-48.59636833333334"><ele>4.9</ele></trkpt><trkpt lat="-27.055236666666662" lon="-48.59636833333334"><ele>4.9</ele></trkpt><trkpt lat="-27.055236666666662" lon="-48.59636833333334"><ele>4.9</ele></trkpt><trkpt lat="-27.055236666666662" lon="-48.59636833333334"><ele>4.9</ele></trkpt><trkpt lat="-27.055236666666662" lon="-48.59636833333334"><ele>4.9</ele></trkpt><trkpt lat="-27.055236666666662" lon="-48.59636833333334"><ele>4.9</ele></trkpt><trkpt lat="-27.055236666666662" lon="-48.59636833333334"><ele>4.9</ele></trkpt><trkpt lat="-27.055236666666662" lon="-48.59636833333334"><ele>4.9</ele></trkpt><trkpt lat="-27.055236666666662" lon="-48.59636833333334"><ele>4.9</ele></trkpt><trkpt lat="-27.055236666666662" lon="-48.59636833333334"><ele>4.9</ele></trkpt><trkpt lat="-27.055236666666662" lon="-48.59636833333334"><ele>4.9</ele></trkpt><trkpt lat="-27.055236666666662" lon="-48.59636833333334"><ele>4.9</ele></trkpt><trkpt lat="-27.055236666666662" lon="-48.59636833333334"><ele>4.9</ele></trkpt><trkpt lat="-27.055236666666662" lon="-48.59636833333334"><ele>4.9</ele></trkpt><trkpt lat="-27.055236666666662" lon="-48.59636833333334"><ele>4.9</ele></trkpt><trkpt lat="-27.055236666666662" lon="-48.59636833333334"><ele>4.9</ele></trkpt><trkpt lat="-27.055236666666662" lon="-48.59636833333334"><ele>4.9</ele></trkpt><trkpt lat="-27.055236666666662" lon="-48.59636833333334"><ele>4.9</ele></trkpt><trkpt lat="-27.055236666666662" lon="-48.59636833333334"><ele>4.9</ele></trkpt><trkpt lat="-27.055236666666662" lon="-48.59636833333334"><ele>4.9</ele></trkpt><trkpt lat="-27.055236666666662" lon="-48.59636833333334"><ele>4.9</ele></trkpt><trkpt lat="-27.055221666666665" lon="-48.59637333333333"><ele>6</ele></trkpt><trkpt lat="-27.055208333333333" lon="-48.59636999999999"><ele>5.800000000000001</ele></trkpt><trkpt lat="-27.055198333333337" lon="-48.59636833333334"><ele>5.800000000000001</ele></trkpt><trkpt lat="-27.055186666666668" lon="-48.596360000000004"><ele>5.800000000000001</ele></trkpt><trkpt lat="-27.055175000000002" lon="-48.596358333333335"><ele>5.699999999999999</ele></trkpt><trkpt lat="-27.05516" lon="-48.59635333333334"><ele>5.5</ele></trkpt><trkpt lat="-27.055145" lon="-48.59634833333333"><ele>5.300000000000001</ele></trkpt><trkpt lat="-27.055135000000003" lon="-48.59634500000001"><ele>4.9</ele></trkpt><trkpt lat="-27.055123333333334" lon="-48.59634166666667"><ele>4.7</ele></trkpt><trkpt lat="-27.055116666666663" lon="-48.59633833333334"><ele>4.6</ele></trkpt><trkpt lat="-27.05511166666667" lon="-48.596334999999996"><ele>4.300000000000001</ele></trkpt><trkpt lat="-27.05511166666667" lon="-48.596334999999996"><ele>4.300000000000001</ele></trkpt><trkpt lat="-27.05511166666667" lon="-48.596336666666666"><ele>4.300000000000001</ele></trkpt><trkpt lat="-27.05511166666667" lon="-48.59633833333334"><ele>4.5</ele></trkpt><trkpt lat="-27.05511166666667" lon="-48.59633833333334"><ele>4.5</ele></trkpt><trkpt lat="-27.05511333333333" lon="-48.59634333333334"><ele>4.300000000000001</ele></trkpt><trkpt lat="-27.05511333333333" lon="-48.596346666666676"><ele>4.1</ele></trkpt><trkpt lat="-27.05511166666667" lon="-48.596346666666676"><ele>4.1</ele></trkpt><trkpt lat="-27.05511166666667" lon="-48.59634333333334"><ele>4.300000000000001</ele></trkpt><trkpt lat="-27.05511166666667" lon="-48.59634333333334"><ele>4.6</ele></trkpt><trkpt lat="-27.05511166666667" lon="-48.59634333333334"><ele>4.6</ele></trkpt><trkpt lat="-27.05511166666667" lon="-48.59634333333334"><ele>4.6</ele></trkpt><trkpt lat="-27.05511166666667" lon="-48.59634333333334"><ele>4.6</ele></trkpt><trkpt lat="-27.05511166666667" lon="-48.59634333333334"><ele>4.6</ele></trkpt><trkpt lat="-27.05511166666667" lon="-48.59634333333334"><ele>4.6</ele></trkpt><trkpt lat="-27.05511166666667" lon="-48.59634333333334"><ele>4.6</ele></trkpt><trkpt lat="-27.05511166666667" lon="-48.59634333333334"><ele>4.6</ele></trkpt><trkpt lat="-27.05511166666667" lon="-48.59634333333334"><ele>4.6</ele></trkpt><trkpt lat="-27.05511166666667" lon="-48.59634333333334"><ele>4.6</ele></trkpt><trkpt lat="-27.05511166666667" lon="-48.59634333333334"><ele>4.6</ele></trkpt><trkpt lat="-27.05511166666667" lon="-48.59634333333334"><ele>4.6</ele></trkpt><trkpt lat="-27.05511166666667" lon="-48.59634333333334"><ele>4.6</ele></trkpt><trkpt lat="-27.05511166666667" lon="-48.59634333333334"><ele>4.6</ele></trkpt><trkpt lat="-27.05511166666667" lon="-48.59634333333334"><ele>4.6</ele></trkpt><trkpt lat="-27.055093333333335" lon="-48.59634500000001"><ele>6.199999999999999</ele></trkpt><trkpt lat="-27.055083333333332" lon="-48.59634500000001"><ele>5.9</ele></trkpt><trkpt lat="-27.055071666666663" lon="-48.59634500000001"><ele>5.800000000000001</ele></trkpt><trkpt lat="-27.055061666666667" lon="-48.59634166666667"><ele>5.699999999999999</ele></trkpt><trkpt lat="-27.055049999999998" lon="-48.59633999999999"><ele>5.800000000000001</ele></trkpt><trkpt lat="-27.05504" lon="-48.596336666666666"><ele>6.1</ele></trkpt><trkpt lat="-27.055025" lon="-48.59633333333333"><ele>6.699999999999999</ele></trkpt><trkpt lat="-27.055011666666662" lon="-48.59632833333333"><ele>6.6</ele></trkpt><trkpt lat="-27.054998333333334" lon="-48.59632666666666"><ele>6.699999999999999</ele></trkpt><trkpt lat="-27.054981666666663" lon="-48.59632333333334"><ele>7</ele></trkpt><trkpt lat="-27.05496833333333" lon="-48.59632166666667"><ele>6.4</ele></trkpt><trkpt lat="-27.054955000000003" lon="-48.596316666666674"><ele>5.9</ele></trkpt><trkpt lat="-27.054941666666664" lon="-48.596313333333335"><ele>5.5</ele></trkpt><trkpt lat="-27.054926666666667" lon="-48.596309999999995"><ele>5.300000000000001</ele></trkpt><trkpt lat="-27.054914999999998" lon="-48.596309999999995"><ele>5.1</ele></trkpt><trkpt lat="-27.05490666666667" lon="-48.596309999999995"><ele>5.1</ele></trkpt><trkpt lat="-27.054898333333334" lon="-48.59630833333334"><ele>5.1</ele></trkpt><trkpt lat="-27.05488833333333" lon="-48.596305"><ele>5</ele></trkpt><trkpt lat="-27.054881666666667" lon="-48.596301666666676"><ele>4.9</ele></trkpt><trkpt lat="-27.054875" lon="-48.59630000000001"><ele>5</ele></trkpt><trkpt lat="-27.05487333333333" lon="-48.59629666666667"><ele>5.2</ele></trkpt><trkpt lat="-27.05487333333333" lon="-48.59629666666667"><ele>5.2</ele></trkpt><trkpt lat="-27.054871666666667" lon="-48.59629666666667"><ele>5.4</ele></trkpt><trkpt lat="-27.05487333333333" lon="-48.59629833333334"><ele>5.6</ele></trkpt><trkpt lat="-27.054875" lon="-48.596301666666676"><ele>5.800000000000001</ele></trkpt><trkpt lat="-27.054875" lon="-48.596301666666676"><ele>5.800000000000001</ele></trkpt><trkpt lat="-27.054875" lon="-48.596301666666676"><ele>5.800000000000001</ele></trkpt><trkpt lat="-27.05487666666667" lon="-48.596305"><ele>6.1</ele></trkpt><trkpt lat="-27.05487833333333" lon="-48.59630833333334"><ele>6.300000000000001</ele></trkpt><trkpt lat="-27.054880000000004" lon="-48.596309999999995"><ele>6.800000000000001</ele></trkpt><trkpt lat="-27.054880000000004" lon="-48.596309999999995"><ele>7</ele></trkpt><trkpt lat="-27.054880000000004" lon="-48.596309999999995"><ele>7</ele></trkpt><trkpt lat="-27.054880000000004" lon="-48.596309999999995"><ele>7</ele></trkpt><trkpt lat="-27.054880000000004" lon="-48.596309999999995"><ele>7</ele></trkpt><trkpt lat="-27.054880000000004" lon="-48.596309999999995"><ele>7</ele></trkpt><trkpt lat="-27.054880000000004" lon="-48.596309999999995"><ele>7</ele></trkpt><trkpt lat="-27.054880000000004" lon="-48.596309999999995"><ele>7</ele></trkpt><trkpt lat="-27.054880000000004" lon="-48.596309999999995"><ele>7</ele></trkpt><trkpt lat="-27.054880000000004" lon="-48.596309999999995"><ele>7</ele></trkpt><trkpt lat="-27.054880000000004" lon="-48.596309999999995"><ele>7</ele></trkpt><trkpt lat="-27.054880000000004" lon="-48.596309999999995"><ele>7</ele></trkpt><trkpt lat="-27.054880000000004" lon="-48.596309999999995"><ele>7</ele></trkpt><trkpt lat="-27.054880000000004" lon="-48.596309999999995"><ele>7</ele></trkpt><trkpt lat="-27.054880000000004" lon="-48.596309999999995"><ele>7</ele></trkpt><trkpt lat="-27.054880000000004" lon="-48.596309999999995"><ele>7</ele></trkpt><trkpt lat="-27.054880000000004" lon="-48.596309999999995"><ele>7</ele></trkpt><trkpt lat="-27.054880000000004" lon="-48.596309999999995"><ele>7</ele></trkpt><trkpt lat="-27.054880000000004" lon="-48.596309999999995"><ele>7</ele></trkpt><trkpt lat="-27.054880000000004" lon="-48.596309999999995"><ele>7</ele></trkpt><trkpt lat="-27.05486" lon="-48.59629666666667"><ele>9.4</ele></trkpt><trkpt lat="-27.05484666666667" lon="-48.596291666666666"><ele>9.5</ele></trkpt><trkpt lat="-27.05483333333333" lon="-48.59628833333333"><ele>9.3</ele></trkpt><trkpt lat="-27.054818333333333" lon="-48.59628666666667"><ele>8.8</ele></trkpt><trkpt lat="-27.0548" lon="-48.59628666666667"><ele>8.8</ele></trkpt><trkpt lat="-27.054781666666667" lon="-48.59628333333333"><ele>8.3</ele></trkpt><trkpt lat="-27.054761666666664" lon="-48.59627999999999"><ele>7.4</ele></trkpt><trkpt lat="-27.05473833333333" lon="-48.59627833333334"><ele>6.9</ele></trkpt><trkpt lat="-27.054716666666664" lon="-48.59627833333334"><ele>6.300000000000001</ele></trkpt><trkpt lat="-27.054695" lon="-48.59627833333334"><ele>6.4</ele></trkpt><trkpt lat="-27.054673333333334" lon="-48.59627999999999"><ele>7.300000000000001</ele></trkpt><trkpt lat="-27.05465333333333" lon="-48.59628166666666"><ele>7.800000000000001</ele></trkpt><trkpt lat="-27.05463333333333" lon="-48.59627666666667"><ele>8.1</ele></trkpt><trkpt lat="-27.054615" lon="-48.59627666666667"><ele>8.5</ele></trkpt><trkpt lat="-27.054601666666667" lon="-48.596271666666674"><ele>8.3</ele></trkpt><trkpt lat="-27.05458833333333" lon="-48.596266666666665"><ele>8.1</ele></trkpt><trkpt lat="-27.054575" lon="-48.59626333333334"><ele>8</ele></trkpt><trkpt lat="-27.054565000000004" lon="-48.59626333333334"><ele>7.699999999999999</ele></trkpt><trkpt lat="-27.054553333333335" lon="-48.59626166666667"><ele>7.6</ele></trkpt><trkpt lat="-27.054539999999996" lon="-48.596255000000006"><ele>7.6</ele></trkpt><trkpt lat="-27.05452833333333" lon="-48.59625166666667"><ele>7.4</ele></trkpt><trkpt lat="-27.054521666666666" lon="-48.596246666666666"><ele>7.199999999999999</ele></trkpt><trkpt lat="-27.054516666666668" lon="-48.59624166666667"><ele>7</ele></trkpt><trkpt lat="-27.05451333333333" lon="-48.59624166666667"><ele>6.9</ele></trkpt><trkpt lat="-27.054515" lon="-48.59624166666667"><ele>7.1</ele></trkpt><trkpt lat="-27.054516666666668" lon="-48.59624333333333"><ele>7.1</ele></trkpt><trkpt lat="-27.054516666666668" lon="-48.59624333333333"><ele>7.1</ele></trkpt><trkpt lat="-27.054516666666668" lon="-48.59624833333334"><ele>7</ele></trkpt><trkpt lat="-27.054516666666668" lon="-48.59625166666667"><ele>6.800000000000001</ele></trkpt><trkpt lat="-27.054516666666668" lon="-48.59625333333334"><ele>6.800000000000001</ele></trkpt><trkpt lat="-27.05451833333333" lon="-48.59625333333334"><ele>6.9</ele></trkpt><trkpt lat="-27.05451833333333" lon="-48.59625166666667"><ele>7.1</ele></trkpt><trkpt lat="-27.05451833333333" lon="-48.59625166666667"><ele>7.1</ele></trkpt><trkpt lat="-27.05451833333333" lon="-48.59625166666667"><ele>7.1</ele></trkpt><trkpt lat="-27.05451833333333" lon="-48.59625166666667"><ele>7.1</ele></trkpt><trkpt lat="-27.05451833333333" lon="-48.59625166666667"><ele>7.1</ele></trkpt><trkpt lat="-27.05451833333333" lon="-48.59625166666667"><ele>7.1</ele></trkpt><trkpt lat="-27.05451833333333" lon="-48.59625166666667"><ele>7.1</ele></trkpt><trkpt lat="-27.05451833333333" lon="-48.59625166666667"><ele>7.1</ele></trkpt><trkpt lat="-27.05451833333333" lon="-48.59625166666667"><ele>7.1</ele></trkpt><trkpt lat="-27.05451833333333" lon="-48.59625166666667"><ele>7.1</ele></trkpt><trkpt lat="-27.05451833333333" lon="-48.59625166666667"><ele>7.1</ele></trkpt><trkpt lat="-27.05451833333333" lon="-48.59625166666667"><ele>7.1</ele></trkpt><trkpt lat="-27.05451833333333" lon="-48.59625166666667"><ele>7.1</ele></trkpt><trkpt lat="-27.05451833333333" lon="-48.59625166666667"><ele>7.1</ele></trkpt><trkpt lat="-27.05451833333333" lon="-48.59625166666667"><ele>7.1</ele></trkpt><trkpt lat="-27.05451833333333" lon="-48.59625166666667"><ele>7.1</ele></trkpt><trkpt lat="-27.05451833333333" lon="-48.59625166666667"><ele>7.1</ele></trkpt><trkpt lat="-27.05451833333333" lon="-48.59625166666667"><ele>7.1</ele></trkpt><trkpt lat="-27.05451833333333" lon="-48.59625166666667"><ele>7.1</ele></trkpt><trkpt lat="-27.05451833333333" lon="-48.59625166666667"><ele>7.1</ele></trkpt><trkpt lat="-27.05451833333333" lon="-48.59625166666667"><ele>7.1</ele></trkpt><trkpt lat="-27.05451833333333" lon="-48.59625166666667"><ele>7.1</ele></trkpt><trkpt lat="-27.05451833333333" lon="-48.59625166666667"><ele>7.1</ele></trkpt><trkpt lat="-27.05451833333333" lon="-48.59625166666667"><ele>7.1</ele></trkpt><trkpt lat="-27.05451833333333" lon="-48.59625166666667"><ele>7.1</ele></trkpt><trkpt lat="-27.05451833333333" lon="-48.59625166666667"><ele>7.1</ele></trkpt><trkpt lat="-27.05451833333333" lon="-48.59625166666667"><ele>7.1</ele></trkpt><trkpt lat="-27.05451833333333" lon="-48.59625166666667"><ele>7.1</ele></trkpt><trkpt lat="-27.05451833333333" lon="-48.59625166666667"><ele>7.1</ele></trkpt><trkpt lat="-27.05451833333333" lon="-48.59625166666667"><ele>7.1</ele></trkpt><trkpt lat="-27.05451833333333" lon="-48.59625166666667"><ele>7.1</ele></trkpt><trkpt lat="-27.05451833333333" lon="-48.59625166666667"><ele>7.1</ele></trkpt><trkpt lat="-27.05451833333333" lon="-48.59625166666667"><ele>7.1</ele></trkpt><trkpt lat="-27.05451833333333" lon="-48.59625166666667"><ele>7.1</ele></trkpt><trkpt lat="-27.05451833333333" lon="-48.59625166666667"><ele>7.1</ele></trkpt><trkpt lat="-27.05451833333333" lon="-48.59625166666667"><ele>7.1</ele></trkpt><trkpt lat="-27.05451833333333" lon="-48.59625166666667"><ele>7.1</ele></trkpt><trkpt lat="-27.05451833333333" lon="-48.59625166666667"><ele>7.1</ele></trkpt><trkpt lat="-27.05451833333333" lon="-48.59625166666667"><ele>7.1</ele></trkpt><trkpt lat="-27.05451833333333" lon="-48.59625166666667"><ele>7.1</ele></trkpt><trkpt lat="-27.05451833333333" lon="-48.59625166666667"><ele>7.1</ele></trkpt><trkpt lat="-27.05451833333333" lon="-48.59625166666667"><ele>7.1</ele></trkpt><trkpt lat="-27.05451833333333" lon="-48.59625166666667"><ele>7.1</ele></trkpt><trkpt lat="-27.05451833333333" lon="-48.59625166666667"><ele>7.1</ele></trkpt><trkpt lat="-27.05451833333333" lon="-48.59625166666667"><ele>7.1</ele></trkpt><trkpt lat="-27.05451833333333" lon="-48.59625166666667"><ele>7.1</ele></trkpt><trkpt lat="-27.05451833333333" lon="-48.59625166666667"><ele>7.1</ele></trkpt><trkpt lat="-27.05451833333333" lon="-48.59625166666667"><ele>7.1</ele></trkpt><trkpt lat="-27.05451833333333" lon="-48.59625166666667"><ele>7.1</ele></trkpt><trkpt lat="-27.05451833333333" lon="-48.59625166666667"><ele>7.1</ele></trkpt><trkpt lat="-27.05451833333333" lon="-48.59625166666667"><ele>7.1</ele></trkpt><trkpt lat="-27.05451833333333" lon="-48.59625166666667"><ele>7.1</ele></trkpt><trkpt lat="-27.05451833333333" lon="-48.59625166666667"><ele>7.1</ele></trkpt><trkpt lat="-27.05451833333333" lon="-48.59625166666667"><ele>7.1</ele></trkpt><trkpt lat="-27.05451833333333" lon="-48.59625166666667"><ele>7.1</ele></trkpt><trkpt lat="-27.05451833333333" lon="-48.59625166666667"><ele>7.1</ele></trkpt><trkpt lat="-27.05451833333333" lon="-48.59625166666667"><ele>7.1</ele></trkpt><trkpt lat="-27.05451833333333" lon="-48.59625166666667"><ele>7.1</ele></trkpt><trkpt lat="-27.05451833333333" lon="-48.59625166666667"><ele>7.1</ele></trkpt><trkpt lat="-27.05451833333333" lon="-48.59625166666667"><ele>7.1</ele></trkpt><trkpt lat="-27.05451833333333" lon="-48.59625166666667"><ele>7.1</ele></trkpt><trkpt lat="-27.05451833333333" lon="-48.59625166666667"><ele>7.1</ele></trkpt><trkpt lat="-27.05451833333333" lon="-48.59625166666667"><ele>7.1</ele></trkpt><trkpt lat="-27.05451833333333" lon="-48.59625166666667"><ele>7.1</ele></trkpt><trkpt lat="-27.05451833333333" lon="-48.59625166666667"><ele>7.1</ele></trkpt><trkpt lat="-27.05451833333333" lon="-48.59625166666667"><ele>7.1</ele></trkpt><trkpt lat="-27.05451833333333" lon="-48.59625166666667"><ele>7.1</ele></trkpt><trkpt lat="-27.05451833333333" lon="-48.59625166666667"><ele>7.1</ele></trkpt><trkpt lat="-27.05451833333333" lon="-48.59625166666667"><ele>7.1</ele></trkpt><trkpt lat="-27.05451833333333" lon="-48.59625166666667"><ele>7.1</ele></trkpt><trkpt lat="-27.05451833333333" lon="-48.59625166666667"><ele>7.1</ele></trkpt><trkpt lat="-27.05451833333333" lon="-48.59625166666667"><ele>7.1</ele></trkpt><trkpt lat="-27.05451833333333" lon="-48.59625166666667"><ele>7.1</ele></trkpt><trkpt lat="-27.05451833333333" lon="-48.59625166666667"><ele>7.1</ele></trkpt></trkseg></trk></gpx>