<?xml version="1.0" encoding="UTF-8"?>
<gpx xmlns="http://www.topografix.com/GPX/1/1" version="1.1" creator="@dwayneparton/geojson-to-gpx"><wpt lat="-27.035019" lon="-48.658469"><ele>13.477356</ele><name>1 faixa</name></wpt><wpt lat="-27.03525" lon="-48.658534"><ele>1.335083</ele><name>165</name></wpt><wpt lat="-27.03526" lon="-48.658574"><ele>6.422058</ele><name>460</name></wpt><wpt lat="-27.035257" lon="-48.658562"><ele>9.71582</ele><name>857</name></wpt><wpt lat="-27.035729" lon="-48.658818"><ele>20.710083</ele><name>A ciclo é completamente reta.</name></wpt><wpt lat="-27.035733" lon="-48.65882"><ele>21.895569</ele><name>A pintura está boa, COMPLETA e visível</name></wpt><wpt lat="-27.035008" lon="-48.658465"><ele>13.411682</ele><name>Apenas faixas vermelhas nas bordas, com travessias pintadas nos cruzamentos</name></wpt><wpt lat="-27.035245" lon="-48.65854"><ele>-7.286621</ele><name>Área transitável da ciclo (cm)</name></wpt><wpt lat="-27.035017" lon="-48.658467"><ele>14.095947</ele><name>Asfalto</name></wpt><wpt lat="-27.034997" lon="-48.658451"><ele>12.222046</ele><name>Bidirecional</name></wpt><wpt lat="-27.035736" lon="-48.658833"><ele>22.051392</ele><name>Bom estado</name></wpt><wpt lat="-27.035004" lon="-48.658453"><ele>12.939331</ele><name>Bueiro</name></wpt><wpt lat="-27.035268" lon="-48.658597"><ele>10.264557</ele><name>Bueiro</name></wpt><wpt lat="-27.035479" lon="-48.658709"><ele>21.749512</ele><name>Bueiro</name></wpt><wpt lat="-27.034998" lon="-48.658447"><ele>12.001892</ele><name>Ciclofaixa</name></wpt><wpt lat="-27.035017" lon="-48.658471"><ele>13.330811</ele><name>Estacionamento dedicado de um lado, segregado da circulação</name></wpt><wpt lat="-27.03526" lon="-48.658574"><ele>6.422058</ele><name>Faixa de carros logo ao lado da ciclo (cm)</name></wpt><wpt lat="-27.034999" lon="-48.658476"><ele>15.452515</ele><name>Foto</name></wpt><wpt lat="-27.035019" lon="-48.658457"><ele>14.141296</ele><name>Foto</name></wpt><wpt lat="-27.03575" lon="-48.658817"><ele>16.876404</ele><name>Foto</name></wpt><wpt lat="-27.035721" lon="-48.658811"><ele>20.499146</ele><name>Foto</name></wpt><wpt lat="-27.035738" lon="-48.658825"><ele>22.212646</ele><name>Iluminação geral na via do mesmo lado da estrutura</name></wpt><wpt lat="-27.035148" lon="-48.658544"><ele>15.147217</ele><name>Lombadas físicas</name></wpt><wpt lat="-27.035012" lon="-48.65847"><ele>9.985474</ele><name>Mão Única</name></wpt><wpt lat="-27.035731" lon="-48.658819"><ele>20.781433</ele><name>Marcação EXTRA: Foram observados trechos com segregadores faltando (arrancados).</name></wpt><wpt lat="-27.035732" lon="-48.658819"><ele>21.547852</ele><name>Não há árvores nem mudas</name></wpt><wpt lat="-27.035003" lon="-48.658463"><ele>14.26239</ele><name>No bordo esquerdo de Via de Mão Única</name></wpt><wpt lat="-27.035749" lon="-48.658817"><ele>20.793579</ele><name>Em cruzamento BOA condição</name></wpt><wpt lat="-27.035017" lon="-48.658472"><ele>12.50885</ele><name>primeiro trecho da via com estacionamento proibido, esquina </name></wpt><wpt lat="-27.035732" lon="-48.658819"><ele>20.783142</ele><name>SE CICLOFAIXA: para invadir a ciclo parte do automóvel passa obrigatoriamente por cima de segregadores</name></wpt><wpt lat="-27.035732" lon="-48.658821"><ele>20.672546</ele><name>Segregadores NÃO DIFICULTAM o acesso de ciclistas</name></wpt><wpt lat="-27.035016" lon="-48.658469"><ele>13.634644</ele><name>Tachões</name></wpt><wpt lat="-27.035257" lon="-48.658559"><ele>9.928558</ele><name>Total da via (incluindo a ciclo) (cm)</name></wpt><wpt lat="-27.035187" lon="-48.658583"><name>Área de amortecimento da ciclo (cm)</name></wpt><wpt lat="-27.035145" lon="-48.658559"><name>22</name></wpt><wpt lat="-27.034987" lon="-48.658504"><name>Ausência de conexão entre ciclos.</name></wpt><trk><name>Ciclofaixa R. José Fco Bernardes - Cb</name><trkseg><trkpt lat="-27.035039" lon="-48.658563"><ele>28.418274</ele></trkpt><trkpt lat="-27.035045" lon="-48.658495"><ele>20.006775</ele></trkpt><trkpt lat="-27.035024" lon="-48.658503"><ele>25.093628</ele></trkpt><trkpt lat="-27.035027" lon="-48.658508"><ele>25.01825</ele></trkpt><trkpt lat="-27.035021" lon="-48.658493"><ele>24.192505</ele></trkpt><trkpt lat="-27.035016" lon="-48.658491"><ele>23.704346</ele></trkpt><trkpt lat="-27.034987" lon="-48.658477"><ele>21.887512</ele></trkpt><trkpt lat="-27.034979" lon="-48.658464"><ele>21.423096</ele></trkpt><trkpt lat="-27.034986" lon="-48.65846"><ele>9.25647</ele></trkpt><trkpt lat="-27.034992" lon="-48.658464"><ele>12.084534</ele></trkpt><trkpt lat="-27.034994" lon="-48.658465"><ele>12.812683</ele></trkpt><trkpt lat="-27.034997" lon="-48.65847"><ele>14.04541</ele></trkpt><trkpt lat="-27.034998" lon="-48.658473"><ele>14.843689</ele></trkpt><trkpt lat="-27.034998" lon="-48.658476"><ele>15.160889</ele></trkpt><trkpt lat="-27.034999" lon="-48.658474"><ele>15.569214</ele></trkpt><trkpt lat="-27.034999" lon="-48.658476"><ele>15.452515</ele></trkpt><trkpt lat="-27.034999" lon="-48.658476"><ele>15.452515</ele></trkpt><trkpt lat="-27.034999" lon="-48.658474"><ele>15.630127</ele></trkpt><trkpt lat="-27.035003" lon="-48.658476"><ele>15.076599</ele></trkpt><trkpt lat="-27.035008" lon="-48.658479"><ele>15.672974</ele></trkpt><trkpt lat="-27.035014" lon="-48.658481"><ele>15.863647</ele></trkpt><trkpt lat="-27.035019" lon="-48.658481"><ele>15.064087</ele></trkpt><trkpt lat="-27.035021" lon="-48.658481"><ele>14.390076</ele></trkpt><trkpt lat="-27.03502" lon="-48.658478"><ele>13.782593</ele></trkpt><trkpt lat="-27.03502" lon="-48.658477"><ele>14.419495</ele></trkpt><trkpt lat="-27.035015" lon="-48.658479"><ele>14.074341</ele></trkpt><trkpt lat="-27.035014" lon="-48.658479"><ele>14.108887</ele></trkpt><trkpt lat="-27.035014" lon="-48.658478"><ele>14.21991</ele></trkpt><trkpt lat="-27.035014" lon="-48.658477"><ele>13.813904</ele></trkpt><trkpt lat="-27.035011" lon="-48.658475"><ele>13.851807</ele></trkpt><trkpt lat="-27.035009" lon="-48.658474"><ele>13.752014</ele></trkpt><trkpt lat="-27.035007" lon="-48.658474"><ele>13.723328</ele></trkpt><trkpt lat="-27.035005" lon="-48.658472"><ele>13.164001</ele></trkpt><trkpt lat="-27.035003" lon="-48.658473"><ele>14.445923</ele></trkpt><trkpt lat="-27.035002" lon="-48.658474"><ele>14.485962</ele></trkpt><trkpt lat="-27.035" lon="-48.658474"><ele>14.511292</ele></trkpt><trkpt lat="-27.035" lon="-48.658475"><ele>14.517761</ele></trkpt><trkpt lat="-27.034999" lon="-48.658475"><ele>14.353699</ele></trkpt><trkpt lat="-27.034999" lon="-48.658475"><ele>14.07666</ele></trkpt><trkpt lat="-27.035" lon="-48.658477"><ele>14.098999</ele></trkpt><trkpt lat="-27.035001" lon="-48.658478"><ele>14.172913</ele></trkpt><trkpt lat="-27.035" lon="-48.658477"><ele>14.084839</ele></trkpt><trkpt lat="-27.034998" lon="-48.658477"><ele>11.546448</ele></trkpt><trkpt lat="-27.034997" lon="-48.658477"><ele>12.225037</ele></trkpt><trkpt lat="-27.034997" lon="-48.658478"><ele>12.529236</ele></trkpt><trkpt lat="-27.034994" lon="-48.658479"><ele>12.903198</ele></trkpt><trkpt lat="-27.034994" lon="-48.65848"><ele>13.02771</ele></trkpt><trkpt lat="-27.034994" lon="-48.658481"><ele>13.066284</ele></trkpt><trkpt lat="-27.034992" lon="-48.658476"><ele>13.696594</ele></trkpt><trkpt lat="-27.03499" lon="-48.65847"><ele>13.777771</ele></trkpt><trkpt lat="-27.034992" lon="-48.658467"><ele>13.40332</ele></trkpt><trkpt lat="-27.034991" lon="-48.658463"><ele>13.368042</ele></trkpt><trkpt lat="-27.034988" lon="-48.658463"><ele>13.837708</ele></trkpt><trkpt lat="-27.034986" lon="-48.658465"><ele>13.716675</ele></trkpt><trkpt lat="-27.034989" lon="-48.658469"><ele>13.477783</ele></trkpt><trkpt lat="-27.034996" lon="-48.658473"><ele>13.38916</ele></trkpt><trkpt lat="-27.035002" lon="-48.658472"><ele>13.728577</ele></trkpt><trkpt lat="-27.035006" lon="-48.65847"><ele>14.167114</ele></trkpt><trkpt lat="-27.035013" lon="-48.658462"><ele>14.478088</ele></trkpt><trkpt lat="-27.035017" lon="-48.658459"><ele>14.591187</ele></trkpt><trkpt lat="-27.035018" lon="-48.65846"><ele>14.464417</ele></trkpt><trkpt lat="-27.03502" lon="-48.658457"><ele>14.904175</ele></trkpt><trkpt lat="-27.035022" lon="-48.658456"><ele>15.125183</ele></trkpt><trkpt lat="-27.035021" lon="-48.658453"><ele>15.031433</ele></trkpt><trkpt lat="-27.035019" lon="-48.658454"><ele>14.266663</ele></trkpt><trkpt lat="-27.035019" lon="-48.658453"><ele>14.617798</ele></trkpt><trkpt lat="-27.035019" lon="-48.658457"><ele>14.141296</ele></trkpt><trkpt lat="-27.035019" lon="-48.658457"><ele>14.141296</ele></trkpt><trkpt lat="-27.035017" lon="-48.65846"><ele>14.197815</ele></trkpt><trkpt lat="-27.035008" lon="-48.658453"><ele>13.070923</ele></trkpt><trkpt lat="-27.035005" lon="-48.658452"><ele>12.489563</ele></trkpt><trkpt lat="-27.035004" lon="-48.658453"><ele>12.939331</ele></trkpt><trkpt lat="-27.035004" lon="-48.658453"><ele>12.939331</ele></trkpt><trkpt lat="-27.035004" lon="-48.658451"><ele>13.235596</ele></trkpt><trkpt lat="-27.035001" lon="-48.658449"><ele>12.813232</ele></trkpt><trkpt lat="-27.034999" lon="-48.658447"><ele>12.340759</ele></trkpt><trkpt lat="-27.034997" lon="-48.658447"><ele>11.526642</ele></trkpt><trkpt lat="-27.034998" lon="-48.658447"><ele>11.837982</ele></trkpt><trkpt lat="-27.034998" lon="-48.658447"><ele>12.001892</ele></trkpt><trkpt lat="-27.034998" lon="-48.658447"><ele>12.001892</ele></trkpt><trkpt lat="-27.034997" lon="-48.658447"><ele>12.517151</ele></trkpt><trkpt lat="-27.034997" lon="-48.658448"><ele>12.424622</ele></trkpt><trkpt lat="-27.034997" lon="-48.658448"><ele>12.348145</ele></trkpt><trkpt lat="-27.034996" lon="-48.65845"><ele>12.2229</ele></trkpt><trkpt lat="-27.034997" lon="-48.658451"><ele>12.222046</ele></trkpt><trkpt lat="-27.034997" lon="-48.658451"><ele>12.222046</ele></trkpt><trkpt lat="-27.035" lon="-48.658451"><ele>14.29834</ele></trkpt><trkpt lat="-27.035001" lon="-48.658454"><ele>14.060059</ele></trkpt><trkpt lat="-27.035002" lon="-48.658454"><ele>13.969055</ele></trkpt><trkpt lat="-27.035002" lon="-48.65846"><ele>13.943604</ele></trkpt><trkpt lat="-27.035003" lon="-48.658463"><ele>14.26239</ele></trkpt><trkpt lat="-27.035003" lon="-48.658463"><ele>14.26239</ele></trkpt><trkpt lat="-27.035003" lon="-48.658467"><ele>14.514526</ele></trkpt><trkpt lat="-27.035002" lon="-48.658469"><ele>14.639526</ele></trkpt><trkpt lat="-27.035001" lon="-48.658472"><ele>14.497314</ele></trkpt><trkpt lat="-27.035001" lon="-48.658475"><ele>14.054688</ele></trkpt><trkpt lat="-27.035002" lon="-48.658474"><ele>14.095398</ele></trkpt><trkpt lat="-27.035006" lon="-48.658471"><ele>14.265198</ele></trkpt><trkpt lat="-27.035009" lon="-48.658472"><ele>14.508301</ele></trkpt><trkpt lat="-27.03501" lon="-48.658472"><ele>14.150208</ele></trkpt><trkpt lat="-27.035009" lon="-48.658471"><ele>14.032776</ele></trkpt><trkpt lat="-27.035007" lon="-48.658468"><ele>14.124023</ele></trkpt><trkpt lat="-27.035007" lon="-48.658467"><ele>13.896423</ele></trkpt><trkpt lat="-27.035007" lon="-48.658466"><ele>12.964539</ele></trkpt><trkpt lat="-27.035007" lon="-48.658467"><ele>13.250916</ele></trkpt><trkpt lat="-27.035007" lon="-48.658467"><ele>13.14032</ele></trkpt><trkpt lat="-27.035007" lon="-48.658468"><ele>13.136475</ele></trkpt><trkpt lat="-27.035007" lon="-48.658471"><ele>13.359253</ele></trkpt><trkpt lat="-27.035006" lon="-48.658469"><ele>10.241821</ele></trkpt><trkpt lat="-27.035008" lon="-48.65847"><ele>10.053925</ele></trkpt><trkpt lat="-27.035009" lon="-48.65847"><ele>10.383942</ele></trkpt><trkpt lat="-27.03501" lon="-48.658471"><ele>10.212921</ele></trkpt><trkpt lat="-27.035012" lon="-48.65847"><ele>9.985474</ele></trkpt><trkpt lat="-27.035012" lon="-48.65847"><ele>9.985474</ele></trkpt><trkpt lat="-27.035014" lon="-48.65846"><ele>9.968201</ele></trkpt><trkpt lat="-27.035015" lon="-48.658462"><ele>9.968048</ele></trkpt><trkpt lat="-27.035014" lon="-48.658464"><ele>10.011475</ele></trkpt><trkpt lat="-27.035013" lon="-48.658464"><ele>9.844727</ele></trkpt><trkpt lat="-27.035011" lon="-48.658463"><ele>9.943298</ele></trkpt><trkpt lat="-27.03501" lon="-48.658463"><ele>12.775574</ele></trkpt><trkpt lat="-27.035008" lon="-48.658465"><ele>13.076233</ele></trkpt><trkpt lat="-27.035009" lon="-48.658466"><ele>13.303223</ele></trkpt><trkpt lat="-27.035009" lon="-48.658466"><ele>13.458191</ele></trkpt><trkpt lat="-27.035008" lon="-48.658465"><ele>13.411682</ele></trkpt><trkpt lat="-27.035008" lon="-48.658465"><ele>13.411682</ele></trkpt><trkpt lat="-27.035008" lon="-48.65847"><ele>13.790344</ele></trkpt><trkpt lat="-27.035008" lon="-48.658474"><ele>13.761536</ele></trkpt><trkpt lat="-27.03501" lon="-48.658474"><ele>13.401306</ele></trkpt><trkpt lat="-27.03501" lon="-48.658473"><ele>14.345886</ele></trkpt><trkpt lat="-27.03501" lon="-48.658474"><ele>14.478455</ele></trkpt><trkpt lat="-27.035011" lon="-48.658476"><ele>14.884216</ele></trkpt><trkpt lat="-27.035012" lon="-48.658475"><ele>14.707703</ele></trkpt><trkpt lat="-27.035014" lon="-48.658472"><ele>14.669067</ele></trkpt><trkpt lat="-27.035015" lon="-48.658468"><ele>14.685974</ele></trkpt><trkpt lat="-27.035016" lon="-48.658468"><ele>14.818176</ele></trkpt><trkpt lat="-27.035016" lon="-48.658465"><ele>14.616028</ele></trkpt><trkpt lat="-27.035017" lon="-48.658465"><ele>14.493225</ele></trkpt><trkpt lat="-27.035017" lon="-48.658465"><ele>14.391541</ele></trkpt><trkpt lat="-27.035017" lon="-48.658467"><ele>14.095947</ele></trkpt><trkpt lat="-27.035017" lon="-48.658467"><ele>14.095947</ele></trkpt><trkpt lat="-27.035016" lon="-48.658468"><ele>14.016968</ele></trkpt><trkpt lat="-27.035017" lon="-48.658469"><ele>14.099976</ele></trkpt><trkpt lat="-27.035017" lon="-48.658469"><ele>13.935425</ele></trkpt><trkpt lat="-27.035016" lon="-48.658469"><ele>13.634644</ele></trkpt><trkpt lat="-27.035016" lon="-48.658469"><ele>13.634644</ele></trkpt><trkpt lat="-27.035017" lon="-48.658469"><ele>13.726929</ele></trkpt><trkpt lat="-27.035018" lon="-48.658469"><ele>13.569031</ele></trkpt><trkpt lat="-27.035019" lon="-48.658469"><ele>13.477356</ele></trkpt><trkpt lat="-27.035019" lon="-48.658469"><ele>13.477356</ele></trkpt><trkpt lat="-27.035019" lon="-48.658468"><ele>13.417114</ele></trkpt><trkpt lat="-27.035019" lon="-48.658468"><ele>13.458862</ele></trkpt><trkpt lat="-27.035018" lon="-48.658469"><ele>13.669617</ele></trkpt><trkpt lat="-27.035018" lon="-48.658467"><ele>12.472595</ele></trkpt><trkpt lat="-27.035019" lon="-48.658464"><ele>12.67865</ele></trkpt><trkpt lat="-27.035018" lon="-48.658464"><ele>12.455566</ele></trkpt><trkpt lat="-27.035017" lon="-48.658467"><ele>12.483826</ele></trkpt><trkpt lat="-27.035017" lon="-48.658468"><ele>12.755066</ele></trkpt><trkpt lat="-27.035016" lon="-48.658469"><ele>12.78595</ele></trkpt><trkpt lat="-27.035016" lon="-48.65847"><ele>13.247986</ele></trkpt><trkpt lat="-27.035016" lon="-48.658471"><ele>13.37677</ele></trkpt><trkpt lat="-27.035017" lon="-48.658471"><ele>13.356262</ele></trkpt><trkpt lat="-27.035017" lon="-48.658471"><ele>13.292358</ele></trkpt><trkpt lat="-27.035017" lon="-48.658471"><ele>13.330811</ele></trkpt><trkpt lat="-27.035017" lon="-48.658471"><ele>13.330811</ele></trkpt><trkpt lat="-27.035017" lon="-48.658471"><ele>13.197815</ele></trkpt><trkpt lat="-27.035017" lon="-48.658471"><ele>13.216675</ele></trkpt><trkpt lat="-27.035016" lon="-48.658473"><ele>12.975403</ele></trkpt><trkpt lat="-27.035014" lon="-48.658474"><ele>12.804993</ele></trkpt><trkpt lat="-27.035015" lon="-48.658473"><ele>12.63562</ele></trkpt><trkpt lat="-27.035016" lon="-48.658473"><ele>12.54364</ele></trkpt><trkpt lat="-27.035017" lon="-48.658472"><ele>12.50885</ele></trkpt><trkpt lat="-27.035017" lon="-48.658472"><ele>12.50885</ele></trkpt><trkpt lat="-27.035018" lon="-48.658472"><ele>12.45929</ele></trkpt><trkpt lat="-27.035018" lon="-48.658472"><ele>12.036194</ele></trkpt><trkpt lat="-27.035019" lon="-48.658469"><ele>11.893066</ele></trkpt><trkpt lat="-27.035019" lon="-48.658469"><ele>11.502533</ele></trkpt><trkpt lat="-27.035019" lon="-48.658468"><ele>11.479309</ele></trkpt><trkpt lat="-27.03502" lon="-48.658467"><ele>11.161041</ele></trkpt><trkpt lat="-27.03502" lon="-48.658466"><ele>10.674347</ele></trkpt><trkpt lat="-27.035021" lon="-48.658466"><ele>10.548523</ele></trkpt><trkpt lat="-27.035022" lon="-48.658465"><ele>10.463501</ele></trkpt><trkpt lat="-27.035023" lon="-48.658466"><ele>10.344727</ele></trkpt><trkpt lat="-27.035023" lon="-48.658466"><ele>10.458099</ele></trkpt><trkpt lat="-27.035021" lon="-48.658467"><ele>10.355042</ele></trkpt><trkpt lat="-27.035019" lon="-48.658466"><ele>10.259888</ele></trkpt><trkpt lat="-27.035019" lon="-48.658468"><ele>10.310638</ele></trkpt><trkpt lat="-27.035018" lon="-48.658468"><ele>10.226135</ele></trkpt><trkpt lat="-27.035017" lon="-48.658469"><ele>10.415375</ele></trkpt><trkpt lat="-27.035017" lon="-48.65847"><ele>10.614075</ele></trkpt><trkpt lat="-27.035016" lon="-48.658472"><ele>10.722504</ele></trkpt><trkpt lat="-27.035015" lon="-48.658472"><ele>10.811951</ele></trkpt><trkpt lat="-27.035016" lon="-48.658472"><ele>10.961823</ele></trkpt><trkpt lat="-27.035014" lon="-48.658472"><ele>11.056061</ele></trkpt><trkpt lat="-27.035013" lon="-48.658471"><ele>11.338715</ele></trkpt><trkpt lat="-27.035013" lon="-48.658472"><ele>11.766632</ele></trkpt><trkpt lat="-27.035014" lon="-48.658473"><ele>11.658752</ele></trkpt><trkpt lat="-27.035013" lon="-48.658473"><ele>11.42334</ele></trkpt><trkpt lat="-27.035012" lon="-48.658474"><ele>11.78595</ele></trkpt><trkpt lat="-27.035012" lon="-48.658474"><ele>12.211121</ele></trkpt><trkpt lat="-27.035014" lon="-48.658474"><ele>12.18457</ele></trkpt><trkpt lat="-27.035014" lon="-48.658473"><ele>12.092834</ele></trkpt><trkpt lat="-27.035017" lon="-48.65847"><ele>11.853668</ele></trkpt><trkpt lat="-27.035018" lon="-48.658469"><ele>11.805511</ele></trkpt><trkpt lat="-27.035017" lon="-48.658469"><ele>11.800934</ele></trkpt><trkpt lat="-27.035017" lon="-48.658469"><ele>11.810333</ele></trkpt><trkpt lat="-27.035017" lon="-48.65847"><ele>11.849365</ele></trkpt><trkpt lat="-27.035016" lon="-48.65847"><ele>11.8573</ele></trkpt><trkpt lat="-27.035017" lon="-48.65847"><ele>12.747986</ele></trkpt><trkpt lat="-27.035019" lon="-48.658472"><ele>12.976868</ele></trkpt><trkpt lat="-27.035018" lon="-48.658472"><ele>12.967651</ele></trkpt><trkpt lat="-27.035017" lon="-48.658473"><ele>12.914124</ele></trkpt><trkpt lat="-27.035017" lon="-48.658474"><ele>13.032166</ele></trkpt><trkpt lat="-27.035017" lon="-48.658475"><ele>13.138184</ele></trkpt><trkpt lat="-27.035017" lon="-48.658476"><ele>13.015076</ele></trkpt><trkpt lat="-27.035021" lon="-48.658482"><ele>13.829163</ele></trkpt><trkpt lat="-27.035022" lon="-48.658485"><ele>13.657776</ele></trkpt><trkpt lat="-27.035024" lon="-48.658484"><ele>13.619812</ele></trkpt><trkpt lat="-27.035024" lon="-48.658483"><ele>10.645264</ele></trkpt><trkpt lat="-27.035024" lon="-48.658483"><ele>10.693878</ele></trkpt><trkpt lat="-27.035027" lon="-48.658481"><ele>10.629181</ele></trkpt><trkpt lat="-27.035027" lon="-48.65848"><ele>10.76709</ele></trkpt><trkpt lat="-27.035026" lon="-48.65848"><ele>10.93045</ele></trkpt><trkpt lat="-27.035026" lon="-48.658484"><ele>11.28302</ele></trkpt><trkpt lat="-27.03503" lon="-48.658487"><ele>11.099823</ele></trkpt><trkpt lat="-27.035038" lon="-48.658493"><ele>10.986542</ele></trkpt><trkpt lat="-27.035047" lon="-48.658498"><ele>11.539032</ele></trkpt><trkpt lat="-27.035055" lon="-48.6585"><ele>11.729553</ele></trkpt><trkpt lat="-27.03507" lon="-48.658499"><ele>11.843994</ele></trkpt><trkpt lat="-27.035086" lon="-48.658497"><ele>9.620697</ele></trkpt><trkpt lat="-27.035096" lon="-48.658502"><ele>8.491364</ele></trkpt><trkpt lat="-27.035102" lon="-48.658506"><ele>8.377991</ele></trkpt><trkpt lat="-27.035108" lon="-48.658509"><ele>8.353699</ele></trkpt><trkpt lat="-27.035114" lon="-48.658511"><ele>8.170868</ele></trkpt><trkpt lat="-27.035124" lon="-48.658519"><ele>8.618347</ele></trkpt><trkpt lat="-27.035131" lon="-48.658527"><ele>8.552002</ele></trkpt><trkpt lat="-27.035138" lon="-48.658533"><ele>8.512329</ele></trkpt><trkpt lat="-27.035146" lon="-48.658538"><ele>7.556824</ele></trkpt><trkpt lat="-27.035153" lon="-48.658539"><ele>6.326172</ele></trkpt><trkpt lat="-27.035156" lon="-48.658539"><ele>5.971436</ele></trkpt><trkpt lat="-27.035154" lon="-48.658538"><ele>5.872223</ele></trkpt><trkpt lat="-27.035152" lon="-48.658538"><ele>5.474365</ele></trkpt><trkpt lat="-27.035152" lon="-48.658535"><ele>6.711884</ele></trkpt><trkpt lat="-27.035152" lon="-48.658535"><ele>7.74527</ele></trkpt><trkpt lat="-27.035152" lon="-48.658536"><ele>9.180237</ele></trkpt><trkpt lat="-27.035152" lon="-48.658538"><ele>9.852905</ele></trkpt><trkpt lat="-27.035152" lon="-48.658538"><ele>10.393005</ele></trkpt><trkpt lat="-27.035152" lon="-48.658538"><ele>10.399658</ele></trkpt><trkpt lat="-27.035152" lon="-48.658538"><ele>10.400696</ele></trkpt><trkpt lat="-27.035151" lon="-48.658541"><ele>10.434265</ele></trkpt><trkpt lat="-27.035151" lon="-48.658542"><ele>10.438354</ele></trkpt><trkpt lat="-27.03515" lon="-48.658542"><ele>10.424622</ele></trkpt><trkpt lat="-27.03515" lon="-48.658542"><ele>10.415222</ele></trkpt><trkpt lat="-27.03515" lon="-48.658542"><ele>10.378143</ele></trkpt><trkpt lat="-27.03515" lon="-48.658542"><ele>13.033569</ele></trkpt><trkpt lat="-27.03515" lon="-48.658545"><ele>14.27478</ele></trkpt><trkpt lat="-27.035148" lon="-48.658546"><ele>15.064941</ele></trkpt><trkpt lat="-27.035146" lon="-48.658543"><ele>15.088684</ele></trkpt><trkpt lat="-27.035146" lon="-48.658543"><ele>15.084839</ele></trkpt><trkpt lat="-27.035146" lon="-48.658543"><ele>15.079529</ele></trkpt><trkpt lat="-27.035146" lon="-48.658543"><ele>15.192322</ele></trkpt><trkpt lat="-27.035148" lon="-48.658544"><ele>15.152344</ele></trkpt><trkpt lat="-27.035148" lon="-48.658544"><ele>15.147217</ele></trkpt><trkpt lat="-27.035148" lon="-48.658544"><ele>15.147217</ele></trkpt><trkpt lat="-27.035148" lon="-48.658543"><ele>14.946167</ele></trkpt><trkpt lat="-27.035148" lon="-48.658543"><ele>14.992371</ele></trkpt><trkpt lat="-27.035151" lon="-48.658545"><ele>15.632874</ele></trkpt><trkpt lat="-27.035156" lon="-48.658548"><ele>15.963074</ele></trkpt><trkpt lat="-27.03517" lon="-48.658557"><ele>17.035278</ele></trkpt><trkpt lat="-27.035183" lon="-48.658565"><ele>17.142456</ele></trkpt><trkpt lat="-27.035195" lon="-48.658572"><ele>17.008179</ele></trkpt><trkpt lat="-27.035205" lon="-48.658578"><ele>16.814636</ele></trkpt><trkpt lat="-27.035215" lon="-48.658584"><ele>16.919556</ele></trkpt><trkpt lat="-27.03522" lon="-48.658587"><ele>16.080933</ele></trkpt><trkpt lat="-27.035228" lon="-48.65859"><ele>16.124756</ele></trkpt><trkpt lat="-27.035238" lon="-48.658593"><ele>14.130127</ele></trkpt><trkpt lat="-27.035249" lon="-48.658592"><ele>14.121826</ele></trkpt><trkpt lat="-27.03526" lon="-48.658593"><ele>13.626526</ele></trkpt><trkpt lat="-27.035265" lon="-48.658595"><ele>14.090454</ele></trkpt><trkpt lat="-27.035267" lon="-48.658594"><ele>13.813049</ele></trkpt><trkpt lat="-27.035263" lon="-48.65859"><ele>13.691467</ele></trkpt><trkpt lat="-27.035265" lon="-48.658591"><ele>13.842468</ele></trkpt><trkpt lat="-27.035266" lon="-48.658589"><ele>13.624084</ele></trkpt><trkpt lat="-27.035264" lon="-48.658587"><ele>13.621399</ele></trkpt><trkpt lat="-27.035261" lon="-48.658585"><ele>13.634827</ele></trkpt><trkpt lat="-27.035258" lon="-48.658583"><ele>14.014221</ele></trkpt><trkpt lat="-27.035256" lon="-48.658583"><ele>14.154663</ele></trkpt><trkpt lat="-27.035253" lon="-48.658581"><ele>14.084717</ele></trkpt><trkpt lat="-27.035254" lon="-48.658585"><ele>13.946838</ele></trkpt><trkpt lat="-27.035256" lon="-48.658585"><ele>13.666321</ele></trkpt><trkpt lat="-27.035254" lon="-48.65858"><ele>13.922852</ele></trkpt><trkpt lat="-27.035244" lon="-48.65857"><ele>12.846375</ele></trkpt><trkpt lat="-27.035239" lon="-48.658561"><ele>12.527954</ele></trkpt><trkpt lat="-27.035238" lon="-48.65856"><ele>14.710388</ele></trkpt><trkpt lat="-27.035238" lon="-48.658559"><ele>14.64978</ele></trkpt><trkpt lat="-27.035238" lon="-48.658559"><ele>14.632874</ele></trkpt><trkpt lat="-27.03524" lon="-48.65856"><ele>14.373962</ele></trkpt><trkpt lat="-27.035245" lon="-48.658559"><ele>14.785278</ele></trkpt><trkpt lat="-27.035253" lon="-48.658563"><ele>14.5849</ele></trkpt><trkpt lat="-27.035256" lon="-48.658568"><ele>14.099243</ele></trkpt><trkpt lat="-27.035256" lon="-48.658573"><ele>15.874329</ele></trkpt><trkpt lat="-27.035256" lon="-48.658574"><ele>15.892517</ele></trkpt><trkpt lat="-27.035256" lon="-48.658574"><ele>19.279602</ele></trkpt><trkpt lat="-27.035256" lon="-48.658575"><ele>19.282288</ele></trkpt><trkpt lat="-27.035255" lon="-48.658577"><ele>19.514099</ele></trkpt><trkpt lat="-27.035253" lon="-48.658579"><ele>19.328857</ele></trkpt><trkpt lat="-27.035253" lon="-48.658581"><ele>19.315796</ele></trkpt><trkpt lat="-27.035252" lon="-48.658582"><ele>19.318542</ele></trkpt><trkpt lat="-27.035252" lon="-48.658582"><ele>19.319153</ele></trkpt><trkpt lat="-27.035252" lon="-48.658582"><ele>19.321777</ele></trkpt><trkpt lat="-27.035252" lon="-48.658582"><ele>19.318604</ele></trkpt><trkpt lat="-27.035255" lon="-48.658584"><ele>19.049988</ele></trkpt><trkpt lat="-27.035255" lon="-48.658589"><ele>18.541809</ele></trkpt><trkpt lat="-27.035258" lon="-48.658593"><ele>19.936768</ele></trkpt><trkpt lat="-27.035263" lon="-48.658598"><ele>20.231567</ele></trkpt><trkpt lat="-27.03527" lon="-48.658602"><ele>20.151733</ele></trkpt><trkpt lat="-27.035272" lon="-48.658605"><ele>19.975098</ele></trkpt><trkpt lat="-27.035269" lon="-48.658607"><ele>19.967957</ele></trkpt><trkpt lat="-27.035267" lon="-48.658606"><ele>19.970337</ele></trkpt><trkpt lat="-27.035266" lon="-48.658606"><ele>19.974731</ele></trkpt><trkpt lat="-27.035271" lon="-48.658608"><ele>19.054138</ele></trkpt><trkpt lat="-27.035273" lon="-48.658609"><ele>19.124756</ele></trkpt><trkpt lat="-27.035271" lon="-48.658611"><ele>18.950073</ele></trkpt><trkpt lat="-27.035269" lon="-48.658615"><ele>19.310608</ele></trkpt><trkpt lat="-27.035263" lon="-48.658623"><ele>19.43573</ele></trkpt><trkpt lat="-27.035262" lon="-48.658625"><ele>19.431335</ele></trkpt><trkpt lat="-27.035261" lon="-48.658625"><ele>19.428711</ele></trkpt><trkpt lat="-27.035261" lon="-48.658625"><ele>19.427612</ele></trkpt><trkpt lat="-27.035262" lon="-48.658627"><ele>19.278015</ele></trkpt><trkpt lat="-27.035264" lon="-48.658627"><ele>19.224548</ele></trkpt><trkpt lat="-27.035265" lon="-48.658626"><ele>19.837158</ele></trkpt><trkpt lat="-27.035268" lon="-48.658623"><ele>19.323181</ele></trkpt><trkpt lat="-27.035269" lon="-48.658621"><ele>19.849426</ele></trkpt><trkpt lat="-27.035268" lon="-48.658621"><ele>20.208984</ele></trkpt><trkpt lat="-27.035266" lon="-48.658622"><ele>20.216492</ele></trkpt><trkpt lat="-27.035266" lon="-48.658622"><ele>20.216858</ele></trkpt><trkpt lat="-27.035266" lon="-48.658622"><ele>20.219299</ele></trkpt><trkpt lat="-27.035266" lon="-48.658622"><ele>20.217163</ele></trkpt><trkpt lat="-27.035266" lon="-48.658622"><ele>20.219604</ele></trkpt><trkpt lat="-27.035266" lon="-48.658622"><ele>20.217224</ele></trkpt><trkpt lat="-27.035263" lon="-48.658623"><ele>9.921967</ele></trkpt><trkpt lat="-27.035263" lon="-48.658623"><ele>9.916107</ele></trkpt><trkpt lat="-27.035262" lon="-48.658627"><ele>9.844055</ele></trkpt><trkpt lat="-27.035262" lon="-48.658628"><ele>9.862549</ele></trkpt><trkpt lat="-27.035266" lon="-48.658623"><ele>9.902252</ele></trkpt><trkpt lat="-27.035268" lon="-48.658622"><ele>10.074799</ele></trkpt><trkpt lat="-27.035267" lon="-48.658624"><ele>9.921265</ele></trkpt><trkpt lat="-27.035268" lon="-48.658628"><ele>9.918793</ele></trkpt><trkpt lat="-27.035267" lon="-48.658631"><ele>9.78894</ele></trkpt><trkpt lat="-27.035264" lon="-48.658634"><ele>10.183472</ele></trkpt><trkpt lat="-27.035265" lon="-48.658635"><ele>9.314362</ele></trkpt><trkpt lat="-27.035266" lon="-48.658638"><ele>8.935425</ele></trkpt><trkpt lat="-27.035267" lon="-48.658639"><ele>11.381836</ele></trkpt><trkpt lat="-27.035267" lon="-48.658639"><ele>12.099609</ele></trkpt><trkpt lat="-27.035267" lon="-48.658639"><ele>12.097168</ele></trkpt><trkpt lat="-27.035267" lon="-48.658639"><ele>10.597687</ele></trkpt><trkpt lat="-27.035267" lon="-48.658639"><ele>10.603119</ele></trkpt><trkpt lat="-27.035267" lon="-48.658639"><ele>10.609283</ele></trkpt><trkpt lat="-27.035268" lon="-48.658641"><ele>10.678925</ele></trkpt><trkpt lat="-27.03527" lon="-48.658643"><ele>10.708405</ele></trkpt><trkpt lat="-27.03527" lon="-48.658643"><ele>10.709564</ele></trkpt><trkpt lat="-27.035271" lon="-48.65865"><ele>10.718536</ele></trkpt><trkpt lat="-27.035267" lon="-48.658661"><ele>10.721161</ele></trkpt><trkpt lat="-27.035259" lon="-48.658672"><ele>10.916229</ele></trkpt><trkpt lat="-27.035254" lon="-48.658681"><ele>13.276672</ele></trkpt><trkpt lat="-27.035251" lon="-48.658684"><ele>13.748474</ele></trkpt><trkpt lat="-27.035247" lon="-48.658686"><ele>13.847717</ele></trkpt><trkpt lat="-27.035246" lon="-48.658687"><ele>13.85022</ele></trkpt><trkpt lat="-27.035243" lon="-48.658678"><ele>12.641418</ele></trkpt><trkpt lat="-27.035243" lon="-48.658668"><ele>12.279419</ele></trkpt><trkpt lat="-27.035244" lon="-48.658667"><ele>12.299194</ele></trkpt><trkpt lat="-27.035244" lon="-48.658667"><ele>12.304077</ele></trkpt><trkpt lat="-27.035244" lon="-48.658667"><ele>12.30072</ele></trkpt><trkpt lat="-27.035244" lon="-48.658667"><ele>12.298218</ele></trkpt><trkpt lat="-27.035244" lon="-48.658667"><ele>12.299011</ele></trkpt><trkpt lat="-27.035244" lon="-48.658667"><ele>12.295227</ele></trkpt><trkpt lat="-27.035244" lon="-48.658667"><ele>12.297058</ele></trkpt><trkpt lat="-27.035244" lon="-48.658667"><ele>12.28418</ele></trkpt><trkpt lat="-27.035244" lon="-48.658667"><ele>10.498993</ele></trkpt><trkpt lat="-27.035244" lon="-48.658667"><ele>10.497101</ele></trkpt><trkpt lat="-27.035244" lon="-48.658667"><ele>10.490387</ele></trkpt><trkpt lat="-27.035244" lon="-48.658667"><ele>10.487854</ele></trkpt><trkpt lat="-27.035247" lon="-48.658665"><ele>10.474854</ele></trkpt><trkpt lat="-27.035253" lon="-48.658569"><ele>0.704559</ele></trkpt><trkpt lat="-27.035245" lon="-48.65854"><ele>-7.286621</ele></trkpt><trkpt lat="-27.035245" lon="-48.65854"><ele>-7.286621</ele></trkpt><trkpt lat="-27.03525" lon="-48.658534"><ele>1.335083</ele></trkpt><trkpt lat="-27.03525" lon="-48.658534"><ele>1.335083</ele></trkpt><trkpt lat="-27.035256" lon="-48.658538"><ele>0.772949</ele></trkpt><trkpt lat="-27.03526" lon="-48.658548"><ele>1.264801</ele></trkpt><trkpt lat="-27.035263" lon="-48.658548"><ele>1.517822</ele></trkpt><trkpt lat="-27.035262" lon="-48.658554"><ele>2.402924</ele></trkpt><trkpt lat="-27.03526" lon="-48.658556"><ele>2.660553</ele></trkpt><trkpt lat="-27.03526" lon="-48.658558"><ele>2.660156</ele></trkpt><trkpt lat="-27.035261" lon="-48.658563"><ele>3.640656</ele></trkpt><trkpt lat="-27.03526" lon="-48.658566"><ele>4.395905</ele></trkpt><trkpt lat="-27.035259" lon="-48.65857"><ele>5.28241</ele></trkpt><trkpt lat="-27.035259" lon="-48.658573"><ele>5.818573</ele></trkpt><trkpt lat="-27.03526" lon="-48.658575"><ele>6.080109</ele></trkpt><trkpt lat="-27.03526" lon="-48.658574"><ele>6.422058</ele></trkpt><trkpt lat="-27.03526" lon="-48.658574"><ele>6.422058</ele></trkpt><trkpt lat="-27.03526" lon="-48.658574"><ele>6.422058</ele></trkpt><trkpt lat="-27.035261" lon="-48.658574"><ele>6.617859</ele></trkpt><trkpt lat="-27.035261" lon="-48.658575"><ele>6.879547</ele></trkpt><trkpt lat="-27.035261" lon="-48.658562"><ele>7.180389</ele></trkpt><trkpt lat="-27.035259" lon="-48.658567"><ele>7.667175</ele></trkpt><trkpt lat="-27.035258" lon="-48.658563"><ele>7.943726</ele></trkpt><trkpt lat="-27.035256" lon="-48.658562"><ele>8.37558</ele></trkpt><trkpt lat="-27.035261" lon="-48.658557"><ele>8.999207</ele></trkpt><trkpt lat="-27.035259" lon="-48.658555"><ele>9.436798</ele></trkpt><trkpt lat="-27.035258" lon="-48.658556"><ele>9.980591</ele></trkpt><trkpt lat="-27.035257" lon="-48.658558"><ele>10.327271</ele></trkpt><trkpt lat="-27.035258" lon="-48.658558"><ele>10.333588</ele></trkpt><trkpt lat="-27.035257" lon="-48.658559"><ele>10.229523</ele></trkpt><trkpt lat="-27.035257" lon="-48.658559"><ele>9.928558</ele></trkpt><trkpt lat="-27.035257" lon="-48.658559"><ele>9.928558</ele></trkpt><trkpt lat="-27.035257" lon="-48.658562"><ele>9.71582</ele></trkpt><trkpt lat="-27.035257" lon="-48.658562"><ele>9.71582</ele></trkpt><trkpt lat="-27.035259" lon="-48.658561"><ele>9.477783</ele></trkpt><trkpt lat="-27.035259" lon="-48.658563"><ele>9.464081</ele></trkpt><trkpt lat="-27.035258" lon="-48.658566"><ele>9.693329</ele></trkpt><trkpt lat="-27.035257" lon="-48.658568"><ele>9.954559</ele></trkpt><trkpt lat="-27.035257" lon="-48.658569"><ele>10.202881</ele></trkpt><trkpt lat="-27.035258" lon="-48.65857"><ele>10.47348</ele></trkpt><trkpt lat="-27.035257" lon="-48.658571"><ele>10.669556</ele></trkpt><trkpt lat="-27.035258" lon="-48.658573"><ele>11.096985</ele></trkpt><trkpt lat="-27.035259" lon="-48.658574"><ele>11.096283</ele></trkpt><trkpt lat="-27.035258" lon="-48.658575"><ele>11.324554</ele></trkpt><trkpt lat="-27.035259" lon="-48.65858"><ele>11.282501</ele></trkpt><trkpt lat="-27.035261" lon="-48.658581"><ele>11.35202</ele></trkpt><trkpt lat="-27.035261" lon="-48.658582"><ele>11.484772</ele></trkpt><trkpt lat="-27.035262" lon="-48.658584"><ele>11.820465</ele></trkpt><trkpt lat="-27.035263" lon="-48.658587"><ele>12.430237</ele></trkpt><trkpt lat="-27.035263" lon="-48.658592"><ele>12.859802</ele></trkpt><trkpt lat="-27.035264" lon="-48.65859"><ele>12.896179</ele></trkpt><trkpt lat="-27.035262" lon="-48.658588"><ele>13.199951</ele></trkpt><trkpt lat="-27.03526" lon="-48.658584"><ele>13.25061</ele></trkpt><trkpt lat="-27.035259" lon="-48.658584"><ele>13.21637</ele></trkpt><trkpt lat="-27.035259" lon="-48.658583"><ele>10.24762</ele></trkpt><trkpt lat="-27.035258" lon="-48.658583"><ele>10.446564</ele></trkpt><trkpt lat="-27.035257" lon="-48.658583"><ele>10.536804</ele></trkpt><trkpt lat="-27.035257" lon="-48.658584"><ele>10.383423</ele></trkpt><trkpt lat="-27.035258" lon="-48.658588"><ele>10.253876</ele></trkpt><trkpt lat="-27.035261" lon="-48.658593"><ele>10.824524</ele></trkpt><trkpt lat="-27.035263" lon="-48.658594"><ele>10.529846</ele></trkpt><trkpt lat="-27.035266" lon="-48.658596"><ele>10.171661</ele></trkpt><trkpt lat="-27.035268" lon="-48.658597"><ele>10.264557</ele></trkpt><trkpt lat="-27.035268" lon="-48.658597"><ele>10.264557</ele></trkpt><trkpt lat="-27.035269" lon="-48.658597"><ele>10.268005</ele></trkpt><trkpt lat="-27.035269" lon="-48.658597"><ele>10.592773</ele></trkpt><trkpt lat="-27.035268" lon="-48.658598"><ele>10.601074</ele></trkpt><trkpt lat="-27.035269" lon="-48.658594"><ele>13.199829</ele></trkpt><trkpt lat="-27.035268" lon="-48.658593"><ele>13.155151</ele></trkpt><trkpt lat="-27.035268" lon="-48.658593"><ele>13.116028</ele></trkpt><trkpt lat="-27.035268" lon="-48.658593"><ele>13.944885</ele></trkpt><trkpt lat="-27.035268" lon="-48.658593"><ele>13.925293</ele></trkpt><trkpt lat="-27.035268" lon="-48.658593"><ele>13.925537</ele></trkpt><trkpt lat="-27.035268" lon="-48.658593"><ele>13.924133</ele></trkpt><trkpt lat="-27.035268" lon="-48.658593"><ele>13.9198</ele></trkpt><trkpt lat="-27.035268" lon="-48.658593"><ele>12.987244</ele></trkpt><trkpt lat="-27.035268" lon="-48.658593"><ele>13.132202</ele></trkpt><trkpt lat="-27.035268" lon="-48.658593"><ele>13.118103</ele></trkpt><trkpt lat="-27.035268" lon="-48.658593"><ele>13.109863</ele></trkpt><trkpt lat="-27.035268" lon="-48.658593"><ele>13.936218</ele></trkpt><trkpt lat="-27.035268" lon="-48.658593"><ele>13.918884</ele></trkpt><trkpt lat="-27.035268" lon="-48.658594"><ele>13.748657</ele></trkpt><trkpt lat="-27.035269" lon="-48.658595"><ele>13.72522</ele></trkpt><trkpt lat="-27.035269" lon="-48.658596"><ele>13.72522</ele></trkpt><trkpt lat="-27.035269" lon="-48.658596"><ele>13.725403</ele></trkpt><trkpt lat="-27.035269" lon="-48.658596"><ele>13.724304</ele></trkpt><trkpt lat="-27.035269" lon="-48.658596"><ele>18.713867</ele></trkpt><trkpt lat="-27.035269" lon="-48.658596"><ele>18.718018</ele></trkpt><trkpt lat="-27.03527" lon="-48.658596"><ele>18.766724</ele></trkpt><trkpt lat="-27.035272" lon="-48.658597"><ele>18.622498</ele></trkpt><trkpt lat="-27.035277" lon="-48.658598"><ele>18.843018</ele></trkpt><trkpt lat="-27.035286" lon="-48.658601"><ele>18.798706</ele></trkpt><trkpt lat="-27.035299" lon="-48.658606"><ele>18.601746</ele></trkpt><trkpt lat="-27.035313" lon="-48.658612"><ele>18.995667</ele></trkpt><trkpt lat="-27.035324" lon="-48.658616"><ele>19.232849</ele></trkpt><trkpt lat="-27.035336" lon="-48.658621"><ele>19.699219</ele></trkpt><trkpt lat="-27.035346" lon="-48.658626"><ele>19.666992</ele></trkpt><trkpt lat="-27.035357" lon="-48.658633"><ele>20.077454</ele></trkpt><trkpt lat="-27.035369" lon="-48.658639"><ele>20.468445</ele></trkpt><trkpt lat="-27.035384" lon="-48.658644"><ele>20.392395</ele></trkpt><trkpt lat="-27.035394" lon="-48.658649"><ele>20.613403</ele></trkpt><trkpt lat="-27.035402" lon="-48.658655"><ele>21.015747</ele></trkpt><trkpt lat="-27.035414" lon="-48.65866"><ele>21.235352</ele></trkpt><trkpt lat="-27.035424" lon="-48.658668"><ele>20.95459</ele></trkpt><trkpt lat="-27.035431" lon="-48.658678"><ele>21.093018</ele></trkpt><trkpt lat="-27.035441" lon="-48.658685"><ele>21.232727</ele></trkpt><trkpt lat="-27.035452" lon="-48.658692"><ele>21.414856</ele></trkpt><trkpt lat="-27.035461" lon="-48.6587"><ele>21.893372</ele></trkpt><trkpt lat="-27.035469" lon="-48.658704"><ele>21.710022</ele></trkpt><trkpt lat="-27.035479" lon="-48.658709"><ele>21.749512</ele></trkpt><trkpt lat="-27.035479" lon="-48.658709"><ele>21.749512</ele></trkpt><trkpt lat="-27.035487" lon="-48.658713"><ele>21.891418</ele></trkpt><trkpt lat="-27.035481" lon="-48.658712"><ele>20.594482</ele></trkpt><trkpt lat="-27.035479" lon="-48.658711"><ele>20.606384</ele></trkpt><trkpt lat="-27.035482" lon="-48.658711"><ele>20.496521</ele></trkpt><trkpt lat="-27.035486" lon="-48.658713"><ele>20.693359</ele></trkpt><trkpt lat="-27.035495" lon="-48.658715"><ele>21.78772</ele></trkpt><trkpt lat="-27.035497" lon="-48.658716"><ele>21.833557</ele></trkpt><trkpt lat="-27.035501" lon="-48.65872"><ele>21.801208</ele></trkpt><trkpt lat="-27.035508" lon="-48.658722"><ele>22.036682</ele></trkpt><trkpt lat="-27.035518" lon="-48.658721"><ele>22.188049</ele></trkpt><trkpt lat="-27.035529" lon="-48.658719"><ele>22.461487</ele></trkpt><trkpt lat="-27.035532" lon="-48.658707"><ele>21.679932</ele></trkpt><trkpt lat="-27.03554" lon="-48.658701"><ele>20.481628</ele></trkpt><trkpt lat="-27.035549" lon="-48.658703"><ele>20.966064</ele></trkpt><trkpt lat="-27.035562" lon="-48.658709"><ele>20.902161</ele></trkpt><trkpt lat="-27.035573" lon="-48.658714"><ele>20.869934</ele></trkpt><trkpt lat="-27.035585" lon="-48.658722"><ele>20.84729</ele></trkpt><trkpt lat="-27.035596" lon="-48.658731"><ele>21.069153</ele></trkpt><trkpt lat="-27.035606" lon="-48.658737"><ele>21.24115</ele></trkpt><trkpt lat="-27.035615" lon="-48.658743"><ele>21.378296</ele></trkpt><trkpt lat="-27.035622" lon="-48.658746"><ele>21.075928</ele></trkpt><trkpt lat="-27.03563" lon="-48.658749"><ele>20.943176</ele></trkpt><trkpt lat="-27.035641" lon="-48.658754"><ele>21.092285</ele></trkpt><trkpt lat="-27.03565" lon="-48.658761"><ele>21.111206</ele></trkpt><trkpt lat="-27.035658" lon="-48.658768"><ele>21.611328</ele></trkpt><trkpt lat="-27.035665" lon="-48.658774"><ele>22.015076</ele></trkpt><trkpt lat="-27.035674" lon="-48.658778"><ele>22.232422</ele></trkpt><trkpt lat="-27.035682" lon="-48.658782"><ele>22.142151</ele></trkpt><trkpt lat="-27.035693" lon="-48.658785"><ele>22.118652</ele></trkpt><trkpt lat="-27.035702" lon="-48.65879"><ele>22.036804</ele></trkpt><trkpt lat="-27.035708" lon="-48.658795"><ele>21.917908</ele></trkpt><trkpt lat="-27.035718" lon="-48.658799"><ele>21.939758</ele></trkpt><trkpt lat="-27.035728" lon="-48.658802"><ele>21.830994</ele></trkpt><trkpt lat="-27.035736" lon="-48.658805"><ele>22.010864</ele></trkpt><trkpt lat="-27.035742" lon="-48.658808"><ele>22.021423</ele></trkpt><trkpt lat="-27.035744" lon="-48.658808"><ele>17.331482</ele></trkpt><trkpt lat="-27.035747" lon="-48.658809"><ele>17.503601</ele></trkpt><trkpt lat="-27.035744" lon="-48.658811"><ele>17.42804</ele></trkpt><trkpt lat="-27.035742" lon="-48.658812"><ele>17.418518</ele></trkpt><trkpt lat="-27.035742" lon="-48.658812"><ele>17.419434</ele></trkpt><trkpt lat="-27.035742" lon="-48.658812"><ele>17.427124</ele></trkpt><trkpt lat="-27.035742" lon="-48.658812"><ele>17.425293</ele></trkpt><trkpt lat="-27.035744" lon="-48.658813"><ele>17.539856</ele></trkpt><trkpt lat="-27.035745" lon="-48.658813"><ele>17.48175</ele></trkpt><trkpt lat="-27.035746" lon="-48.658815"><ele>17.484863</ele></trkpt><trkpt lat="-27.035747" lon="-48.658815"><ele>17.481934</ele></trkpt><trkpt lat="-27.035749" lon="-48.658816"><ele>17.459167</ele></trkpt><trkpt lat="-27.03575" lon="-48.658817"><ele>17.43457</ele></trkpt><trkpt lat="-27.03575" lon="-48.658817"><ele>17.428223</ele></trkpt><trkpt lat="-27.03575" lon="-48.658817"><ele>16.876404</ele></trkpt><trkpt lat="-27.03575" lon="-48.658817"><ele>16.876404</ele></trkpt><trkpt lat="-27.035751" lon="-48.658818"><ele>16.944153</ele></trkpt><trkpt lat="-27.035751" lon="-48.658818"><ele>16.903198</ele></trkpt><trkpt lat="-27.035751" lon="-48.658817"><ele>16.889648</ele></trkpt><trkpt lat="-27.035751" lon="-48.658817"><ele>16.891602</ele></trkpt><trkpt lat="-27.035751" lon="-48.658817"><ele>16.891296</ele></trkpt><trkpt lat="-27.035749" lon="-48.658817"><ele>20.793579</ele></trkpt><trkpt lat="-27.035749" lon="-48.658817"><ele>20.793579</ele></trkpt><trkpt lat="-27.035747" lon="-48.658817"><ele>20.817749</ele></trkpt><trkpt lat="-27.035747" lon="-48.658817"><ele>20.81488</ele></trkpt><trkpt lat="-27.035747" lon="-48.658817"><ele>20.81488</ele></trkpt><trkpt lat="-27.035747" lon="-48.658817"><ele>20.819092</ele></trkpt><trkpt lat="-27.035747" lon="-48.658817"><ele>20.821106</ele></trkpt><trkpt lat="-27.035747" lon="-48.658817"><ele>20.285828</ele></trkpt><trkpt lat="-27.035747" lon="-48.658817"><ele>20.303345</ele></trkpt><trkpt lat="-27.035749" lon="-48.658817"><ele>20.669312</ele></trkpt><trkpt lat="-27.035749" lon="-48.658817"><ele>21.352356</ele></trkpt><trkpt lat="-27.035749" lon="-48.658816"><ele>21.799194</ele></trkpt><trkpt lat="-27.035749" lon="-48.658815"><ele>22.531128</ele></trkpt><trkpt lat="-27.035748" lon="-48.658816"><ele>22.457764</ele></trkpt><trkpt lat="-27.035745" lon="-48.658817"><ele>22.47345</ele></trkpt><trkpt lat="-27.035742" lon="-48.658818"><ele>22.242737</ele></trkpt><trkpt lat="-27.035738" lon="-48.658819"><ele>22.236938</ele></trkpt><trkpt lat="-27.035736" lon="-48.65882"><ele>21.935181</ele></trkpt><trkpt lat="-27.035735" lon="-48.658821"><ele>22.239136</ele></trkpt><trkpt lat="-27.035734" lon="-48.658822"><ele>22.2099</ele></trkpt><trkpt lat="-27.035733" lon="-48.658822"><ele>22.518616</ele></trkpt><trkpt lat="-27.035731" lon="-48.658823"><ele>22.66626</ele></trkpt><trkpt lat="-27.03573" lon="-48.658822"><ele>22.534973</ele></trkpt><trkpt lat="-27.035727" lon="-48.658819"><ele>22.087585</ele></trkpt><trkpt lat="-27.035726" lon="-48.658818"><ele>22.007385</ele></trkpt><trkpt lat="-27.035728" lon="-48.65882"><ele>22.004211</ele></trkpt><trkpt lat="-27.035729" lon="-48.65882"><ele>21.875183</ele></trkpt><trkpt lat="-27.035729" lon="-48.65882"><ele>22.148254</ele></trkpt><trkpt lat="-27.035726" lon="-48.658817"><ele>21.214111</ele></trkpt><trkpt lat="-27.035723" lon="-48.658813"><ele>21.204102</ele></trkpt><trkpt lat="-27.035723" lon="-48.658812"><ele>21.128601</ele></trkpt><trkpt lat="-27.035722" lon="-48.658811"><ele>21.140259</ele></trkpt><trkpt lat="-27.035721" lon="-48.658811"><ele>21.070496</ele></trkpt><trkpt lat="-27.035721" lon="-48.658811"><ele>20.840088</ele></trkpt><trkpt lat="-27.035722" lon="-48.658812"><ele>21.037537</ele></trkpt><trkpt lat="-27.035723" lon="-48.658811"><ele>20.641602</ele></trkpt><trkpt lat="-27.035723" lon="-48.658809"><ele>20.631042</ele></trkpt><trkpt lat="-27.035722" lon="-48.65881"><ele>20.504211</ele></trkpt><trkpt lat="-27.035721" lon="-48.658811"><ele>20.496216</ele></trkpt><trkpt lat="-27.035721" lon="-48.658811"><ele>20.499146</ele></trkpt><trkpt lat="-27.035721" lon="-48.658811"><ele>20.499146</ele></trkpt><trkpt lat="-27.03572" lon="-48.658814"><ele>20.486145</ele></trkpt><trkpt lat="-27.03572" lon="-48.658818"><ele>20.473145</ele></trkpt><trkpt lat="-27.035718" lon="-48.65882"><ele>20.536377</ele></trkpt><trkpt lat="-27.035719" lon="-48.658821"><ele>20.495361</ele></trkpt><trkpt lat="-27.035719" lon="-48.658821"><ele>20.491821</ele></trkpt><trkpt lat="-27.035719" lon="-48.658821"><ele>20.49054</ele></trkpt><trkpt lat="-27.035719" lon="-48.658821"><ele>20.49292</ele></trkpt><trkpt lat="-27.035719" lon="-48.658821"><ele>20.492554</ele></trkpt><trkpt lat="-27.035719" lon="-48.658821"><ele>20.491333</ele></trkpt><trkpt lat="-27.035719" lon="-48.658821"><ele>20.489136</ele></trkpt><trkpt lat="-27.035718" lon="-48.658821"><ele>20.585083</ele></trkpt><trkpt lat="-27.035718" lon="-48.658821"><ele>20.586548</ele></trkpt><trkpt lat="-27.035718" lon="-48.65882"><ele>20.761169</ele></trkpt><trkpt lat="-27.035719" lon="-48.658822"><ele>20.831909</ele></trkpt><trkpt lat="-27.035722" lon="-48.658823"><ele>20.842957</ele></trkpt><trkpt lat="-27.035726" lon="-48.658821"><ele>20.767517</ele></trkpt><trkpt lat="-27.03573" lon="-48.65882"><ele>20.783142</ele></trkpt><trkpt lat="-27.035731" lon="-48.658819"><ele>20.78363</ele></trkpt><trkpt lat="-27.035731" lon="-48.658819"><ele>20.781433</ele></trkpt><trkpt lat="-27.035731" lon="-48.658819"><ele>20.781433</ele></trkpt><trkpt lat="-27.035732" lon="-48.658819"><ele>20.783691</ele></trkpt><trkpt lat="-27.035732" lon="-48.658819"><ele>20.785156</ele></trkpt><trkpt lat="-27.035732" lon="-48.658819"><ele>20.784607</ele></trkpt><trkpt lat="-27.035732" lon="-48.658819"><ele>20.784607</ele></trkpt><trkpt lat="-27.035732" lon="-48.658819"><ele>20.782532</ele></trkpt><trkpt lat="-27.035732" lon="-48.658819"><ele>20.783936</ele></trkpt><trkpt lat="-27.035732" lon="-48.658819"><ele>20.785217</ele></trkpt><trkpt lat="-27.035732" lon="-48.658819"><ele>20.782227</ele></trkpt><trkpt lat="-27.035732" lon="-48.658819"><ele>20.78125</ele></trkpt><trkpt lat="-27.035732" lon="-48.658819"><ele>20.783142</ele></trkpt><trkpt lat="-27.035732" lon="-48.658819"><ele>20.783142</ele></trkpt><trkpt lat="-27.035732" lon="-48.658819"><ele>20.783813</ele></trkpt><trkpt lat="-27.035732" lon="-48.658819"><ele>20.784729</ele></trkpt><trkpt lat="-27.035732" lon="-48.658819"><ele>20.781006</ele></trkpt><trkpt lat="-27.035732" lon="-48.65882"><ele>20.815491</ele></trkpt><trkpt lat="-27.035732" lon="-48.658821"><ele>20.672546</ele></trkpt><trkpt lat="-27.035732" lon="-48.658821"><ele>20.672546</ele></trkpt><trkpt lat="-27.035733" lon="-48.658822"><ele>20.66394</ele></trkpt><trkpt lat="-27.035732" lon="-48.658821"><ele>20.719482</ele></trkpt><trkpt lat="-27.035731" lon="-48.65882"><ele>20.707947</ele></trkpt><trkpt lat="-27.03573" lon="-48.658818"><ele>20.711609</ele></trkpt><trkpt lat="-27.035729" lon="-48.658818"><ele>20.710083</ele></trkpt><trkpt lat="-27.035729" lon="-48.658818"><ele>20.710083</ele></trkpt><trkpt lat="-27.035729" lon="-48.658818"><ele>20.708252</ele></trkpt><trkpt lat="-27.035729" lon="-48.658818"><ele>20.708557</ele></trkpt><trkpt lat="-27.035729" lon="-48.658818"><ele>20.707703</ele></trkpt><trkpt lat="-27.035729" lon="-48.658818"><ele>20.709229</ele></trkpt><trkpt lat="-27.035729" lon="-48.658818"><ele>20.886292</ele></trkpt><trkpt lat="-27.03573" lon="-48.658819"><ele>21.39978</ele></trkpt><trkpt lat="-27.035731" lon="-48.658818"><ele>21.53418</ele></trkpt><trkpt lat="-27.035732" lon="-48.658819"><ele>21.547852</ele></trkpt><trkpt lat="-27.035732" lon="-48.658819"><ele>21.547852</ele></trkpt><trkpt lat="-27.035732" lon="-48.658819"><ele>21.551453</ele></trkpt><trkpt lat="-27.035732" lon="-48.658819"><ele>21.555115</ele></trkpt><trkpt lat="-27.035732" lon="-48.658819"><ele>21.558533</ele></trkpt><trkpt lat="-27.035732" lon="-48.658819"><ele>21.560608</ele></trkpt><trkpt lat="-27.035732" lon="-48.658819"><ele>21.564758</ele></trkpt><trkpt lat="-27.035732" lon="-48.65882"><ele>21.869568</ele></trkpt><trkpt lat="-27.035733" lon="-48.65882"><ele>21.895569</ele></trkpt><trkpt lat="-27.035733" lon="-48.65882"><ele>21.895569</ele></trkpt><trkpt lat="-27.035733" lon="-48.658821"><ele>21.899109</ele></trkpt><trkpt lat="-27.035732" lon="-48.658823"><ele>22.065186</ele></trkpt><trkpt lat="-27.035733" lon="-48.658825"><ele>22.151367</ele></trkpt><trkpt lat="-27.035734" lon="-48.658828"><ele>22.17572</ele></trkpt><trkpt lat="-27.035735" lon="-48.65883"><ele>22.032532</ele></trkpt><trkpt lat="-27.035735" lon="-48.658832"><ele>22.027283</ele></trkpt><trkpt lat="-27.035735" lon="-48.658832"><ele>22.031799</ele></trkpt><trkpt lat="-27.035735" lon="-48.658832"><ele>22.031311</ele></trkpt><trkpt lat="-27.035735" lon="-48.658833"><ele>22.033325</ele></trkpt><trkpt lat="-27.035735" lon="-48.658833"><ele>22.035706</ele></trkpt><trkpt lat="-27.035735" lon="-48.658833"><ele>22.040771</ele></trkpt><trkpt lat="-27.035735" lon="-48.658833"><ele>22.044922</ele></trkpt><trkpt lat="-27.035735" lon="-48.658833"><ele>22.047607</ele></trkpt><trkpt lat="-27.035735" lon="-48.658833"><ele>22.047852</ele></trkpt><trkpt lat="-27.035735" lon="-48.658833"><ele>22.049316</ele></trkpt><trkpt lat="-27.035736" lon="-48.658833"><ele>22.051208</ele></trkpt><trkpt lat="-27.035736" lon="-48.658833"><ele>22.051392</ele></trkpt><trkpt lat="-27.035736" lon="-48.658833"><ele>22.051392</ele></trkpt><trkpt lat="-27.035736" lon="-48.658833"><ele>22.052734</ele></trkpt><trkpt lat="-27.035736" lon="-48.658833"><ele>22.052979</ele></trkpt><trkpt lat="-27.035736" lon="-48.658833"><ele>22.05127</ele></trkpt><trkpt lat="-27.035736" lon="-48.658833"><ele>22.048218</ele></trkpt><trkpt lat="-27.035737" lon="-48.658831"><ele>21.92688</ele></trkpt><trkpt lat="-27.035738" lon="-48.65883"><ele>21.917358</ele></trkpt><trkpt lat="-27.035738" lon="-48.658829"><ele>21.919861</ele></trkpt><trkpt lat="-27.035738" lon="-48.658827"><ele>22.165039</ele></trkpt><trkpt lat="-27.035738" lon="-48.658826"><ele>22.211914</ele></trkpt><trkpt lat="-27.035738" lon="-48.658825"><ele>22.212646</ele></trkpt><trkpt lat="-27.035738" lon="-48.658825"><ele>22.212646</ele></trkpt><trkpt lat="-27.035738" lon="-48.658825"><ele>22.213989</ele></trkpt><trkpt lat="-27.035738" lon="-48.658825"><ele>22.213135</ele></trkpt><trkpt lat="-27.035738" lon="-48.658825"><ele>22.213318</ele></trkpt><trkpt lat="-27.035738" lon="-48.658825"><ele>22.173035</ele></trkpt><trkpt lat="-27.035738" lon="-48.658824"><ele>22.202515</ele></trkpt><trkpt lat="-27.035738" lon="-48.658824"><ele>22.204773</ele></trkpt><trkpt lat="-27.035738" lon="-48.658824"><ele>22.205017</ele></trkpt><trkpt lat="-27.035738" lon="-48.658824"><ele>22.2052</ele></trkpt><trkpt lat="-27.035738" lon="-48.658824"><ele>22.205627</ele></trkpt><trkpt lat="-27.035738" lon="-48.658824"><ele>22.328857</ele></trkpt><trkpt lat="-27.035737" lon="-48.658824"><ele>22.312073</ele></trkpt><trkpt lat="-27.035737" lon="-48.658824"><ele>22.311462</ele></trkpt><trkpt lat="-27.035738" lon="-48.658824"><ele>22.310059</ele></trkpt><trkpt lat="-27.035738" lon="-48.658824"><ele>22.312256</ele></trkpt><trkpt lat="-27.035738" lon="-48.658824"><ele>22.311157</ele></trkpt><trkpt lat="-27.035738" lon="-48.658824"><ele>22.125671</ele></trkpt><trkpt lat="-27.035738" lon="-48.658824"><ele>22.129822</ele></trkpt><trkpt lat="-27.035738" lon="-48.658824"><ele>22.130859</ele></trkpt><trkpt lat="-27.035738" lon="-48.658824"><ele>22.134949</ele></trkpt><trkpt lat="-27.035738" lon="-48.658824"><ele>22.144592</ele></trkpt><trkpt lat="-27.035738" lon="-48.658824"><ele>22.147156</ele></trkpt><trkpt lat="-27.035739" lon="-48.658824"><ele>22.412964</ele></trkpt><trkpt lat="-27.03574" lon="-48.658825"><ele>22.432617</ele></trkpt></trkseg></trk></gpx>