<?xml version="1.0" encoding="UTF-8"?>
<gpx xmlns="http://www.topografix.com/GPX/1/1" version="1.1" creator="@dwayneparton/geojson-to-gpx"><wpt lat="-27.003348" lon="-48.630438"><ele>21.7</ele><name>3 faixas</name></wpt><wpt lat="-27.002198" lon="-48.630133"><ele>15.9</ele><name>12 vagas </name></wpt><wpt lat="-27.003205" lon="-48.63036"><ele>4.4</ele><name>70</name></wpt><wpt lat="-27.003217" lon="-48.630367"><ele>6.8</ele><name>180</name></wpt><wpt lat="-27.001278" lon="-48.629987"><ele>8.3</ele><name>A ciclo é completamente reta.</name></wpt><wpt lat="-27.001278" lon="-48.629987"><ele>8.3</ele><name>A pintura é falha em VÁRIOS pontos</name></wpt><wpt lat="-27.003338" lon="-48.630415"><ele>13.9</ele><name>Apenas faixas vermelhas nas bordas</name></wpt><wpt lat="-27.003205" lon="-48.63036"><ele>4.4</ele><name>Área de amortecimento da ciclo (cm)</name></wpt><wpt lat="-27.003212" lon="-48.630365"><ele>6.5</ele><name>Área transitável da ciclo (cm)</name></wpt><wpt lat="-27.003338" lon="-48.630415"><ele>13.9</ele><name>Asfalto</name></wpt><wpt lat="-27.003367" lon="-48.630425"><ele>23.7</ele><name>Bidirecional</name></wpt><wpt lat="-27.001278" lon="-48.629987"><ele>8.3</ele><name>Bom estado</name></wpt><wpt lat="-27.003217" lon="-48.630372"><ele>7</ele><name>Bueiro</name></wpt><wpt lat="-27.002002" lon="-48.63012"><ele>2.3</ele><name>Bueiro</name></wpt><wpt lat="-27.001583" lon="-48.629995"><ele>22.3</ele><name>Bueiro</name></wpt><wpt lat="-27.001418" lon="-48.629977"><ele>16.7</ele><name>Bueiro</name></wpt><wpt lat="-27.00112" lon="-48.629975"><ele>4.2</ele><name>Bueiro</name></wpt><wpt lat="-27.001143" lon="-48.629988"><ele>2.3</ele><name>Bueiro</name></wpt><wpt lat="-27.001143" lon="-48.629987"><ele>2</ele><name>Bueiro</name></wpt><wpt lat="-27.003338" lon="-48.630415"><ele>13.9</ele><name>Canteiros</name></wpt><wpt lat="-27.003368" lon="-48.630428"><ele>24</ele><name>Ciclovia</name></wpt><wpt lat="-27.003348" lon="-48.630438"><ele>21.7</ele><name>Estacionamento dos dois lados</name></wpt><wpt lat="-27.003217" lon="-48.630372"><ele>7</ele><name>Faixa de carros logo ao lado da ciclo (cm)</name></wpt><wpt lat="-27.003357" lon="-48.630423"><ele>5.5</ele><name>Foto</name></wpt><wpt lat="-27.00348" lon="-48.630483"><ele>3.4</ele><name>Foto</name></wpt><wpt lat="-27.003375" lon="-48.630455"><ele>2</ele><name>Foto</name></wpt><wpt lat="-27.003367" lon="-48.630397"><ele>2.5</ele><name>Foto</name></wpt><wpt lat="-27.003217" lon="-48.630372"><ele>7</ele><name>Foto</name></wpt><wpt lat="-27.00286" lon="-48.63029"><ele>6.4</ele><name>Foto</name></wpt><wpt lat="-27.002848" lon="-48.630285"><ele>6.9</ele><name>Foto</name></wpt><wpt lat="-27.002572" lon="-48.630237"><ele>10.4</ele><name>Foto</name></wpt><wpt lat="-27.002572" lon="-48.630237"><ele>10.4</ele><name>Foto</name></wpt><wpt lat="-27.002442" lon="-48.630187"><ele>14.4</ele><name>Foto</name></wpt><wpt lat="-27.0022" lon="-48.630138"><ele>15.1</ele><name>Foto</name></wpt><wpt lat="-27.002092" lon="-48.630095"><ele>12.6</ele><name>Foto</name></wpt><wpt lat="-27.002112" lon="-48.630118"><ele>10.1</ele><name>Foto</name></wpt><wpt lat="-27.002298" lon="-48.63017"><ele>11.3</ele><name>Foto</name></wpt><wpt lat="-27.001985" lon="-48.63012"><ele>2.5</ele><name>Foto</name></wpt><wpt lat="-27.001567" lon="-48.629997"><ele>22.3</ele><name>Foto</name></wpt><wpt lat="-27.001418" lon="-48.629988"><ele>14.8</ele><name>Foto</name></wpt><wpt lat="-27.001342" lon="-48.629987"><ele>9.7</ele><name>Foto</name></wpt><wpt lat="-27.001143" lon="-48.629987"><ele>2</ele><name>Foto</name></wpt><wpt lat="-27.001278" lon="-48.629987"><ele>8.3</ele><name>Foto</name></wpt><wpt lat="-27.001112" lon="-48.629983"><ele>3</ele><name>Foto</name></wpt><wpt lat="-27.001123" lon="-48.629993"><ele>1.7</ele><name>Foto</name></wpt><wpt lat="-27.001278" lon="-48.629987"><ele>8.3</ele><name>Iluminação dedicada para ciclistas</name></wpt><wpt lat="-27.003055" lon="-48.630284"><name>Iluminação dedicada para ciclistas</name></wpt><wpt lat="-27.001278" lon="-48.629987"><ele>8.3</ele><name>Iluminação geral na via do outro lado da infraestrutura</name></wpt><wpt lat="-27.002982" lon="-48.630267"><name>Iluminação geral na via do outro lado da infraestrutura</name></wpt><wpt lat="-27.002247" lon="-48.630151"><name>Mão Dupla</name></wpt><wpt lat="-27.003406" lon="-48.630422"><name>Mão Única</name></wpt><wpt lat="-27.003217" lon="-48.630372"><ele>7</ele><name>medir depois </name></wpt><wpt lat="-27.001278" lon="-48.629987"><ele>8.3</ele><name>Não há árvores nem mudas</name></wpt><wpt lat="-27.001118" lon="-48.629998"><ele>7.9</ele><name>Nenhum elemento de controle de velocidade na via</name></wpt><wpt lat="-27.003348" lon="-48.63042"><ele>14.8</ele><name>No bordo direito de Via de Mão Única</name></wpt><wpt lat="-27.001278" lon="-48.629987"><ele>8.3</ele><name>OBS: sim, são dois tipos de iluminação na via</name></wpt><wpt lat="-27.00134" lon="-48.629982"><ele>10.9</ele><name>Em cruzamento BOA condição</name></wpt><wpt lat="-27.002572" lon="-48.630237"><ele>10.4</ele><name>Em cruzamento MÁ condição</name></wpt><wpt lat="-27.002198" lon="-48.630132"><ele>15.8</ele><name>Quantidade de vagas</name></wpt><wpt lat="-27.001278" lon="-48.629987"><ele>8.3</ele><name>SE CICLOVIA: segregação impede completamente a invasão de automóvel e não há trechos desprotegidos</name></wpt><wpt lat="-27.001278" lon="-48.629987"><ele>8.3</ele><name>Segregadores NÃO DIFICULTAM o acesso de ciclistas</name></wpt><wpt lat="-27.002445" lon="-48.630166"><name>SEM Semáforo exclusivo</name></wpt><wpt lat="-27.002442" lon="-48.630162"><name>Semáforo para motorizado</name></wpt><wpt lat="-27.002449" lon="-48.630174"><name>Semáforo para pedestres</name></wpt><wpt lat="-27.003217" lon="-48.630372"><ele>7</ele><name>Total da via (incluindo a ciclo) (cm)</name></wpt><wpt lat="-27.002198" lon="-48.630132"><ele>15.8</ele><name>U invertido</name></wpt><wpt lat="-27.001155" lon="-48.630037"><ele>7</ele><name>Via transversal COM acesso à ciclovia</name></wpt><trk><name>Ciclovia R. 3100 - BC</name><trkseg><trkpt lat="-27.003422" lon="-48.630332"><ele>8.2</ele></trkpt><trkpt lat="-27.003247" lon="-48.630327"><ele>16</ele></trkpt><trkpt lat="-27.00328" lon="-48.630397"><ele>21.4</ele></trkpt><trkpt lat="-27.003277" lon="-48.630418"><ele>26.4</ele></trkpt><trkpt lat="-27.003317" lon="-48.630393"><ele>26.4</ele></trkpt><trkpt lat="-27.003332" lon="-48.630402"><ele>26.3</ele></trkpt><trkpt lat="-27.003353" lon="-48.630418"><ele>25.8</ele></trkpt><trkpt lat="-27.003367" lon="-48.63043"><ele>25.6</ele></trkpt><trkpt lat="-27.003377" lon="-48.630433"><ele>25.5</ele></trkpt><trkpt lat="-27.003378" lon="-48.630437"><ele>25.2</ele></trkpt><trkpt lat="-27.003377" lon="-48.630435"><ele>24.9</ele></trkpt><trkpt lat="-27.003372" lon="-48.63043"><ele>24.3</ele></trkpt><trkpt lat="-27.003368" lon="-48.630428"><ele>24</ele></trkpt><trkpt lat="-27.003368" lon="-48.630428"><ele>24</ele></trkpt><trkpt lat="-27.003367" lon="-48.630425"><ele>23.7</ele></trkpt><trkpt lat="-27.003367" lon="-48.630425"><ele>23.7</ele></trkpt><trkpt lat="-27.00339" lon="-48.630417"><ele>22.4</ele></trkpt><trkpt lat="-27.003388" lon="-48.630417"><ele>22.1</ele></trkpt><trkpt lat="-27.003383" lon="-48.630417"><ele>21.7</ele></trkpt><trkpt lat="-27.00338" lon="-48.630417"><ele>21.3</ele></trkpt><trkpt lat="-27.003377" lon="-48.630418"><ele>20.9</ele></trkpt><trkpt lat="-27.003375" lon="-48.630417"><ele>20.6</ele></trkpt><trkpt lat="-27.003372" lon="-48.630417"><ele>20.2</ele></trkpt><trkpt lat="-27.003368" lon="-48.630415"><ele>19.8</ele></trkpt><trkpt lat="-27.003363" lon="-48.630417"><ele>19.2</ele></trkpt><trkpt lat="-27.00336" lon="-48.630418"><ele>18.8</ele></trkpt><trkpt lat="-27.003357" lon="-48.630422"><ele>18.2</ele></trkpt><trkpt lat="-27.003355" lon="-48.630423"><ele>17.7</ele></trkpt><trkpt lat="-27.003357" lon="-48.630425"><ele>17.4</ele></trkpt><trkpt lat="-27.003353" lon="-48.630428"><ele>16.7</ele></trkpt><trkpt lat="-27.003353" lon="-48.63043"><ele>16</ele></trkpt><trkpt lat="-27.003353" lon="-48.630427"><ele>15.7</ele></trkpt><trkpt lat="-27.003352" lon="-48.630423"><ele>15.3</ele></trkpt><trkpt lat="-27.00335" lon="-48.630422"><ele>15</ele></trkpt><trkpt lat="-27.003348" lon="-48.63042"><ele>14.8</ele></trkpt><trkpt lat="-27.003348" lon="-48.63042"><ele>14.8</ele></trkpt><trkpt lat="-27.003348" lon="-48.63042"><ele>14.5</ele></trkpt><trkpt lat="-27.003345" lon="-48.630417"><ele>14.2</ele></trkpt><trkpt lat="-27.003345" lon="-48.630413"><ele>14</ele></trkpt><trkpt lat="-27.003343" lon="-48.630412"><ele>13.9</ele></trkpt><trkpt lat="-27.003343" lon="-48.630412"><ele>13.9</ele></trkpt><trkpt lat="-27.003342" lon="-48.630413"><ele>14</ele></trkpt><trkpt lat="-27.003342" lon="-48.630413"><ele>14</ele></trkpt><trkpt lat="-27.003338" lon="-48.630415"><ele>13.9</ele></trkpt><trkpt lat="-27.003338" lon="-48.630415"><ele>13.9</ele></trkpt><trkpt lat="-27.003338" lon="-48.630415"><ele>13.9</ele></trkpt><trkpt lat="-27.003338" lon="-48.630415"><ele>13.9</ele></trkpt><trkpt lat="-27.003338" lon="-48.630415"><ele>13.9</ele></trkpt><trkpt lat="-27.003338" lon="-48.630415"><ele>13.9</ele></trkpt><trkpt lat="-27.003338" lon="-48.630415"><ele>13.9</ele></trkpt><trkpt lat="-27.003338" lon="-48.630415"><ele>13.9</ele></trkpt><trkpt lat="-27.003338" lon="-48.630415"><ele>13.9</ele></trkpt><trkpt lat="-27.003338" lon="-48.630415"><ele>13.9</ele></trkpt><trkpt lat="-27.003338" lon="-48.630415"><ele>13.9</ele></trkpt><trkpt lat="-27.003338" lon="-48.630415"><ele>13.9</ele></trkpt><trkpt lat="-27.003338" lon="-48.630415"><ele>13.9</ele></trkpt><trkpt lat="-27.003338" lon="-48.630415"><ele>13.9</ele></trkpt><trkpt lat="-27.003338" lon="-48.630415"><ele>13.9</ele></trkpt><trkpt lat="-27.003338" lon="-48.630415"><ele>13.9</ele></trkpt><trkpt lat="-27.003338" lon="-48.630415"><ele>13.9</ele></trkpt><trkpt lat="-27.003338" lon="-48.630415"><ele>13.9</ele></trkpt><trkpt lat="-27.003338" lon="-48.630415"><ele>13.9</ele></trkpt><trkpt lat="-27.003338" lon="-48.630415"><ele>13.9</ele></trkpt><trkpt lat="-27.003338" lon="-48.630415"><ele>13.9</ele></trkpt><trkpt lat="-27.003338" lon="-48.630415"><ele>13.9</ele></trkpt><trkpt lat="-27.003338" lon="-48.630415"><ele>13.9</ele></trkpt><trkpt lat="-27.003338" lon="-48.630415"><ele>13.9</ele></trkpt><trkpt lat="-27.003338" lon="-48.630415"><ele>13.9</ele></trkpt><trkpt lat="-27.003338" lon="-48.630415"><ele>13.9</ele></trkpt><trkpt lat="-27.003338" lon="-48.630415"><ele>13.9</ele></trkpt><trkpt lat="-27.003338" lon="-48.630415"><ele>13.9</ele></trkpt><trkpt lat="-27.003338" lon="-48.630415"><ele>13.9</ele></trkpt><trkpt lat="-27.003338" lon="-48.630415"><ele>13.9</ele></trkpt><trkpt lat="-27.003338" lon="-48.630415"><ele>13.9</ele></trkpt><trkpt lat="-27.003338" lon="-48.630415"><ele>13.9</ele></trkpt><trkpt lat="-27.003338" lon="-48.630415"><ele>13.9</ele></trkpt><trkpt lat="-27.003338" lon="-48.630415"><ele>13.9</ele></trkpt><trkpt lat="-27.003338" lon="-48.630415"><ele>13.9</ele></trkpt><trkpt lat="-27.003338" lon="-48.630415"><ele>13.9</ele></trkpt><trkpt lat="-27.003338" lon="-48.630415"><ele>13.9</ele></trkpt><trkpt lat="-27.003338" lon="-48.630415"><ele>13.9</ele></trkpt><trkpt lat="-27.003338" lon="-48.630415"><ele>13.9</ele></trkpt><trkpt lat="-27.003338" lon="-48.630415"><ele>13.9</ele></trkpt><trkpt lat="-27.003338" lon="-48.630415"><ele>13.9</ele></trkpt><trkpt lat="-27.003338" lon="-48.630415"><ele>13.9</ele></trkpt><trkpt lat="-27.003338" lon="-48.630415"><ele>13.9</ele></trkpt><trkpt lat="-27.003338" lon="-48.630415"><ele>13.9</ele></trkpt><trkpt lat="-27.003338" lon="-48.630415"><ele>13.9</ele></trkpt><trkpt lat="-27.003338" lon="-48.630415"><ele>13.9</ele></trkpt><trkpt lat="-27.003338" lon="-48.630415"><ele>13.9</ele></trkpt><trkpt lat="-27.003338" lon="-48.630415"><ele>13.9</ele></trkpt><trkpt lat="-27.003338" lon="-48.630415"><ele>13.9</ele></trkpt><trkpt lat="-27.003338" lon="-48.630415"><ele>13.9</ele></trkpt><trkpt lat="-27.003338" lon="-48.630415"><ele>13.9</ele></trkpt><trkpt lat="-27.003338" lon="-48.630415"><ele>13.9</ele></trkpt><trkpt lat="-27.003338" lon="-48.630415"><ele>13.9</ele></trkpt><trkpt lat="-27.003338" lon="-48.630415"><ele>13.9</ele></trkpt><trkpt lat="-27.003338" lon="-48.630415"><ele>13.9</ele></trkpt><trkpt lat="-27.003338" lon="-48.630415"><ele>13.9</ele></trkpt><trkpt lat="-27.003338" lon="-48.630415"><ele>13.9</ele></trkpt><trkpt lat="-27.003338" lon="-48.630415"><ele>13.9</ele></trkpt><trkpt lat="-27.003338" lon="-48.630415"><ele>13.9</ele></trkpt><trkpt lat="-27.003338" lon="-48.630415"><ele>13.9</ele></trkpt><trkpt lat="-27.003338" lon="-48.630415"><ele>13.9</ele></trkpt><trkpt lat="-27.003338" lon="-48.630415"><ele>13.9</ele></trkpt><trkpt lat="-27.003338" lon="-48.630415"><ele>13.9</ele></trkpt><trkpt lat="-27.003338" lon="-48.630415"><ele>13.9</ele></trkpt><trkpt lat="-27.003338" lon="-48.630415"><ele>13.9</ele></trkpt><trkpt lat="-27.003338" lon="-48.630415"><ele>13.9</ele></trkpt><trkpt lat="-27.003338" lon="-48.630415"><ele>13.9</ele></trkpt><trkpt lat="-27.003338" lon="-48.630415"><ele>13.9</ele></trkpt><trkpt lat="-27.003338" lon="-48.630415"><ele>13.9</ele></trkpt><trkpt lat="-27.003338" lon="-48.630415"><ele>13.9</ele></trkpt><trkpt lat="-27.003338" lon="-48.630415"><ele>13.9</ele></trkpt><trkpt lat="-27.003338" lon="-48.630415"><ele>13.9</ele></trkpt><trkpt lat="-27.003338" lon="-48.630415"><ele>13.9</ele></trkpt><trkpt lat="-27.003338" lon="-48.630415"><ele>13.9</ele></trkpt><trkpt lat="-27.003338" lon="-48.630415"><ele>13.9</ele></trkpt><trkpt lat="-27.003338" lon="-48.630415"><ele>13.9</ele></trkpt><trkpt lat="-27.003338" lon="-48.630415"><ele>13.9</ele></trkpt><trkpt lat="-27.003338" lon="-48.630415"><ele>13.9</ele></trkpt><trkpt lat="-27.003338" lon="-48.630415"><ele>13.9</ele></trkpt><trkpt lat="-27.003338" lon="-48.630415"><ele>13.9</ele></trkpt><trkpt lat="-27.003338" lon="-48.630415"><ele>13.9</ele></trkpt><trkpt lat="-27.003338" lon="-48.630415"><ele>13.9</ele></trkpt><trkpt lat="-27.003338" lon="-48.630415"><ele>13.9</ele></trkpt><trkpt lat="-27.003338" lon="-48.630415"><ele>13.9</ele></trkpt><trkpt lat="-27.003338" lon="-48.630415"><ele>13.9</ele></trkpt><trkpt lat="-27.003338" lon="-48.630415"><ele>13.9</ele></trkpt><trkpt lat="-27.003338" lon="-48.630415"><ele>13.9</ele></trkpt><trkpt lat="-27.003338" lon="-48.630415"><ele>13.9</ele></trkpt><trkpt lat="-27.003338" lon="-48.630415"><ele>13.9</ele></trkpt><trkpt lat="-27.003338" lon="-48.630415"><ele>13.9</ele></trkpt><trkpt lat="-27.003338" lon="-48.630415"><ele>13.9</ele></trkpt><trkpt lat="-27.003338" lon="-48.630415"><ele>13.9</ele></trkpt><trkpt lat="-27.003338" lon="-48.630415"><ele>13.9</ele></trkpt><trkpt lat="-27.003338" lon="-48.630415"><ele>13.9</ele></trkpt><trkpt lat="-27.003338" lon="-48.630415"><ele>13.9</ele></trkpt><trkpt lat="-27.003338" lon="-48.630415"><ele>13.9</ele></trkpt><trkpt lat="-27.003338" lon="-48.630415"><ele>13.9</ele></trkpt><trkpt lat="-27.003338" lon="-48.630415"><ele>13.9</ele></trkpt><trkpt lat="-27.003338" lon="-48.630415"><ele>13.9</ele></trkpt><trkpt lat="-27.003338" lon="-48.630415"><ele>13.9</ele></trkpt><trkpt lat="-27.003338" lon="-48.630415"><ele>13.9</ele></trkpt><trkpt lat="-27.003338" lon="-48.630415"><ele>13.9</ele></trkpt><trkpt lat="-27.003338" lon="-48.630415"><ele>13.9</ele></trkpt><trkpt lat="-27.003338" lon="-48.630415"><ele>13.9</ele></trkpt><trkpt lat="-27.003338" lon="-48.630415"><ele>13.9</ele></trkpt><trkpt lat="-27.003338" lon="-48.630415"><ele>13.9</ele></trkpt><trkpt lat="-27.003338" lon="-48.630415"><ele>13.9</ele></trkpt><trkpt lat="-27.003338" lon="-48.630415"><ele>13.9</ele></trkpt><trkpt lat="-27.003338" lon="-48.630415"><ele>13.9</ele></trkpt><trkpt lat="-27.003338" lon="-48.630415"><ele>13.9</ele></trkpt><trkpt lat="-27.003338" lon="-48.630415"><ele>13.9</ele></trkpt><trkpt lat="-27.003338" lon="-48.630415"><ele>13.9</ele></trkpt><trkpt lat="-27.003338" lon="-48.630415"><ele>13.9</ele></trkpt><trkpt lat="-27.003338" lon="-48.630415"><ele>13.9</ele></trkpt><trkpt lat="-27.003338" lon="-48.630415"><ele>13.9</ele></trkpt><trkpt lat="-27.003338" lon="-48.630415"><ele>13.9</ele></trkpt><trkpt lat="-27.003338" lon="-48.630415"><ele>13.9</ele></trkpt><trkpt lat="-27.003338" lon="-48.630415"><ele>13.9</ele></trkpt><trkpt lat="-27.003338" lon="-48.630432"><ele>23</ele></trkpt><trkpt lat="-27.003337" lon="-48.630437"><ele>22.7</ele></trkpt><trkpt lat="-27.00334" lon="-48.63044"><ele>22.4</ele></trkpt><trkpt lat="-27.003342" lon="-48.630442"><ele>22.1</ele></trkpt><trkpt lat="-27.003348" lon="-48.630438"><ele>21.7</ele></trkpt><trkpt lat="-27.003348" lon="-48.630438"><ele>21.7</ele></trkpt><trkpt lat="-27.003348" lon="-48.630438"><ele>21.7</ele></trkpt><trkpt lat="-27.003348" lon="-48.630438"><ele>21.7</ele></trkpt><trkpt lat="-27.003348" lon="-48.630438"><ele>21.7</ele></trkpt><trkpt lat="-27.003348" lon="-48.630438"><ele>21.7</ele></trkpt><trkpt lat="-27.003348" lon="-48.630438"><ele>21.7</ele></trkpt><trkpt lat="-27.003348" lon="-48.630438"><ele>21.7</ele></trkpt><trkpt lat="-27.003348" lon="-48.630438"><ele>21.7</ele></trkpt><trkpt lat="-27.003348" lon="-48.630438"><ele>21.7</ele></trkpt><trkpt lat="-27.003348" lon="-48.630438"><ele>21.7</ele></trkpt><trkpt lat="-27.003348" lon="-48.630438"><ele>21.7</ele></trkpt><trkpt lat="-27.003348" lon="-48.630438"><ele>21.7</ele></trkpt><trkpt lat="-27.003348" lon="-48.630438"><ele>21.7</ele></trkpt><trkpt lat="-27.003348" lon="-48.630438"><ele>21.7</ele></trkpt><trkpt lat="-27.003348" lon="-48.630438"><ele>21.7</ele></trkpt><trkpt lat="-27.003348" lon="-48.630438"><ele>21.7</ele></trkpt><trkpt lat="-27.003348" lon="-48.630438"><ele>21.7</ele></trkpt><trkpt lat="-27.003348" lon="-48.630438"><ele>21.7</ele></trkpt><trkpt lat="-27.003348" lon="-48.630438"><ele>21.7</ele></trkpt><trkpt lat="-27.003348" lon="-48.630438"><ele>21.7</ele></trkpt><trkpt lat="-27.003348" lon="-48.630438"><ele>21.7</ele></trkpt><trkpt lat="-27.003348" lon="-48.630438"><ele>21.7</ele></trkpt><trkpt lat="-27.003348" lon="-48.630438"><ele>21.7</ele></trkpt><trkpt lat="-27.003348" lon="-48.630438"><ele>21.7</ele></trkpt><trkpt lat="-27.003348" lon="-48.630438"><ele>21.7</ele></trkpt><trkpt lat="-27.003348" lon="-48.630438"><ele>21.7</ele></trkpt><trkpt lat="-27.003348" lon="-48.630438"><ele>21.7</ele></trkpt><trkpt lat="-27.003348" lon="-48.630438"><ele>21.7</ele></trkpt><trkpt lat="-27.003348" lon="-48.630438"><ele>21.7</ele></trkpt><trkpt lat="-27.003348" lon="-48.630438"><ele>21.7</ele></trkpt><trkpt lat="-27.003348" lon="-48.630438"><ele>21.7</ele></trkpt><trkpt lat="-27.003348" lon="-48.630438"><ele>21.7</ele></trkpt><trkpt lat="-27.003348" lon="-48.630438"><ele>21.7</ele></trkpt><trkpt lat="-27.003348" lon="-48.630438"><ele>21.7</ele></trkpt><trkpt lat="-27.003348" lon="-48.630438"><ele>21.7</ele></trkpt><trkpt lat="-27.003348" lon="-48.630438"><ele>21.7</ele></trkpt><trkpt lat="-27.003348" lon="-48.630438"><ele>21.7</ele></trkpt><trkpt lat="-27.003348" lon="-48.630438"><ele>21.7</ele></trkpt><trkpt lat="-27.003348" lon="-48.630438"><ele>21.7</ele></trkpt><trkpt lat="-27.003348" lon="-48.630438"><ele>21.7</ele></trkpt><trkpt lat="-27.003348" lon="-48.630438"><ele>21.7</ele></trkpt><trkpt lat="-27.003348" lon="-48.630438"><ele>21.7</ele></trkpt><trkpt lat="-27.003348" lon="-48.630438"><ele>21.7</ele></trkpt><trkpt lat="-27.003348" lon="-48.630438"><ele>21.7</ele></trkpt><trkpt lat="-27.003348" lon="-48.630438"><ele>21.7</ele></trkpt><trkpt lat="-27.003348" lon="-48.630438"><ele>21.7</ele></trkpt><trkpt lat="-27.003348" lon="-48.630438"><ele>21.7</ele></trkpt><trkpt lat="-27.003348" lon="-48.630438"><ele>21.7</ele></trkpt><trkpt lat="-27.003348" lon="-48.630438"><ele>21.7</ele></trkpt><trkpt lat="-27.003348" lon="-48.630438"><ele>21.7</ele></trkpt><trkpt lat="-27.003348" lon="-48.630438"><ele>21.7</ele></trkpt><trkpt lat="-27.003348" lon="-48.630438"><ele>21.7</ele></trkpt><trkpt lat="-27.003348" lon="-48.630438"><ele>21.7</ele></trkpt><trkpt lat="-27.003348" lon="-48.630438"><ele>21.7</ele></trkpt><trkpt lat="-27.003348" lon="-48.630438"><ele>21.7</ele></trkpt><trkpt lat="-27.003348" lon="-48.630438"><ele>21.7</ele></trkpt><trkpt lat="-27.003348" lon="-48.630438"><ele>21.7</ele></trkpt><trkpt lat="-27.003348" lon="-48.630438"><ele>21.7</ele></trkpt><trkpt lat="-27.003348" lon="-48.630438"><ele>21.7</ele></trkpt><trkpt lat="-27.003348" lon="-48.630438"><ele>21.7</ele></trkpt><trkpt lat="-27.003348" lon="-48.630438"><ele>21.7</ele></trkpt><trkpt lat="-27.003348" lon="-48.630438"><ele>21.7</ele></trkpt><trkpt lat="-27.003348" lon="-48.630438"><ele>21.7</ele></trkpt><trkpt lat="-27.003348" lon="-48.630438"><ele>21.7</ele></trkpt><trkpt lat="-27.003348" lon="-48.630438"><ele>21.7</ele></trkpt><trkpt lat="-27.003348" lon="-48.630438"><ele>21.7</ele></trkpt><trkpt lat="-27.003348" lon="-48.630438"><ele>21.7</ele></trkpt><trkpt lat="-27.003348" lon="-48.630438"><ele>21.7</ele></trkpt><trkpt lat="-27.003348" lon="-48.630438"><ele>21.7</ele></trkpt><trkpt lat="-27.003348" lon="-48.630438"><ele>21.7</ele></trkpt><trkpt lat="-27.003348" lon="-48.630438"><ele>21.7</ele></trkpt><trkpt lat="-27.003348" lon="-48.630438"><ele>21.7</ele></trkpt><trkpt lat="-27.003348" lon="-48.630438"><ele>21.7</ele></trkpt><trkpt lat="-27.003348" lon="-48.630438"><ele>21.7</ele></trkpt><trkpt lat="-27.003348" lon="-48.630438"><ele>21.7</ele></trkpt><trkpt lat="-27.003348" lon="-48.630438"><ele>21.7</ele></trkpt><trkpt lat="-27.003348" lon="-48.630438"><ele>21.7</ele></trkpt><trkpt lat="-27.003348" lon="-48.630438"><ele>21.7</ele></trkpt><trkpt lat="-27.003348" lon="-48.630438"><ele>21.7</ele></trkpt><trkpt lat="-27.003348" lon="-48.630438"><ele>21.7</ele></trkpt><trkpt lat="-27.003348" lon="-48.630438"><ele>21.7</ele></trkpt><trkpt lat="-27.003345" lon="-48.630435"><ele>6.2</ele></trkpt><trkpt lat="-27.003348" lon="-48.63043"><ele>5.9</ele></trkpt><trkpt lat="-27.003352" lon="-48.630427"><ele>5.9</ele></trkpt><trkpt lat="-27.003355" lon="-48.630423"><ele>5.8</ele></trkpt><trkpt lat="-27.003355" lon="-48.630422"><ele>5.7</ele></trkpt><trkpt lat="-27.003357" lon="-48.630423"><ele>5.7</ele></trkpt><trkpt lat="-27.003357" lon="-48.630423"><ele>5.5</ele></trkpt><trkpt lat="-27.003357" lon="-48.630423"><ele>5.5</ele></trkpt><trkpt lat="-27.003357" lon="-48.630423"><ele>5.5</ele></trkpt><trkpt lat="-27.003357" lon="-48.630423"><ele>5.5</ele></trkpt><trkpt lat="-27.003357" lon="-48.630423"><ele>5.5</ele></trkpt><trkpt lat="-27.003357" lon="-48.630423"><ele>5.5</ele></trkpt><trkpt lat="-27.003357" lon="-48.630423"><ele>5.5</ele></trkpt><trkpt lat="-27.003357" lon="-48.630423"><ele>5.5</ele></trkpt><trkpt lat="-27.003357" lon="-48.630423"><ele>5.5</ele></trkpt><trkpt lat="-27.003357" lon="-48.630423"><ele>5.5</ele></trkpt><trkpt lat="-27.003357" lon="-48.630423"><ele>5.5</ele></trkpt><trkpt lat="-27.003357" lon="-48.630423"><ele>5.5</ele></trkpt><trkpt lat="-27.003357" lon="-48.630423"><ele>5.5</ele></trkpt><trkpt lat="-27.003357" lon="-48.630423"><ele>5.5</ele></trkpt><trkpt lat="-27.003357" lon="-48.630423"><ele>5.5</ele></trkpt><trkpt lat="-27.003357" lon="-48.630423"><ele>5.5</ele></trkpt><trkpt lat="-27.003353" lon="-48.630458"><ele>6.6</ele></trkpt><trkpt lat="-27.003365" lon="-48.630468"><ele>6.8</ele></trkpt><trkpt lat="-27.003372" lon="-48.630473"><ele>6.6</ele></trkpt><trkpt lat="-27.00338" lon="-48.630477"><ele>6.1</ele></trkpt><trkpt lat="-27.003388" lon="-48.63048"><ele>5.8</ele></trkpt><trkpt lat="-27.003397" lon="-48.630482"><ele>5.7</ele></trkpt><trkpt lat="-27.003403" lon="-48.630485"><ele>5.7</ele></trkpt><trkpt lat="-27.003417" lon="-48.630493"><ele>5.2</ele></trkpt><trkpt lat="-27.003425" lon="-48.630498"><ele>4.7</ele></trkpt><trkpt lat="-27.003432" lon="-48.630497"><ele>4.3</ele></trkpt><trkpt lat="-27.003442" lon="-48.630497"><ele>3.7</ele></trkpt><trkpt lat="-27.00345" lon="-48.630497"><ele>3.1</ele></trkpt><trkpt lat="-27.003465" lon="-48.630488"><ele>2.9</ele></trkpt><trkpt lat="-27.003472" lon="-48.630483"><ele>3.5</ele></trkpt><trkpt lat="-27.003475" lon="-48.63048"><ele>3.6</ele></trkpt><trkpt lat="-27.003477" lon="-48.63048"><ele>3.5</ele></trkpt><trkpt lat="-27.00348" lon="-48.630478"><ele>3.6</ele></trkpt><trkpt lat="-27.00348" lon="-48.63048"><ele>3.6</ele></trkpt><trkpt lat="-27.00348" lon="-48.630483"><ele>3.4</ele></trkpt><trkpt lat="-27.00348" lon="-48.630483"><ele>3.4</ele></trkpt><trkpt lat="-27.003478" lon="-48.630485"><ele>3.5</ele></trkpt><trkpt lat="-27.00347" lon="-48.630492"><ele>3.2</ele></trkpt><trkpt lat="-27.003462" lon="-48.630495"><ele>3.4</ele></trkpt><trkpt lat="-27.003453" lon="-48.630495"><ele>3.1</ele></trkpt><trkpt lat="-27.003448" lon="-48.630495"><ele>3.6</ele></trkpt><trkpt lat="-27.003443" lon="-48.630495"><ele>3.7</ele></trkpt><trkpt lat="-27.00344" lon="-48.630493"><ele>4</ele></trkpt><trkpt lat="-27.003437" lon="-48.630495"><ele>4.1</ele></trkpt><trkpt lat="-27.003435" lon="-48.630493"><ele>4.1</ele></trkpt><trkpt lat="-27.003433" lon="-48.630495"><ele>4.1</ele></trkpt><trkpt lat="-27.003432" lon="-48.630493"><ele>4.2</ele></trkpt><trkpt lat="-27.00343" lon="-48.63049"><ele>4.1</ele></trkpt><trkpt lat="-27.003428" lon="-48.630483"><ele>4</ele></trkpt><trkpt lat="-27.003422" lon="-48.630478"><ele>3.9</ele></trkpt><trkpt lat="-27.003418" lon="-48.630467"><ele>3.9</ele></trkpt><trkpt lat="-27.003417" lon="-48.630463"><ele>3.9</ele></trkpt><trkpt lat="-27.003412" lon="-48.630462"><ele>3.7</ele></trkpt><trkpt lat="-27.003407" lon="-48.630462"><ele>3.4</ele></trkpt><trkpt lat="-27.003403" lon="-48.630462"><ele>3.1</ele></trkpt><trkpt lat="-27.003398" lon="-48.630463"><ele>3</ele></trkpt><trkpt lat="-27.003395" lon="-48.630465"><ele>2.9</ele></trkpt><trkpt lat="-27.003395" lon="-48.630465"><ele>2.7</ele></trkpt><trkpt lat="-27.003395" lon="-48.630465"><ele>2.7</ele></trkpt><trkpt lat="-27.00339" lon="-48.630462"><ele>2.4</ele></trkpt><trkpt lat="-27.003383" lon="-48.630458"><ele>2.3</ele></trkpt><trkpt lat="-27.003378" lon="-48.630457"><ele>2.4</ele></trkpt><trkpt lat="-27.003377" lon="-48.630455"><ele>2.3</ele></trkpt><trkpt lat="-27.003377" lon="-48.630455"><ele>2.2</ele></trkpt><trkpt lat="-27.003375" lon="-48.630455"><ele>2</ele></trkpt><trkpt lat="-27.003375" lon="-48.630455"><ele>2</ele></trkpt><trkpt lat="-27.003375" lon="-48.630455"><ele>1.8</ele></trkpt><trkpt lat="-27.003377" lon="-48.630455"><ele>1.8</ele></trkpt><trkpt lat="-27.003378" lon="-48.630457"><ele>1.9</ele></trkpt><trkpt lat="-27.003378" lon="-48.630457"><ele>1.9</ele></trkpt><trkpt lat="-27.003383" lon="-48.630453"><ele>2</ele></trkpt><trkpt lat="-27.003387" lon="-48.630445"><ele>2.1</ele></trkpt><trkpt lat="-27.003382" lon="-48.630437"><ele>2.1</ele></trkpt><trkpt lat="-27.003377" lon="-48.630425"><ele>2</ele></trkpt><trkpt lat="-27.003372" lon="-48.630413"><ele>1.9</ele></trkpt><trkpt lat="-27.003368" lon="-48.630402"><ele>1.9</ele></trkpt><trkpt lat="-27.003368" lon="-48.630397"><ele>2.2</ele></trkpt><trkpt lat="-27.003367" lon="-48.630397"><ele>2.5</ele></trkpt><trkpt lat="-27.003367" lon="-48.630397"><ele>2.5</ele></trkpt><trkpt lat="-27.003368" lon="-48.630397"><ele>2.7</ele></trkpt><trkpt lat="-27.003367" lon="-48.630403"><ele>2.7</ele></trkpt><trkpt lat="-27.003367" lon="-48.630413"><ele>2.9</ele></trkpt><trkpt lat="-27.00337" lon="-48.630422"><ele>3</ele></trkpt><trkpt lat="-27.003373" lon="-48.630427"><ele>3</ele></trkpt><trkpt lat="-27.003373" lon="-48.630428"><ele>3</ele></trkpt><trkpt lat="-27.00337" lon="-48.630432"><ele>3</ele></trkpt><trkpt lat="-27.00337" lon="-48.63043"><ele>3</ele></trkpt><trkpt lat="-27.003368" lon="-48.630433"><ele>2.9</ele></trkpt><trkpt lat="-27.003362" lon="-48.630435"><ele>2.8</ele></trkpt><trkpt lat="-27.003355" lon="-48.630432"><ele>2.7</ele></trkpt><trkpt lat="-27.00335" lon="-48.630428"><ele>2.5</ele></trkpt><trkpt lat="-27.003342" lon="-48.630427"><ele>2.5</ele></trkpt><trkpt lat="-27.003328" lon="-48.63042"><ele>2.4</ele></trkpt><trkpt lat="-27.003315" lon="-48.630415"><ele>2.3</ele></trkpt><trkpt lat="-27.003302" lon="-48.630408"><ele>2.4</ele></trkpt><trkpt lat="-27.003287" lon="-48.630403"><ele>2.6</ele></trkpt><trkpt lat="-27.003275" lon="-48.630403"><ele>2.5</ele></trkpt><trkpt lat="-27.003265" lon="-48.630402"><ele>2.3</ele></trkpt><trkpt lat="-27.003253" lon="-48.630397"><ele>2.4</ele></trkpt><trkpt lat="-27.003242" lon="-48.630392"><ele>2.4</ele></trkpt><trkpt lat="-27.003227" lon="-48.630387"><ele>2.4</ele></trkpt><trkpt lat="-27.003215" lon="-48.630382"><ele>2.4</ele></trkpt><trkpt lat="-27.003203" lon="-48.630378"><ele>2.5</ele></trkpt><trkpt lat="-27.003192" lon="-48.630377"><ele>2.9</ele></trkpt><trkpt lat="-27.003183" lon="-48.630373"><ele>3.1</ele></trkpt><trkpt lat="-27.003178" lon="-48.63037"><ele>3.4</ele></trkpt><trkpt lat="-27.003178" lon="-48.630368"><ele>3.5</ele></trkpt><trkpt lat="-27.003178" lon="-48.630365"><ele>3.5</ele></trkpt><trkpt lat="-27.003183" lon="-48.630362"><ele>3.3</ele></trkpt><trkpt lat="-27.003192" lon="-48.630358"><ele>3.5</ele></trkpt><trkpt lat="-27.003202" lon="-48.630355"><ele>4.1</ele></trkpt><trkpt lat="-27.003207" lon="-48.630352"><ele>4.5</ele></trkpt><trkpt lat="-27.00321" lon="-48.630345"><ele>5.1</ele></trkpt><trkpt lat="-27.003215" lon="-48.630345"><ele>5.5</ele></trkpt><trkpt lat="-27.003217" lon="-48.630347"><ele>5.6</ele></trkpt><trkpt lat="-27.003217" lon="-48.630347"><ele>5.6</ele></trkpt><trkpt lat="-27.003217" lon="-48.630347"><ele>5.7</ele></trkpt><trkpt lat="-27.003222" lon="-48.630347"><ele>5.8</ele></trkpt><trkpt lat="-27.003227" lon="-48.630355"><ele>5.8</ele></trkpt><trkpt lat="-27.00321" lon="-48.630365"><ele>5.8</ele></trkpt><trkpt lat="-27.003208" lon="-48.63037"><ele>5.6</ele></trkpt><trkpt lat="-27.003207" lon="-48.630377"><ele>5.4</ele></trkpt><trkpt lat="-27.003203" lon="-48.63038"><ele>5</ele></trkpt><trkpt lat="-27.003203" lon="-48.63038"><ele>5</ele></trkpt><trkpt lat="-27.003203" lon="-48.63038"><ele>5</ele></trkpt><trkpt lat="-27.003203" lon="-48.63038"><ele>5</ele></trkpt><trkpt lat="-27.003203" lon="-48.63038"><ele>5</ele></trkpt><trkpt lat="-27.003208" lon="-48.630375"><ele>4.6</ele></trkpt><trkpt lat="-27.00321" lon="-48.630367"><ele>4.5</ele></trkpt><trkpt lat="-27.003208" lon="-48.630363"><ele>4.5</ele></trkpt><trkpt lat="-27.003207" lon="-48.630362"><ele>4.5</ele></trkpt><trkpt lat="-27.003205" lon="-48.63036"><ele>4.4</ele></trkpt><trkpt lat="-27.003205" lon="-48.63036"><ele>4.4</ele></trkpt><trkpt lat="-27.003205" lon="-48.63036"><ele>4.4</ele></trkpt><trkpt lat="-27.003205" lon="-48.63036"><ele>4.4</ele></trkpt><trkpt lat="-27.003205" lon="-48.63036"><ele>4.4</ele></trkpt><trkpt lat="-27.003205" lon="-48.63036"><ele>4.4</ele></trkpt><trkpt lat="-27.003205" lon="-48.63036"><ele>4.4</ele></trkpt><trkpt lat="-27.003205" lon="-48.63036"><ele>4.4</ele></trkpt><trkpt lat="-27.003205" lon="-48.63036"><ele>4.4</ele></trkpt><trkpt lat="-27.003205" lon="-48.63036"><ele>4.4</ele></trkpt><trkpt lat="-27.003205" lon="-48.63036"><ele>4.4</ele></trkpt><trkpt lat="-27.003205" lon="-48.63036"><ele>4.4</ele></trkpt><trkpt lat="-27.003205" lon="-48.63036"><ele>4.4</ele></trkpt><trkpt lat="-27.003205" lon="-48.63036"><ele>4.4</ele></trkpt><trkpt lat="-27.003205" lon="-48.63036"><ele>4.4</ele></trkpt><trkpt lat="-27.003205" lon="-48.63036"><ele>4.4</ele></trkpt><trkpt lat="-27.003205" lon="-48.63036"><ele>4.4</ele></trkpt><trkpt lat="-27.003205" lon="-48.63036"><ele>4.4</ele></trkpt><trkpt lat="-27.003205" lon="-48.63036"><ele>4.4</ele></trkpt><trkpt lat="-27.003205" lon="-48.63036"><ele>4.4</ele></trkpt><trkpt lat="-27.003205" lon="-48.63036"><ele>4.4</ele></trkpt><trkpt lat="-27.003205" lon="-48.63036"><ele>4.4</ele></trkpt><trkpt lat="-27.003205" lon="-48.63036"><ele>4.4</ele></trkpt><trkpt lat="-27.003205" lon="-48.63036"><ele>4.4</ele></trkpt><trkpt lat="-27.003205" lon="-48.63036"><ele>4.4</ele></trkpt><trkpt lat="-27.003205" lon="-48.63036"><ele>4.4</ele></trkpt><trkpt lat="-27.003205" lon="-48.63036"><ele>4.4</ele></trkpt><trkpt lat="-27.003205" lon="-48.63036"><ele>4.4</ele></trkpt><trkpt lat="-27.003205" lon="-48.63036"><ele>4.4</ele></trkpt><trkpt lat="-27.003205" lon="-48.63036"><ele>4.4</ele></trkpt><trkpt lat="-27.003205" lon="-48.63036"><ele>4.4</ele></trkpt><trkpt lat="-27.003205" lon="-48.63036"><ele>4.4</ele></trkpt><trkpt lat="-27.003205" lon="-48.63036"><ele>4.4</ele></trkpt><trkpt lat="-27.003205" lon="-48.63036"><ele>4.4</ele></trkpt><trkpt lat="-27.003205" lon="-48.63036"><ele>4.4</ele></trkpt><trkpt lat="-27.003205" lon="-48.63036"><ele>4.4</ele></trkpt><trkpt lat="-27.003205" lon="-48.63036"><ele>4.4</ele></trkpt><trkpt lat="-27.003205" lon="-48.63036"><ele>4.4</ele></trkpt><trkpt lat="-27.003205" lon="-48.63036"><ele>4.4</ele></trkpt><trkpt lat="-27.003205" lon="-48.63036"><ele>4.4</ele></trkpt><trkpt lat="-27.003205" lon="-48.63036"><ele>4.4</ele></trkpt><trkpt lat="-27.003205" lon="-48.63036"><ele>4.4</ele></trkpt><trkpt lat="-27.003205" lon="-48.63036"><ele>4.4</ele></trkpt><trkpt lat="-27.003205" lon="-48.63036"><ele>4.4</ele></trkpt><trkpt lat="-27.00323" lon="-48.630328"><ele>5.2</ele></trkpt><trkpt lat="-27.003242" lon="-48.630322"><ele>5.3</ele></trkpt><trkpt lat="-27.003257" lon="-48.630312"><ele>5.4</ele></trkpt><trkpt lat="-27.003265" lon="-48.630307"><ele>5.4</ele></trkpt><trkpt lat="-27.003238" lon="-48.630307"><ele>5.5</ele></trkpt><trkpt lat="-27.003233" lon="-48.630312"><ele>5.7</ele></trkpt><trkpt lat="-27.003223" lon="-48.630328"><ele>5.5</ele></trkpt><trkpt lat="-27.003218" lon="-48.630335"><ele>5.7</ele></trkpt><trkpt lat="-27.003212" lon="-48.630342"><ele>5.6</ele></trkpt><trkpt lat="-27.003213" lon="-48.630352"><ele>5.5</ele></trkpt><trkpt lat="-27.003207" lon="-48.630365"><ele>5.3</ele></trkpt><trkpt lat="-27.003205" lon="-48.630372"><ele>5.5</ele></trkpt><trkpt lat="-27.003212" lon="-48.630365"><ele>6.5</ele></trkpt><trkpt lat="-27.003212" lon="-48.630365"><ele>6.5</ele></trkpt><trkpt lat="-27.003217" lon="-48.630367"><ele>6.8</ele></trkpt><trkpt lat="-27.003217" lon="-48.630367"><ele>6.8</ele></trkpt><trkpt lat="-27.003217" lon="-48.630372"><ele>7</ele></trkpt><trkpt lat="-27.003217" lon="-48.630372"><ele>7</ele></trkpt><trkpt lat="-27.003217" lon="-48.630372"><ele>7</ele></trkpt><trkpt lat="-27.003217" lon="-48.630372"><ele>7</ele></trkpt><trkpt lat="-27.003217" lon="-48.630372"><ele>7</ele></trkpt><trkpt lat="-27.003217" lon="-48.630372"><ele>7</ele></trkpt><trkpt lat="-27.003217" lon="-48.630372"><ele>7</ele></trkpt><trkpt lat="-27.003217" lon="-48.630372"><ele>7</ele></trkpt><trkpt lat="-27.003217" lon="-48.630372"><ele>7</ele></trkpt><trkpt lat="-27.003217" lon="-48.630372"><ele>7</ele></trkpt><trkpt lat="-27.003217" lon="-48.630372"><ele>7</ele></trkpt><trkpt lat="-27.003217" lon="-48.630372"><ele>7</ele></trkpt><trkpt lat="-27.003217" lon="-48.630372"><ele>7</ele></trkpt><trkpt lat="-27.003217" lon="-48.630372"><ele>7</ele></trkpt><trkpt lat="-27.003217" lon="-48.630372"><ele>7</ele></trkpt><trkpt lat="-27.003217" lon="-48.630372"><ele>7</ele></trkpt><trkpt lat="-27.003217" lon="-48.630372"><ele>7</ele></trkpt><trkpt lat="-27.003217" lon="-48.630372"><ele>7</ele></trkpt><trkpt lat="-27.003217" lon="-48.630372"><ele>7</ele></trkpt><trkpt lat="-27.003217" lon="-48.630372"><ele>7</ele></trkpt><trkpt lat="-27.003217" lon="-48.630372"><ele>7</ele></trkpt><trkpt lat="-27.003217" lon="-48.630372"><ele>7</ele></trkpt><trkpt lat="-27.003217" lon="-48.630372"><ele>7</ele></trkpt><trkpt lat="-27.003217" lon="-48.630372"><ele>7</ele></trkpt><trkpt lat="-27.003217" lon="-48.630372"><ele>7</ele></trkpt><trkpt lat="-27.003217" lon="-48.630372"><ele>7</ele></trkpt><trkpt lat="-27.003217" lon="-48.630372"><ele>7</ele></trkpt><trkpt lat="-27.003217" lon="-48.630372"><ele>7</ele></trkpt><trkpt lat="-27.003217" lon="-48.630372"><ele>7</ele></trkpt><trkpt lat="-27.003217" lon="-48.630372"><ele>7</ele></trkpt><trkpt lat="-27.003217" lon="-48.630372"><ele>7</ele></trkpt><trkpt lat="-27.003217" lon="-48.630372"><ele>7</ele></trkpt><trkpt lat="-27.003217" lon="-48.630372"><ele>7</ele></trkpt><trkpt lat="-27.003217" lon="-48.630372"><ele>7</ele></trkpt><trkpt lat="-27.003217" lon="-48.630372"><ele>7</ele></trkpt><trkpt lat="-27.003217" lon="-48.630372"><ele>7</ele></trkpt><trkpt lat="-27.003217" lon="-48.630372"><ele>7</ele></trkpt><trkpt lat="-27.003217" lon="-48.630372"><ele>7</ele></trkpt><trkpt lat="-27.003217" lon="-48.630372"><ele>7</ele></trkpt><trkpt lat="-27.003217" lon="-48.630372"><ele>7</ele></trkpt><trkpt lat="-27.003217" lon="-48.630372"><ele>7</ele></trkpt><trkpt lat="-27.003217" lon="-48.630372"><ele>7</ele></trkpt><trkpt lat="-27.003217" lon="-48.630372"><ele>7</ele></trkpt><trkpt lat="-27.003217" lon="-48.630372"><ele>7</ele></trkpt><trkpt lat="-27.003217" lon="-48.630372"><ele>7</ele></trkpt><trkpt lat="-27.003217" lon="-48.630372"><ele>7</ele></trkpt><trkpt lat="-27.003217" lon="-48.630372"><ele>7</ele></trkpt><trkpt lat="-27.003217" lon="-48.630372"><ele>7</ele></trkpt><trkpt lat="-27.003217" lon="-48.630372"><ele>7</ele></trkpt><trkpt lat="-27.003217" lon="-48.630372"><ele>7</ele></trkpt><trkpt lat="-27.003217" lon="-48.630372"><ele>7</ele></trkpt><trkpt lat="-27.003217" lon="-48.630372"><ele>7</ele></trkpt><trkpt lat="-27.003217" lon="-48.630372"><ele>7</ele></trkpt><trkpt lat="-27.003217" lon="-48.630372"><ele>7</ele></trkpt><trkpt lat="-27.003217" lon="-48.630372"><ele>7</ele></trkpt><trkpt lat="-27.003217" lon="-48.630372"><ele>7</ele></trkpt><trkpt lat="-27.003195" lon="-48.630365"><ele>7.9</ele></trkpt><trkpt lat="-27.003185" lon="-48.630363"><ele>7.9</ele></trkpt><trkpt lat="-27.003178" lon="-48.630363"><ele>7.9</ele></trkpt><trkpt lat="-27.003172" lon="-48.630357"><ele>8.1</ele></trkpt><trkpt lat="-27.003158" lon="-48.630355"><ele>7.9</ele></trkpt><trkpt lat="-27.003142" lon="-48.630352"><ele>7.5</ele></trkpt><trkpt lat="-27.003123" lon="-48.630352"><ele>7.1</ele></trkpt><trkpt lat="-27.003107" lon="-48.630352"><ele>6.7</ele></trkpt><trkpt lat="-27.003083" lon="-48.630353"><ele>6.3</ele></trkpt><trkpt lat="-27.00306" lon="-48.63035"><ele>6.4</ele></trkpt><trkpt lat="-27.003037" lon="-48.630345"><ele>6.1</ele></trkpt><trkpt lat="-27.00301" lon="-48.630342"><ele>5.8</ele></trkpt><trkpt lat="-27.002988" lon="-48.630342"><ele>5.8</ele></trkpt><trkpt lat="-27.002968" lon="-48.630342"><ele>5.8</ele></trkpt><trkpt lat="-27.002947" lon="-48.630337"><ele>5.9</ele></trkpt><trkpt lat="-27.002928" lon="-48.630325"><ele>5.9</ele></trkpt><trkpt lat="-27.002908" lon="-48.630313"><ele>6</ele></trkpt><trkpt lat="-27.002888" lon="-48.630307"><ele>6.1</ele></trkpt><trkpt lat="-27.002875" lon="-48.630297"><ele>6.1</ele></trkpt><trkpt lat="-27.00286" lon="-48.63029"><ele>6.4</ele></trkpt><trkpt lat="-27.00286" lon="-48.63029"><ele>6.4</ele></trkpt><trkpt lat="-27.002853" lon="-48.63028"><ele>6.5</ele></trkpt><trkpt lat="-27.002853" lon="-48.630277"><ele>6.7</ele></trkpt><trkpt lat="-27.00285" lon="-48.630277"><ele>6.7</ele></trkpt><trkpt lat="-27.002852" lon="-48.63028"><ele>6.7</ele></trkpt><trkpt lat="-27.002853" lon="-48.630283"><ele>6.8</ele></trkpt><trkpt lat="-27.002848" lon="-48.630285"><ele>6.9</ele></trkpt><trkpt lat="-27.002848" lon="-48.630285"><ele>6.9</ele></trkpt><trkpt lat="-27.002847" lon="-48.630285"><ele>7.1</ele></trkpt><trkpt lat="-27.002842" lon="-48.630278"><ele>7.6</ele></trkpt><trkpt lat="-27.002832" lon="-48.630275"><ele>8.1</ele></trkpt><trkpt lat="-27.00282" lon="-48.63027"><ele>8.4</ele></trkpt><trkpt lat="-27.002807" lon="-48.630265"><ele>8.5</ele></trkpt><trkpt lat="-27.002793" lon="-48.63026"><ele>8.5</ele></trkpt><trkpt lat="-27.002778" lon="-48.630257"><ele>8.6</ele></trkpt><trkpt lat="-27.002758" lon="-48.63026"><ele>8.5</ele></trkpt><trkpt lat="-27.00274" lon="-48.630262"><ele>8.7</ele></trkpt><trkpt lat="-27.002717" lon="-48.630257"><ele>8.8</ele></trkpt><trkpt lat="-27.002698" lon="-48.63025"><ele>9.2</ele></trkpt><trkpt lat="-27.002682" lon="-48.630243"><ele>9.6</ele></trkpt><trkpt lat="-27.002663" lon="-48.630242"><ele>9.6</ele></trkpt><trkpt lat="-27.00265" lon="-48.630232"><ele>9.6</ele></trkpt><trkpt lat="-27.002643" lon="-48.630227"><ele>9.8</ele></trkpt><trkpt lat="-27.002642" lon="-48.630223"><ele>10.2</ele></trkpt><trkpt lat="-27.002638" lon="-48.630218"><ele>10.9</ele></trkpt><trkpt lat="-27.002637" lon="-48.630218"><ele>11.4</ele></trkpt><trkpt lat="-27.002638" lon="-48.630213"><ele>11.7</ele></trkpt><trkpt lat="-27.002635" lon="-48.63021"><ele>12.1</ele></trkpt><trkpt lat="-27.00263" lon="-48.630208"><ele>12.2</ele></trkpt><trkpt lat="-27.002627" lon="-48.630208"><ele>12.4</ele></trkpt><trkpt lat="-27.002623" lon="-48.630207"><ele>12.3</ele></trkpt><trkpt lat="-27.002613" lon="-48.630208"><ele>12.3</ele></trkpt><trkpt lat="-27.002602" lon="-48.630205"><ele>12.5</ele></trkpt><trkpt lat="-27.002592" lon="-48.630208"><ele>12.5</ele></trkpt><trkpt lat="-27.002582" lon="-48.630213"><ele>12.2</ele></trkpt><trkpt lat="-27.002573" lon="-48.630213"><ele>12.4</ele></trkpt><trkpt lat="-27.002567" lon="-48.630213"><ele>12.5</ele></trkpt><trkpt lat="-27.002563" lon="-48.630213"><ele>12.6</ele></trkpt><trkpt lat="-27.002562" lon="-48.630215"><ele>12.3</ele></trkpt><trkpt lat="-27.002557" lon="-48.630213"><ele>12.4</ele></trkpt><trkpt lat="-27.00256" lon="-48.630218"><ele>12.3</ele></trkpt><trkpt lat="-27.002565" lon="-48.630222"><ele>12.4</ele></trkpt><trkpt lat="-27.00257" lon="-48.630225"><ele>12</ele></trkpt><trkpt lat="-27.002572" lon="-48.630228"><ele>11.7</ele></trkpt><trkpt lat="-27.002572" lon="-48.630228"><ele>11.3</ele></trkpt><trkpt lat="-27.00257" lon="-48.630233"><ele>11</ele></trkpt><trkpt lat="-27.00257" lon="-48.630233"><ele>11</ele></trkpt><trkpt lat="-27.00257" lon="-48.630233"><ele>10.7</ele></trkpt><trkpt lat="-27.00257" lon="-48.630235"><ele>10.5</ele></trkpt><trkpt lat="-27.002572" lon="-48.630237"><ele>10.4</ele></trkpt><trkpt lat="-27.002572" lon="-48.630237"><ele>10.4</ele></trkpt><trkpt lat="-27.002572" lon="-48.630237"><ele>10.4</ele></trkpt><trkpt lat="-27.002572" lon="-48.630237"><ele>10.4</ele></trkpt><trkpt lat="-27.002572" lon="-48.630237"><ele>10.4</ele></trkpt><trkpt lat="-27.002572" lon="-48.630237"><ele>10.4</ele></trkpt><trkpt lat="-27.002572" lon="-48.630237"><ele>10.4</ele></trkpt><trkpt lat="-27.002572" lon="-48.630237"><ele>10.4</ele></trkpt><trkpt lat="-27.002572" lon="-48.630237"><ele>10.4</ele></trkpt><trkpt lat="-27.002572" lon="-48.630237"><ele>10.4</ele></trkpt><trkpt lat="-27.002572" lon="-48.630237"><ele>10.4</ele></trkpt><trkpt lat="-27.002572" lon="-48.630237"><ele>10.4</ele></trkpt><trkpt lat="-27.002572" lon="-48.630237"><ele>10.4</ele></trkpt><trkpt lat="-27.002572" lon="-48.630237"><ele>10.4</ele></trkpt><trkpt lat="-27.002572" lon="-48.630237"><ele>10.4</ele></trkpt><trkpt lat="-27.002572" lon="-48.630237"><ele>10.4</ele></trkpt><trkpt lat="-27.002572" lon="-48.630237"><ele>10.4</ele></trkpt><trkpt lat="-27.002572" lon="-48.630237"><ele>10.4</ele></trkpt><trkpt lat="-27.002572" lon="-48.630237"><ele>10.4</ele></trkpt><trkpt lat="-27.002572" lon="-48.630237"><ele>10.4</ele></trkpt><trkpt lat="-27.002572" lon="-48.630237"><ele>10.4</ele></trkpt><trkpt lat="-27.002572" lon="-48.630237"><ele>10.4</ele></trkpt><trkpt lat="-27.002572" lon="-48.630237"><ele>10.4</ele></trkpt><trkpt lat="-27.002572" lon="-48.630237"><ele>10.4</ele></trkpt><trkpt lat="-27.002572" lon="-48.630237"><ele>10.4</ele></trkpt><trkpt lat="-27.002572" lon="-48.630237"><ele>10.4</ele></trkpt><trkpt lat="-27.002572" lon="-48.630237"><ele>10.4</ele></trkpt><trkpt lat="-27.002572" lon="-48.630237"><ele>10.4</ele></trkpt><trkpt lat="-27.002572" lon="-48.630237"><ele>10.4</ele></trkpt><trkpt lat="-27.002572" lon="-48.630237"><ele>10.4</ele></trkpt><trkpt lat="-27.002572" lon="-48.630237"><ele>10.4</ele></trkpt><trkpt lat="-27.002572" lon="-48.630237"><ele>10.4</ele></trkpt><trkpt lat="-27.002572" lon="-48.630237"><ele>10.4</ele></trkpt><trkpt lat="-27.002572" lon="-48.630237"><ele>10.4</ele></trkpt><trkpt lat="-27.002572" lon="-48.630237"><ele>10.4</ele></trkpt><trkpt lat="-27.002572" lon="-48.630237"><ele>10.4</ele></trkpt><trkpt lat="-27.002572" lon="-48.630237"><ele>10.4</ele></trkpt><trkpt lat="-27.002572" lon="-48.630237"><ele>10.4</ele></trkpt><trkpt lat="-27.002572" lon="-48.630237"><ele>10.4</ele></trkpt><trkpt lat="-27.002572" lon="-48.630237"><ele>10.4</ele></trkpt><trkpt lat="-27.002572" lon="-48.630237"><ele>10.4</ele></trkpt><trkpt lat="-27.002572" lon="-48.630237"><ele>10.4</ele></trkpt><trkpt lat="-27.002572" lon="-48.630237"><ele>10.4</ele></trkpt><trkpt lat="-27.002572" lon="-48.630237"><ele>10.4</ele></trkpt><trkpt lat="-27.002557" lon="-48.63024"><ele>18.1</ele></trkpt><trkpt lat="-27.002543" lon="-48.630232"><ele>17.7</ele></trkpt><trkpt lat="-27.002528" lon="-48.630232"><ele>17.4</ele></trkpt><trkpt lat="-27.002513" lon="-48.630223"><ele>16.9</ele></trkpt><trkpt lat="-27.002507" lon="-48.630213"><ele>17</ele></trkpt><trkpt lat="-27.002503" lon="-48.630208"><ele>17.2</ele></trkpt><trkpt lat="-27.002508" lon="-48.630215"><ele>17.6</ele></trkpt><trkpt lat="-27.002512" lon="-48.630213"><ele>17.8</ele></trkpt><trkpt lat="-27.00251" lon="-48.630213"><ele>17.8</ele></trkpt><trkpt lat="-27.002508" lon="-48.630213"><ele>17.8</ele></trkpt><trkpt lat="-27.002502" lon="-48.630213"><ele>18.1</ele></trkpt><trkpt lat="-27.002497" lon="-48.630217"><ele>17.9</ele></trkpt><trkpt lat="-27.002493" lon="-48.63022"><ele>17.9</ele></trkpt><trkpt lat="-27.002495" lon="-48.630222"><ele>17.8</ele></trkpt><trkpt lat="-27.002495" lon="-48.630222"><ele>17.8</ele></trkpt><trkpt lat="-27.002495" lon="-48.630222"><ele>17.8</ele></trkpt><trkpt lat="-27.002495" lon="-48.630222"><ele>17.8</ele></trkpt><trkpt lat="-27.002495" lon="-48.630222"><ele>17.8</ele></trkpt><trkpt lat="-27.002495" lon="-48.630222"><ele>17.8</ele></trkpt><trkpt lat="-27.002495" lon="-48.630222"><ele>17.8</ele></trkpt><trkpt lat="-27.002495" lon="-48.630222"><ele>17.8</ele></trkpt><trkpt lat="-27.002495" lon="-48.630222"><ele>17.8</ele></trkpt><trkpt lat="-27.002495" lon="-48.630222"><ele>17.8</ele></trkpt><trkpt lat="-27.002495" lon="-48.630222"><ele>17.8</ele></trkpt><trkpt lat="-27.002495" lon="-48.630222"><ele>17.8</ele></trkpt><trkpt lat="-27.002495" lon="-48.630222"><ele>17.8</ele></trkpt><trkpt lat="-27.002495" lon="-48.630222"><ele>17.8</ele></trkpt><trkpt lat="-27.002495" lon="-48.630222"><ele>17.8</ele></trkpt><trkpt lat="-27.002495" lon="-48.630222"><ele>17.8</ele></trkpt><trkpt lat="-27.002495" lon="-48.630222"><ele>17.8</ele></trkpt><trkpt lat="-27.002495" lon="-48.630222"><ele>17.8</ele></trkpt><trkpt lat="-27.002495" lon="-48.630222"><ele>17.8</ele></trkpt><trkpt lat="-27.002495" lon="-48.630222"><ele>17.8</ele></trkpt><trkpt lat="-27.002495" lon="-48.630222"><ele>17.8</ele></trkpt><trkpt lat="-27.002477" lon="-48.630198"><ele>14.5</ele></trkpt><trkpt lat="-27.002462" lon="-48.630195"><ele>14.2</ele></trkpt><trkpt lat="-27.002442" lon="-48.630187"><ele>14.4</ele></trkpt><trkpt lat="-27.002442" lon="-48.630187"><ele>14.4</ele></trkpt><trkpt lat="-27.002423" lon="-48.630178"><ele>15.2</ele></trkpt><trkpt lat="-27.002408" lon="-48.630172"><ele>16</ele></trkpt><trkpt lat="-27.002387" lon="-48.630173"><ele>16.2</ele></trkpt><trkpt lat="-27.002367" lon="-48.63017"><ele>15.6</ele></trkpt><trkpt lat="-27.002345" lon="-48.630165"><ele>14.7</ele></trkpt><trkpt lat="-27.00232" lon="-48.630157"><ele>13.7</ele></trkpt><trkpt lat="-27.002292" lon="-48.63015"><ele>13</ele></trkpt><trkpt lat="-27.002262" lon="-48.630145"><ele>12.3</ele></trkpt><trkpt lat="-27.00223" lon="-48.630135"><ele>12</ele></trkpt><trkpt lat="-27.002202" lon="-48.630128"><ele>11.9</ele></trkpt><trkpt lat="-27.002185" lon="-48.630123"><ele>11.6</ele></trkpt><trkpt lat="-27.002178" lon="-48.630122"><ele>11.1</ele></trkpt><trkpt lat="-27.002177" lon="-48.630122"><ele>10.8</ele></trkpt><trkpt lat="-27.002172" lon="-48.630123"><ele>11.2</ele></trkpt><trkpt lat="-27.002168" lon="-48.630122"><ele>11.7</ele></trkpt><trkpt lat="-27.002167" lon="-48.630122"><ele>12.2</ele></trkpt><trkpt lat="-27.002165" lon="-48.63012"><ele>12.9</ele></trkpt><trkpt lat="-27.00216" lon="-48.630118"><ele>13.3</ele></trkpt><trkpt lat="-27.002158" lon="-48.630122"><ele>13.7</ele></trkpt><trkpt lat="-27.002162" lon="-48.630122"><ele>14.3</ele></trkpt><trkpt lat="-27.002168" lon="-48.630122"><ele>14.8</ele></trkpt><trkpt lat="-27.002175" lon="-48.630125"><ele>15</ele></trkpt><trkpt lat="-27.002182" lon="-48.630127"><ele>15.3</ele></trkpt><trkpt lat="-27.002187" lon="-48.630125"><ele>15.8</ele></trkpt><trkpt lat="-27.00219" lon="-48.630127"><ele>15.9</ele></trkpt><trkpt lat="-27.00219" lon="-48.630128"><ele>15.8</ele></trkpt><trkpt lat="-27.002193" lon="-48.63013"><ele>15.9</ele></trkpt><trkpt lat="-27.002197" lon="-48.63013"><ele>15.8</ele></trkpt><trkpt lat="-27.002198" lon="-48.630132"><ele>15.8</ele></trkpt><trkpt lat="-27.002198" lon="-48.630132"><ele>15.8</ele></trkpt><trkpt lat="-27.002198" lon="-48.630132"><ele>15.8</ele></trkpt><trkpt lat="-27.002198" lon="-48.630133"><ele>15.9</ele></trkpt><trkpt lat="-27.002198" lon="-48.630133"><ele>15.9</ele></trkpt><trkpt lat="-27.0022" lon="-48.630137"><ele>15.9</ele></trkpt><trkpt lat="-27.002202" lon="-48.630137"><ele>15.6</ele></trkpt><trkpt lat="-27.0022" lon="-48.630138"><ele>15.1</ele></trkpt><trkpt lat="-27.0022" lon="-48.630138"><ele>15.1</ele></trkpt><trkpt lat="-27.0022" lon="-48.630138"><ele>15.1</ele></trkpt><trkpt lat="-27.0022" lon="-48.630138"><ele>15.1</ele></trkpt><trkpt lat="-27.0022" lon="-48.630138"><ele>15.1</ele></trkpt><trkpt lat="-27.0022" lon="-48.630138"><ele>15.1</ele></trkpt><trkpt lat="-27.0022" lon="-48.630138"><ele>15.1</ele></trkpt><trkpt lat="-27.0022" lon="-48.630138"><ele>15.1</ele></trkpt><trkpt lat="-27.0022" lon="-48.630138"><ele>15.1</ele></trkpt><trkpt lat="-27.0022" lon="-48.630138"><ele>15.1</ele></trkpt><trkpt lat="-27.0022" lon="-48.630138"><ele>15.1</ele></trkpt><trkpt lat="-27.0022" lon="-48.630138"><ele>15.1</ele></trkpt><trkpt lat="-27.0022" lon="-48.630138"><ele>15.1</ele></trkpt><trkpt lat="-27.0022" lon="-48.630138"><ele>15.1</ele></trkpt><trkpt lat="-27.0022" lon="-48.630138"><ele>15.1</ele></trkpt><trkpt lat="-27.0022" lon="-48.630138"><ele>15.1</ele></trkpt><trkpt lat="-27.0022" lon="-48.630138"><ele>15.1</ele></trkpt><trkpt lat="-27.0022" lon="-48.630138"><ele>15.1</ele></trkpt><trkpt lat="-27.0022" lon="-48.630138"><ele>15.1</ele></trkpt><trkpt lat="-27.0022" lon="-48.630138"><ele>15.1</ele></trkpt><trkpt lat="-27.0022" lon="-48.630138"><ele>15.1</ele></trkpt><trkpt lat="-27.0022" lon="-48.630138"><ele>15.1</ele></trkpt><trkpt lat="-27.0022" lon="-48.630138"><ele>15.1</ele></trkpt><trkpt lat="-27.0022" lon="-48.630138"><ele>15.1</ele></trkpt><trkpt lat="-27.0022" lon="-48.630138"><ele>15.1</ele></trkpt><trkpt lat="-27.0022" lon="-48.630138"><ele>15.1</ele></trkpt><trkpt lat="-27.0022" lon="-48.630138"><ele>15.1</ele></trkpt><trkpt lat="-27.0022" lon="-48.630138"><ele>15.1</ele></trkpt><trkpt lat="-27.0022" lon="-48.630138"><ele>15.1</ele></trkpt><trkpt lat="-27.0022" lon="-48.630138"><ele>15.1</ele></trkpt><trkpt lat="-27.0022" lon="-48.630138"><ele>15.1</ele></trkpt><trkpt lat="-27.002168" lon="-48.630142"><ele>12.6</ele></trkpt><trkpt lat="-27.00216" lon="-48.630135"><ele>12.4</ele></trkpt><trkpt lat="-27.002148" lon="-48.630133"><ele>12.1</ele></trkpt><trkpt lat="-27.002138" lon="-48.63013"><ele>12.1</ele></trkpt><trkpt lat="-27.002127" lon="-48.630128"><ele>12.3</ele></trkpt><trkpt lat="-27.002115" lon="-48.630123"><ele>12.6</ele></trkpt><trkpt lat="-27.002105" lon="-48.630118"><ele>12.9</ele></trkpt><trkpt lat="-27.002097" lon="-48.630108"><ele>13.1</ele></trkpt><trkpt lat="-27.002095" lon="-48.630102"><ele>12.8</ele></trkpt><trkpt lat="-27.002092" lon="-48.630095"><ele>12.6</ele></trkpt><trkpt lat="-27.002092" lon="-48.630095"><ele>12.6</ele></trkpt><trkpt lat="-27.002092" lon="-48.630092"><ele>12.4</ele></trkpt><trkpt lat="-27.002093" lon="-48.630097"><ele>12.3</ele></trkpt><trkpt lat="-27.002095" lon="-48.630102"><ele>11.9</ele></trkpt><trkpt lat="-27.002097" lon="-48.630103"><ele>11.6</ele></trkpt><trkpt lat="-27.002098" lon="-48.630108"><ele>11.4</ele></trkpt><trkpt lat="-27.002102" lon="-48.630112"><ele>11.2</ele></trkpt><trkpt lat="-27.002103" lon="-48.630112"><ele>11</ele></trkpt><trkpt lat="-27.002103" lon="-48.630113"><ele>10.7</ele></trkpt><trkpt lat="-27.002103" lon="-48.630113"><ele>10.7</ele></trkpt><trkpt lat="-27.002103" lon="-48.630113"><ele>10.7</ele></trkpt><trkpt lat="-27.002112" lon="-48.630118"><ele>10.1</ele></trkpt><trkpt lat="-27.002112" lon="-48.630118"><ele>10.1</ele></trkpt><trkpt lat="-27.002125" lon="-48.630118"><ele>10.2</ele></trkpt><trkpt lat="-27.002137" lon="-48.630128"><ele>10.1</ele></trkpt><trkpt lat="-27.00215" lon="-48.630137"><ele>10.2</ele></trkpt><trkpt lat="-27.002163" lon="-48.630147"><ele>10.3</ele></trkpt><trkpt lat="-27.002172" lon="-48.630157"><ele>10.2</ele></trkpt><trkpt lat="-27.00218" lon="-48.630163"><ele>10.2</ele></trkpt><trkpt lat="-27.00219" lon="-48.630168"><ele>10</ele></trkpt><trkpt lat="-27.002203" lon="-48.630173"><ele>9.6</ele></trkpt><trkpt lat="-27.002217" lon="-48.630177"><ele>9.3</ele></trkpt><trkpt lat="-27.002228" lon="-48.630175"><ele>9.1</ele></trkpt><trkpt lat="-27.00224" lon="-48.630173"><ele>9</ele></trkpt><trkpt lat="-27.002252" lon="-48.63017"><ele>9.7</ele></trkpt><trkpt lat="-27.002268" lon="-48.63016"><ele>11.1</ele></trkpt><trkpt lat="-27.002282" lon="-48.630147"><ele>11.7</ele></trkpt><trkpt lat="-27.002293" lon="-48.630145"><ele>11.7</ele></trkpt><trkpt lat="-27.002298" lon="-48.63014"><ele>11.7</ele></trkpt><trkpt lat="-27.002298" lon="-48.630138"><ele>11.8</ele></trkpt><trkpt lat="-27.002298" lon="-48.630138"><ele>12</ele></trkpt><trkpt lat="-27.002297" lon="-48.630143"><ele>12</ele></trkpt><trkpt lat="-27.002297" lon="-48.630152"><ele>12</ele></trkpt><trkpt lat="-27.002297" lon="-48.630155"><ele>11.8</ele></trkpt><trkpt lat="-27.0023" lon="-48.63016"><ele>11.7</ele></trkpt><trkpt lat="-27.0023" lon="-48.630162"><ele>11.8</ele></trkpt><trkpt lat="-27.002298" lon="-48.630165"><ele>11.5</ele></trkpt><trkpt lat="-27.002298" lon="-48.63017"><ele>11.3</ele></trkpt><trkpt lat="-27.002298" lon="-48.63017"><ele>11.3</ele></trkpt><trkpt lat="-27.002298" lon="-48.63017"><ele>11.3</ele></trkpt><trkpt lat="-27.002298" lon="-48.63017"><ele>11.3</ele></trkpt><trkpt lat="-27.002298" lon="-48.63017"><ele>11.3</ele></trkpt><trkpt lat="-27.002298" lon="-48.63017"><ele>11.3</ele></trkpt><trkpt lat="-27.002298" lon="-48.63017"><ele>11.3</ele></trkpt><trkpt lat="-27.002298" lon="-48.63017"><ele>11.3</ele></trkpt><trkpt lat="-27.002298" lon="-48.63017"><ele>11.3</ele></trkpt><trkpt lat="-27.002298" lon="-48.63017"><ele>11.3</ele></trkpt><trkpt lat="-27.002298" lon="-48.63017"><ele>11.3</ele></trkpt><trkpt lat="-27.002298" lon="-48.63017"><ele>11.3</ele></trkpt><trkpt lat="-27.002298" lon="-48.63017"><ele>11.3</ele></trkpt><trkpt lat="-27.002298" lon="-48.63017"><ele>11.3</ele></trkpt><trkpt lat="-27.002298" lon="-48.63017"><ele>11.3</ele></trkpt><trkpt lat="-27.002298" lon="-48.63017"><ele>11.3</ele></trkpt><trkpt lat="-27.002298" lon="-48.63017"><ele>11.3</ele></trkpt><trkpt lat="-27.002298" lon="-48.63017"><ele>11.3</ele></trkpt><trkpt lat="-27.002298" lon="-48.63017"><ele>11.3</ele></trkpt><trkpt lat="-27.002298" lon="-48.63017"><ele>11.3</ele></trkpt><trkpt lat="-27.002298" lon="-48.63017"><ele>11.3</ele></trkpt><trkpt lat="-27.002298" lon="-48.63017"><ele>11.3</ele></trkpt><trkpt lat="-27.002298" lon="-48.63017"><ele>11.3</ele></trkpt><trkpt lat="-27.002298" lon="-48.63017"><ele>11.3</ele></trkpt><trkpt lat="-27.002265" lon="-48.6302"><ele>5.5</ele></trkpt><trkpt lat="-27.002263" lon="-48.630203"><ele>5.4</ele></trkpt><trkpt lat="-27.00226" lon="-48.630205"><ele>5.1</ele></trkpt><trkpt lat="-27.002253" lon="-48.630205"><ele>5</ele></trkpt><trkpt lat="-27.002245" lon="-48.630207"><ele>4.7</ele></trkpt><trkpt lat="-27.002233" lon="-48.630208"><ele>4</ele></trkpt><trkpt lat="-27.00222" lon="-48.630205"><ele>3.7</ele></trkpt><trkpt lat="-27.002203" lon="-48.630198"><ele>3.3</ele></trkpt><trkpt lat="-27.002187" lon="-48.630193"><ele>2.8</ele></trkpt><trkpt lat="-27.00217" lon="-48.630183"><ele>2.4</ele></trkpt><trkpt lat="-27.002152" lon="-48.630178"><ele>2.5</ele></trkpt><trkpt lat="-27.002135" lon="-48.630172"><ele>2.2</ele></trkpt><trkpt lat="-27.002113" lon="-48.630165"><ele>1.9</ele></trkpt><trkpt lat="-27.002092" lon="-48.63016"><ele>1.5</ele></trkpt><trkpt lat="-27.002075" lon="-48.630155"><ele>1.1</ele></trkpt><trkpt lat="-27.002053" lon="-48.630148"><ele>0.9</ele></trkpt><trkpt lat="-27.002037" lon="-48.630142"><ele>1.4</ele></trkpt><trkpt lat="-27.00202" lon="-48.630132"><ele>1.4</ele></trkpt><trkpt lat="-27.002008" lon="-48.630123"><ele>1.5</ele></trkpt><trkpt lat="-27.002" lon="-48.63012"><ele>1.8</ele></trkpt><trkpt lat="-27.002" lon="-48.630118"><ele>2</ele></trkpt><trkpt lat="-27.002002" lon="-48.630118"><ele>2.2</ele></trkpt><trkpt lat="-27.002002" lon="-48.63012"><ele>2.3</ele></trkpt><trkpt lat="-27.002002" lon="-48.63012"><ele>2.3</ele></trkpt><trkpt lat="-27.002002" lon="-48.630122"><ele>2.5</ele></trkpt><trkpt lat="-27.001998" lon="-48.630123"><ele>2.5</ele></trkpt><trkpt lat="-27.001997" lon="-48.630123"><ele>2.8</ele></trkpt><trkpt lat="-27.001995" lon="-48.630122"><ele>2.8</ele></trkpt><trkpt lat="-27.00199" lon="-48.63012"><ele>2.7</ele></trkpt><trkpt lat="-27.001985" lon="-48.63012"><ele>2.5</ele></trkpt><trkpt lat="-27.001985" lon="-48.63012"><ele>2.5</ele></trkpt><trkpt lat="-27.00198" lon="-48.630108"><ele>3.2</ele></trkpt><trkpt lat="-27.001972" lon="-48.630103"><ele>3.4</ele></trkpt><trkpt lat="-27.001958" lon="-48.630098"><ele>4.1</ele></trkpt><trkpt lat="-27.001945" lon="-48.630097"><ele>3.9</ele></trkpt><trkpt lat="-27.001932" lon="-48.630098"><ele>3.5</ele></trkpt><trkpt lat="-27.001915" lon="-48.630095"><ele>3.4</ele></trkpt><trkpt lat="-27.001895" lon="-48.630095"><ele>3.1</ele></trkpt><trkpt lat="-27.001872" lon="-48.63009"><ele>3.3</ele></trkpt><trkpt lat="-27.001832" lon="-48.630035"><ele>25.1</ele></trkpt><trkpt lat="-27.001808" lon="-48.630032"><ele>25.2</ele></trkpt><trkpt lat="-27.00178" lon="-48.630037"><ele>25</ele></trkpt><trkpt lat="-27.001753" lon="-48.630032"><ele>25.1</ele></trkpt><trkpt lat="-27.001728" lon="-48.630022"><ele>25</ele></trkpt><trkpt lat="-27.001698" lon="-48.630015"><ele>25</ele></trkpt><trkpt lat="-27.001672" lon="-48.630012"><ele>25.4</ele></trkpt><trkpt lat="-27.001645" lon="-48.63001"><ele>25.7</ele></trkpt><trkpt lat="-27.001622" lon="-48.630007"><ele>25.8</ele></trkpt><trkpt lat="-27.001602" lon="-48.63"><ele>25.5</ele></trkpt><trkpt lat="-27.001583" lon="-48.629997"><ele>23.4</ele></trkpt><trkpt lat="-27.00158" lon="-48.629995"><ele>22.1</ele></trkpt><trkpt lat="-27.001585" lon="-48.629997"><ele>22.1</ele></trkpt><trkpt lat="-27.001583" lon="-48.629997"><ele>21.9</ele></trkpt><trkpt lat="-27.001583" lon="-48.629995"><ele>22.3</ele></trkpt><trkpt lat="-27.001583" lon="-48.629995"><ele>22.3</ele></trkpt><trkpt lat="-27.001585" lon="-48.629997"><ele>22.7</ele></trkpt><trkpt lat="-27.001582" lon="-48.63"><ele>22.7</ele></trkpt><trkpt lat="-27.00158" lon="-48.630002"><ele>22.6</ele></trkpt><trkpt lat="-27.001575" lon="-48.630002"><ele>22.6</ele></trkpt><trkpt lat="-27.001568" lon="-48.63"><ele>22.6</ele></trkpt><trkpt lat="-27.001567" lon="-48.629997"><ele>22.3</ele></trkpt><trkpt lat="-27.001567" lon="-48.629997"><ele>22.3</ele></trkpt><trkpt lat="-27.001573" lon="-48.629997"><ele>22.1</ele></trkpt><trkpt lat="-27.00157" lon="-48.629997"><ele>21.7</ele></trkpt><trkpt lat="-27.00157" lon="-48.629997"><ele>21.7</ele></trkpt><trkpt lat="-27.001555" lon="-48.629992"><ele>20.6</ele></trkpt><trkpt lat="-27.001542" lon="-48.629988"><ele>20.3</ele></trkpt><trkpt lat="-27.001523" lon="-48.629987"><ele>20</ele></trkpt><trkpt lat="-27.001512" lon="-48.629983"><ele>19.6</ele></trkpt><trkpt lat="-27.001497" lon="-48.62998"><ele>19.4</ele></trkpt><trkpt lat="-27.001478" lon="-48.629977"><ele>18.9</ele></trkpt><trkpt lat="-27.001458" lon="-48.629973"><ele>18.5</ele></trkpt><trkpt lat="-27.001438" lon="-48.629968"><ele>18.3</ele></trkpt><trkpt lat="-27.001425" lon="-48.62997"><ele>17.6</ele></trkpt><trkpt lat="-27.001417" lon="-48.62997"><ele>17.1</ele></trkpt><trkpt lat="-27.001418" lon="-48.629977"><ele>16.7</ele></trkpt><trkpt lat="-27.001418" lon="-48.629977"><ele>16.7</ele></trkpt><trkpt lat="-27.001418" lon="-48.629982"><ele>16.3</ele></trkpt><trkpt lat="-27.001415" lon="-48.629983"><ele>16.1</ele></trkpt><trkpt lat="-27.001413" lon="-48.629982"><ele>15.9</ele></trkpt><trkpt lat="-27.001415" lon="-48.629983"><ele>15.5</ele></trkpt><trkpt lat="-27.001418" lon="-48.629987"><ele>15.3</ele></trkpt><trkpt lat="-27.001418" lon="-48.629988"><ele>14.8</ele></trkpt><trkpt lat="-27.001418" lon="-48.629988"><ele>14.8</ele></trkpt><trkpt lat="-27.001418" lon="-48.629985"><ele>14.6</ele></trkpt><trkpt lat="-27.001413" lon="-48.629983"><ele>14.5</ele></trkpt><trkpt lat="-27.001405" lon="-48.629982"><ele>14.4</ele></trkpt><trkpt lat="-27.001397" lon="-48.62998"><ele>14.4</ele></trkpt><trkpt lat="-27.001388" lon="-48.62998"><ele>14.3</ele></trkpt><trkpt lat="-27.001373" lon="-48.629977"><ele>13.9</ele></trkpt><trkpt lat="-27.001362" lon="-48.629973"><ele>13.5</ele></trkpt><trkpt lat="-27.001355" lon="-48.629973"><ele>13.1</ele></trkpt><trkpt lat="-27.001348" lon="-48.629973"><ele>12.7</ele></trkpt><trkpt lat="-27.001345" lon="-48.629975"><ele>12.3</ele></trkpt><trkpt lat="-27.001343" lon="-48.629978"><ele>11.8</ele></trkpt><trkpt lat="-27.001342" lon="-48.629982"><ele>11.3</ele></trkpt><trkpt lat="-27.00134" lon="-48.629982"><ele>10.9</ele></trkpt><trkpt lat="-27.00134" lon="-48.629982"><ele>10.9</ele></trkpt><trkpt lat="-27.001342" lon="-48.629983"><ele>10.5</ele></trkpt><trkpt lat="-27.00134" lon="-48.629983"><ele>10</ele></trkpt><trkpt lat="-27.001342" lon="-48.629987"><ele>9.7</ele></trkpt><trkpt lat="-27.001342" lon="-48.629987"><ele>9.7</ele></trkpt><trkpt lat="-27.001342" lon="-48.629987"><ele>9.7</ele></trkpt><trkpt lat="-27.001342" lon="-48.629987"><ele>9.7</ele></trkpt><trkpt lat="-27.001342" lon="-48.629987"><ele>9.7</ele></trkpt><trkpt lat="-27.001342" lon="-48.629987"><ele>9.7</ele></trkpt><trkpt lat="-27.001342" lon="-48.629987"><ele>9.7</ele></trkpt><trkpt lat="-27.001342" lon="-48.629987"><ele>9.7</ele></trkpt><trkpt lat="-27.001342" lon="-48.629987"><ele>9.7</ele></trkpt><trkpt lat="-27.001342" lon="-48.629987"><ele>9.7</ele></trkpt><trkpt lat="-27.001342" lon="-48.629987"><ele>9.7</ele></trkpt><trkpt lat="-27.001342" lon="-48.629987"><ele>9.7</ele></trkpt><trkpt lat="-27.001342" lon="-48.629987"><ele>9.7</ele></trkpt><trkpt lat="-27.001342" lon="-48.629987"><ele>9.7</ele></trkpt><trkpt lat="-27.001342" lon="-48.629987"><ele>9.7</ele></trkpt><trkpt lat="-27.001325" lon="-48.629962"><ele>7</ele></trkpt><trkpt lat="-27.001302" lon="-48.629967"><ele>6.8</ele></trkpt><trkpt lat="-27.001275" lon="-48.629967"><ele>6.5</ele></trkpt><trkpt lat="-27.001252" lon="-48.629963"><ele>6.5</ele></trkpt><trkpt lat="-27.001228" lon="-48.629972"><ele>6.5</ele></trkpt><trkpt lat="-27.00121" lon="-48.629973"><ele>7</ele></trkpt><trkpt lat="-27.001192" lon="-48.629972"><ele>7.7</ele></trkpt><trkpt lat="-27.00117" lon="-48.629962"><ele>8</ele></trkpt><trkpt lat="-27.00115" lon="-48.629958"><ele>8.1</ele></trkpt><trkpt lat="-27.001135" lon="-48.629962"><ele>7.4</ele></trkpt><trkpt lat="-27.00113" lon="-48.629963"><ele>7</ele></trkpt><trkpt lat="-27.001132" lon="-48.629968"><ele>6.4</ele></trkpt><trkpt lat="-27.001128" lon="-48.62997"><ele>6</ele></trkpt><trkpt lat="-27.00113" lon="-48.62997"><ele>5.7</ele></trkpt><trkpt lat="-27.001125" lon="-48.629972"><ele>4.9</ele></trkpt><trkpt lat="-27.00112" lon="-48.629975"><ele>4.2</ele></trkpt><trkpt lat="-27.00112" lon="-48.629975"><ele>4.2</ele></trkpt><trkpt lat="-27.001118" lon="-48.629977"><ele>3.8</ele></trkpt><trkpt lat="-27.001113" lon="-48.629975"><ele>3.4</ele></trkpt><trkpt lat="-27.00111" lon="-48.629973"><ele>3.1</ele></trkpt><trkpt lat="-27.00111" lon="-48.629973"><ele>2.7</ele></trkpt><trkpt lat="-27.001112" lon="-48.629972"><ele>2.2</ele></trkpt><trkpt lat="-27.001112" lon="-48.629972"><ele>2.2</ele></trkpt><trkpt lat="-27.001112" lon="-48.629972"><ele>2.2</ele></trkpt><trkpt lat="-27.001112" lon="-48.629972"><ele>2.2</ele></trkpt><trkpt lat="-27.001112" lon="-48.629972"><ele>2.2</ele></trkpt><trkpt lat="-27.001112" lon="-48.629972"><ele>2.2</ele></trkpt><trkpt lat="-27.001112" lon="-48.629972"><ele>2.2</ele></trkpt><trkpt lat="-27.001132" lon="-48.629983"><ele>2.4</ele></trkpt><trkpt lat="-27.001137" lon="-48.629988"><ele>2.4</ele></trkpt><trkpt lat="-27.001142" lon="-48.62999"><ele>2.4</ele></trkpt><trkpt lat="-27.001145" lon="-48.62999"><ele>2.4</ele></trkpt><trkpt lat="-27.001145" lon="-48.62999"><ele>2.4</ele></trkpt><trkpt lat="-27.001143" lon="-48.629988"><ele>2.3</ele></trkpt><trkpt lat="-27.001143" lon="-48.629988"><ele>2.3</ele></trkpt><trkpt lat="-27.001142" lon="-48.62999"><ele>2.3</ele></trkpt><trkpt lat="-27.001143" lon="-48.62999"><ele>2.2</ele></trkpt><trkpt lat="-27.001143" lon="-48.629988"><ele>2.1</ele></trkpt><trkpt lat="-27.001143" lon="-48.629987"><ele>2</ele></trkpt><trkpt lat="-27.001143" lon="-48.629987"><ele>2</ele></trkpt><trkpt lat="-27.001143" lon="-48.629987"><ele>2</ele></trkpt><trkpt lat="-27.001143" lon="-48.629987"><ele>2</ele></trkpt><trkpt lat="-27.001143" lon="-48.629987"><ele>2</ele></trkpt><trkpt lat="-27.001143" lon="-48.629987"><ele>2</ele></trkpt><trkpt lat="-27.001143" lon="-48.629987"><ele>2</ele></trkpt><trkpt lat="-27.001143" lon="-48.629987"><ele>2</ele></trkpt><trkpt lat="-27.001143" lon="-48.629987"><ele>2</ele></trkpt><trkpt lat="-27.001143" lon="-48.629987"><ele>2</ele></trkpt><trkpt lat="-27.001143" lon="-48.629987"><ele>2</ele></trkpt><trkpt lat="-27.001143" lon="-48.629987"><ele>2</ele></trkpt><trkpt lat="-27.001143" lon="-48.629987"><ele>2</ele></trkpt><trkpt lat="-27.001137" lon="-48.629992"><ele>2.2</ele></trkpt><trkpt lat="-27.001132" lon="-48.62999"><ele>2.2</ele></trkpt><trkpt lat="-27.001125" lon="-48.629988"><ele>2.2</ele></trkpt><trkpt lat="-27.001125" lon="-48.629987"><ele>2.5</ele></trkpt><trkpt lat="-27.001115" lon="-48.629985"><ele>2.4</ele></trkpt><trkpt lat="-27.0011" lon="-48.629987"><ele>2.1</ele></trkpt><trkpt lat="-27.001078" lon="-48.629993"><ele>1.8</ele></trkpt><trkpt lat="-27.001057" lon="-48.630005"><ele>1.6</ele></trkpt><trkpt lat="-27.001032" lon="-48.630022"><ele>1.6</ele></trkpt><trkpt lat="-27.001003" lon="-48.630042"><ele>1.5</ele></trkpt><trkpt lat="-27.000975" lon="-48.630063"><ele>1.4</ele></trkpt><trkpt lat="-27.000945" lon="-48.630085"><ele>1.6</ele></trkpt><trkpt lat="-27.00091" lon="-48.630105"><ele>2.5</ele></trkpt><trkpt lat="-27.000872" lon="-48.630123"><ele>3.4</ele></trkpt><trkpt lat="-27.000835" lon="-48.630145"><ele>3.3</ele></trkpt><trkpt lat="-27.000805" lon="-48.63018"><ele>3.6</ele></trkpt><trkpt lat="-27.000777" lon="-48.630213"><ele>3.9</ele></trkpt><trkpt lat="-27.000743" lon="-48.630242"><ele>3.8</ele></trkpt><trkpt lat="-27.000708" lon="-48.630272"><ele>3.4</ele></trkpt><trkpt lat="-27.000678" lon="-48.630298"><ele>3.5</ele></trkpt><trkpt lat="-27.000653" lon="-48.63032"><ele>4</ele></trkpt><trkpt lat="-27.00063" lon="-48.630342"><ele>4.9</ele></trkpt><trkpt lat="-27.000623" lon="-48.630363"><ele>5.4</ele></trkpt><trkpt lat="-27.000632" lon="-48.630387"><ele>6.4</ele></trkpt><trkpt lat="-27.00065" lon="-48.630385"><ele>6.6</ele></trkpt><trkpt lat="-27.000675" lon="-48.630378"><ele>6.6</ele></trkpt><trkpt lat="-27.000698" lon="-48.630357"><ele>6.1</ele></trkpt><trkpt lat="-27.00072" lon="-48.630335"><ele>4.9</ele></trkpt><trkpt lat="-27.000745" lon="-48.630313"><ele>4.2</ele></trkpt><trkpt lat="-27.000772" lon="-48.630292"><ele>4</ele></trkpt><trkpt lat="-27.000797" lon="-48.630263"><ele>3.7</ele></trkpt><trkpt lat="-27.000817" lon="-48.63023"><ele>3.5</ele></trkpt><trkpt lat="-27.00084" lon="-48.6302"><ele>3.5</ele></trkpt><trkpt lat="-27.000865" lon="-48.630173"><ele>3.4</ele></trkpt><trkpt lat="-27.00089" lon="-48.630142"><ele>3.1</ele></trkpt><trkpt lat="-27.00092" lon="-48.63011"><ele>2.8</ele></trkpt><trkpt lat="-27.000948" lon="-48.630078"><ele>2.5</ele></trkpt><trkpt lat="-27.00097" lon="-48.630048"><ele>1.3</ele></trkpt><trkpt lat="-27.000998" lon="-48.630022"><ele>0.8</ele></trkpt><trkpt lat="-27.001028" lon="-48.629998"><ele>0.2</ele></trkpt><trkpt lat="-27.001052" lon="-48.629993"><ele>-0.4</ele></trkpt><trkpt lat="-27.00108" lon="-48.629985"><ele>-0.3</ele></trkpt><trkpt lat="-27.001115" lon="-48.629993"><ele>0.6</ele></trkpt><trkpt lat="-27.001152" lon="-48.630018"><ele>1.9</ele></trkpt><trkpt lat="-27.00118" lon="-48.630022"><ele>2.5</ele></trkpt><trkpt lat="-27.001208" lon="-48.630022"><ele>3.5</ele></trkpt><trkpt lat="-27.001235" lon="-48.630018"><ele>4</ele></trkpt><trkpt lat="-27.001258" lon="-48.63001"><ele>4.6</ele></trkpt><trkpt lat="-27.001275" lon="-48.630005"><ele>5.1</ele></trkpt><trkpt lat="-27.001285" lon="-48.630002"><ele>5.5</ele></trkpt><trkpt lat="-27.00129" lon="-48.629995"><ele>5.9</ele></trkpt><trkpt lat="-27.00129" lon="-48.62999"><ele>6.4</ele></trkpt><trkpt lat="-27.001293" lon="-48.629983"><ele>7.1</ele></trkpt><trkpt lat="-27.001298" lon="-48.629985"><ele>7.4</ele></trkpt><trkpt lat="-27.0013" lon="-48.629983"><ele>7.6</ele></trkpt><trkpt lat="-27.001302" lon="-48.629983"><ele>7.7</ele></trkpt><trkpt lat="-27.0013" lon="-48.62998"><ele>7.9</ele></trkpt><trkpt lat="-27.001295" lon="-48.629977"><ele>8.1</ele></trkpt><trkpt lat="-27.001293" lon="-48.629982"><ele>8</ele></trkpt><trkpt lat="-27.00129" lon="-48.629987"><ele>7.9</ele></trkpt><trkpt lat="-27.001277" lon="-48.629988"><ele>8</ele></trkpt><trkpt lat="-27.001273" lon="-48.629987"><ele>7.9</ele></trkpt><trkpt lat="-27.001275" lon="-48.629985"><ele>8</ele></trkpt><trkpt lat="-27.001278" lon="-48.629985"><ele>8.2</ele></trkpt><trkpt lat="-27.001278" lon="-48.629987"><ele>8.3</ele></trkpt><trkpt lat="-27.001278" lon="-48.629987"><ele>8.3</ele></trkpt><trkpt lat="-27.001278" lon="-48.629987"><ele>8.3</ele></trkpt><trkpt lat="-27.001278" lon="-48.629987"><ele>8.3</ele></trkpt><trkpt lat="-27.001278" lon="-48.629987"><ele>8.3</ele></trkpt><trkpt lat="-27.001278" lon="-48.629987"><ele>8.3</ele></trkpt><trkpt lat="-27.001278" lon="-48.629987"><ele>8.3</ele></trkpt><trkpt lat="-27.001278" lon="-48.629987"><ele>8.3</ele></trkpt><trkpt lat="-27.001278" lon="-48.629987"><ele>8.3</ele></trkpt><trkpt lat="-27.001278" lon="-48.629987"><ele>8.3</ele></trkpt><trkpt lat="-27.001278" lon="-48.629987"><ele>8.3</ele></trkpt><trkpt lat="-27.001278" lon="-48.629987"><ele>8.3</ele></trkpt><trkpt lat="-27.001278" lon="-48.629987"><ele>8.3</ele></trkpt><trkpt lat="-27.001278" lon="-48.629987"><ele>8.3</ele></trkpt><trkpt lat="-27.001278" lon="-48.629987"><ele>8.3</ele></trkpt><trkpt lat="-27.001278" lon="-48.629987"><ele>8.3</ele></trkpt><trkpt lat="-27.001278" lon="-48.629987"><ele>8.3</ele></trkpt><trkpt lat="-27.001278" lon="-48.629987"><ele>8.3</ele></trkpt><trkpt lat="-27.001278" lon="-48.629987"><ele>8.3</ele></trkpt><trkpt lat="-27.001278" lon="-48.629987"><ele>8.3</ele></trkpt><trkpt lat="-27.001278" lon="-48.629987"><ele>8.3</ele></trkpt><trkpt lat="-27.001278" lon="-48.629987"><ele>8.3</ele></trkpt><trkpt lat="-27.001278" lon="-48.629987"><ele>8.3</ele></trkpt><trkpt lat="-27.001278" lon="-48.629987"><ele>8.3</ele></trkpt><trkpt lat="-27.001278" lon="-48.629987"><ele>8.3</ele></trkpt><trkpt lat="-27.001278" lon="-48.629987"><ele>8.3</ele></trkpt><trkpt lat="-27.001278" lon="-48.629987"><ele>8.3</ele></trkpt><trkpt lat="-27.001278" lon="-48.629987"><ele>8.3</ele></trkpt><trkpt lat="-27.001278" lon="-48.629987"><ele>8.3</ele></trkpt><trkpt lat="-27.001278" lon="-48.629987"><ele>8.3</ele></trkpt><trkpt lat="-27.001278" lon="-48.629987"><ele>8.3</ele></trkpt><trkpt lat="-27.001278" lon="-48.629987"><ele>8.3</ele></trkpt><trkpt lat="-27.001278" lon="-48.629987"><ele>8.3</ele></trkpt><trkpt lat="-27.001278" lon="-48.629987"><ele>8.3</ele></trkpt><trkpt lat="-27.001278" lon="-48.629987"><ele>8.3</ele></trkpt><trkpt lat="-27.001278" lon="-48.629987"><ele>8.3</ele></trkpt><trkpt lat="-27.001278" lon="-48.629987"><ele>8.3</ele></trkpt><trkpt lat="-27.001278" lon="-48.629987"><ele>8.3</ele></trkpt><trkpt lat="-27.001278" lon="-48.629987"><ele>8.3</ele></trkpt><trkpt lat="-27.001278" lon="-48.629987"><ele>8.3</ele></trkpt><trkpt lat="-27.001278" lon="-48.629987"><ele>8.3</ele></trkpt><trkpt lat="-27.001278" lon="-48.629987"><ele>8.3</ele></trkpt><trkpt lat="-27.001278" lon="-48.629987"><ele>8.3</ele></trkpt><trkpt lat="-27.001278" lon="-48.629987"><ele>8.3</ele></trkpt><trkpt lat="-27.001278" lon="-48.629987"><ele>8.3</ele></trkpt><trkpt lat="-27.001278" lon="-48.629987"><ele>8.3</ele></trkpt><trkpt lat="-27.001278" lon="-48.629987"><ele>8.3</ele></trkpt><trkpt lat="-27.001278" lon="-48.629987"><ele>8.3</ele></trkpt><trkpt lat="-27.001278" lon="-48.629987"><ele>8.3</ele></trkpt><trkpt lat="-27.001278" lon="-48.629987"><ele>8.3</ele></trkpt><trkpt lat="-27.001278" lon="-48.629987"><ele>8.3</ele></trkpt><trkpt lat="-27.001278" lon="-48.629987"><ele>8.3</ele></trkpt><trkpt lat="-27.001278" lon="-48.629987"><ele>8.3</ele></trkpt><trkpt lat="-27.001278" lon="-48.629987"><ele>8.3</ele></trkpt><trkpt lat="-27.001278" lon="-48.629987"><ele>8.3</ele></trkpt><trkpt lat="-27.001278" lon="-48.629987"><ele>8.3</ele></trkpt><trkpt lat="-27.001278" lon="-48.629987"><ele>8.3</ele></trkpt><trkpt lat="-27.001278" lon="-48.629987"><ele>8.3</ele></trkpt><trkpt lat="-27.001278" lon="-48.629987"><ele>8.3</ele></trkpt><trkpt lat="-27.001278" lon="-48.629987"><ele>8.3</ele></trkpt><trkpt lat="-27.001278" lon="-48.629987"><ele>8.3</ele></trkpt><trkpt lat="-27.001278" lon="-48.629987"><ele>8.3</ele></trkpt><trkpt lat="-27.001278" lon="-48.629987"><ele>8.3</ele></trkpt><trkpt lat="-27.001278" lon="-48.629987"><ele>8.3</ele></trkpt><trkpt lat="-27.001278" lon="-48.629987"><ele>8.3</ele></trkpt><trkpt lat="-27.001278" lon="-48.629987"><ele>8.3</ele></trkpt><trkpt lat="-27.001278" lon="-48.629987"><ele>8.3</ele></trkpt><trkpt lat="-27.001278" lon="-48.629987"><ele>8.3</ele></trkpt><trkpt lat="-27.001278" lon="-48.629987"><ele>8.3</ele></trkpt><trkpt lat="-27.001278" lon="-48.629987"><ele>8.3</ele></trkpt><trkpt lat="-27.001278" lon="-48.629987"><ele>8.3</ele></trkpt><trkpt lat="-27.001278" lon="-48.629987"><ele>8.3</ele></trkpt><trkpt lat="-27.001278" lon="-48.629987"><ele>8.3</ele></trkpt><trkpt lat="-27.001278" lon="-48.629987"><ele>8.3</ele></trkpt><trkpt lat="-27.001278" lon="-48.629987"><ele>8.3</ele></trkpt><trkpt lat="-27.001278" lon="-48.629987"><ele>8.3</ele></trkpt><trkpt lat="-27.001278" lon="-48.629987"><ele>8.3</ele></trkpt><trkpt lat="-27.001278" lon="-48.629987"><ele>8.3</ele></trkpt><trkpt lat="-27.001278" lon="-48.629987"><ele>8.3</ele></trkpt><trkpt lat="-27.001278" lon="-48.629987"><ele>8.3</ele></trkpt><trkpt lat="-27.001278" lon="-48.629987"><ele>8.3</ele></trkpt><trkpt lat="-27.001278" lon="-48.629987"><ele>8.3</ele></trkpt><trkpt lat="-27.001278" lon="-48.629987"><ele>8.3</ele></trkpt><trkpt lat="-27.001278" lon="-48.629987"><ele>8.3</ele></trkpt><trkpt lat="-27.001278" lon="-48.629987"><ele>8.3</ele></trkpt><trkpt lat="-27.001278" lon="-48.629987"><ele>8.3</ele></trkpt><trkpt lat="-27.001278" lon="-48.629987"><ele>8.3</ele></trkpt><trkpt lat="-27.001278" lon="-48.629987"><ele>8.3</ele></trkpt><trkpt lat="-27.001278" lon="-48.629987"><ele>8.3</ele></trkpt><trkpt lat="-27.001278" lon="-48.629987"><ele>8.3</ele></trkpt><trkpt lat="-27.001278" lon="-48.629987"><ele>8.3</ele></trkpt><trkpt lat="-27.001278" lon="-48.629987"><ele>8.3</ele></trkpt><trkpt lat="-27.001278" lon="-48.629987"><ele>8.3</ele></trkpt><trkpt lat="-27.001278" lon="-48.629987"><ele>8.3</ele></trkpt><trkpt lat="-27.001278" lon="-48.629987"><ele>8.3</ele></trkpt><trkpt lat="-27.001278" lon="-48.629987"><ele>8.3</ele></trkpt><trkpt lat="-27.001278" lon="-48.629987"><ele>8.3</ele></trkpt><trkpt lat="-27.001278" lon="-48.629987"><ele>8.3</ele></trkpt><trkpt lat="-27.001278" lon="-48.629987"><ele>8.3</ele></trkpt><trkpt lat="-27.001278" lon="-48.629987"><ele>8.3</ele></trkpt><trkpt lat="-27.001278" lon="-48.629987"><ele>8.3</ele></trkpt><trkpt lat="-27.001278" lon="-48.629987"><ele>8.3</ele></trkpt><trkpt lat="-27.001278" lon="-48.629987"><ele>8.3</ele></trkpt><trkpt lat="-27.001278" lon="-48.629987"><ele>8.3</ele></trkpt><trkpt lat="-27.001278" lon="-48.629987"><ele>8.3</ele></trkpt><trkpt lat="-27.001278" lon="-48.629987"><ele>8.3</ele></trkpt><trkpt lat="-27.001278" lon="-48.629987"><ele>8.3</ele></trkpt><trkpt lat="-27.001278" lon="-48.629987"><ele>8.3</ele></trkpt><trkpt lat="-27.001278" lon="-48.629987"><ele>8.3</ele></trkpt><trkpt lat="-27.001278" lon="-48.629987"><ele>8.3</ele></trkpt><trkpt lat="-27.001278" lon="-48.629987"><ele>8.3</ele></trkpt><trkpt lat="-27.001278" lon="-48.629987"><ele>8.3</ele></trkpt><trkpt lat="-27.001278" lon="-48.629987"><ele>8.3</ele></trkpt><trkpt lat="-27.001278" lon="-48.629987"><ele>8.3</ele></trkpt><trkpt lat="-27.001278" lon="-48.629987"><ele>8.3</ele></trkpt><trkpt lat="-27.001278" lon="-48.629987"><ele>8.3</ele></trkpt><trkpt lat="-27.001278" lon="-48.629987"><ele>8.3</ele></trkpt><trkpt lat="-27.001278" lon="-48.629987"><ele>8.3</ele></trkpt><trkpt lat="-27.001278" lon="-48.629987"><ele>8.3</ele></trkpt><trkpt lat="-27.001278" lon="-48.629987"><ele>8.3</ele></trkpt><trkpt lat="-27.001278" lon="-48.629987"><ele>8.3</ele></trkpt><trkpt lat="-27.001278" lon="-48.629987"><ele>8.3</ele></trkpt><trkpt lat="-27.001278" lon="-48.629987"><ele>8.3</ele></trkpt><trkpt lat="-27.001278" lon="-48.629987"><ele>8.3</ele></trkpt><trkpt lat="-27.001308" lon="-48.630008"><ele>4.8</ele></trkpt><trkpt lat="-27.001298" lon="-48.63001"><ele>5.1</ele></trkpt><trkpt lat="-27.00129" lon="-48.630018"><ele>5.2</ele></trkpt><trkpt lat="-27.001282" lon="-48.630022"><ele>5.1</ele></trkpt><trkpt lat="-27.001265" lon="-48.63002"><ele>4.9</ele></trkpt><trkpt lat="-27.001252" lon="-48.630017"><ele>4.7</ele></trkpt><trkpt lat="-27.001237" lon="-48.630015"><ele>4.7</ele></trkpt><trkpt lat="-27.001227" lon="-48.630008"><ele>4.6</ele></trkpt><trkpt lat="-27.001212" lon="-48.630003"><ele>4.5</ele></trkpt><trkpt lat="-27.001202" lon="-48.629995"><ele>4.9</ele></trkpt><trkpt lat="-27.001187" lon="-48.629988"><ele>4.8</ele></trkpt><trkpt lat="-27.00118" lon="-48.629978"><ele>4.5</ele></trkpt><trkpt lat="-27.001177" lon="-48.629978"><ele>4.5</ele></trkpt><trkpt lat="-27.001173" lon="-48.629982"><ele>4.4</ele></trkpt><trkpt lat="-27.001168" lon="-48.62998"><ele>4.4</ele></trkpt><trkpt lat="-27.001163" lon="-48.62998"><ele>4.4</ele></trkpt><trkpt lat="-27.001158" lon="-48.629985"><ele>4.1</ele></trkpt><trkpt lat="-27.001157" lon="-48.629992"><ele>4.1</ele></trkpt><trkpt lat="-27.00115" lon="-48.629995"><ele>4.7</ele></trkpt><trkpt lat="-27.001133" lon="-48.629997"><ele>4.7</ele></trkpt><trkpt lat="-27.001117" lon="-48.629993"><ele>4.4</ele></trkpt><trkpt lat="-27.001107" lon="-48.629987"><ele>4.1</ele></trkpt><trkpt lat="-27.001105" lon="-48.629983"><ele>3.6</ele></trkpt><trkpt lat="-27.001107" lon="-48.629983"><ele>3.5</ele></trkpt><trkpt lat="-27.001108" lon="-48.629983"><ele>3.2</ele></trkpt><trkpt lat="-27.001112" lon="-48.629983"><ele>3</ele></trkpt><trkpt lat="-27.001112" lon="-48.629983"><ele>3</ele></trkpt><trkpt lat="-27.001118" lon="-48.629985"><ele>2.8</ele></trkpt><trkpt lat="-27.00112" lon="-48.62999"><ele>2.5</ele></trkpt><trkpt lat="-27.001123" lon="-48.629992"><ele>2.3</ele></trkpt><trkpt lat="-27.001123" lon="-48.629993"><ele>1.7</ele></trkpt><trkpt lat="-27.001123" lon="-48.629993"><ele>1.7</ele></trkpt><trkpt lat="-27.001125" lon="-48.629993"><ele>1.2</ele></trkpt><trkpt lat="-27.001127" lon="-48.629993"><ele>1</ele></trkpt><trkpt lat="-27.001127" lon="-48.629993"><ele>1</ele></trkpt><trkpt lat="-27.00113" lon="-48.629998"><ele>0.3</ele></trkpt><trkpt lat="-27.001138" lon="-48.630003"><ele>0.1</ele></trkpt><trkpt lat="-27.001145" lon="-48.630008"><ele>-0.2</ele></trkpt><trkpt lat="-27.001152" lon="-48.630012"><ele>0</ele></trkpt><trkpt lat="-27.00116" lon="-48.630012"><ele>-0.1</ele></trkpt><trkpt lat="-27.001172" lon="-48.630012"><ele>0.1</ele></trkpt><trkpt lat="-27.001185" lon="-48.63001"><ele>0.9</ele></trkpt><trkpt lat="-27.001198" lon="-48.630012"><ele>1.3</ele></trkpt><trkpt lat="-27.00121" lon="-48.63001"><ele>1.7</ele></trkpt><trkpt lat="-27.001218" lon="-48.630008"><ele>2.1</ele></trkpt><trkpt lat="-27.001223" lon="-48.630005"><ele>2.7</ele></trkpt><trkpt lat="-27.001232" lon="-48.630003"><ele>3.8</ele></trkpt><trkpt lat="-27.001243" lon="-48.630002"><ele>4.8</ele></trkpt><trkpt lat="-27.001252" lon="-48.63"><ele>6.1</ele></trkpt><trkpt lat="-27.001263" lon="-48.629993"><ele>7.1</ele></trkpt><trkpt lat="-27.001273" lon="-48.62999"><ele>8.2</ele></trkpt><trkpt lat="-27.001285" lon="-48.629983"><ele>9.4</ele></trkpt><trkpt lat="-27.001295" lon="-48.629978"><ele>10.6</ele></trkpt><trkpt lat="-27.001302" lon="-48.629977"><ele>11.9</ele></trkpt><trkpt lat="-27.001302" lon="-48.629978"><ele>12.8</ele></trkpt><trkpt lat="-27.001302" lon="-48.629982"><ele>12.6</ele></trkpt><trkpt lat="-27.001298" lon="-48.629983"><ele>12.9</ele></trkpt><trkpt lat="-27.001293" lon="-48.629985"><ele>12.8</ele></trkpt><trkpt lat="-27.00128" lon="-48.629982"><ele>12.9</ele></trkpt><trkpt lat="-27.001267" lon="-48.62998"><ele>13.1</ele></trkpt><trkpt lat="-27.00125" lon="-48.62998"><ele>13.5</ele></trkpt><trkpt lat="-27.001232" lon="-48.629982"><ele>13.5</ele></trkpt><trkpt lat="-27.001208" lon="-48.629977"><ele>13.3</ele></trkpt><trkpt lat="-27.001185" lon="-48.62997"><ele>12.5</ele></trkpt><trkpt lat="-27.001158" lon="-48.629965"><ele>12</ele></trkpt><trkpt lat="-27.00114" lon="-48.629967"><ele>11.1</ele></trkpt><trkpt lat="-27.001132" lon="-48.629968"><ele>10.9</ele></trkpt><trkpt lat="-27.00113" lon="-48.629972"><ele>10.4</ele></trkpt><trkpt lat="-27.001127" lon="-48.629975"><ele>10</ele></trkpt><trkpt lat="-27.001123" lon="-48.629977"><ele>9.8</ele></trkpt><trkpt lat="-27.001123" lon="-48.629982"><ele>9.3</ele></trkpt><trkpt lat="-27.001125" lon="-48.629985"><ele>9</ele></trkpt><trkpt lat="-27.001125" lon="-48.62999"><ele>8.8</ele></trkpt><trkpt lat="-27.001128" lon="-48.629995"><ele>8.7</ele></trkpt><trkpt lat="-27.001128" lon="-48.629995"><ele>8.7</ele></trkpt><trkpt lat="-27.001127" lon="-48.629995"><ele>8.6</ele></trkpt><trkpt lat="-27.00112" lon="-48.629988"><ele>8.1</ele></trkpt><trkpt lat="-27.001118" lon="-48.629998"><ele>7.9</ele></trkpt><trkpt lat="-27.001118" lon="-48.629998"><ele>7.9</ele></trkpt><trkpt lat="-27.001117" lon="-48.630007"><ele>7.8</ele></trkpt><trkpt lat="-27.001117" lon="-48.630012"><ele>7.8</ele></trkpt><trkpt lat="-27.00112" lon="-48.630013"><ele>7.7</ele></trkpt><trkpt lat="-27.001123" lon="-48.630017"><ele>7.6</ele></trkpt><trkpt lat="-27.001127" lon="-48.630022"><ele>7.5</ele></trkpt><trkpt lat="-27.001132" lon="-48.630025"><ele>7.5</ele></trkpt><trkpt lat="-27.001137" lon="-48.630028"><ele>7.4</ele></trkpt><trkpt lat="-27.001142" lon="-48.630032"><ele>7.3</ele></trkpt><trkpt lat="-27.001145" lon="-48.630033"><ele>7.2</ele></trkpt><trkpt lat="-27.00115" lon="-48.630035"><ele>7.2</ele></trkpt><trkpt lat="-27.001152" lon="-48.630037"><ele>7.1</ele></trkpt><trkpt lat="-27.001153" lon="-48.630038"><ele>7.1</ele></trkpt><trkpt lat="-27.001155" lon="-48.630037"><ele>7</ele></trkpt><trkpt lat="-27.001155" lon="-48.630037"><ele>7</ele></trkpt><trkpt lat="-27.001155" lon="-48.630035"><ele>7</ele></trkpt><trkpt lat="-27.001157" lon="-48.630032"><ele>7</ele></trkpt><trkpt lat="-27.001157" lon="-48.63003"><ele>7</ele></trkpt><trkpt lat="-27.001157" lon="-48.630027"><ele>7</ele></trkpt><trkpt lat="-27.001158" lon="-48.630023"><ele>7</ele></trkpt><trkpt lat="-27.00116" lon="-48.630022"><ele>7</ele></trkpt><trkpt lat="-27.001162" lon="-48.630018"><ele>7</ele></trkpt><trkpt lat="-27.001162" lon="-48.630015"><ele>7</ele></trkpt><trkpt lat="-27.001162" lon="-48.630012"><ele>6.9</ele></trkpt><trkpt lat="-27.00116" lon="-48.630012"><ele>6.9</ele></trkpt><trkpt lat="-27.001158" lon="-48.630013"><ele>6.9</ele></trkpt><trkpt lat="-27.001155" lon="-48.630013"><ele>6.9</ele></trkpt><trkpt lat="-27.001155" lon="-48.630013"><ele>7</ele></trkpt></trkseg></trk></gpx>