<?xml version="1.0" encoding="UTF-8"?>
<gpx xmlns="http://www.topografix.com/GPX/1/1" version="1.1" creator="@dwayneparton/geojson-to-gpx"><wpt lat="-27.03253171" lon="-48.66747186"><ele>10.184295654296875</ele><name>1 faixa</name></wpt><wpt lat="-27.03219232" lon="-48.66795124"><ele>16.49102783203125</ele><name>11</name></wpt><wpt lat="-27.03223379" lon="-48.66791868"><ele>11.75439453125</ele><name>296</name></wpt><wpt lat="-27.032181" lon="-48.667959"><ele>7.107022832932359</ele><name>632</name></wpt><wpt lat="-27.032175" lon="-48.667984"><ele>7.155800679745719</ele><name>1482</name></wpt><wpt lat="-27.03121502" lon="-48.66928471"><ele>14.12738037109375</ele><name>A ciclo é completamente reta.</name></wpt><wpt lat="-27.03219232" lon="-48.66795124"><ele>16.49102783203125</ele><name>Área de amortecimento da ciclo (cm)</name></wpt><wpt lat="-27.03222792" lon="-48.66792156"><ele>11.86224365234375</ele><name>Área transitável da ciclo (cm)</name></wpt><wpt lat="-27.03254063" lon="-48.66743455"><ele>13.477294921875</ele><name>Ausência de conexão entre ciclos.</name></wpt><wpt lat="-27.0317439" lon="-48.66855247"><ele>12.5784912109375</ele><name>Ausência de conexão entre ciclos.</name></wpt><wpt lat="-27.03253565" lon="-48.66745138"><ele>12.76416015625</ele><name>Bidirecional</name></wpt><wpt lat="-27.03253757" lon="-48.66744422"><ele>13.072021484375</ele><name>Bidirecional com Mão Inglesa</name></wpt><wpt lat="-27.03121442" lon="-48.66929329"><ele>14.5615234375</ele><name>Bom estado</name></wpt><wpt lat="-27.03253693" lon="-48.66744072"><ele>14.17047119140625</ele><name>Ciclovia</name></wpt><wpt lat="-27.03224774" lon="-48.66786628"><ele>12.37066650390625</ele><name>Desnível</name></wpt><wpt lat="-27.03253271" lon="-48.66747427"><ele>9.722747802734375</ele><name>Estacionamento dos dois lados</name></wpt><wpt lat="-27.03218144" lon="-48.66795902"><ele>18.84161376953125</ele><name>Faixa de carros logo ao lado da ciclo (cm)</name></wpt><wpt lat="-27.03252855" lon="-48.66746279"><ele>11.70989990234375</ele><name>Foto</name></wpt><wpt lat="-27.03219149" lon="-48.66793149"><ele>12.7069091796875</ele><name>Foto</name></wpt><wpt lat="-27.03185353" lon="-48.6684069"><ele>12.58538818359375</ele><name>Foto</name></wpt><wpt lat="-27.03175027" lon="-48.66856433"><ele>13.21710205078125</ele><name>Foto</name></wpt><wpt lat="-27.03148285" lon="-48.66892191"><ele>10.614013671875</ele><name>Foto</name></wpt><wpt lat="-27.03121056" lon="-48.66927098"><ele>12.03460693359375</ele><name>Foto</name></wpt><wpt lat="-27.03254138" lon="-48.66746623"><ele>10.580810546875</ele><name>Guias</name></wpt><wpt lat="-27.03121437" lon="-48.6693036"><ele>15.24951171875</ele><name>Iluminação geral na via do outro lado da infraestrutura</name></wpt><wpt lat="-27.03254633" lon="-48.66747812"><ele>10.339111328125</ele><name>lajota hexagonal de concreto </name></wpt><wpt lat="-27.03121198" lon="-48.66928236"><ele>13.6400146484375</ele><name>Não há árvores nem mudas</name></wpt><wpt lat="-27.03255037" lon="-48.66745724"><ele>12.4188232421875</ele><name>No canteiro central</name></wpt><wpt lat="-27.03254392" lon="-48.66747717"><ele>10.76611328125</ele><name>Outro pavimento</name></wpt><wpt lat="-27.03255648" lon="-48.66746131"><ele>11.90350341796875</ele><name>Pista dupla</name></wpt><wpt lat="-27.03174062" lon="-48.66855659"><ele>12.78106689453125</ele><name>R3m0v3r Bicicletário 🗑️</name></wpt><wpt lat="-27.03253452" lon="-48.66744678"><ele>12.79205322265625</ele><name>R3m0v3r Tipo de Ciclo 🗑️</name></wpt><wpt lat="-27.03121681" lon="-48.66928479"><ele>13.4248046875</ele><name>SE CICLOVIA: segregação impede completamente a invasão de automóvel e não há trechos desprotegidos</name></wpt><wpt lat="-27.03121487" lon="-48.66928352"><ele>14.0533447265625</ele><name>Segregadores DIFICULTAM o acesso parcialmente de ciclistas</name></wpt><wpt lat="-27.03253963" lon="-48.66744268"><ele>11.97100830078125</ele><name>SEM pintura no cruzamento</name></wpt><wpt lat="-27.03218947" lon="-48.66795742"><ele>14.530029296875</ele><name>SEM pintura no cruzamento</name></wpt><wpt lat="-27.03185732" lon="-48.6684061"><ele>12.835693359375</ele><name>SEM pintura no cruzamento</name></wpt><wpt lat="-27.03147767" lon="-48.66891869"><ele>12.17852783203125</ele><name>SEM pintura no cruzamento</name></wpt><wpt lat="-27.03121478" lon="-48.6693053"><ele>15.5477294921875</ele><name>sem pintura ou sinalização </name></wpt><wpt lat="-27.03217504" lon="-48.66798343"><ele>19.01318359375</ele><name>Total da via (incluindo a ciclo) (cm)</name></wpt><wpt lat="-27.032555" lon="-48.667505"><name>Ciclovia começa/termina muito antes da esquina</name></wpt><wpt lat="-27.031238" lon="-48.669289"><name>Ciclovia começa/termina muito antes da esquina</name></wpt><wpt lat="-27.032499" lon="-48.667531"><name>Outro pavimento</name></wpt><trk><name>Ciclovia Av. Buenos Aires - Cb</name><trkseg><trkpt lat="-27.03264251" lon="-48.66744524"><ele>22.03082275390625</ele></trkpt><trkpt lat="-27.0325355" lon="-48.66748678"><ele>15.1103515625</ele></trkpt><trkpt lat="-27.03252888" lon="-48.6674561"><ele>9.230499267578125</ele></trkpt><trkpt lat="-27.03255708" lon="-48.66746"><ele>9.330657958984375</ele></trkpt><trkpt lat="-27.03255328" lon="-48.66744971"><ele>10.6488037109375</ele></trkpt><trkpt lat="-27.03254152" lon="-48.66745279"><ele>11.336395263671875</ele></trkpt><trkpt lat="-27.03254156" lon="-48.66744194"><ele>11.6826171875</ele></trkpt><trkpt lat="-27.03253831" lon="-48.66746651"><ele>10.960479736328125</ele></trkpt><trkpt lat="-27.03253293" lon="-48.66747238"><ele>11.132080078125</ele></trkpt><trkpt lat="-27.03252561" lon="-48.66747408"><ele>11.338043212890625</ele></trkpt><trkpt lat="-27.03252118" lon="-48.66747327"><ele>11.6375732421875</ele></trkpt><trkpt lat="-27.0325228" lon="-48.66747185"><ele>11.5142822265625</ele></trkpt><trkpt lat="-27.03252599" lon="-48.66747165"><ele>11.206329345703125</ele></trkpt><trkpt lat="-27.03252603" lon="-48.66747183"><ele>11.3076171875</ele></trkpt><trkpt lat="-27.03252255" lon="-48.66747333"><ele>11.355560302734375</ele></trkpt><trkpt lat="-27.03251901" lon="-48.66747401"><ele>11.5621337890625</ele></trkpt><trkpt lat="-27.03251598" lon="-48.66747822"><ele>10.92584228515625</ele></trkpt><trkpt lat="-27.03251802" lon="-48.66747561"><ele>11.15960693359375</ele></trkpt><trkpt lat="-27.03252364" lon="-48.66746979"><ele>11.845306396484375</ele></trkpt><trkpt lat="-27.03252855" lon="-48.66746279"><ele>11.70989990234375</ele></trkpt><trkpt lat="-27.03252855" lon="-48.66746279"><ele>11.70989990234375</ele></trkpt><trkpt lat="-27.03252929" lon="-48.6674607"><ele>12.02459716796875</ele></trkpt><trkpt lat="-27.03253492" lon="-48.66745934"><ele>11.798675537109375</ele></trkpt><trkpt lat="-27.03253838" lon="-48.66745267"><ele>11.647186279296875</ele></trkpt><trkpt lat="-27.03253962" lon="-48.66744589"><ele>11.876953125</ele></trkpt><trkpt lat="-27.03253963" lon="-48.66744268"><ele>11.97100830078125</ele></trkpt><trkpt lat="-27.03253963" lon="-48.66744268"><ele>11.97100830078125</ele></trkpt><trkpt lat="-27.03254063" lon="-48.66743455"><ele>13.477294921875</ele></trkpt><trkpt lat="-27.03254063" lon="-48.66743455"><ele>13.477294921875</ele></trkpt><trkpt lat="-27.03254257" lon="-48.66743125"><ele>13.85260009765625</ele></trkpt><trkpt lat="-27.03254297" lon="-48.66742992"><ele>13.9359130859375</ele></trkpt><trkpt lat="-27.03254181" lon="-48.66742833"><ele>14.14080810546875</ele></trkpt><trkpt lat="-27.03253886" lon="-48.66742792"><ele>14.1397705078125</ele></trkpt><trkpt lat="-27.03253596" lon="-48.66743186"><ele>13.96014404296875</ele></trkpt><trkpt lat="-27.03253721" lon="-48.66743609"><ele>13.4815673828125</ele></trkpt><trkpt lat="-27.03253684" lon="-48.6674382"><ele>13.79290771484375</ele></trkpt><trkpt lat="-27.03253693" lon="-48.66744072"><ele>14.17047119140625</ele></trkpt><trkpt lat="-27.03253693" lon="-48.66744072"><ele>14.17047119140625</ele></trkpt><trkpt lat="-27.03253757" lon="-48.66744422"><ele>13.072021484375</ele></trkpt><trkpt lat="-27.03253757" lon="-48.66744422"><ele>13.072021484375</ele></trkpt><trkpt lat="-27.03253576" lon="-48.66744692"><ele>12.7579345703125</ele></trkpt><trkpt lat="-27.03253452" lon="-48.66744678"><ele>12.79205322265625</ele></trkpt><trkpt lat="-27.03253452" lon="-48.66744678"><ele>12.79205322265625</ele></trkpt><trkpt lat="-27.03253452" lon="-48.66744847"><ele>12.8782958984375</ele></trkpt><trkpt lat="-27.03253565" lon="-48.66745138"><ele>12.76416015625</ele></trkpt><trkpt lat="-27.03253565" lon="-48.66745138"><ele>12.76416015625</ele></trkpt><trkpt lat="-27.03253978" lon="-48.6674568"><ele>12.75726318359375</ele></trkpt><trkpt lat="-27.03254329" lon="-48.66746134"><ele>11.05914306640625</ele></trkpt><trkpt lat="-27.03254747" lon="-48.66746258"><ele>12.11444091796875</ele></trkpt><trkpt lat="-27.03255037" lon="-48.66745724"><ele>12.4188232421875</ele></trkpt><trkpt lat="-27.03255037" lon="-48.66745724"><ele>12.4188232421875</ele></trkpt><trkpt lat="-27.03255309" lon="-48.66745593"><ele>12.54571533203125</ele></trkpt><trkpt lat="-27.03255471" lon="-48.66745839"><ele>12.257568359375</ele></trkpt><trkpt lat="-27.03255648" lon="-48.66746131"><ele>11.90350341796875</ele></trkpt><trkpt lat="-27.03255648" lon="-48.66746131"><ele>11.90350341796875</ele></trkpt><trkpt lat="-27.03255746" lon="-48.66746386"><ele>11.81671142578125</ele></trkpt><trkpt lat="-27.03255729" lon="-48.66746874"><ele>12.5</ele></trkpt><trkpt lat="-27.03255511" lon="-48.66746983"><ele>12.15283203125</ele></trkpt><trkpt lat="-27.03255102" lon="-48.66747131"><ele>11.08392333984375</ele></trkpt><trkpt lat="-27.03254687" lon="-48.66747219"><ele>10.86492919921875</ele></trkpt><trkpt lat="-27.03254372" lon="-48.66747018"><ele>10.9365234375</ele></trkpt><trkpt lat="-27.03254283" lon="-48.6674681"><ele>10.98583984375</ele></trkpt><trkpt lat="-27.03254166" lon="-48.66746609"><ele>10.967376708984375</ele></trkpt><trkpt lat="-27.03254111" lon="-48.66746399"><ele>10.97113037109375</ele></trkpt><trkpt lat="-27.03254171" lon="-48.66746464"><ele>10.677490234375</ele></trkpt><trkpt lat="-27.03254138" lon="-48.66746623"><ele>10.580810546875</ele></trkpt><trkpt lat="-27.03254138" lon="-48.66746623"><ele>10.580810546875</ele></trkpt><trkpt lat="-27.03254203" lon="-48.66746752"><ele>10.475067138671875</ele></trkpt><trkpt lat="-27.03254267" lon="-48.66746833"><ele>10.46551513671875</ele></trkpt><trkpt lat="-27.03254279" lon="-48.66746895"><ele>10.54736328125</ele></trkpt><trkpt lat="-27.03254289" lon="-48.66746849"><ele>11.0047607421875</ele></trkpt><trkpt lat="-27.03254203" lon="-48.66746664"><ele>11.20330810546875</ele></trkpt><trkpt lat="-27.03254181" lon="-48.66746778"><ele>11.071685791015625</ele></trkpt><trkpt lat="-27.03254244" lon="-48.66747042"><ele>11.278350830078125</ele></trkpt><trkpt lat="-27.03254456" lon="-48.66747385"><ele>10.964019775390625</ele></trkpt><trkpt lat="-27.0325441" lon="-48.66747637"><ele>10.845184326171875</ele></trkpt><trkpt lat="-27.03254352" lon="-48.66747681"><ele>10.865020751953125</ele></trkpt><trkpt lat="-27.03254296" lon="-48.66747704"><ele>10.902252197265625</ele></trkpt><trkpt lat="-27.0325432" lon="-48.66747695"><ele>10.841156005859375</ele></trkpt><trkpt lat="-27.03254392" lon="-48.66747717"><ele>10.76611328125</ele></trkpt><trkpt lat="-27.03254392" lon="-48.66747717"><ele>10.76611328125</ele></trkpt><trkpt lat="-27.03254633" lon="-48.66747812"><ele>10.339111328125</ele></trkpt><trkpt lat="-27.03254633" lon="-48.66747812"><ele>10.339111328125</ele></trkpt><trkpt lat="-27.03254917" lon="-48.66747615"><ele>10.398834228515625</ele></trkpt><trkpt lat="-27.03255114" lon="-48.6674756"><ele>10.46746826171875</ele></trkpt><trkpt lat="-27.0325524" lon="-48.66747582"><ele>10.575653076171875</ele></trkpt><trkpt lat="-27.03255429" lon="-48.66747605"><ele>10.497344970703125</ele></trkpt><trkpt lat="-27.03255464" lon="-48.66747668"><ele>10.606689453125</ele></trkpt><trkpt lat="-27.03255476" lon="-48.66747588"><ele>10.618927001953125</ele></trkpt><trkpt lat="-27.03255477" lon="-48.66747476"><ele>10.561065673828125</ele></trkpt><trkpt lat="-27.03255469" lon="-48.66747385"><ele>10.540313720703125</ele></trkpt><trkpt lat="-27.03255503" lon="-48.66747301"><ele>10.414886474609375</ele></trkpt><trkpt lat="-27.03255458" lon="-48.66747139"><ele>11.00299072265625</ele></trkpt><trkpt lat="-27.03255385" lon="-48.66747001"><ele>10.875091552734375</ele></trkpt><trkpt lat="-27.03254965" lon="-48.66746838"><ele>10.666778564453125</ele></trkpt><trkpt lat="-27.03254766" lon="-48.66746835"><ele>10.533905029296875</ele></trkpt><trkpt lat="-27.03254723" lon="-48.66746692"><ele>10.4354248046875</ele></trkpt><trkpt lat="-27.03254705" lon="-48.66746523"><ele>10.603363037109375</ele></trkpt><trkpt lat="-27.0325473" lon="-48.66746424"><ele>10.591522216796875</ele></trkpt><trkpt lat="-27.03254746" lon="-48.66746391"><ele>10.570831298828125</ele></trkpt><trkpt lat="-27.03254683" lon="-48.66746394"><ele>10.449981689453125</ele></trkpt><trkpt lat="-27.03254528" lon="-48.66746499"><ele>10.483795166015625</ele></trkpt><trkpt lat="-27.03254449" lon="-48.6674659"><ele>10.533172607421875</ele></trkpt><trkpt lat="-27.03254264" lon="-48.66746681"><ele>10.2486572265625</ele></trkpt><trkpt lat="-27.03254185" lon="-48.66746723"><ele>10.118194580078125</ele></trkpt><trkpt lat="-27.03253974" lon="-48.66746953"><ele>9.484375</ele></trkpt><trkpt lat="-27.0325376" lon="-48.6674699"><ele>9.36279296875</ele></trkpt><trkpt lat="-27.0325368" lon="-48.66747155"><ele>9.1346435546875</ele></trkpt><trkpt lat="-27.03253636" lon="-48.66747254"><ele>9.416259765625</ele></trkpt><trkpt lat="-27.03253507" lon="-48.66747443"><ele>9.65093994140625</ele></trkpt><trkpt lat="-27.03253383" lon="-48.66747486"><ele>9.742706298828125</ele></trkpt><trkpt lat="-27.0325328" lon="-48.66747413"><ele>10.3126220703125</ele></trkpt><trkpt lat="-27.03253329" lon="-48.66747341"><ele>10.352294921875</ele></trkpt><trkpt lat="-27.03253282" lon="-48.66747212"><ele>10.266326904296875</ele></trkpt><trkpt lat="-27.03253171" lon="-48.66747186"><ele>10.184295654296875</ele></trkpt><trkpt lat="-27.03253171" lon="-48.66747186"><ele>10.184295654296875</ele></trkpt><trkpt lat="-27.03253232" lon="-48.66747258"><ele>10.105560302734375</ele></trkpt><trkpt lat="-27.03253339" lon="-48.66747258"><ele>10.041229248046875</ele></trkpt><trkpt lat="-27.03253271" lon="-48.66747427"><ele>9.722747802734375</ele></trkpt><trkpt lat="-27.03253271" lon="-48.66747427"><ele>9.722747802734375</ele></trkpt><trkpt lat="-27.03253272" lon="-48.66747475"><ele>9.591400146484375</ele></trkpt><trkpt lat="-27.03253317" lon="-48.66747388"><ele>9.3272705078125</ele></trkpt><trkpt lat="-27.03253523" lon="-48.66747112"><ele>9.334930419921875</ele></trkpt><trkpt lat="-27.03253707" lon="-48.66747205"><ele>9.50579833984375</ele></trkpt><trkpt lat="-27.03253721" lon="-48.66747571"><ele>9.69384765625</ele></trkpt><trkpt lat="-27.03253736" lon="-48.66747556"><ele>9.836395263671875</ele></trkpt><trkpt lat="-27.03253832" lon="-48.66747622"><ele>9.656524658203125</ele></trkpt><trkpt lat="-27.03253861" lon="-48.66747797"><ele>9.958160400390625</ele></trkpt><trkpt lat="-27.03253477" lon="-48.66748328"><ele>10.36077880859375</ele></trkpt><trkpt lat="-27.03252761" lon="-48.66749309"><ele>10.55609130859375</ele></trkpt><trkpt lat="-27.03251705" lon="-48.66750841"><ele>10.695587158203125</ele></trkpt><trkpt lat="-27.03250434" lon="-48.66752624"><ele>10.983795166015625</ele></trkpt><trkpt lat="-27.03248897" lon="-48.66754606"><ele>10.97589111328125</ele></trkpt><trkpt lat="-27.03247298" lon="-48.66756729"><ele>11.28240966796875</ele></trkpt><trkpt lat="-27.032457" lon="-48.66758887"><ele>11.477020263671875</ele></trkpt><trkpt lat="-27.03243999" lon="-48.66760961"><ele>11.512786865234375</ele></trkpt><trkpt lat="-27.03242327" lon="-48.66763173"><ele>11.362945556640625</ele></trkpt><trkpt lat="-27.03240759" lon="-48.66765223"><ele>11.5399169921875</ele></trkpt><trkpt lat="-27.03239169" lon="-48.66767332"><ele>11.1214599609375</ele></trkpt><trkpt lat="-27.03237491" lon="-48.66769708"><ele>10.954986572265625</ele></trkpt><trkpt lat="-27.03235874" lon="-48.66772369"><ele>10.315704345703125</ele></trkpt><trkpt lat="-27.03234799" lon="-48.66774004"><ele>10.385589599609375</ele></trkpt><trkpt lat="-27.03233458" lon="-48.66775753"><ele>10.640045166015625</ele></trkpt><trkpt lat="-27.03231936" lon="-48.66777592"><ele>10.66033935546875</ele></trkpt><trkpt lat="-27.0323044" lon="-48.66779456"><ele>10.759063720703125</ele></trkpt><trkpt lat="-27.03228737" lon="-48.66781634"><ele>11.06463623046875</ele></trkpt><trkpt lat="-27.03227055" lon="-48.66783776"><ele>12.41461181640625</ele></trkpt><trkpt lat="-27.03225578" lon="-48.66785616"><ele>12.1910400390625</ele></trkpt><trkpt lat="-27.03224886" lon="-48.6678647"><ele>12.33697509765625</ele></trkpt><trkpt lat="-27.03224829" lon="-48.6678663"><ele>12.30426025390625</ele></trkpt><trkpt lat="-27.03224774" lon="-48.66786628"><ele>12.37066650390625</ele></trkpt><trkpt lat="-27.03224774" lon="-48.66786628"><ele>12.37066650390625</ele></trkpt><trkpt lat="-27.03224475" lon="-48.66786452"><ele>13.56622314453125</ele></trkpt><trkpt lat="-27.03224271" lon="-48.66786684"><ele>13.702392578125</ele></trkpt><trkpt lat="-27.03223745" lon="-48.6678797"><ele>13.58282470703125</ele></trkpt><trkpt lat="-27.03222469" lon="-48.66790152"><ele>13.58642578125</ele></trkpt><trkpt lat="-27.03221321" lon="-48.66791951"><ele>14.4246826171875</ele></trkpt><trkpt lat="-27.03220219" lon="-48.66793597"><ele>13.83685302734375</ele></trkpt><trkpt lat="-27.03219315" lon="-48.66794993"><ele>14.04400634765625</ele></trkpt><trkpt lat="-27.03218894" lon="-48.66795684"><ele>14.1156005859375</ele></trkpt><trkpt lat="-27.03218771" lon="-48.66795816"><ele>14.25115966796875</ele></trkpt><trkpt lat="-27.03218868" lon="-48.66795684"><ele>14.650146484375</ele></trkpt><trkpt lat="-27.0321892" lon="-48.66795566"><ele>14.2103271484375</ele></trkpt><trkpt lat="-27.03218942" lon="-48.66795472"><ele>14.1981201171875</ele></trkpt><trkpt lat="-27.03218753" lon="-48.66795559"><ele>13.650634765625</ele></trkpt><trkpt lat="-27.03218811" lon="-48.6679553"><ele>13.29412841796875</ele></trkpt><trkpt lat="-27.03218836" lon="-48.66795497"><ele>13.22283935546875</ele></trkpt><trkpt lat="-27.03218995" lon="-48.66795511"><ele>13.4849853515625</ele></trkpt><trkpt lat="-27.0321914" lon="-48.66795797"><ele>13.69915771484375</ele></trkpt><trkpt lat="-27.03219152" lon="-48.66795736"><ele>14.53619384765625</ele></trkpt><trkpt lat="-27.03219152" lon="-48.66795736"><ele>14.53619384765625</ele></trkpt><trkpt lat="-27.0321906" lon="-48.66795645"><ele>14.4718017578125</ele></trkpt><trkpt lat="-27.03218947" lon="-48.66795742"><ele>14.530029296875</ele></trkpt><trkpt lat="-27.03218947" lon="-48.66795742"><ele>14.530029296875</ele></trkpt><trkpt lat="-27.03218807" lon="-48.66795766"><ele>14.92108154296875</ele></trkpt><trkpt lat="-27.03218723" lon="-48.66795779"><ele>14.8941650390625</ele></trkpt><trkpt lat="-27.03218857" lon="-48.66795691"><ele>14.23553466796875</ele></trkpt><trkpt lat="-27.03218725" lon="-48.66795645"><ele>14.184326171875</ele></trkpt><trkpt lat="-27.0321861" lon="-48.66795807"><ele>14.6435546875</ele></trkpt><trkpt lat="-27.03218703" lon="-48.66795487"><ele>14.2744140625</ele></trkpt><trkpt lat="-27.03218854" lon="-48.66795378"><ele>14.1751708984375</ele></trkpt><trkpt lat="-27.03218753" lon="-48.66795335"><ele>14.63702392578125</ele></trkpt><trkpt lat="-27.03218818" lon="-48.66795183"><ele>14.02691650390625</ele></trkpt><trkpt lat="-27.03219018" lon="-48.66795175"><ele>14.07415771484375</ele></trkpt><trkpt lat="-27.03218887" lon="-48.66795194"><ele>14.7698974609375</ele></trkpt><trkpt lat="-27.0321849" lon="-48.6679463"><ele>14.58294677734375</ele></trkpt><trkpt lat="-27.03218428" lon="-48.667944"><ele>14.1898193359375</ele></trkpt><trkpt lat="-27.03218341" lon="-48.66794383"><ele>13.283935546875</ele></trkpt><trkpt lat="-27.03218293" lon="-48.66794263"><ele>12.866943359375</ele></trkpt><trkpt lat="-27.03218392" lon="-48.66793932"><ele>13.2716064453125</ele></trkpt><trkpt lat="-27.03218857" lon="-48.66793207"><ele>13.02813720703125</ele></trkpt><trkpt lat="-27.03218909" lon="-48.66793244"><ele>13.10784912109375</ele></trkpt><trkpt lat="-27.03218927" lon="-48.6679337"><ele>13.330810546875</ele></trkpt><trkpt lat="-27.03218999" lon="-48.66793092"><ele>12.7161865234375</ele></trkpt><trkpt lat="-27.03219149" lon="-48.66793149"><ele>12.7069091796875</ele></trkpt><trkpt lat="-27.03219149" lon="-48.66793149"><ele>12.7069091796875</ele></trkpt><trkpt lat="-27.03219199" lon="-48.66793319"><ele>12.74005126953125</ele></trkpt><trkpt lat="-27.03219213" lon="-48.66793453"><ele>12.77447509765625</ele></trkpt><trkpt lat="-27.03219399" lon="-48.66793795"><ele>12.31158447265625</ele></trkpt><trkpt lat="-27.03219991" lon="-48.66794563"><ele>12.53594970703125</ele></trkpt><trkpt lat="-27.03219929" lon="-48.66795017"><ele>13.08880615234375</ele></trkpt><trkpt lat="-27.03219803" lon="-48.66795189"><ele>13.68743896484375</ele></trkpt><trkpt lat="-27.0321976" lon="-48.66795219"><ele>13.98919677734375</ele></trkpt><trkpt lat="-27.03219823" lon="-48.66795333"><ele>13.95025634765625</ele></trkpt><trkpt lat="-27.03220163" lon="-48.6679528"><ele>13.92230224609375</ele></trkpt><trkpt lat="-27.03220554" lon="-48.66794997"><ele>13.439208984375</ele></trkpt><trkpt lat="-27.03220636" lon="-48.66794657"><ele>14.00823974609375</ele></trkpt><trkpt lat="-27.03220538" lon="-48.66794534"><ele>14.0540771484375</ele></trkpt><trkpt lat="-27.03220284" lon="-48.66794413"><ele>14.025390625</ele></trkpt><trkpt lat="-27.03220622" lon="-48.66794372"><ele>14.3685302734375</ele></trkpt><trkpt lat="-27.03220852" lon="-48.6679435"><ele>14.40118408203125</ele></trkpt><trkpt lat="-27.03220832" lon="-48.66794288"><ele>14.64935302734375</ele></trkpt><trkpt lat="-27.03220883" lon="-48.6679472"><ele>14.861083984375</ele></trkpt><trkpt lat="-27.03221075" lon="-48.66794972"><ele>14.67791748046875</ele></trkpt><trkpt lat="-27.03220949" lon="-48.6679493"><ele>15.2200927734375</ele></trkpt><trkpt lat="-27.03220728" lon="-48.66794432"><ele>15.31634521484375</ele></trkpt><trkpt lat="-27.03220749" lon="-48.66794043"><ele>15.3011474609375</ele></trkpt><trkpt lat="-27.03220636" lon="-48.6679375"><ele>15.28192138671875</ele></trkpt><trkpt lat="-27.03220842" lon="-48.66793597"><ele>15.1279296875</ele></trkpt><trkpt lat="-27.03220716" lon="-48.66793622"><ele>14.997802734375</ele></trkpt><trkpt lat="-27.03220617" lon="-48.66793646"><ele>15.0338134765625</ele></trkpt><trkpt lat="-27.03220265" lon="-48.66793542"><ele>14.654296875</ele></trkpt><trkpt lat="-27.03219898" lon="-48.66793268"><ele>14.5028076171875</ele></trkpt><trkpt lat="-27.03219494" lon="-48.66792861"><ele>13.93267822265625</ele></trkpt><trkpt lat="-27.03219092" lon="-48.66792438"><ele>14.16265869140625</ele></trkpt><trkpt lat="-27.03219232" lon="-48.66792126"><ele>14.10430908203125</ele></trkpt><trkpt lat="-27.03219285" lon="-48.66792081"><ele>14.1080322265625</ele></trkpt><trkpt lat="-27.03219196" lon="-48.66791836"><ele>14.45660400390625</ele></trkpt><trkpt lat="-27.03218798" lon="-48.6679207"><ele>15.7628173828125</ele></trkpt><trkpt lat="-27.03218722" lon="-48.66792361"><ele>15.632080078125</ele></trkpt><trkpt lat="-27.03218808" lon="-48.66792549"><ele>15.77294921875</ele></trkpt><trkpt lat="-27.03218852" lon="-48.66792803"><ele>13.5487060546875</ele></trkpt><trkpt lat="-27.03218876" lon="-48.66793753"><ele>12.97088623046875</ele></trkpt><trkpt lat="-27.03218857" lon="-48.66794348"><ele>12.9609375</ele></trkpt><trkpt lat="-27.032185" lon="-48.66794849"><ele>13.27685546875</ele></trkpt><trkpt lat="-27.03218359" lon="-48.66795314"><ele>12.8214111328125</ele></trkpt><trkpt lat="-27.03217769" lon="-48.66795249"><ele>12.7237548828125</ele></trkpt><trkpt lat="-27.032173" lon="-48.667948"><ele>6.25</ele></trkpt><trkpt lat="-27.032173" lon="-48.66795"><ele>6.25</ele></trkpt><trkpt lat="-27.032153" lon="-48.667976"><ele>6.25</ele></trkpt><trkpt lat="-27.0322" lon="-48.668025"><ele>6.25</ele></trkpt><trkpt lat="-27.032228" lon="-48.667987"><ele>6.5</ele></trkpt><trkpt lat="-27.032228" lon="-48.667987"><ele>6.5</ele></trkpt><trkpt lat="-27.032268" lon="-48.667932"><ele>6.5</ele></trkpt><trkpt lat="-27.03227897" lon="-48.66794198"><ele>0.9266357421875</ele></trkpt><trkpt lat="-27.03222792" lon="-48.66792156"><ele>11.86224365234375</ele></trkpt><trkpt lat="-27.03222792" lon="-48.66792156"><ele>11.86224365234375</ele></trkpt><trkpt lat="-27.03223379" lon="-48.66791868"><ele>11.75439453125</ele></trkpt><trkpt lat="-27.03223379" lon="-48.66791868"><ele>11.75439453125</ele></trkpt><trkpt lat="-27.03223397" lon="-48.66792629"><ele>11.535003662109375</ele></trkpt><trkpt lat="-27.03222831" lon="-48.66793367"><ele>12.32012939453125</ele></trkpt><trkpt lat="-27.03221319" lon="-48.66794174"><ele>13.27618408203125</ele></trkpt><trkpt lat="-27.03220072" lon="-48.66794907"><ele>15.44793701171875</ele></trkpt><trkpt lat="-27.03219232" lon="-48.66795124"><ele>16.49102783203125</ele></trkpt><trkpt lat="-27.03219232" lon="-48.66795124"><ele>16.49102783203125</ele></trkpt><trkpt lat="-27.03219232" lon="-48.66795124"><ele>16.49102783203125</ele></trkpt><trkpt lat="-27.03218725" lon="-48.66795261"><ele>17.3485107421875</ele></trkpt><trkpt lat="-27.03218518" lon="-48.66795741"><ele>18.3492431640625</ele></trkpt><trkpt lat="-27.03218189" lon="-48.66795884"><ele>18.95941162109375</ele></trkpt><trkpt lat="-27.03218144" lon="-48.66795902"><ele>18.84161376953125</ele></trkpt><trkpt lat="-27.03218144" lon="-48.66795902"><ele>18.84161376953125</ele></trkpt><trkpt lat="-27.03218144" lon="-48.66795902"><ele>18.84161376953125</ele></trkpt><trkpt lat="-27.03218056" lon="-48.66796219"><ele>19.01983642578125</ele></trkpt><trkpt lat="-27.03217978" lon="-48.66796544"><ele>19.31964111328125</ele></trkpt><trkpt lat="-27.0321781" lon="-48.66796861"><ele>19.65887451171875</ele></trkpt><trkpt lat="-27.03217762" lon="-48.66797502"><ele>19.7281494140625</ele></trkpt><trkpt lat="-27.03217767" lon="-48.66797794"><ele>20.1534423828125</ele></trkpt><trkpt lat="-27.03217888" lon="-48.66797961"><ele>20.05950927734375</ele></trkpt><trkpt lat="-27.03217842" lon="-48.66798097"><ele>19.8682861328125</ele></trkpt><trkpt lat="-27.03217758" lon="-48.66798076"><ele>19.445068359375</ele></trkpt><trkpt lat="-27.03217599" lon="-48.66798145"><ele>19.3529052734375</ele></trkpt><trkpt lat="-27.03217504" lon="-48.66798343"><ele>19.01318359375</ele></trkpt><trkpt lat="-27.03217504" lon="-48.66798343"><ele>19.01318359375</ele></trkpt><trkpt lat="-27.03217462" lon="-48.66798443"><ele>19.16064453125</ele></trkpt><trkpt lat="-27.03217462" lon="-48.66798443"><ele>19.16064453125</ele></trkpt><trkpt lat="-27.03217206" lon="-48.66798407"><ele>19.50762939453125</ele></trkpt><trkpt lat="-27.03217217" lon="-48.66798315"><ele>19.13519287109375</ele></trkpt><trkpt lat="-27.03217098" lon="-48.6679827"><ele>19.49169921875</ele></trkpt><trkpt lat="-27.03217106" lon="-48.66798301"><ele>19.36492919921875</ele></trkpt><trkpt lat="-27.03217064" lon="-48.66797913"><ele>19.69842529296875</ele></trkpt><trkpt lat="-27.03217138" lon="-48.66797818"><ele>20.044921875</ele></trkpt><trkpt lat="-27.03216966" lon="-48.66798089"><ele>20.0748291015625</ele></trkpt><trkpt lat="-27.03216966" lon="-48.66798089"><ele>20.0748291015625</ele></trkpt><trkpt lat="-27.03216908" lon="-48.66798133"><ele>19.8360595703125</ele></trkpt><trkpt lat="-27.03217017" lon="-48.66798201"><ele>19.08843994140625</ele></trkpt><trkpt lat="-27.03217036" lon="-48.66798318"><ele>18.6126708984375</ele></trkpt><trkpt lat="-27.03216383" lon="-48.66799197"><ele>17.43096923828125</ele></trkpt><trkpt lat="-27.03215208" lon="-48.6680068"><ele>17.98822021484375</ele></trkpt><trkpt lat="-27.03213648" lon="-48.66802507"><ele>18.05499267578125</ele></trkpt><trkpt lat="-27.03212108" lon="-48.66804454"><ele>17.6771240234375</ele></trkpt><trkpt lat="-27.03210514" lon="-48.66806444"><ele>17.5240478515625</ele></trkpt><trkpt lat="-27.03209018" lon="-48.66808135"><ele>17.09039306640625</ele></trkpt><trkpt lat="-27.03207612" lon="-48.66809733"><ele>16.74383544921875</ele></trkpt><trkpt lat="-27.03206056" lon="-48.66811424"><ele>17.06243896484375</ele></trkpt><trkpt lat="-27.03204486" lon="-48.66813323"><ele>17.156494140625</ele></trkpt><trkpt lat="-27.03203203" lon="-48.66815203"><ele>16.44342041015625</ele></trkpt><trkpt lat="-27.03201806" lon="-48.66817409"><ele>16.16973876953125</ele></trkpt><trkpt lat="-27.03200425" lon="-48.66819653"><ele>15.819091796875</ele></trkpt><trkpt lat="-27.0319917" lon="-48.66821633"><ele>15.965087890625</ele></trkpt><trkpt lat="-27.03197813" lon="-48.66823767"><ele>16.1009521484375</ele></trkpt><trkpt lat="-27.03196472" lon="-48.66825856"><ele>15.86517333984375</ele></trkpt><trkpt lat="-27.03195088" lon="-48.66828014"><ele>15.642822265625</ele></trkpt><trkpt lat="-27.03193939" lon="-48.66829988"><ele>14.34552001953125</ele></trkpt><trkpt lat="-27.03192747" lon="-48.66831995"><ele>14.2388916015625</ele></trkpt><trkpt lat="-27.03191418" lon="-48.66833982"><ele>14.47125244140625</ele></trkpt><trkpt lat="-27.03190264" lon="-48.66835486"><ele>14.52960205078125</ele></trkpt><trkpt lat="-27.03189196" lon="-48.6683666"><ele>14.69549560546875</ele></trkpt><trkpt lat="-27.03188031" lon="-48.66837957"><ele>14.2803955078125</ele></trkpt><trkpt lat="-27.03186867" lon="-48.66839412"><ele>14.133056640625</ele></trkpt><trkpt lat="-27.03185991" lon="-48.66840293"><ele>13.25445556640625</ele></trkpt><trkpt lat="-27.03185582" lon="-48.66840846"><ele>13.3150634765625</ele></trkpt><trkpt lat="-27.03185565" lon="-48.66840877"><ele>12.84674072265625</ele></trkpt><trkpt lat="-27.03185732" lon="-48.6684061"><ele>12.835693359375</ele></trkpt><trkpt lat="-27.03185732" lon="-48.6684061"><ele>12.835693359375</ele></trkpt><trkpt lat="-27.03185778" lon="-48.66840535"><ele>12.833740234375</ele></trkpt><trkpt lat="-27.03185791" lon="-48.66840516"><ele>12.83514404296875</ele></trkpt><trkpt lat="-27.03185433" lon="-48.66840622"><ele>13.13238525390625</ele></trkpt><trkpt lat="-27.03185305" lon="-48.66840581"><ele>13.12481689453125</ele></trkpt><trkpt lat="-27.03185292" lon="-48.66840561"><ele>13.12548828125</ele></trkpt><trkpt lat="-27.0318529" lon="-48.66840556"><ele>13.12652587890625</ele></trkpt><trkpt lat="-27.0318529" lon="-48.66840554"><ele>13.1280517578125</ele></trkpt><trkpt lat="-27.03185292" lon="-48.66840556"><ele>13.126220703125</ele></trkpt><trkpt lat="-27.03185353" lon="-48.6684069"><ele>12.58538818359375</ele></trkpt><trkpt lat="-27.03185353" lon="-48.6684069"><ele>12.58538818359375</ele></trkpt><trkpt lat="-27.03185599" lon="-48.66840849"><ele>12.12969970703125</ele></trkpt><trkpt lat="-27.03185799" lon="-48.66840693"><ele>11.890899658203125</ele></trkpt><trkpt lat="-27.03186673" lon="-48.66839614"><ele>11.70428466796875</ele></trkpt><trkpt lat="-27.03186458" lon="-48.66839566"><ele>11.812286376953125</ele></trkpt><trkpt lat="-27.03183847" lon="-48.66841211"><ele>11.496124267578125</ele></trkpt><trkpt lat="-27.03181893" lon="-48.66843314"><ele>11.6573486328125</ele></trkpt><trkpt lat="-27.03180681" lon="-48.66845797"><ele>11.98455810546875</ele></trkpt><trkpt lat="-27.03179378" lon="-48.66848645"><ele>11.861480712890625</ele></trkpt><trkpt lat="-27.03177971" lon="-48.66850962"><ele>12.27545166015625</ele></trkpt><trkpt lat="-27.03176632" lon="-48.6685301"><ele>12.78350830078125</ele></trkpt><trkpt lat="-27.03175234" lon="-48.66854932"><ele>12.57781982421875</ele></trkpt><trkpt lat="-27.03174319" lon="-48.66856021"><ele>12.8970947265625</ele></trkpt><trkpt lat="-27.03173901" lon="-48.66856406"><ele>12.78173828125</ele></trkpt><trkpt lat="-27.03173785" lon="-48.66856381"><ele>12.7781982421875</ele></trkpt><trkpt lat="-27.03173154" lon="-48.66856471"><ele>12.58843994140625</ele></trkpt><trkpt lat="-27.03172917" lon="-48.66856357"><ele>12.9327392578125</ele></trkpt><trkpt lat="-27.03172765" lon="-48.66856369"><ele>13.13970947265625</ele></trkpt><trkpt lat="-27.03172172" lon="-48.66856396"><ele>13.62841796875</ele></trkpt><trkpt lat="-27.03172099" lon="-48.66856413"><ele>13.85736083984375</ele></trkpt><trkpt lat="-27.03172192" lon="-48.66856349"><ele>13.84783935546875</ele></trkpt><trkpt lat="-27.03172219" lon="-48.66856333"><ele>13.8446044921875</ele></trkpt><trkpt lat="-27.03172226" lon="-48.66856329"><ele>13.84222412109375</ele></trkpt><trkpt lat="-27.03172415" lon="-48.66855986"><ele>13.73919677734375</ele></trkpt><trkpt lat="-27.03172668" lon="-48.6685564"><ele>13.6749267578125</ele></trkpt><trkpt lat="-27.03173539" lon="-48.6685577"><ele>13.8056640625</ele></trkpt><trkpt lat="-27.03174094" lon="-48.66856138"><ele>13.4581298828125</ele></trkpt><trkpt lat="-27.03174441" lon="-48.6685677"><ele>13.52935791015625</ele></trkpt><trkpt lat="-27.03174512" lon="-48.66856913"><ele>13.5303955078125</ele></trkpt><trkpt lat="-27.03174854" lon="-48.66856806"><ele>13.365966796875</ele></trkpt><trkpt lat="-27.03175027" lon="-48.66856433"><ele>13.21710205078125</ele></trkpt><trkpt lat="-27.03175027" lon="-48.66856433"><ele>13.21710205078125</ele></trkpt><trkpt lat="-27.03174641" lon="-48.66855992"><ele>13.15087890625</ele></trkpt><trkpt lat="-27.03174403" lon="-48.66855613"><ele>12.95751953125</ele></trkpt><trkpt lat="-27.0317439" lon="-48.66855247"><ele>12.5784912109375</ele></trkpt><trkpt lat="-27.0317439" lon="-48.66855247"><ele>12.5784912109375</ele></trkpt><trkpt lat="-27.03174552" lon="-48.66855068"><ele>12.8560791015625</ele></trkpt><trkpt lat="-27.03174581" lon="-48.66855256"><ele>13.05303955078125</ele></trkpt><trkpt lat="-27.03174506" lon="-48.66855264"><ele>13.0728759765625</ele></trkpt><trkpt lat="-27.03174484" lon="-48.66855242"><ele>13.071044921875</ele></trkpt><trkpt lat="-27.03174479" lon="-48.66855239"><ele>13.07489013671875</ele></trkpt><trkpt lat="-27.03174323" lon="-48.66855153"><ele>13.01593017578125</ele></trkpt><trkpt lat="-27.0317432" lon="-48.66855166"><ele>12.88568115234375</ele></trkpt><trkpt lat="-27.031743" lon="-48.6685537"><ele>12.73040771484375</ele></trkpt><trkpt lat="-27.03174062" lon="-48.66855659"><ele>12.78106689453125</ele></trkpt><trkpt lat="-27.03174062" lon="-48.66855659"><ele>12.78106689453125</ele></trkpt><trkpt lat="-27.03174062" lon="-48.66855659"><ele>12.78106689453125</ele></trkpt><trkpt lat="-27.03174182" lon="-48.66855764"><ele>12.90911865234375</ele></trkpt><trkpt lat="-27.03174357" lon="-48.66855821"><ele>13.0460205078125</ele></trkpt><trkpt lat="-27.03174274" lon="-48.66856447"><ele>13.17596435546875</ele></trkpt><trkpt lat="-27.03173832" lon="-48.66857671"><ele>13.6043701171875</ele></trkpt><trkpt lat="-27.03172945" lon="-48.66859414"><ele>13.29754638671875</ele></trkpt><trkpt lat="-27.03172033" lon="-48.66861588"><ele>13.51129150390625</ele></trkpt><trkpt lat="-27.03170971" lon="-48.66863405"><ele>13.42303466796875</ele></trkpt><trkpt lat="-27.0316958" lon="-48.66864993"><ele>13.4876708984375</ele></trkpt><trkpt lat="-27.03168288" lon="-48.66866295"><ele>13.45501708984375</ele></trkpt><trkpt lat="-27.03166703" lon="-48.66867864"><ele>13.52423095703125</ele></trkpt><trkpt lat="-27.03165349" lon="-48.66869432"><ele>13.4957275390625</ele></trkpt><trkpt lat="-27.03163977" lon="-48.66871214"><ele>13.58306884765625</ele></trkpt><trkpt lat="-27.03162589" lon="-48.6687294"><ele>13.6943359375</ele></trkpt><trkpt lat="-27.03161237" lon="-48.66874482"><ele>13.23614501953125</ele></trkpt><trkpt lat="-27.03160064" lon="-48.66875887"><ele>13.1375732421875</ele></trkpt><trkpt lat="-27.03158899" lon="-48.66877577"><ele>12.837158203125</ele></trkpt><trkpt lat="-27.03157581" lon="-48.66879381"><ele>12.8701171875</ele></trkpt><trkpt lat="-27.03156185" lon="-48.6688111"><ele>13.0435791015625</ele></trkpt><trkpt lat="-27.03154926" lon="-48.66882572"><ele>12.206298828125</ele></trkpt><trkpt lat="-27.0315352" lon="-48.6688432"><ele>12.145263671875</ele></trkpt><trkpt lat="-27.03152179" lon="-48.6688626"><ele>12.41650390625</ele></trkpt><trkpt lat="-27.03151026" lon="-48.66887718"><ele>12.2642822265625</ele></trkpt><trkpt lat="-27.03149931" lon="-48.66889172"><ele>12.61895751953125</ele></trkpt><trkpt lat="-27.03148956" lon="-48.6689057"><ele>13.0084228515625</ele></trkpt><trkpt lat="-27.03148397" lon="-48.6689147"><ele>12.95166015625</ele></trkpt><trkpt lat="-27.03148063" lon="-48.66891803"><ele>12.94989013671875</ele></trkpt><trkpt lat="-27.03147855" lon="-48.66891986"><ele>12.7611083984375</ele></trkpt><trkpt lat="-27.03147699" lon="-48.66891925"><ele>12.25823974609375</ele></trkpt><trkpt lat="-27.03147767" lon="-48.66891869"><ele>12.17852783203125</ele></trkpt><trkpt lat="-27.03147767" lon="-48.66891869"><ele>12.17852783203125</ele></trkpt><trkpt lat="-27.03147791" lon="-48.66891868"><ele>12.17926025390625</ele></trkpt><trkpt lat="-27.03147796" lon="-48.66891869"><ele>12.181884765625</ele></trkpt><trkpt lat="-27.03147975" lon="-48.6689181"><ele>12.49346923828125</ele></trkpt><trkpt lat="-27.03148081" lon="-48.66891866"><ele>12.34234619140625</ele></trkpt><trkpt lat="-27.03148099" lon="-48.66891882"><ele>12.34228515625</ele></trkpt><trkpt lat="-27.0314816" lon="-48.66891953"><ele>11.564788818359375</ele></trkpt><trkpt lat="-27.03148093" lon="-48.66892107"><ele>11.266754150390625</ele></trkpt><trkpt lat="-27.03148285" lon="-48.66892191"><ele>10.614013671875</ele></trkpt><trkpt lat="-27.03148285" lon="-48.66892191"><ele>10.614013671875</ele></trkpt><trkpt lat="-27.03148378" lon="-48.66892384"><ele>10.646087646484375</ele></trkpt><trkpt lat="-27.03148426" lon="-48.6689253"><ele>10.4365234375</ele></trkpt><trkpt lat="-27.03147656" lon="-48.66892856"><ele>10.07196044921875</ele></trkpt><trkpt lat="-27.03146755" lon="-48.66893696"><ele>10.07318115234375</ele></trkpt><trkpt lat="-27.031457" lon="-48.66894987"><ele>9.876922607421875</ele></trkpt><trkpt lat="-27.03143708" lon="-48.66896963"><ele>10.2603759765625</ele></trkpt><trkpt lat="-27.03141442" lon="-48.66898415"><ele>10.168670654296875</ele></trkpt><trkpt lat="-27.03139759" lon="-48.66900045"><ele>10.44561767578125</ele></trkpt><trkpt lat="-27.03138517" lon="-48.66902018"><ele>11.066864013671875</ele></trkpt><trkpt lat="-27.0313735" lon="-48.66904035"><ele>11.021881103515625</ele></trkpt><trkpt lat="-27.03136089" lon="-48.66906144"><ele>10.947235107421875</ele></trkpt><trkpt lat="-27.03134609" lon="-48.66908446"><ele>10.881988525390625</ele></trkpt><trkpt lat="-27.03132803" lon="-48.66911104"><ele>11.185272216796875</ele></trkpt><trkpt lat="-27.03130896" lon="-48.66913752"><ele>10.87884521484375</ele></trkpt><trkpt lat="-27.03128849" lon="-48.66916884"><ele>11.093597412109375</ele></trkpt><trkpt lat="-27.03127031" lon="-48.66919513"><ele>10.55517578125</ele></trkpt><trkpt lat="-27.03125234" lon="-48.66921941"><ele>10.214080810546875</ele></trkpt><trkpt lat="-27.03123307" lon="-48.66924137"><ele>9.816314697265625</ele></trkpt><trkpt lat="-27.0312245" lon="-48.66925208"><ele>9.299774169921875</ele></trkpt><trkpt lat="-27.03122057" lon="-48.66926335"><ele>9.76239013671875</ele></trkpt><trkpt lat="-27.03122235" lon="-48.66925933"><ele>9.85504150390625</ele></trkpt><trkpt lat="-27.03122074" lon="-48.6692606"><ele>10.236114501953125</ele></trkpt><trkpt lat="-27.0312199" lon="-48.66926083"><ele>10.30718994140625</ele></trkpt><trkpt lat="-27.03120895" lon="-48.66925552"><ele>10.871429443359375</ele></trkpt><trkpt lat="-27.03121608" lon="-48.66926494"><ele>11.514556884765625</ele></trkpt><trkpt lat="-27.03121605" lon="-48.66926592"><ele>11.719512939453125</ele></trkpt><trkpt lat="-27.03121382" lon="-48.66926832"><ele>12.001708984375</ele></trkpt><trkpt lat="-27.03121243" lon="-48.66926934"><ele>12.1221923828125</ele></trkpt><trkpt lat="-27.03121056" lon="-48.66927098"><ele>12.03460693359375</ele></trkpt><trkpt lat="-27.03121056" lon="-48.66927098"><ele>12.03460693359375</ele></trkpt><trkpt lat="-27.03121061" lon="-48.66927503"><ele>11.992340087890625</ele></trkpt><trkpt lat="-27.03121053" lon="-48.6692775"><ele>12.130126953125</ele></trkpt><trkpt lat="-27.03120928" lon="-48.66928063"><ele>12.965576171875</ele></trkpt><trkpt lat="-27.03120858" lon="-48.66928386"><ele>13.10406494140625</ele></trkpt><trkpt lat="-27.03120721" lon="-48.66928618"><ele>13.23822021484375</ele></trkpt><trkpt lat="-27.03121062" lon="-48.66928636"><ele>13.02142333984375</ele></trkpt><trkpt lat="-27.03121287" lon="-48.66928543"><ele>12.9141845703125</ele></trkpt><trkpt lat="-27.03121532" lon="-48.66928457"><ele>12.71710205078125</ele></trkpt><trkpt lat="-27.03121499" lon="-48.66928312"><ele>12.81500244140625</ele></trkpt><trkpt lat="-27.03121449" lon="-48.66928284"><ele>12.9735107421875</ele></trkpt><trkpt lat="-27.03121585" lon="-48.66928367"><ele>13.22216796875</ele></trkpt><trkpt lat="-27.03121681" lon="-48.66928479"><ele>13.4248046875</ele></trkpt><trkpt lat="-27.03121681" lon="-48.66928479"><ele>13.4248046875</ele></trkpt><trkpt lat="-27.03121773" lon="-48.66928592"><ele>13.541015625</ele></trkpt><trkpt lat="-27.03121831" lon="-48.66928603"><ele>13.7623291015625</ele></trkpt><trkpt lat="-27.03121746" lon="-48.66928539"><ele>13.7735595703125</ele></trkpt><trkpt lat="-27.0312164" lon="-48.66928508"><ele>13.80828857421875</ele></trkpt><trkpt lat="-27.0312158" lon="-48.66928493"><ele>13.80810546875</ele></trkpt><trkpt lat="-27.03121517" lon="-48.66928401"><ele>13.9434814453125</ele></trkpt><trkpt lat="-27.03121487" lon="-48.66928352"><ele>14.0533447265625</ele></trkpt><trkpt lat="-27.03121487" lon="-48.66928352"><ele>14.0533447265625</ele></trkpt><trkpt lat="-27.0312149" lon="-48.66928434"><ele>14.1187744140625</ele></trkpt><trkpt lat="-27.03121502" lon="-48.66928471"><ele>14.12738037109375</ele></trkpt><trkpt lat="-27.03121502" lon="-48.66928471"><ele>14.12738037109375</ele></trkpt><trkpt lat="-27.03121503" lon="-48.66928543"><ele>14.08746337890625</ele></trkpt><trkpt lat="-27.03121423" lon="-48.66928528"><ele>13.61541748046875</ele></trkpt><trkpt lat="-27.03121299" lon="-48.66928621"><ele>13.94573974609375</ele></trkpt><trkpt lat="-27.03121352" lon="-48.66928366"><ele>13.8577880859375</ele></trkpt><trkpt lat="-27.03121201" lon="-48.66928271"><ele>14.03533935546875</ele></trkpt><trkpt lat="-27.03121198" lon="-48.66928236"><ele>13.6400146484375</ele></trkpt><trkpt lat="-27.03121198" lon="-48.66928236"><ele>13.6400146484375</ele></trkpt><trkpt lat="-27.03121356" lon="-48.66928533"><ele>13.7027587890625</ele></trkpt><trkpt lat="-27.0312124" lon="-48.66928813"><ele>13.5474853515625</ele></trkpt><trkpt lat="-27.03121155" lon="-48.66929025"><ele>13.61309814453125</ele></trkpt><trkpt lat="-27.03121208" lon="-48.6692921"><ele>13.47216796875</ele></trkpt><trkpt lat="-27.03121324" lon="-48.6692935"><ele>13.70831298828125</ele></trkpt><trkpt lat="-27.03121412" lon="-48.66929326"><ele>14.214111328125</ele></trkpt><trkpt lat="-27.03121461" lon="-48.66929338"><ele>14.4752197265625</ele></trkpt><trkpt lat="-27.03121443" lon="-48.6692934"><ele>14.54461669921875</ele></trkpt><trkpt lat="-27.0312144" lon="-48.66929246"><ele>14.4896240234375</ele></trkpt><trkpt lat="-27.03121442" lon="-48.66929329"><ele>14.5615234375</ele></trkpt><trkpt lat="-27.03121442" lon="-48.66929329"><ele>14.5615234375</ele></trkpt><trkpt lat="-27.03121475" lon="-48.66929388"><ele>14.7647705078125</ele></trkpt><trkpt lat="-27.03121592" lon="-48.66929544"><ele>15.4007568359375</ele></trkpt><trkpt lat="-27.03121695" lon="-48.66929444"><ele>15.16558837890625</ele></trkpt><trkpt lat="-27.03121808" lon="-48.66929455"><ele>15.13653564453125</ele></trkpt><trkpt lat="-27.0312178" lon="-48.66929733"><ele>15.1842041015625</ele></trkpt><trkpt lat="-27.03121606" lon="-48.6693018"><ele>15.28643798828125</ele></trkpt><trkpt lat="-27.03121508" lon="-48.66930238"><ele>15.3682861328125</ele></trkpt><trkpt lat="-27.03121437" lon="-48.6693036"><ele>15.24951171875</ele></trkpt><trkpt lat="-27.03121437" lon="-48.6693036"><ele>15.24951171875</ele></trkpt><trkpt lat="-27.03121505" lon="-48.66930545"><ele>14.9847412109375</ele></trkpt><trkpt lat="-27.03121478" lon="-48.6693053"><ele>15.5477294921875</ele></trkpt><trkpt lat="-27.03121478" lon="-48.6693053"><ele>15.5477294921875</ele></trkpt><trkpt lat="-27.03121436" lon="-48.66930553"><ele>15.78643798828125</ele></trkpt><trkpt lat="-27.03121274" lon="-48.66930709"><ele>15.624755859375</ele></trkpt><trkpt lat="-27.03121072" lon="-48.66930933"><ele>15.93524169921875</ele></trkpt><trkpt lat="-27.03120824" lon="-48.66931129"><ele>16.3419189453125</ele></trkpt><trkpt lat="-27.03120631" lon="-48.66931295"><ele>16.97088623046875</ele></trkpt><trkpt lat="-27.03120471" lon="-48.66931522"><ele>17.18853759765625</ele></trkpt><trkpt lat="-27.03120441" lon="-48.66931569"><ele>17.23028564453125</ele></trkpt><trkpt lat="-27.03120378" lon="-48.66931784"><ele>17.25140380859375</ele></trkpt><trkpt lat="-27.03120459" lon="-48.66931829"><ele>17.25848388671875</ele></trkpt><trkpt lat="-27.03120467" lon="-48.66931873"><ele>17.25225830078125</ele></trkpt><trkpt lat="-27.03120523" lon="-48.66931905"><ele>17.22027587890625</ele></trkpt><trkpt lat="-27.03120399" lon="-48.66932097"><ele>17.15582275390625</ele></trkpt><trkpt lat="-27.03120444" lon="-48.66932165"><ele>17.138427734375</ele></trkpt><trkpt lat="-27.03120378" lon="-48.66932387"><ele>17.1297607421875</ele></trkpt><trkpt lat="-27.03120367" lon="-48.66932412"><ele>17.21063232421875</ele></trkpt><trkpt lat="-27.03120486" lon="-48.66932178"><ele>17.5118408203125</ele></trkpt><trkpt lat="-27.03120571" lon="-48.66932192"><ele>17.472412109375</ele></trkpt><trkpt lat="-27.03120431" lon="-48.66932144"><ele>17.847900390625</ele></trkpt><trkpt lat="-27.031179" lon="-48.669298"><ele>4.75</ele></trkpt><trkpt lat="-27.03113" lon="-48.669362"><ele>5</ele></trkpt><trkpt lat="-27.031228" lon="-48.669377"><ele>5.25</ele></trkpt><trkpt lat="-27.031496" lon="-48.668999"><ele>4.75</ele></trkpt><trkpt lat="-27.031831" lon="-48.668533"><ele>5.25</ele></trkpt><trkpt lat="-27.031875" lon="-48.66847"><ele>5.25</ele></trkpt><trkpt lat="-27.0322" lon="-48.668025"><ele>6.25</ele></trkpt><trkpt lat="-27.032153" lon="-48.667976"><ele>6.25</ele></trkpt><trkpt lat="-27.032171" lon="-48.667951"><ele>6.25</ele></trkpt></trkseg></trk></gpx>