<?xml version="1.0" encoding="UTF-8"?>
<gpx xmlns="http://www.topografix.com/GPX/1/1" version="1.1" creator="@dwayneparton/geojson-to-gpx"><wpt lat="-27.01936333333333" lon="-48.61048000000001"><ele>4</ele><name>2 faixas</name></wpt><wpt lat="-27.02043666666667" lon="-48.61063833333333"><ele>1.2000000000000002</ele><name>23</name></wpt><wpt lat="-27.021286666666665" lon="-48.61077333333333"><ele>1.8</ele><name>50km/h</name></wpt><wpt lat="-27.02043666666667" lon="-48.61063833333333"><ele>1.2000000000000002</ele><name>120</name></wpt><wpt lat="-27.02042666666667" lon="-48.61067666666666"><ele>2.6</ele><name>315</name></wpt><wpt lat="-27.02042666666667" lon="-48.61067666666666"><ele>2.6</ele><name>800</name></wpt><wpt lat="-27.021675" lon="-48.610805"><ele>1.2000000000000002</ele><name>A ciclo é completamente reta.</name></wpt><wpt lat="-27.021675" lon="-48.610805"><ele>1.2000000000000002</ele><name>A pintura está boa, mas FALHA em ALGUNS pontos</name></wpt><wpt lat="-27.01936333333333" lon="-48.61048000000001"><ele>4</ele><name>Apenas faixas vermelhas nas bordas</name></wpt><wpt lat="-27.02043666666667" lon="-48.61063833333333"><ele>1.2000000000000002</ele><name>Área de amortecimento da ciclo (cm)</name></wpt><wpt lat="-27.02043666666667" lon="-48.61063833333333"><ele>1.2000000000000002</ele><name>Área transitável da ciclo (cm)</name></wpt><wpt lat="-27.01936333333333" lon="-48.61048000000001"><ele>4</ele><name>Asfalto</name></wpt><wpt lat="-27.021696" lon="-48.610818"><name>Ausência de conexão entre ciclos.</name></wpt><wpt lat="-27.01936333333333" lon="-48.61048000000001"><ele>4</ele><name>Bidirecional</name></wpt><wpt lat="-27.01936166666667" lon="-48.61048000000001"><ele>4.4</ele><name>Ciclofaixa</name></wpt><wpt lat="-27.01936333333333" lon="-48.61048000000001"><ele>4</ele><name>Em bordo de Via de Mão Dupla</name></wpt><wpt lat="-27.01936333333333" lon="-48.61048000000001"><ele>4</ele><name>Estacionamento proibido na via</name></wpt><wpt lat="-27.02042666666667" lon="-48.61067666666666"><ele>2.6</ele><name>Faixa de carros logo ao lado da ciclo (cm)</name></wpt><wpt lat="-27.019341666666666" lon="-48.61057000000001"><ele>31.200000000000003</ele><name>Foto</name></wpt><wpt lat="-27.019906666666664" lon="-48.61059"><ele>3.7</ele><name>Foto</name></wpt><wpt lat="-27.020605" lon="-48.61067"><ele>3.2</ele><name>Foto</name></wpt><wpt lat="-27.021296666666665" lon="-48.610796666666666"><ele>3.3</ele><name>Foto</name></wpt><wpt lat="-27.021374999999995" lon="-48.610801666666674"><ele>5</ele><name>Foto</name></wpt><wpt lat="-27.021373333333333" lon="-48.610798333333335"><ele>5.300000000000001</ele><name>Foto</name></wpt><wpt lat="-27.021635" lon="-48.610788333333325"><ele>3.1</ele><name>Foto</name></wpt><wpt lat="-27.021675" lon="-48.610805"><ele>1.2000000000000002</ele><name>Iluminação geral na via do outro lado da infraestrutura</name></wpt><wpt lat="-27.02136833333333" lon="-48.61079333333334"><ele>5.1</ele><name>Lombadas físicas</name></wpt><wpt lat="-27.01936333333333" lon="-48.61048000000001"><ele>4</ele><name>Mão Dupla</name></wpt><wpt lat="-27.02061" lon="-48.61067500000001"><ele>2.8</ele><name>Outro obstáculo</name></wpt><wpt lat="-27.021675" lon="-48.610805"><ele>1.2000000000000002</ele><name>Pequenas imperfeições, como fissuras</name></wpt><wpt lat="-27.021373333333333" lon="-48.610798333333335"><ele>5.300000000000001</ele><name>R-34</name></wpt><wpt lat="-27.021675" lon="-48.610805"><ele>1.2000000000000002</ele><name>SE CICLOFAIXA: para invadir a ciclo parte do automóvel passa obrigatoriamente por cima de segregadores</name></wpt><wpt lat="-27.021670000000004" lon="-48.61080833333334"><ele>4.1</ele><name>SEM pintura no cruzamento</name></wpt><wpt lat="-27.021675" lon="-48.610805"><ele>1.2000000000000002</ele><name>Sombras em alguns trechos, SEM mudas novas</name></wpt><wpt lat="-27.01936333333333" lon="-48.61048000000001"><ele>4</ele><name>Tachões</name></wpt><wpt lat="-27.020606666666662" lon="-48.61067333333334"><ele>2.9000000000000004</ele><name>tampa de inspeção rebaixada</name></wpt><wpt lat="-27.02042666666667" lon="-48.61067666666666"><ele>2.6</ele><name>Total da via (incluindo a ciclo) (cm)</name></wpt><trk><name>Ciclofaixa R. Edgar Linhares T1 - BC</name><trkseg><trkpt lat="-27.019668333333335" lon="-48.61031333333334"><ele>38.800000000000004</ele></trkpt><trkpt lat="-27.019463333333338" lon="-48.6104"><ele>33.2</ele></trkpt><trkpt lat="-27.019389999999998" lon="-48.61043166666666"><ele>26.1</ele></trkpt><trkpt lat="-27.01935" lon="-48.61040500000001"><ele>9.4</ele></trkpt><trkpt lat="-27.019333333333332" lon="-48.61041"><ele>6.9</ele></trkpt><trkpt lat="-27.019335" lon="-48.61044333333333"><ele>3.5</ele></trkpt><trkpt lat="-27.019323333333332" lon="-48.61045666666667"><ele>-1</ele></trkpt><trkpt lat="-27.019325000000002" lon="-48.610459999999996"><ele>-2.4999999999999996</ele></trkpt><trkpt lat="-27.019328333333338" lon="-48.61047166666667"><ele>-2.4999999999999996</ele></trkpt><trkpt lat="-27.01933" lon="-48.61047166666667"><ele>-2.4999999999999996</ele></trkpt><trkpt lat="-27.019328333333338" lon="-48.61047666666666"><ele>-2.4999999999999996</ele></trkpt><trkpt lat="-27.019323333333332" lon="-48.61046833333333"><ele>-2.6</ele></trkpt><trkpt lat="-27.019315" lon="-48.61048833333333"><ele>-3.1</ele></trkpt><trkpt lat="-27.019238333333337" lon="-48.61044666666667"><ele>-3.4999999999999996</ele></trkpt><trkpt lat="-27.01921666666666" lon="-48.61040333333334"><ele>-4.199999999999999</ele></trkpt><trkpt lat="-27.019215" lon="-48.61040333333334"><ele>-4.300000000000001</ele></trkpt><trkpt lat="-27.01921333333333" lon="-48.61040833333333"><ele>-4.1</ele></trkpt><trkpt lat="-27.019238333333337" lon="-48.610416666666666"><ele>-3.4999999999999996</ele></trkpt><trkpt lat="-27.019281666666664" lon="-48.610436666666665"><ele>-3.1999999999999997</ele></trkpt><trkpt lat="-27.019340000000003" lon="-48.61047166666667"><ele>-2</ele></trkpt><trkpt lat="-27.019341666666666" lon="-48.610465000000005"><ele>-2.1</ele></trkpt><trkpt lat="-27.019343333333335" lon="-48.610465000000005"><ele>-2</ele></trkpt><trkpt lat="-27.01935" lon="-48.61046666666666"><ele>-1.6</ele></trkpt><trkpt lat="-27.019355000000004" lon="-48.61046833333333"><ele>-1.5</ele></trkpt><trkpt lat="-27.019356666666667" lon="-48.61046666666666"><ele>-1.5</ele></trkpt><trkpt lat="-27.019355000000004" lon="-48.61046666666666"><ele>-1.4</ele></trkpt><trkpt lat="-27.019355000000004" lon="-48.610465000000005"><ele>-1.2999999999999998</ele></trkpt><trkpt lat="-27.019353333333335" lon="-48.610465000000005"><ele>-1.4</ele></trkpt><trkpt lat="-27.01935166666666" lon="-48.610461666666666"><ele>-1.4</ele></trkpt><trkpt lat="-27.01935" lon="-48.610459999999996"><ele>-1.5</ele></trkpt><trkpt lat="-27.01934833333333" lon="-48.610459999999996"><ele>-1.6999999999999997</ele></trkpt><trkpt lat="-27.019344999999998" lon="-48.610461666666666"><ele>-1.7999999999999998</ele></trkpt><trkpt lat="-27.019344999999998" lon="-48.61046833333333"><ele>-2</ele></trkpt><trkpt lat="-27.019343333333335" lon="-48.61047166666667"><ele>-2</ele></trkpt><trkpt lat="-27.019341666666666" lon="-48.61047666666666"><ele>-1.9</ele></trkpt><trkpt lat="-27.019343333333335" lon="-48.61047833333334"><ele>-1.9</ele></trkpt><trkpt lat="-27.019344999999998" lon="-48.61048000000001"><ele>-1.9</ele></trkpt><trkpt lat="-27.019346666666667" lon="-48.61047666666666"><ele>-1.9</ele></trkpt><trkpt lat="-27.01935166666666" lon="-48.610474999999994"><ele>-1.9</ele></trkpt><trkpt lat="-27.019353333333335" lon="-48.610474999999994"><ele>-1.7999999999999998</ele></trkpt><trkpt lat="-27.019355000000004" lon="-48.610473333333324"><ele>-1.7999999999999998</ele></trkpt><trkpt lat="-27.019358333333336" lon="-48.610473333333324"><ele>-1.9</ele></trkpt><trkpt lat="-27.01936166666667" lon="-48.61047166666667"><ele>-2.1</ele></trkpt><trkpt lat="-27.01936166666667" lon="-48.61047"><ele>-2.3</ele></trkpt><trkpt lat="-27.01936166666667" lon="-48.61046833333333"><ele>-2.3</ele></trkpt><trkpt lat="-27.01936166666667" lon="-48.61046833333333"><ele>-2.3</ele></trkpt><trkpt lat="-27.01936166666667" lon="-48.61046833333333"><ele>-2.3</ele></trkpt><trkpt lat="-27.01936166666667" lon="-48.61046833333333"><ele>-2.3</ele></trkpt><trkpt lat="-27.01936166666667" lon="-48.61046833333333"><ele>-2.3</ele></trkpt><trkpt lat="-27.01936166666667" lon="-48.61046833333333"><ele>-2.3</ele></trkpt><trkpt lat="-27.01936166666667" lon="-48.61046833333333"><ele>-2.3</ele></trkpt><trkpt lat="-27.01936166666667" lon="-48.61046833333333"><ele>-2.3</ele></trkpt><trkpt lat="-27.01936166666667" lon="-48.61046833333333"><ele>-2.3</ele></trkpt><trkpt lat="-27.01936166666667" lon="-48.61046833333333"><ele>-2.3</ele></trkpt><trkpt lat="-27.01936166666667" lon="-48.61046833333333"><ele>-2.3</ele></trkpt><trkpt lat="-27.01936166666667" lon="-48.61046833333333"><ele>-2.3</ele></trkpt><trkpt lat="-27.01936166666667" lon="-48.61046833333333"><ele>-2.3</ele></trkpt><trkpt lat="-27.01936166666667" lon="-48.61046833333333"><ele>-2.3</ele></trkpt><trkpt lat="-27.01936166666667" lon="-48.61046833333333"><ele>-2.3</ele></trkpt><trkpt lat="-27.01936166666667" lon="-48.61046833333333"><ele>-2.3</ele></trkpt><trkpt lat="-27.01936166666667" lon="-48.61046833333333"><ele>-2.3</ele></trkpt><trkpt lat="-27.01936166666667" lon="-48.61046833333333"><ele>-2.3</ele></trkpt><trkpt lat="-27.01935166666666" lon="-48.61045666666667"><ele>-2.1999999999999997</ele></trkpt><trkpt lat="-27.019344999999998" lon="-48.61045166666666"><ele>-2.3</ele></trkpt><trkpt lat="-27.019336666666664" lon="-48.61044833333334"><ele>-2.3</ele></trkpt><trkpt lat="-27.01933166666667" lon="-48.61045000000001"><ele>-2.3</ele></trkpt><trkpt lat="-27.01933" lon="-48.61045333333333"><ele>-2.4</ele></trkpt><trkpt lat="-27.01933" lon="-48.61045333333333"><ele>-2.1999999999999997</ele></trkpt><trkpt lat="-27.01933166666667" lon="-48.610455"><ele>-2.1999999999999997</ele></trkpt><trkpt lat="-27.01933166666667" lon="-48.610455"><ele>-2.1</ele></trkpt><trkpt lat="-27.01933166666667" lon="-48.610455"><ele>-2.1</ele></trkpt><trkpt lat="-27.01933166666667" lon="-48.610455"><ele>-2.1</ele></trkpt><trkpt lat="-27.01933166666667" lon="-48.610455"><ele>-2.1</ele></trkpt><trkpt lat="-27.01933166666667" lon="-48.610455"><ele>-2.1</ele></trkpt><trkpt lat="-27.01933166666667" lon="-48.610455"><ele>-2.1</ele></trkpt><trkpt lat="-27.01933166666667" lon="-48.610455"><ele>-2.1</ele></trkpt><trkpt lat="-27.01933166666667" lon="-48.610455"><ele>-2.1</ele></trkpt><trkpt lat="-27.01933166666667" lon="-48.610455"><ele>-2.1</ele></trkpt><trkpt lat="-27.01933166666667" lon="-48.610455"><ele>-2.1</ele></trkpt><trkpt lat="-27.01933166666667" lon="-48.610455"><ele>-2.1</ele></trkpt><trkpt lat="-27.01933166666667" lon="-48.610455"><ele>-2.1</ele></trkpt><trkpt lat="-27.01933166666667" lon="-48.610455"><ele>-2.1</ele></trkpt><trkpt lat="-27.01933166666667" lon="-48.610455"><ele>-2.1</ele></trkpt><trkpt lat="-27.01933166666667" lon="-48.610455"><ele>-2.1</ele></trkpt><trkpt lat="-27.01933166666667" lon="-48.610455"><ele>-2.1</ele></trkpt><trkpt lat="-27.01933166666667" lon="-48.610455"><ele>-2.1</ele></trkpt><trkpt lat="-27.01933166666667" lon="-48.610455"><ele>-2.1</ele></trkpt><trkpt lat="-27.01933166666667" lon="-48.610455"><ele>-2.1</ele></trkpt><trkpt lat="-27.019355000000004" lon="-48.610445"><ele>-0.3999999999999999</ele></trkpt><trkpt lat="-27.01936333333333" lon="-48.61044833333334"><ele>-0.3999999999999999</ele></trkpt><trkpt lat="-27.019368333333333" lon="-48.61045000000001"><ele>-0.6000000000000001</ele></trkpt><trkpt lat="-27.019373333333338" lon="-48.61045166666666"><ele>-0.7999999999999998</ele></trkpt><trkpt lat="-27.01937666666667" lon="-48.61045333333333"><ele>-1</ele></trkpt><trkpt lat="-27.01938" lon="-48.61045666666667"><ele>-1.1</ele></trkpt><trkpt lat="-27.019383333333334" lon="-48.61045666666667"><ele>-1.1</ele></trkpt><trkpt lat="-27.019383333333334" lon="-48.610459999999996"><ele>-1.1</ele></trkpt><trkpt lat="-27.019383333333334" lon="-48.610459999999996"><ele>-1.2999999999999998</ele></trkpt><trkpt lat="-27.019383333333334" lon="-48.610461666666666"><ele>-1.2999999999999998</ele></trkpt><trkpt lat="-27.019383333333334" lon="-48.610461666666666"><ele>-1.5</ele></trkpt><trkpt lat="-27.019383333333334" lon="-48.610461666666666"><ele>-1.6</ele></trkpt><trkpt lat="-27.019383333333334" lon="-48.610463333333335"><ele>-1.5</ele></trkpt><trkpt lat="-27.019383333333334" lon="-48.610463333333335"><ele>-1.5</ele></trkpt><trkpt lat="-27.019383333333334" lon="-48.610463333333335"><ele>-1.5</ele></trkpt><trkpt lat="-27.019383333333334" lon="-48.610463333333335"><ele>-1.5</ele></trkpt><trkpt lat="-27.019383333333334" lon="-48.610463333333335"><ele>-1.5</ele></trkpt><trkpt lat="-27.019383333333334" lon="-48.610463333333335"><ele>-1.5</ele></trkpt><trkpt lat="-27.019383333333334" lon="-48.610463333333335"><ele>-1.5</ele></trkpt><trkpt lat="-27.019383333333334" lon="-48.610463333333335"><ele>-1.5</ele></trkpt><trkpt lat="-27.019383333333334" lon="-48.610463333333335"><ele>-1.5</ele></trkpt><trkpt lat="-27.019381666666664" lon="-48.61046666666666"><ele>0</ele></trkpt><trkpt lat="-27.019371666666665" lon="-48.610474999999994"><ele>0.7000000000000001</ele></trkpt><trkpt lat="-27.019366666666663" lon="-48.610473333333324"><ele>1.5</ele></trkpt><trkpt lat="-27.019356666666667" lon="-48.610465000000005"><ele>1.9000000000000001</ele></trkpt><trkpt lat="-27.019353333333335" lon="-48.610461666666666"><ele>3.5</ele></trkpt><trkpt lat="-27.01936" lon="-48.61046666666666"><ele>3.7</ele></trkpt><trkpt lat="-27.019353333333335" lon="-48.61047166666667"><ele>3.4000000000000004</ele></trkpt><trkpt lat="-27.019353333333335" lon="-48.61046833333333"><ele>3.1</ele></trkpt><trkpt lat="-27.01935" lon="-48.610461666666666"><ele>3</ele></trkpt><trkpt lat="-27.01935" lon="-48.610459999999996"><ele>2.8</ele></trkpt><trkpt lat="-27.01935166666666" lon="-48.61045666666667"><ele>2.7</ele></trkpt><trkpt lat="-27.01935" lon="-48.61045166666666"><ele>2.7</ele></trkpt><trkpt lat="-27.01935" lon="-48.61044833333334"><ele>2.5</ele></trkpt><trkpt lat="-27.019341666666666" lon="-48.61044666666667"><ele>2.8</ele></trkpt><trkpt lat="-27.019341666666666" lon="-48.61044666666667"><ele>2.8</ele></trkpt><trkpt lat="-27.019341666666666" lon="-48.61044666666667"><ele>2.8</ele></trkpt><trkpt lat="-27.019341666666666" lon="-48.61044666666667"><ele>2.8</ele></trkpt><trkpt lat="-27.019341666666666" lon="-48.61044666666667"><ele>2.8</ele></trkpt><trkpt lat="-27.019341666666666" lon="-48.61044666666667"><ele>2.8</ele></trkpt><trkpt lat="-27.019355000000004" lon="-48.610459999999996"><ele>3.1</ele></trkpt><trkpt lat="-27.019358333333336" lon="-48.61045666666667"><ele>3.2</ele></trkpt><trkpt lat="-27.01936" lon="-48.61045666666667"><ele>3.3</ele></trkpt><trkpt lat="-27.01936" lon="-48.610455"><ele>3.3</ele></trkpt><trkpt lat="-27.01936" lon="-48.610455"><ele>3.3</ele></trkpt><trkpt lat="-27.01936" lon="-48.610455"><ele>3.3</ele></trkpt><trkpt lat="-27.01936" lon="-48.610455"><ele>3.3</ele></trkpt><trkpt lat="-27.01936" lon="-48.610455"><ele>3.3</ele></trkpt><trkpt lat="-27.01936" lon="-48.610455"><ele>3.3</ele></trkpt><trkpt lat="-27.01936" lon="-48.610455"><ele>3.3</ele></trkpt><trkpt lat="-27.01936" lon="-48.610455"><ele>3.3</ele></trkpt><trkpt lat="-27.01936" lon="-48.610455"><ele>3.3</ele></trkpt><trkpt lat="-27.01936" lon="-48.610455"><ele>3.3</ele></trkpt><trkpt lat="-27.01936" lon="-48.610455"><ele>3.3</ele></trkpt><trkpt lat="-27.01936" lon="-48.610455"><ele>3.3</ele></trkpt><trkpt lat="-27.01936" lon="-48.610455"><ele>3.3</ele></trkpt><trkpt lat="-27.01936" lon="-48.610455"><ele>3.3</ele></trkpt><trkpt lat="-27.019341666666666" lon="-48.61045333333333"><ele>7.4</ele></trkpt><trkpt lat="-27.019335" lon="-48.610455"><ele>7.6</ele></trkpt><trkpt lat="-27.019338333333334" lon="-48.61045666666667"><ele>7.699999999999999</ele></trkpt><trkpt lat="-27.019338333333334" lon="-48.610459999999996"><ele>7.699999999999999</ele></trkpt><trkpt lat="-27.019338333333334" lon="-48.610459999999996"><ele>7.6</ele></trkpt><trkpt lat="-27.019338333333334" lon="-48.610459999999996"><ele>7.6</ele></trkpt><trkpt lat="-27.019338333333334" lon="-48.610459999999996"><ele>7.6</ele></trkpt><trkpt lat="-27.019338333333334" lon="-48.610459999999996"><ele>7.6</ele></trkpt><trkpt lat="-27.019338333333334" lon="-48.610459999999996"><ele>7.6</ele></trkpt><trkpt lat="-27.019338333333334" lon="-48.610459999999996"><ele>7.6</ele></trkpt><trkpt lat="-27.019338333333334" lon="-48.610459999999996"><ele>7.6</ele></trkpt><trkpt lat="-27.019338333333334" lon="-48.610459999999996"><ele>7.6</ele></trkpt><trkpt lat="-27.019338333333334" lon="-48.610459999999996"><ele>7.6</ele></trkpt><trkpt lat="-27.019338333333334" lon="-48.610459999999996"><ele>7.6</ele></trkpt><trkpt lat="-27.019338333333334" lon="-48.610459999999996"><ele>7.6</ele></trkpt><trkpt lat="-27.019338333333334" lon="-48.610459999999996"><ele>7.6</ele></trkpt><trkpt lat="-27.019338333333334" lon="-48.610459999999996"><ele>7.6</ele></trkpt><trkpt lat="-27.019338333333334" lon="-48.610459999999996"><ele>7.6</ele></trkpt><trkpt lat="-27.019338333333334" lon="-48.610459999999996"><ele>7.6</ele></trkpt><trkpt lat="-27.019338333333334" lon="-48.610459999999996"><ele>7.6</ele></trkpt><trkpt lat="-27.019338333333334" lon="-48.610459999999996"><ele>7.6</ele></trkpt><trkpt lat="-27.019338333333334" lon="-48.610459999999996"><ele>7.6</ele></trkpt><trkpt lat="-27.019338333333334" lon="-48.610459999999996"><ele>7.6</ele></trkpt><trkpt lat="-27.019338333333334" lon="-48.610459999999996"><ele>7.6</ele></trkpt><trkpt lat="-27.019338333333334" lon="-48.610459999999996"><ele>7.6</ele></trkpt><trkpt lat="-27.019338333333334" lon="-48.610459999999996"><ele>7.6</ele></trkpt><trkpt lat="-27.019338333333334" lon="-48.610459999999996"><ele>7.6</ele></trkpt><trkpt lat="-27.019338333333334" lon="-48.610459999999996"><ele>7.6</ele></trkpt><trkpt lat="-27.019338333333334" lon="-48.610459999999996"><ele>7.6</ele></trkpt><trkpt lat="-27.019338333333334" lon="-48.610459999999996"><ele>7.6</ele></trkpt><trkpt lat="-27.019338333333334" lon="-48.610459999999996"><ele>7.6</ele></trkpt><trkpt lat="-27.019338333333334" lon="-48.610459999999996"><ele>7.6</ele></trkpt><trkpt lat="-27.019338333333334" lon="-48.610459999999996"><ele>7.6</ele></trkpt><trkpt lat="-27.019338333333334" lon="-48.610459999999996"><ele>7.6</ele></trkpt><trkpt lat="-27.019338333333334" lon="-48.610459999999996"><ele>7.6</ele></trkpt><trkpt lat="-27.019338333333334" lon="-48.610459999999996"><ele>7.6</ele></trkpt><trkpt lat="-27.019338333333334" lon="-48.610459999999996"><ele>7.6</ele></trkpt><trkpt lat="-27.019338333333334" lon="-48.610459999999996"><ele>7.6</ele></trkpt><trkpt lat="-27.019338333333334" lon="-48.610459999999996"><ele>7.6</ele></trkpt><trkpt lat="-27.019338333333334" lon="-48.610459999999996"><ele>7.6</ele></trkpt><trkpt lat="-27.019338333333334" lon="-48.610459999999996"><ele>7.6</ele></trkpt><trkpt lat="-27.019338333333334" lon="-48.610459999999996"><ele>7.6</ele></trkpt><trkpt lat="-27.019338333333334" lon="-48.610459999999996"><ele>7.6</ele></trkpt><trkpt lat="-27.019338333333334" lon="-48.610459999999996"><ele>7.6</ele></trkpt><trkpt lat="-27.019338333333334" lon="-48.610459999999996"><ele>7.6</ele></trkpt><trkpt lat="-27.019338333333334" lon="-48.610459999999996"><ele>7.6</ele></trkpt><trkpt lat="-27.019338333333334" lon="-48.610459999999996"><ele>7.6</ele></trkpt><trkpt lat="-27.019338333333334" lon="-48.610459999999996"><ele>7.6</ele></trkpt><trkpt lat="-27.019338333333334" lon="-48.610459999999996"><ele>7.6</ele></trkpt><trkpt lat="-27.019338333333334" lon="-48.610459999999996"><ele>7.6</ele></trkpt><trkpt lat="-27.019338333333334" lon="-48.610459999999996"><ele>7.6</ele></trkpt><trkpt lat="-27.019338333333334" lon="-48.610459999999996"><ele>7.6</ele></trkpt><trkpt lat="-27.019338333333334" lon="-48.610459999999996"><ele>7.6</ele></trkpt><trkpt lat="-27.019365" lon="-48.61047166666667"><ele>4.1</ele></trkpt><trkpt lat="-27.019365" lon="-48.61047666666666"><ele>4.2</ele></trkpt><trkpt lat="-27.01936166666667" lon="-48.61048000000001"><ele>4.4</ele></trkpt><trkpt lat="-27.01936166666667" lon="-48.61048000000001"><ele>4.4</ele></trkpt><trkpt lat="-27.01936333333333" lon="-48.61048000000001"><ele>4</ele></trkpt><trkpt lat="-27.01936333333333" lon="-48.61048000000001"><ele>4</ele></trkpt><trkpt lat="-27.01936333333333" lon="-48.61048000000001"><ele>4</ele></trkpt><trkpt lat="-27.01936333333333" lon="-48.61048000000001"><ele>4</ele></trkpt><trkpt lat="-27.01936333333333" lon="-48.61048000000001"><ele>4</ele></trkpt><trkpt lat="-27.01936333333333" lon="-48.61048000000001"><ele>4</ele></trkpt><trkpt lat="-27.01936333333333" lon="-48.61048000000001"><ele>4</ele></trkpt><trkpt lat="-27.01936333333333" lon="-48.61048000000001"><ele>4</ele></trkpt><trkpt lat="-27.01936333333333" lon="-48.61048000000001"><ele>4</ele></trkpt><trkpt lat="-27.01936333333333" lon="-48.61048000000001"><ele>4</ele></trkpt><trkpt lat="-27.01936333333333" lon="-48.61048000000001"><ele>4</ele></trkpt><trkpt lat="-27.01936333333333" lon="-48.61048000000001"><ele>4</ele></trkpt><trkpt lat="-27.01936333333333" lon="-48.61048000000001"><ele>4</ele></trkpt><trkpt lat="-27.01936333333333" lon="-48.61048000000001"><ele>4</ele></trkpt><trkpt lat="-27.01936333333333" lon="-48.61048000000001"><ele>4</ele></trkpt><trkpt lat="-27.01936333333333" lon="-48.61048000000001"><ele>4</ele></trkpt><trkpt lat="-27.01936333333333" lon="-48.61048000000001"><ele>4</ele></trkpt><trkpt lat="-27.01936333333333" lon="-48.61048000000001"><ele>4</ele></trkpt><trkpt lat="-27.01936333333333" lon="-48.61048000000001"><ele>4</ele></trkpt><trkpt lat="-27.01936333333333" lon="-48.61048000000001"><ele>4</ele></trkpt><trkpt lat="-27.01936333333333" lon="-48.61048000000001"><ele>4</ele></trkpt><trkpt lat="-27.01936333333333" lon="-48.61048000000001"><ele>4</ele></trkpt><trkpt lat="-27.01936333333333" lon="-48.61048000000001"><ele>4</ele></trkpt><trkpt lat="-27.01936333333333" lon="-48.61048000000001"><ele>4</ele></trkpt><trkpt lat="-27.01936333333333" lon="-48.61048000000001"><ele>4</ele></trkpt><trkpt lat="-27.01936333333333" lon="-48.61048000000001"><ele>4</ele></trkpt><trkpt lat="-27.01936333333333" lon="-48.61048000000001"><ele>4</ele></trkpt><trkpt lat="-27.01936333333333" lon="-48.61048000000001"><ele>4</ele></trkpt><trkpt lat="-27.01936333333333" lon="-48.61048000000001"><ele>4</ele></trkpt><trkpt lat="-27.01936333333333" lon="-48.61048000000001"><ele>4</ele></trkpt><trkpt lat="-27.01936333333333" lon="-48.61048000000001"><ele>4</ele></trkpt><trkpt lat="-27.01936333333333" lon="-48.61048000000001"><ele>4</ele></trkpt><trkpt lat="-27.01936333333333" lon="-48.61048000000001"><ele>4</ele></trkpt><trkpt lat="-27.01936333333333" lon="-48.61048000000001"><ele>4</ele></trkpt><trkpt lat="-27.01936333333333" lon="-48.61048000000001"><ele>4</ele></trkpt><trkpt lat="-27.01936333333333" lon="-48.61048000000001"><ele>4</ele></trkpt><trkpt lat="-27.01936333333333" lon="-48.61048000000001"><ele>4</ele></trkpt><trkpt lat="-27.01936333333333" lon="-48.61048000000001"><ele>4</ele></trkpt><trkpt lat="-27.01936333333333" lon="-48.61048000000001"><ele>4</ele></trkpt><trkpt lat="-27.01936333333333" lon="-48.61048000000001"><ele>4</ele></trkpt><trkpt lat="-27.01936333333333" lon="-48.61048000000001"><ele>4</ele></trkpt><trkpt lat="-27.01936333333333" lon="-48.61048000000001"><ele>4</ele></trkpt><trkpt lat="-27.01936333333333" lon="-48.61048000000001"><ele>4</ele></trkpt><trkpt lat="-27.01936333333333" lon="-48.61048000000001"><ele>4</ele></trkpt><trkpt lat="-27.01936333333333" lon="-48.61048000000001"><ele>4</ele></trkpt><trkpt lat="-27.01936333333333" lon="-48.61048000000001"><ele>4</ele></trkpt><trkpt lat="-27.01936333333333" lon="-48.61048000000001"><ele>4</ele></trkpt><trkpt lat="-27.01936333333333" lon="-48.61048000000001"><ele>4</ele></trkpt><trkpt lat="-27.01936333333333" lon="-48.61048000000001"><ele>4</ele></trkpt><trkpt lat="-27.01936333333333" lon="-48.61048000000001"><ele>4</ele></trkpt><trkpt lat="-27.01936333333333" lon="-48.61048000000001"><ele>4</ele></trkpt><trkpt lat="-27.01936333333333" lon="-48.61048000000001"><ele>4</ele></trkpt><trkpt lat="-27.01936333333333" lon="-48.61048000000001"><ele>4</ele></trkpt><trkpt lat="-27.01936333333333" lon="-48.61048000000001"><ele>4</ele></trkpt><trkpt lat="-27.01936333333333" lon="-48.61048000000001"><ele>4</ele></trkpt><trkpt lat="-27.01936333333333" lon="-48.61048000000001"><ele>4</ele></trkpt><trkpt lat="-27.01936333333333" lon="-48.61048000000001"><ele>4</ele></trkpt><trkpt lat="-27.01936333333333" lon="-48.61048000000001"><ele>4</ele></trkpt><trkpt lat="-27.01936333333333" lon="-48.61048000000001"><ele>4</ele></trkpt><trkpt lat="-27.01936333333333" lon="-48.61048000000001"><ele>4</ele></trkpt><trkpt lat="-27.01936333333333" lon="-48.61048000000001"><ele>4</ele></trkpt><trkpt lat="-27.01935166666666" lon="-48.61046833333333"><ele>1.9000000000000001</ele></trkpt><trkpt lat="-27.019346666666667" lon="-48.61046666666666"><ele>1.8</ele></trkpt><trkpt lat="-27.019341666666666" lon="-48.61046833333333"><ele>1.9000000000000001</ele></trkpt><trkpt lat="-27.019336666666664" lon="-48.61047"><ele>2.2</ele></trkpt><trkpt lat="-27.01933" lon="-48.610473333333324"><ele>2.5</ele></trkpt><trkpt lat="-27.01933" lon="-48.610473333333324"><ele>2.5</ele></trkpt><trkpt lat="-27.019335" lon="-48.61047833333334"><ele>2.8</ele></trkpt><trkpt lat="-27.019338333333334" lon="-48.610483333333335"><ele>3.2</ele></trkpt><trkpt lat="-27.019326666666664" lon="-48.61056166666667"><ele>29.700000000000003</ele></trkpt><trkpt lat="-27.019336666666664" lon="-48.61056833333334"><ele>30.8</ele></trkpt><trkpt lat="-27.019341666666666" lon="-48.61057000000001"><ele>31.200000000000003</ele></trkpt><trkpt lat="-27.019341666666666" lon="-48.61057000000001"><ele>31.200000000000003</ele></trkpt><trkpt lat="-27.019340000000003" lon="-48.610564999999994"><ele>30.6</ele></trkpt><trkpt lat="-27.01934833333333" lon="-48.610545"><ele>28.5</ele></trkpt><trkpt lat="-27.01935166666666" lon="-48.610528333333335"><ele>26</ele></trkpt><trkpt lat="-27.019356666666667" lon="-48.61051166666666"><ele>23.6</ele></trkpt><trkpt lat="-27.01936" lon="-48.61050333333333"><ele>21.700000000000003</ele></trkpt><trkpt lat="-27.01936" lon="-48.61049500000001"><ele>19.700000000000003</ele></trkpt><trkpt lat="-27.019365" lon="-48.61048833333333"><ele>17.400000000000002</ele></trkpt><trkpt lat="-27.019373333333338" lon="-48.610486666666674"><ele>15.6</ele></trkpt><trkpt lat="-27.019378333333332" lon="-48.610485000000004"><ele>13.6</ele></trkpt><trkpt lat="-27.01938" lon="-48.610486666666674"><ele>12.1</ele></trkpt><trkpt lat="-27.019385000000003" lon="-48.61049"><ele>10.299999999999999</ele></trkpt><trkpt lat="-27.019400000000005" lon="-48.61049"><ele>8.5</ele></trkpt><trkpt lat="-27.019413333333333" lon="-48.61049"><ele>7</ele></trkpt><trkpt lat="-27.019430000000003" lon="-48.61049333333334"><ele>6.1</ele></trkpt><trkpt lat="-27.019446666666667" lon="-48.61049"><ele>5.6</ele></trkpt><trkpt lat="-27.019463333333338" lon="-48.61049"><ele>5</ele></trkpt><trkpt lat="-27.01948333333333" lon="-48.61049"><ele>3.7</ele></trkpt><trkpt lat="-27.019501666666663" lon="-48.61049666666666"><ele>3.2</ele></trkpt><trkpt lat="-27.019520000000004" lon="-48.61049333333334"><ele>2.4000000000000004</ele></trkpt><trkpt lat="-27.01954" lon="-48.61049500000001"><ele>1.8</ele></trkpt><trkpt lat="-27.019560000000002" lon="-48.61050333333333"><ele>1.6</ele></trkpt><trkpt lat="-27.019578333333335" lon="-48.610515"><ele>1.7000000000000002</ele></trkpt><trkpt lat="-27.019598333333338" lon="-48.61052333333334"><ele>1.9000000000000001</ele></trkpt><trkpt lat="-27.019616666666668" lon="-48.610526666666665"><ele>1.9000000000000001</ele></trkpt><trkpt lat="-27.019636666666663" lon="-48.610526666666665"><ele>1.8</ele></trkpt><trkpt lat="-27.019653333333334" lon="-48.610531666666674"><ele>1.8</ele></trkpt><trkpt lat="-27.019671666666667" lon="-48.61053833333334"><ele>2</ele></trkpt><trkpt lat="-27.019693333333333" lon="-48.61054333333333"><ele>1.9000000000000001</ele></trkpt><trkpt lat="-27.019711666666662" lon="-48.61053833333334"><ele>2.2</ele></trkpt><trkpt lat="-27.019731666666665" lon="-48.61054333333333"><ele>3.1</ele></trkpt><trkpt lat="-27.01975333333333" lon="-48.61054333333333"><ele>2.9000000000000004</ele></trkpt><trkpt lat="-27.019776666666665" lon="-48.61054833333333"><ele>3.2</ele></trkpt><trkpt lat="-27.019796666666668" lon="-48.61056166666667"><ele>3.2</ele></trkpt><trkpt lat="-27.019819999999996" lon="-48.610573333333335"><ele>3.2</ele></trkpt><trkpt lat="-27.019841666666668" lon="-48.61058166666667"><ele>3.3</ele></trkpt><trkpt lat="-27.019861666666664" lon="-48.61058833333333"><ele>3.9</ele></trkpt><trkpt lat="-27.019881666666667" lon="-48.61058833333333"><ele>3.9</ele></trkpt><trkpt lat="-27.019906666666664" lon="-48.61059"><ele>3.7</ele></trkpt><trkpt lat="-27.019906666666664" lon="-48.61059"><ele>3.7</ele></trkpt><trkpt lat="-27.01993166666667" lon="-48.610594999999996"><ele>3.6</ele></trkpt><trkpt lat="-27.019954999999996" lon="-48.610611666666664"><ele>3.7</ele></trkpt><trkpt lat="-27.01998" lon="-48.610618333333335"><ele>4.1</ele></trkpt><trkpt lat="-27.02000333333334" lon="-48.61062666666667"><ele>3.5</ele></trkpt><trkpt lat="-27.020033333333338" lon="-48.61063000000001"><ele>2.8</ele></trkpt><trkpt lat="-27.020059999999997" lon="-48.61062833333334"><ele>2.1</ele></trkpt><trkpt lat="-27.020086666666664" lon="-48.61062833333334"><ele>2.1</ele></trkpt><trkpt lat="-27.02011166666667" lon="-48.610625"><ele>1.3</ele></trkpt><trkpt lat="-27.02013833333333" lon="-48.61062666666667"><ele>1.3</ele></trkpt><trkpt lat="-27.020166666666668" lon="-48.61062833333334"><ele>1.2000000000000002</ele></trkpt><trkpt lat="-27.0202" lon="-48.61062666666667"><ele>0.8</ele></trkpt><trkpt lat="-27.020226666666666" lon="-48.61062833333334"><ele>0.30000000000000004</ele></trkpt><trkpt lat="-27.020253333333336" lon="-48.61062833333334"><ele>0</ele></trkpt><trkpt lat="-27.020278333333334" lon="-48.61063166666666"><ele>-0.19999999999999996</ele></trkpt><trkpt lat="-27.020305" lon="-48.61063666666667"><ele>-0.6999999999999997</ele></trkpt><trkpt lat="-27.02033333333333" lon="-48.610645000000005"><ele>-0.6999999999999997</ele></trkpt><trkpt lat="-27.020353333333333" lon="-48.61065166666667"><ele>-0.7999999999999998</ele></trkpt><trkpt lat="-27.020373333333335" lon="-48.61065166666667"><ele>-1.1</ele></trkpt><trkpt lat="-27.020395" lon="-48.610656666666664"><ele>-1.1999999999999997</ele></trkpt><trkpt lat="-27.02041166666667" lon="-48.61066000000001"><ele>-0.8999999999999999</ele></trkpt><trkpt lat="-27.020421666666667" lon="-48.61067"><ele>-0.19999999999999996</ele></trkpt><trkpt lat="-27.02042666666667" lon="-48.61067"><ele>0.5</ele></trkpt><trkpt lat="-27.02043" lon="-48.610665000000004"><ele>1.7000000000000002</ele></trkpt><trkpt lat="-27.020431666666664" lon="-48.610663333333335"><ele>2.4000000000000004</ele></trkpt><trkpt lat="-27.020431666666664" lon="-48.610665000000004"><ele>2.3</ele></trkpt><trkpt lat="-27.02043" lon="-48.61065833333334"><ele>2</ele></trkpt><trkpt lat="-27.02043" lon="-48.61065166666667"><ele>1.7000000000000002</ele></trkpt><trkpt lat="-27.02043" lon="-48.610643333333336"><ele>1.5</ele></trkpt><trkpt lat="-27.02043" lon="-48.610641666666666"><ele>1.4000000000000001</ele></trkpt><trkpt lat="-27.020431666666664" lon="-48.61063833333333"><ele>1.2000000000000002</ele></trkpt><trkpt lat="-27.020435" lon="-48.61063833333333"><ele>1.2000000000000002</ele></trkpt><trkpt lat="-27.02043666666667" lon="-48.61063833333333"><ele>1.2000000000000002</ele></trkpt><trkpt lat="-27.02043666666667" lon="-48.61063833333333"><ele>1.2000000000000002</ele></trkpt><trkpt lat="-27.02043666666667" lon="-48.61063833333333"><ele>1.2000000000000002</ele></trkpt><trkpt lat="-27.02043666666667" lon="-48.61063833333333"><ele>1.2000000000000002</ele></trkpt><trkpt lat="-27.02043666666667" lon="-48.61063833333333"><ele>1.2000000000000002</ele></trkpt><trkpt lat="-27.02043666666667" lon="-48.61063833333333"><ele>1.2000000000000002</ele></trkpt><trkpt lat="-27.02043666666667" lon="-48.61063833333333"><ele>1.2000000000000002</ele></trkpt><trkpt lat="-27.02043666666667" lon="-48.61063833333333"><ele>1.2000000000000002</ele></trkpt><trkpt lat="-27.02043666666667" lon="-48.61063833333333"><ele>1.2000000000000002</ele></trkpt><trkpt lat="-27.02043666666667" lon="-48.61063833333333"><ele>1.2000000000000002</ele></trkpt><trkpt lat="-27.02043666666667" lon="-48.61063833333333"><ele>1.2000000000000002</ele></trkpt><trkpt lat="-27.02043666666667" lon="-48.61063833333333"><ele>1.2000000000000002</ele></trkpt><trkpt lat="-27.02043666666667" lon="-48.61063833333333"><ele>1.2000000000000002</ele></trkpt><trkpt lat="-27.02043666666667" lon="-48.61063833333333"><ele>1.2000000000000002</ele></trkpt><trkpt lat="-27.02043666666667" lon="-48.61063833333333"><ele>1.2000000000000002</ele></trkpt><trkpt lat="-27.02043666666667" lon="-48.61063833333333"><ele>1.2000000000000002</ele></trkpt><trkpt lat="-27.02043666666667" lon="-48.61063833333333"><ele>1.2000000000000002</ele></trkpt><trkpt lat="-27.02043666666667" lon="-48.61063833333333"><ele>1.2000000000000002</ele></trkpt><trkpt lat="-27.02043666666667" lon="-48.61063833333333"><ele>1.2000000000000002</ele></trkpt><trkpt lat="-27.02043666666667" lon="-48.61063833333333"><ele>1.2000000000000002</ele></trkpt><trkpt lat="-27.02043666666667" lon="-48.61063833333333"><ele>1.2000000000000002</ele></trkpt><trkpt lat="-27.02043666666667" lon="-48.61063833333333"><ele>1.2000000000000002</ele></trkpt><trkpt lat="-27.02043666666667" lon="-48.61063833333333"><ele>1.2000000000000002</ele></trkpt><trkpt lat="-27.02043666666667" lon="-48.61063833333333"><ele>1.2000000000000002</ele></trkpt><trkpt lat="-27.02043666666667" lon="-48.61063833333333"><ele>1.2000000000000002</ele></trkpt><trkpt lat="-27.02043666666667" lon="-48.61063833333333"><ele>1.2000000000000002</ele></trkpt><trkpt lat="-27.02043666666667" lon="-48.61063833333333"><ele>1.2000000000000002</ele></trkpt><trkpt lat="-27.02043666666667" lon="-48.61063833333333"><ele>1.2000000000000002</ele></trkpt><trkpt lat="-27.02043666666667" lon="-48.61063833333333"><ele>1.2000000000000002</ele></trkpt><trkpt lat="-27.02043666666667" lon="-48.61063833333333"><ele>1.2000000000000002</ele></trkpt><trkpt lat="-27.02043666666667" lon="-48.61063833333333"><ele>1.2000000000000002</ele></trkpt><trkpt lat="-27.02043666666667" lon="-48.61063833333333"><ele>1.2000000000000002</ele></trkpt><trkpt lat="-27.02043666666667" lon="-48.61063833333333"><ele>1.2000000000000002</ele></trkpt><trkpt lat="-27.02043666666667" lon="-48.61063833333333"><ele>1.2000000000000002</ele></trkpt><trkpt lat="-27.02043666666667" lon="-48.61063833333333"><ele>1.2000000000000002</ele></trkpt><trkpt lat="-27.02043666666667" lon="-48.61063833333333"><ele>1.2000000000000002</ele></trkpt><trkpt lat="-27.02043666666667" lon="-48.61063833333333"><ele>1.2000000000000002</ele></trkpt><trkpt lat="-27.02042666666667" lon="-48.61066833333333"><ele>3.5</ele></trkpt><trkpt lat="-27.02042666666667" lon="-48.61066833333333"><ele>3.5</ele></trkpt><trkpt lat="-27.02042333333333" lon="-48.61067166666667"><ele>3.3</ele></trkpt><trkpt lat="-27.020425" lon="-48.61067333333334"><ele>2.9000000000000004</ele></trkpt><trkpt lat="-27.02042666666667" lon="-48.61067666666666"><ele>2.6</ele></trkpt><trkpt lat="-27.02042666666667" lon="-48.61067666666666"><ele>2.6</ele></trkpt><trkpt lat="-27.02042666666667" lon="-48.61067666666666"><ele>2.6</ele></trkpt><trkpt lat="-27.02042666666667" lon="-48.61067666666666"><ele>2.6</ele></trkpt><trkpt lat="-27.02042666666667" lon="-48.61067666666666"><ele>2.6</ele></trkpt><trkpt lat="-27.02042666666667" lon="-48.61067666666666"><ele>2.6</ele></trkpt><trkpt lat="-27.02042666666667" lon="-48.61067666666666"><ele>2.6</ele></trkpt><trkpt lat="-27.02042666666667" lon="-48.61067666666666"><ele>2.6</ele></trkpt><trkpt lat="-27.02042666666667" lon="-48.61067666666666"><ele>2.6</ele></trkpt><trkpt lat="-27.02042666666667" lon="-48.61067666666666"><ele>2.6</ele></trkpt><trkpt lat="-27.02042666666667" lon="-48.61067666666666"><ele>2.6</ele></trkpt><trkpt lat="-27.02042666666667" lon="-48.61067666666666"><ele>2.6</ele></trkpt><trkpt lat="-27.02042666666667" lon="-48.61067666666666"><ele>2.6</ele></trkpt><trkpt lat="-27.02042666666667" lon="-48.61067666666666"><ele>2.6</ele></trkpt><trkpt lat="-27.02042666666667" lon="-48.61067666666666"><ele>2.6</ele></trkpt><trkpt lat="-27.02042666666667" lon="-48.61067666666666"><ele>2.6</ele></trkpt><trkpt lat="-27.02042666666667" lon="-48.61067666666666"><ele>2.6</ele></trkpt><trkpt lat="-27.02042666666667" lon="-48.61067666666666"><ele>2.6</ele></trkpt><trkpt lat="-27.02042666666667" lon="-48.61067666666666"><ele>2.6</ele></trkpt><trkpt lat="-27.02042666666667" lon="-48.61067666666666"><ele>2.6</ele></trkpt><trkpt lat="-27.02042666666667" lon="-48.61067666666666"><ele>2.6</ele></trkpt><trkpt lat="-27.02042666666667" lon="-48.61067666666666"><ele>2.6</ele></trkpt><trkpt lat="-27.02042666666667" lon="-48.61067666666666"><ele>2.6</ele></trkpt><trkpt lat="-27.02042666666667" lon="-48.61067666666666"><ele>2.6</ele></trkpt><trkpt lat="-27.02042666666667" lon="-48.61067666666666"><ele>2.6</ele></trkpt><trkpt lat="-27.02042666666667" lon="-48.61067666666666"><ele>2.6</ele></trkpt><trkpt lat="-27.02042666666667" lon="-48.61067666666666"><ele>2.6</ele></trkpt><trkpt lat="-27.02042666666667" lon="-48.61067666666666"><ele>2.6</ele></trkpt><trkpt lat="-27.02042666666667" lon="-48.61067666666666"><ele>2.6</ele></trkpt><trkpt lat="-27.02042666666667" lon="-48.61067666666666"><ele>2.6</ele></trkpt><trkpt lat="-27.02042666666667" lon="-48.61067666666666"><ele>2.6</ele></trkpt><trkpt lat="-27.02042666666667" lon="-48.61067666666666"><ele>2.6</ele></trkpt><trkpt lat="-27.02042666666667" lon="-48.61067666666666"><ele>2.6</ele></trkpt><trkpt lat="-27.02042666666667" lon="-48.61067666666666"><ele>2.6</ele></trkpt><trkpt lat="-27.02042666666667" lon="-48.61067666666666"><ele>2.6</ele></trkpt><trkpt lat="-27.02042666666667" lon="-48.61067666666666"><ele>2.6</ele></trkpt><trkpt lat="-27.02042666666667" lon="-48.61067666666666"><ele>2.6</ele></trkpt><trkpt lat="-27.02042666666667" lon="-48.61067666666666"><ele>2.6</ele></trkpt><trkpt lat="-27.02042666666667" lon="-48.61067666666666"><ele>2.6</ele></trkpt><trkpt lat="-27.02042666666667" lon="-48.61067666666666"><ele>2.6</ele></trkpt><trkpt lat="-27.02042666666667" lon="-48.61067666666666"><ele>2.6</ele></trkpt><trkpt lat="-27.02042666666667" lon="-48.61067666666666"><ele>2.6</ele></trkpt><trkpt lat="-27.02042666666667" lon="-48.61067666666666"><ele>2.6</ele></trkpt><trkpt lat="-27.02042666666667" lon="-48.61067666666666"><ele>2.6</ele></trkpt><trkpt lat="-27.02042666666667" lon="-48.61067666666666"><ele>2.6</ele></trkpt><trkpt lat="-27.02042666666667" lon="-48.61067666666666"><ele>2.6</ele></trkpt><trkpt lat="-27.02042666666667" lon="-48.61067666666666"><ele>2.6</ele></trkpt><trkpt lat="-27.02042666666667" lon="-48.61067666666666"><ele>2.6</ele></trkpt><trkpt lat="-27.02042666666667" lon="-48.61067666666666"><ele>2.6</ele></trkpt><trkpt lat="-27.02042666666667" lon="-48.61067666666666"><ele>2.6</ele></trkpt><trkpt lat="-27.02042666666667" lon="-48.61067666666666"><ele>2.6</ele></trkpt><trkpt lat="-27.02042666666667" lon="-48.61067666666666"><ele>2.6</ele></trkpt><trkpt lat="-27.02042666666667" lon="-48.61067666666666"><ele>2.6</ele></trkpt><trkpt lat="-27.02042666666667" lon="-48.61067666666666"><ele>2.6</ele></trkpt><trkpt lat="-27.02042666666667" lon="-48.61067666666666"><ele>2.6</ele></trkpt><trkpt lat="-27.02042666666667" lon="-48.61067666666666"><ele>2.6</ele></trkpt><trkpt lat="-27.02042666666667" lon="-48.61067666666666"><ele>2.6</ele></trkpt><trkpt lat="-27.02042666666667" lon="-48.61067666666666"><ele>2.6</ele></trkpt><trkpt lat="-27.02042666666667" lon="-48.61067666666666"><ele>2.6</ele></trkpt><trkpt lat="-27.02042666666667" lon="-48.61067666666666"><ele>2.6</ele></trkpt><trkpt lat="-27.02042666666667" lon="-48.61067666666666"><ele>2.6</ele></trkpt><trkpt lat="-27.02042666666667" lon="-48.61067666666666"><ele>2.6</ele></trkpt><trkpt lat="-27.02042666666667" lon="-48.61067666666666"><ele>2.6</ele></trkpt><trkpt lat="-27.02042666666667" lon="-48.61067666666666"><ele>2.6</ele></trkpt><trkpt lat="-27.02042666666667" lon="-48.61067666666666"><ele>2.6</ele></trkpt><trkpt lat="-27.02042666666667" lon="-48.61067666666666"><ele>2.6</ele></trkpt><trkpt lat="-27.02042666666667" lon="-48.61067666666666"><ele>2.6</ele></trkpt><trkpt lat="-27.02042666666667" lon="-48.61067666666666"><ele>2.6</ele></trkpt><trkpt lat="-27.02042666666667" lon="-48.61067666666666"><ele>2.6</ele></trkpt><trkpt lat="-27.02042666666667" lon="-48.61067666666666"><ele>2.6</ele></trkpt><trkpt lat="-27.02042666666667" lon="-48.61067666666666"><ele>2.6</ele></trkpt><trkpt lat="-27.02042666666667" lon="-48.61067666666666"><ele>2.6</ele></trkpt><trkpt lat="-27.02042666666667" lon="-48.61067666666666"><ele>2.6</ele></trkpt><trkpt lat="-27.02042666666667" lon="-48.61067666666666"><ele>2.6</ele></trkpt><trkpt lat="-27.02042666666667" lon="-48.61067666666666"><ele>2.6</ele></trkpt><trkpt lat="-27.02042666666667" lon="-48.61067666666666"><ele>2.6</ele></trkpt><trkpt lat="-27.02042666666667" lon="-48.61067666666666"><ele>2.6</ele></trkpt><trkpt lat="-27.02042666666667" lon="-48.61067666666666"><ele>2.6</ele></trkpt><trkpt lat="-27.02042666666667" lon="-48.61067666666666"><ele>2.6</ele></trkpt><trkpt lat="-27.02042666666667" lon="-48.61067666666666"><ele>2.6</ele></trkpt><trkpt lat="-27.02042666666667" lon="-48.61067666666666"><ele>2.6</ele></trkpt><trkpt lat="-27.02042666666667" lon="-48.61067666666666"><ele>2.6</ele></trkpt><trkpt lat="-27.02042666666667" lon="-48.61067666666666"><ele>2.6</ele></trkpt><trkpt lat="-27.02042666666667" lon="-48.61067666666666"><ele>2.6</ele></trkpt><trkpt lat="-27.02042666666667" lon="-48.61067666666666"><ele>2.6</ele></trkpt><trkpt lat="-27.02042666666667" lon="-48.61067666666666"><ele>2.6</ele></trkpt><trkpt lat="-27.02042666666667" lon="-48.61067666666666"><ele>2.6</ele></trkpt><trkpt lat="-27.02042666666667" lon="-48.61067666666666"><ele>2.6</ele></trkpt><trkpt lat="-27.02042666666667" lon="-48.61067666666666"><ele>2.6</ele></trkpt><trkpt lat="-27.02042666666667" lon="-48.61067666666666"><ele>2.6</ele></trkpt><trkpt lat="-27.02042666666667" lon="-48.61067666666666"><ele>2.6</ele></trkpt><trkpt lat="-27.02042666666667" lon="-48.61067666666666"><ele>2.6</ele></trkpt><trkpt lat="-27.02042666666667" lon="-48.61067666666666"><ele>2.6</ele></trkpt><trkpt lat="-27.02042666666667" lon="-48.61067666666666"><ele>2.6</ele></trkpt><trkpt lat="-27.02042666666667" lon="-48.61067666666666"><ele>2.6</ele></trkpt><trkpt lat="-27.02042666666667" lon="-48.61067666666666"><ele>2.6</ele></trkpt><trkpt lat="-27.02042666666667" lon="-48.61067666666666"><ele>2.6</ele></trkpt><trkpt lat="-27.02042666666667" lon="-48.61067666666666"><ele>2.6</ele></trkpt><trkpt lat="-27.02042666666667" lon="-48.61067666666666"><ele>2.6</ele></trkpt><trkpt lat="-27.02042666666667" lon="-48.61067666666666"><ele>2.6</ele></trkpt><trkpt lat="-27.02042666666667" lon="-48.61067666666666"><ele>2.6</ele></trkpt><trkpt lat="-27.02042666666667" lon="-48.61067666666666"><ele>2.6</ele></trkpt><trkpt lat="-27.02042666666667" lon="-48.61067666666666"><ele>2.6</ele></trkpt><trkpt lat="-27.02042666666667" lon="-48.61067666666666"><ele>2.6</ele></trkpt><trkpt lat="-27.02042666666667" lon="-48.61067666666666"><ele>2.6</ele></trkpt><trkpt lat="-27.02042666666667" lon="-48.61067666666666"><ele>2.6</ele></trkpt><trkpt lat="-27.02042666666667" lon="-48.61067666666666"><ele>2.6</ele></trkpt><trkpt lat="-27.02042666666667" lon="-48.61067666666666"><ele>2.6</ele></trkpt><trkpt lat="-27.02042666666667" lon="-48.61067666666666"><ele>2.6</ele></trkpt><trkpt lat="-27.02042666666667" lon="-48.61067666666666"><ele>2.6</ele></trkpt><trkpt lat="-27.02042666666667" lon="-48.61067666666666"><ele>2.6</ele></trkpt><trkpt lat="-27.02042666666667" lon="-48.61067666666666"><ele>2.6</ele></trkpt><trkpt lat="-27.02042666666667" lon="-48.61067666666666"><ele>2.6</ele></trkpt><trkpt lat="-27.02042666666667" lon="-48.61067666666666"><ele>2.6</ele></trkpt><trkpt lat="-27.02042666666667" lon="-48.61067666666666"><ele>2.6</ele></trkpt><trkpt lat="-27.02042666666667" lon="-48.61067666666666"><ele>2.6</ele></trkpt><trkpt lat="-27.02042666666667" lon="-48.61067666666666"><ele>2.6</ele></trkpt><trkpt lat="-27.02042666666667" lon="-48.61067666666666"><ele>2.6</ele></trkpt><trkpt lat="-27.02042666666667" lon="-48.61067666666666"><ele>2.6</ele></trkpt><trkpt lat="-27.02042666666667" lon="-48.61067666666666"><ele>2.6</ele></trkpt><trkpt lat="-27.02042666666667" lon="-48.61067666666666"><ele>2.6</ele></trkpt><trkpt lat="-27.02042666666667" lon="-48.61067666666666"><ele>2.6</ele></trkpt><trkpt lat="-27.02042666666667" lon="-48.61067666666666"><ele>2.6</ele></trkpt><trkpt lat="-27.02042666666667" lon="-48.61067666666666"><ele>2.6</ele></trkpt><trkpt lat="-27.02042666666667" lon="-48.61067666666666"><ele>2.6</ele></trkpt><trkpt lat="-27.02042666666667" lon="-48.61067666666666"><ele>2.6</ele></trkpt><trkpt lat="-27.02042666666667" lon="-48.61067666666666"><ele>2.6</ele></trkpt><trkpt lat="-27.02042666666667" lon="-48.61067666666666"><ele>2.6</ele></trkpt><trkpt lat="-27.02042666666667" lon="-48.61067666666666"><ele>2.6</ele></trkpt><trkpt lat="-27.02042666666667" lon="-48.61067666666666"><ele>2.6</ele></trkpt><trkpt lat="-27.02042666666667" lon="-48.61067666666666"><ele>2.6</ele></trkpt><trkpt lat="-27.02042666666667" lon="-48.61067666666666"><ele>2.6</ele></trkpt><trkpt lat="-27.02042666666667" lon="-48.61067666666666"><ele>2.6</ele></trkpt><trkpt lat="-27.02042666666667" lon="-48.61067666666666"><ele>2.6</ele></trkpt><trkpt lat="-27.02042666666667" lon="-48.61067666666666"><ele>2.6</ele></trkpt><trkpt lat="-27.02042666666667" lon="-48.61067666666666"><ele>2.6</ele></trkpt><trkpt lat="-27.02042666666667" lon="-48.61067666666666"><ele>2.6</ele></trkpt><trkpt lat="-27.02042666666667" lon="-48.61067666666666"><ele>2.6</ele></trkpt><trkpt lat="-27.02042666666667" lon="-48.61067666666666"><ele>2.6</ele></trkpt><trkpt lat="-27.02042666666667" lon="-48.61067666666666"><ele>2.6</ele></trkpt><trkpt lat="-27.02042666666667" lon="-48.61067666666666"><ele>2.6</ele></trkpt><trkpt lat="-27.020445000000002" lon="-48.610653333333325"><ele>3.7</ele></trkpt><trkpt lat="-27.020443333333333" lon="-48.61064666666666"><ele>3.5</ele></trkpt><trkpt lat="-27.020443333333333" lon="-48.61064666666666"><ele>3.2</ele></trkpt><trkpt lat="-27.02044166666667" lon="-48.610645000000005"><ele>3.1</ele></trkpt><trkpt lat="-27.02044166666667" lon="-48.610645000000005"><ele>3.1</ele></trkpt><trkpt lat="-27.02044166666667" lon="-48.610645000000005"><ele>3.1</ele></trkpt><trkpt lat="-27.02044166666667" lon="-48.610645000000005"><ele>3.1</ele></trkpt><trkpt lat="-27.02044166666667" lon="-48.610645000000005"><ele>3.1</ele></trkpt><trkpt lat="-27.020446666666665" lon="-48.610656666666664"><ele>2.7</ele></trkpt><trkpt lat="-27.020449999999997" lon="-48.61066000000001"><ele>2.5</ele></trkpt><trkpt lat="-27.020458333333334" lon="-48.610665000000004"><ele>2.7</ele></trkpt><trkpt lat="-27.02046833333333" lon="-48.61067"><ele>2.6</ele></trkpt><trkpt lat="-27.020475" lon="-48.61067500000001"><ele>2.4000000000000004</ele></trkpt><trkpt lat="-27.020491666666665" lon="-48.61068"><ele>2.3</ele></trkpt><trkpt lat="-27.020508333333336" lon="-48.61068166666667"><ele>2.3</ele></trkpt><trkpt lat="-27.02052666666667" lon="-48.610685"><ele>2.3</ele></trkpt><trkpt lat="-27.02054666666667" lon="-48.61067666666666"><ele>2.6</ele></trkpt><trkpt lat="-27.020565" lon="-48.61067666666666"><ele>2.7</ele></trkpt><trkpt lat="-27.020583333333335" lon="-48.61067500000001"><ele>3.5</ele></trkpt><trkpt lat="-27.020601666666668" lon="-48.61067666666666"><ele>3.3</ele></trkpt><trkpt lat="-27.020615" lon="-48.61067500000001"><ele>3.4000000000000004</ele></trkpt><trkpt lat="-27.020615" lon="-48.61067333333334"><ele>3.2</ele></trkpt><trkpt lat="-27.02061666666667" lon="-48.61067333333334"><ele>2.8</ele></trkpt><trkpt lat="-27.02061666666667" lon="-48.61067666666666"><ele>2.5</ele></trkpt><trkpt lat="-27.020613333333337" lon="-48.61067833333333"><ele>2.9000000000000004</ele></trkpt><trkpt lat="-27.020611666666664" lon="-48.61067833333333"><ele>2.8</ele></trkpt><trkpt lat="-27.020611666666664" lon="-48.61067666666666"><ele>2.8</ele></trkpt><trkpt lat="-27.02061" lon="-48.61067500000001"><ele>2.8</ele></trkpt><trkpt lat="-27.02061" lon="-48.61067500000001"><ele>2.8</ele></trkpt><trkpt lat="-27.020606666666662" lon="-48.61067333333334"><ele>2.9000000000000004</ele></trkpt><trkpt lat="-27.020606666666662" lon="-48.61067333333334"><ele>2.9000000000000004</ele></trkpt><trkpt lat="-27.020605" lon="-48.61067166666667"><ele>3.1</ele></trkpt><trkpt lat="-27.020605" lon="-48.61067"><ele>3.2</ele></trkpt><trkpt lat="-27.020605" lon="-48.61067"><ele>3.2</ele></trkpt><trkpt lat="-27.020605" lon="-48.61067"><ele>3.2</ele></trkpt><trkpt lat="-27.020605" lon="-48.61067"><ele>3.2</ele></trkpt><trkpt lat="-27.020605" lon="-48.61067"><ele>3.2</ele></trkpt><trkpt lat="-27.020605" lon="-48.61067"><ele>3.2</ele></trkpt><trkpt lat="-27.020605" lon="-48.61067"><ele>3.2</ele></trkpt><trkpt lat="-27.020605" lon="-48.61067"><ele>3.2</ele></trkpt><trkpt lat="-27.020605" lon="-48.61067"><ele>3.2</ele></trkpt><trkpt lat="-27.020605" lon="-48.61067"><ele>3.2</ele></trkpt><trkpt lat="-27.020605" lon="-48.61067"><ele>3.2</ele></trkpt><trkpt lat="-27.020605" lon="-48.61067"><ele>3.2</ele></trkpt><trkpt lat="-27.020605" lon="-48.61067"><ele>3.2</ele></trkpt><trkpt lat="-27.020605" lon="-48.61067"><ele>3.2</ele></trkpt><trkpt lat="-27.020605" lon="-48.61067"><ele>3.2</ele></trkpt><trkpt lat="-27.020605" lon="-48.61067"><ele>3.2</ele></trkpt><trkpt lat="-27.020605" lon="-48.61067"><ele>3.2</ele></trkpt><trkpt lat="-27.020605" lon="-48.61067"><ele>3.2</ele></trkpt><trkpt lat="-27.020625000000003" lon="-48.61067166666667"><ele>1</ele></trkpt><trkpt lat="-27.020635000000002" lon="-48.61067500000001"><ele>0.9000000000000001</ele></trkpt><trkpt lat="-27.020645" lon="-48.61067666666666"><ele>0.9000000000000001</ele></trkpt><trkpt lat="-27.02066" lon="-48.61068"><ele>0.8</ele></trkpt><trkpt lat="-27.020683333333334" lon="-48.61067833333333"><ele>0.6000000000000001</ele></trkpt><trkpt lat="-27.02071" lon="-48.61068"><ele>0.5</ele></trkpt><trkpt lat="-27.02074" lon="-48.610688333333336"><ele>0.20000000000000018</ele></trkpt><trkpt lat="-27.02076833333333" lon="-48.610690000000005"><ele>0.10000000000000009</ele></trkpt><trkpt lat="-27.02079666666667" lon="-48.61069166666666"><ele>0.30000000000000004</ele></trkpt><trkpt lat="-27.020825" lon="-48.610698333333325"><ele>0.20000000000000018</ele></trkpt><trkpt lat="-27.020854999999997" lon="-48.610701666666664"><ele>0.6000000000000001</ele></trkpt><trkpt lat="-27.020885" lon="-48.610706666666665"><ele>1.5</ele></trkpt><trkpt lat="-27.020915" lon="-48.610715"><ele>2.3</ele></trkpt><trkpt lat="-27.020944999999998" lon="-48.61071666666667"><ele>2.6</ele></trkpt><trkpt lat="-27.020973333333338" lon="-48.61072000000001"><ele>2.5</ele></trkpt><trkpt lat="-27.021000000000004" lon="-48.610725"><ele>2.7</ele></trkpt><trkpt lat="-27.02103833333333" lon="-48.610731666666666"><ele>2.5</ele></trkpt><trkpt lat="-27.021076666666666" lon="-48.610735000000005"><ele>2.6</ele></trkpt><trkpt lat="-27.021106666666665" lon="-48.61074166666667"><ele>2.9000000000000004</ele></trkpt><trkpt lat="-27.021138333333337" lon="-48.610744999999994"><ele>3</ele></trkpt><trkpt lat="-27.021169999999998" lon="-48.61074833333334"><ele>2.8</ele></trkpt><trkpt lat="-27.021196666666665" lon="-48.610751666666665"><ele>2.3</ele></trkpt><trkpt lat="-27.021221666666666" lon="-48.610753333333335"><ele>2</ele></trkpt><trkpt lat="-27.021251666666664" lon="-48.610756666666674"><ele>1</ele></trkpt><trkpt lat="-27.02127666666667" lon="-48.610753333333335"><ele>-0.19999999999999996</ele></trkpt><trkpt lat="-27.021301666666666" lon="-48.61075000000001"><ele>-1.2999999999999998</ele></trkpt><trkpt lat="-27.021310000000003" lon="-48.610746666666664"><ele>-1.9</ele></trkpt><trkpt lat="-27.021316666666667" lon="-48.610744999999994"><ele>-2.1999999999999997</ele></trkpt><trkpt lat="-27.021314999999998" lon="-48.610744999999994"><ele>-2.6999999999999997</ele></trkpt><trkpt lat="-27.021313333333335" lon="-48.61074833333334"><ele>-2.8000000000000003</ele></trkpt><trkpt lat="-27.021310000000003" lon="-48.610751666666665"><ele>-2.4</ele></trkpt><trkpt lat="-27.021306666666668" lon="-48.61075833333333"><ele>-1.6</ele></trkpt><trkpt lat="-27.021301666666666" lon="-48.61076166666667"><ele>-1.1</ele></trkpt><trkpt lat="-27.021298333333334" lon="-48.61076666666666"><ele>-0.6000000000000001</ele></trkpt><trkpt lat="-27.021293333333332" lon="-48.61077"><ele>-0.19999999999999996</ele></trkpt><trkpt lat="-27.021288333333338" lon="-48.61077333333333"><ele>0.40000000000000013</ele></trkpt><trkpt lat="-27.021284999999995" lon="-48.610775"><ele>0.8</ele></trkpt><trkpt lat="-27.021284999999995" lon="-48.610775"><ele>1.1</ele></trkpt><trkpt lat="-27.021286666666665" lon="-48.61077333333333"><ele>1.4000000000000001</ele></trkpt><trkpt lat="-27.021286666666665" lon="-48.61077333333333"><ele>1.8</ele></trkpt><trkpt lat="-27.021286666666665" lon="-48.61077333333333"><ele>1.8</ele></trkpt><trkpt lat="-27.021286666666665" lon="-48.61077333333333"><ele>1.8</ele></trkpt><trkpt lat="-27.021286666666665" lon="-48.61077333333333"><ele>1.8</ele></trkpt><trkpt lat="-27.021286666666665" lon="-48.61077333333333"><ele>1.8</ele></trkpt><trkpt lat="-27.021286666666665" lon="-48.61077333333333"><ele>1.8</ele></trkpt><trkpt lat="-27.021286666666665" lon="-48.61077333333333"><ele>1.8</ele></trkpt><trkpt lat="-27.021286666666665" lon="-48.61077333333333"><ele>1.8</ele></trkpt><trkpt lat="-27.021286666666665" lon="-48.61077333333333"><ele>1.8</ele></trkpt><trkpt lat="-27.021296666666665" lon="-48.61079333333334"><ele>3.1</ele></trkpt><trkpt lat="-27.021296666666665" lon="-48.610796666666666"><ele>3.3</ele></trkpt><trkpt lat="-27.021296666666665" lon="-48.610796666666666"><ele>3.3</ele></trkpt><trkpt lat="-27.021296666666665" lon="-48.61079500000001"><ele>3.5</ele></trkpt><trkpt lat="-27.021293333333332" lon="-48.610789999999994"><ele>3.7</ele></trkpt><trkpt lat="-27.02128" lon="-48.610785"><ele>3.9</ele></trkpt><trkpt lat="-27.021266666666666" lon="-48.61078166666666"><ele>3.5</ele></trkpt><trkpt lat="-27.021256666666666" lon="-48.610776666666666"><ele>3.4000000000000004</ele></trkpt><trkpt lat="-27.021245" lon="-48.610775"><ele>3.3</ele></trkpt><trkpt lat="-27.02123166666667" lon="-48.61077"><ele>3.1</ele></trkpt><trkpt lat="-27.021220000000003" lon="-48.61076833333333"><ele>3.1</ele></trkpt><trkpt lat="-27.021205000000002" lon="-48.61076166666667"><ele>3</ele></trkpt><trkpt lat="-27.021196666666665" lon="-48.61076"><ele>2.7</ele></trkpt><trkpt lat="-27.021183333333337" lon="-48.610753333333335"><ele>2.2</ele></trkpt><trkpt lat="-27.021168333333335" lon="-48.610751666666665"><ele>1.9000000000000001</ele></trkpt><trkpt lat="-27.021163333333334" lon="-48.61074833333334"><ele>1.6</ele></trkpt><trkpt lat="-27.021163333333334" lon="-48.61075000000001"><ele>1.3</ele></trkpt><trkpt lat="-27.021168333333335" lon="-48.610751666666665"><ele>1.3</ele></trkpt><trkpt lat="-27.021179999999998" lon="-48.610756666666674"><ele>1.6</ele></trkpt><trkpt lat="-27.021194999999995" lon="-48.610755000000005"><ele>1.8</ele></trkpt><trkpt lat="-27.021209999999996" lon="-48.61075000000001"><ele>2</ele></trkpt><trkpt lat="-27.021226666666667" lon="-48.61074833333334"><ele>2.4000000000000004</ele></trkpt><trkpt lat="-27.021236666666663" lon="-48.610751666666665"><ele>2.7</ele></trkpt><trkpt lat="-27.021251666666664" lon="-48.610756666666674"><ele>3.5</ele></trkpt><trkpt lat="-27.021261666666668" lon="-48.61076"><ele>4</ele></trkpt><trkpt lat="-27.021275" lon="-48.61075833333333"><ele>3.9</ele></trkpt><trkpt lat="-27.021286666666665" lon="-48.610755000000005"><ele>3.8000000000000003</ele></trkpt><trkpt lat="-27.021296666666665" lon="-48.610756666666674"><ele>3.6</ele></trkpt><trkpt lat="-27.021304999999998" lon="-48.61076166666667"><ele>3.3</ele></trkpt><trkpt lat="-27.021314999999998" lon="-48.61076500000001"><ele>3.3</ele></trkpt><trkpt lat="-27.021326666666663" lon="-48.61076666666666"><ele>3.5</ele></trkpt><trkpt lat="-27.02133666666667" lon="-48.61077"><ele>3.7</ele></trkpt><trkpt lat="-27.021348333333336" lon="-48.61077"><ele>3.9</ele></trkpt><trkpt lat="-27.021358333333335" lon="-48.61077166666667"><ele>3.9</ele></trkpt><trkpt lat="-27.021363333333337" lon="-48.61077333333333"><ele>4.2</ele></trkpt><trkpt lat="-27.021361666666667" lon="-48.610775"><ele>4.5</ele></trkpt><trkpt lat="-27.021361666666667" lon="-48.61078166666666"><ele>4.800000000000001</ele></trkpt><trkpt lat="-27.02136666666667" lon="-48.610789999999994"><ele>4.9</ele></trkpt><trkpt lat="-27.02136833333333" lon="-48.61079333333334"><ele>5.1</ele></trkpt><trkpt lat="-27.02136833333333" lon="-48.61079333333334"><ele>5.1</ele></trkpt><trkpt lat="-27.021371666666663" lon="-48.610796666666666"><ele>5.4</ele></trkpt><trkpt lat="-27.021373333333333" lon="-48.610800000000005"><ele>5.4</ele></trkpt><trkpt lat="-27.021378333333338" lon="-48.610805"><ele>5.6</ele></trkpt><trkpt lat="-27.021378333333338" lon="-48.610805"><ele>5.9</ele></trkpt><trkpt lat="-27.021376666666665" lon="-48.610805"><ele>5.9</ele></trkpt><trkpt lat="-27.021374999999995" lon="-48.61080666666667"><ele>5.699999999999999</ele></trkpt><trkpt lat="-27.021374999999995" lon="-48.61080666666667"><ele>5.4</ele></trkpt><trkpt lat="-27.021374999999995" lon="-48.610801666666674"><ele>5</ele></trkpt><trkpt lat="-27.021374999999995" lon="-48.610801666666674"><ele>5</ele></trkpt><trkpt lat="-27.021374999999995" lon="-48.61080333333333"><ele>5</ele></trkpt><trkpt lat="-27.021373333333333" lon="-48.610798333333335"><ele>5.300000000000001</ele></trkpt><trkpt lat="-27.021373333333333" lon="-48.610798333333335"><ele>5.300000000000001</ele></trkpt><trkpt lat="-27.021373333333333" lon="-48.610798333333335"><ele>5.300000000000001</ele></trkpt><trkpt lat="-27.021373333333333" lon="-48.610798333333335"><ele>5.300000000000001</ele></trkpt><trkpt lat="-27.021373333333333" lon="-48.610798333333335"><ele>5.300000000000001</ele></trkpt><trkpt lat="-27.021373333333333" lon="-48.610798333333335"><ele>5.300000000000001</ele></trkpt><trkpt lat="-27.021373333333333" lon="-48.610798333333335"><ele>5.300000000000001</ele></trkpt><trkpt lat="-27.021373333333333" lon="-48.610798333333335"><ele>5.300000000000001</ele></trkpt><trkpt lat="-27.021373333333333" lon="-48.610798333333335"><ele>5.300000000000001</ele></trkpt><trkpt lat="-27.021373333333333" lon="-48.610798333333335"><ele>5.300000000000001</ele></trkpt><trkpt lat="-27.021373333333333" lon="-48.610798333333335"><ele>5.300000000000001</ele></trkpt><trkpt lat="-27.021373333333333" lon="-48.610798333333335"><ele>5.300000000000001</ele></trkpt><trkpt lat="-27.021373333333333" lon="-48.610798333333335"><ele>5.300000000000001</ele></trkpt><trkpt lat="-27.021373333333333" lon="-48.610798333333335"><ele>5.300000000000001</ele></trkpt><trkpt lat="-27.021373333333333" lon="-48.610798333333335"><ele>5.300000000000001</ele></trkpt><trkpt lat="-27.021373333333333" lon="-48.610798333333335"><ele>5.300000000000001</ele></trkpt><trkpt lat="-27.021373333333333" lon="-48.610798333333335"><ele>5.300000000000001</ele></trkpt><trkpt lat="-27.021373333333333" lon="-48.610798333333335"><ele>5.300000000000001</ele></trkpt><trkpt lat="-27.021373333333333" lon="-48.610798333333335"><ele>5.300000000000001</ele></trkpt><trkpt lat="-27.021373333333333" lon="-48.610798333333335"><ele>5.300000000000001</ele></trkpt><trkpt lat="-27.021373333333333" lon="-48.610798333333335"><ele>5.300000000000001</ele></trkpt><trkpt lat="-27.021365" lon="-48.610778333333336"><ele>5.300000000000001</ele></trkpt><trkpt lat="-27.021374999999995" lon="-48.610780000000005"><ele>5.2</ele></trkpt><trkpt lat="-27.021388333333334" lon="-48.61078333333333"><ele>5.1</ele></trkpt><trkpt lat="-27.021403333333335" lon="-48.610780000000005"><ele>4.7</ele></trkpt><trkpt lat="-27.021418333333333" lon="-48.610785"><ele>4.7</ele></trkpt><trkpt lat="-27.021436666666666" lon="-48.61078666666667"><ele>4.300000000000001</ele></trkpt><trkpt lat="-27.021449999999998" lon="-48.61078666666667"><ele>4.4</ele></trkpt><trkpt lat="-27.021463333333333" lon="-48.610789999999994"><ele>4.300000000000001</ele></trkpt><trkpt lat="-27.021476666666665" lon="-48.610788333333325"><ele>4.2</ele></trkpt><trkpt lat="-27.021490000000004" lon="-48.610789999999994"><ele>4.2</ele></trkpt><trkpt lat="-27.02150333333333" lon="-48.610791666666664"><ele>4.300000000000001</ele></trkpt><trkpt lat="-27.021518333333333" lon="-48.61079500000001"><ele>4.7</ele></trkpt><trkpt lat="-27.021528333333336" lon="-48.61079500000001"><ele>4.7</ele></trkpt><trkpt lat="-27.021545" lon="-48.61079500000001"><ele>4.7</ele></trkpt><trkpt lat="-27.021556666666665" lon="-48.61079333333334"><ele>4.9</ele></trkpt><trkpt lat="-27.021569999999997" lon="-48.610796666666666"><ele>4.7</ele></trkpt><trkpt lat="-27.021581666666666" lon="-48.610798333333335"><ele>4.6</ele></trkpt><trkpt lat="-27.021599999999996" lon="-48.61080333333333"><ele>4.800000000000001</ele></trkpt><trkpt lat="-27.021611666666665" lon="-48.610805"><ele>4.800000000000001</ele></trkpt><trkpt lat="-27.021626666666666" lon="-48.610805"><ele>4.5</ele></trkpt><trkpt lat="-27.02163666666667" lon="-48.61080333333333"><ele>4.1</ele></trkpt><trkpt lat="-27.021646666666665" lon="-48.610805"><ele>4.1</ele></trkpt><trkpt lat="-27.021656666666665" lon="-48.61080666666667"><ele>4.1</ele></trkpt><trkpt lat="-27.021665" lon="-48.61080666666667"><ele>3.6</ele></trkpt><trkpt lat="-27.021675" lon="-48.61080833333334"><ele>3.5</ele></trkpt><trkpt lat="-27.02168" lon="-48.61080833333334"><ele>3.5</ele></trkpt><trkpt lat="-27.021685" lon="-48.61081000000001"><ele>3.6</ele></trkpt><trkpt lat="-27.021676666666668" lon="-48.61081000000001"><ele>4</ele></trkpt><trkpt lat="-27.021671666666666" lon="-48.61080833333334"><ele>4.300000000000001</ele></trkpt><trkpt lat="-27.021670000000004" lon="-48.61080833333334"><ele>4.1</ele></trkpt><trkpt lat="-27.021670000000004" lon="-48.61080833333334"><ele>4.1</ele></trkpt><trkpt lat="-27.021670000000004" lon="-48.61080833333334"><ele>4</ele></trkpt><trkpt lat="-27.02166833333333" lon="-48.61080833333334"><ele>3.8000000000000003</ele></trkpt><trkpt lat="-27.021661666666667" lon="-48.61080333333333"><ele>3.4000000000000004</ele></trkpt><trkpt lat="-27.021659999999997" lon="-48.610800000000005"><ele>3.1</ele></trkpt><trkpt lat="-27.021658333333335" lon="-48.610798333333335"><ele>2.6</ele></trkpt><trkpt lat="-27.021655000000003" lon="-48.61079500000001"><ele>2.3</ele></trkpt><trkpt lat="-27.021653333333333" lon="-48.61079333333334"><ele>2.4000000000000004</ele></trkpt><trkpt lat="-27.021653333333333" lon="-48.610796666666666"><ele>2.3</ele></trkpt><trkpt lat="-27.021653333333333" lon="-48.610796666666666"><ele>2.3</ele></trkpt><trkpt lat="-27.021653333333333" lon="-48.610796666666666"><ele>2.3</ele></trkpt><trkpt lat="-27.021653333333333" lon="-48.610796666666666"><ele>2.3</ele></trkpt><trkpt lat="-27.02165166666667" lon="-48.61080666666667"><ele>2.6</ele></trkpt><trkpt lat="-27.02165" lon="-48.61081000000001"><ele>2.7</ele></trkpt><trkpt lat="-27.021641666666664" lon="-48.61081000000001"><ele>2.8</ele></trkpt><trkpt lat="-27.021638333333332" lon="-48.610801666666674"><ele>2.8</ele></trkpt><trkpt lat="-27.02163666666667" lon="-48.610796666666666"><ele>2.9000000000000004</ele></trkpt><trkpt lat="-27.021635" lon="-48.610789999999994"><ele>3</ele></trkpt><trkpt lat="-27.021635" lon="-48.610788333333325"><ele>3.1</ele></trkpt><trkpt lat="-27.021635" lon="-48.610788333333325"><ele>3.1</ele></trkpt><trkpt lat="-27.021635" lon="-48.610788333333325"><ele>3.1</ele></trkpt><trkpt lat="-27.021635" lon="-48.610788333333325"><ele>3.1</ele></trkpt><trkpt lat="-27.021635" lon="-48.610788333333325"><ele>3.1</ele></trkpt><trkpt lat="-27.021635" lon="-48.610788333333325"><ele>3.1</ele></trkpt><trkpt lat="-27.021635" lon="-48.610788333333325"><ele>3.1</ele></trkpt><trkpt lat="-27.021635" lon="-48.610788333333325"><ele>3.1</ele></trkpt><trkpt lat="-27.021635" lon="-48.610788333333325"><ele>3.1</ele></trkpt><trkpt lat="-27.021635" lon="-48.610788333333325"><ele>3.1</ele></trkpt><trkpt lat="-27.021635" lon="-48.610788333333325"><ele>3.1</ele></trkpt><trkpt lat="-27.021635" lon="-48.610788333333325"><ele>3.1</ele></trkpt><trkpt lat="-27.021635" lon="-48.610788333333325"><ele>3.1</ele></trkpt><trkpt lat="-27.021635" lon="-48.610788333333325"><ele>3.1</ele></trkpt><trkpt lat="-27.021644999999996" lon="-48.610801666666674"><ele>0.9000000000000001</ele></trkpt><trkpt lat="-27.02165166666667" lon="-48.61080333333333"><ele>0.6000000000000001</ele></trkpt><trkpt lat="-27.021658333333335" lon="-48.61080333333333"><ele>0.30000000000000004</ele></trkpt><trkpt lat="-27.021670000000004" lon="-48.61080666666667"><ele>0.30000000000000004</ele></trkpt><trkpt lat="-27.02168166666667" lon="-48.61081666666667"><ele>0.20000000000000018</ele></trkpt><trkpt lat="-27.02169666666667" lon="-48.61081833333333"><ele>0.5</ele></trkpt><trkpt lat="-27.021706666666667" lon="-48.610821666666666"><ele>0.8</ele></trkpt><trkpt lat="-27.021716666666666" lon="-48.610821666666666"><ele>0.6000000000000001</ele></trkpt><trkpt lat="-27.02173" lon="-48.610823333333336"><ele>0.20000000000000018</ele></trkpt><trkpt lat="-27.02174" lon="-48.61082"><ele>-0.09999999999999987</ele></trkpt><trkpt lat="-27.021743333333333" lon="-48.610821666666666"><ele>-0.09999999999999987</ele></trkpt><trkpt lat="-27.02174166666667" lon="-48.61082"><ele>-0.19999999999999996</ele></trkpt><trkpt lat="-27.02174" lon="-48.61081666666667"><ele>0.10000000000000009</ele></trkpt><trkpt lat="-27.02173" lon="-48.61080833333334"><ele>0.10000000000000009</ele></trkpt><trkpt lat="-27.021721666666668" lon="-48.610801666666674"><ele>0.20000000000000018</ele></trkpt><trkpt lat="-27.02171" lon="-48.610798333333335"><ele>0.10000000000000009</ele></trkpt><trkpt lat="-27.021703333333335" lon="-48.610800000000005"><ele>0</ele></trkpt><trkpt lat="-27.02169666666667" lon="-48.610800000000005"><ele>0.10000000000000009</ele></trkpt><trkpt lat="-27.021689999999996" lon="-48.610800000000005"><ele>0</ele></trkpt><trkpt lat="-27.02168166666667" lon="-48.610798333333335"><ele>-0.09999999999999987</ele></trkpt><trkpt lat="-27.021673333333336" lon="-48.610800000000005"><ele>0.10000000000000009</ele></trkpt><trkpt lat="-27.02166666666667" lon="-48.610801666666674"><ele>-0.09999999999999987</ele></trkpt><trkpt lat="-27.021665" lon="-48.610805"><ele>0</ele></trkpt><trkpt lat="-27.02166666666667" lon="-48.61080666666667"><ele>0.20000000000000018</ele></trkpt><trkpt lat="-27.02166833333333" lon="-48.61080833333334"><ele>0.30000000000000004</ele></trkpt><trkpt lat="-27.021670000000004" lon="-48.610805"><ele>0.5</ele></trkpt><trkpt lat="-27.021671666666666" lon="-48.610805"><ele>0.7000000000000001</ele></trkpt><trkpt lat="-27.021673333333336" lon="-48.61080333333333"><ele>0.8</ele></trkpt><trkpt lat="-27.021675" lon="-48.61080333333333"><ele>0.8</ele></trkpt><trkpt lat="-27.021675" lon="-48.61080333333333"><ele>0.9000000000000001</ele></trkpt><trkpt lat="-27.021675" lon="-48.610805"><ele>1</ele></trkpt><trkpt lat="-27.021675" lon="-48.610805"><ele>1.2000000000000002</ele></trkpt><trkpt lat="-27.021675" lon="-48.610805"><ele>1.2000000000000002</ele></trkpt><trkpt lat="-27.021675" lon="-48.610805"><ele>1.2000000000000002</ele></trkpt><trkpt lat="-27.021675" lon="-48.610805"><ele>1.2000000000000002</ele></trkpt><trkpt lat="-27.021675" lon="-48.610805"><ele>1.2000000000000002</ele></trkpt><trkpt lat="-27.021675" lon="-48.610805"><ele>1.2000000000000002</ele></trkpt><trkpt lat="-27.021675" lon="-48.610805"><ele>1.2000000000000002</ele></trkpt><trkpt lat="-27.021675" lon="-48.610805"><ele>1.2000000000000002</ele></trkpt><trkpt lat="-27.021675" lon="-48.610805"><ele>1.2000000000000002</ele></trkpt><trkpt lat="-27.021675" lon="-48.610805"><ele>1.2000000000000002</ele></trkpt><trkpt lat="-27.021675" lon="-48.610805"><ele>1.2000000000000002</ele></trkpt><trkpt lat="-27.021675" lon="-48.610805"><ele>1.2000000000000002</ele></trkpt><trkpt lat="-27.021675" lon="-48.610805"><ele>1.2000000000000002</ele></trkpt><trkpt lat="-27.021675" lon="-48.610805"><ele>1.2000000000000002</ele></trkpt><trkpt lat="-27.021675" lon="-48.610805"><ele>1.2000000000000002</ele></trkpt><trkpt lat="-27.021675" lon="-48.610805"><ele>1.2000000000000002</ele></trkpt><trkpt lat="-27.021675" lon="-48.610805"><ele>1.2000000000000002</ele></trkpt><trkpt lat="-27.021675" lon="-48.610805"><ele>1.2000000000000002</ele></trkpt><trkpt lat="-27.021675" lon="-48.610805"><ele>1.2000000000000002</ele></trkpt><trkpt lat="-27.021675" lon="-48.610805"><ele>1.2000000000000002</ele></trkpt><trkpt lat="-27.021675" lon="-48.610805"><ele>1.2000000000000002</ele></trkpt><trkpt lat="-27.021675" lon="-48.610805"><ele>1.2000000000000002</ele></trkpt><trkpt lat="-27.021675" lon="-48.610805"><ele>1.2000000000000002</ele></trkpt><trkpt lat="-27.021675" lon="-48.610805"><ele>1.2000000000000002</ele></trkpt><trkpt lat="-27.021675" lon="-48.610805"><ele>1.2000000000000002</ele></trkpt><trkpt lat="-27.021675" lon="-48.610805"><ele>1.2000000000000002</ele></trkpt><trkpt lat="-27.021675" lon="-48.610805"><ele>1.2000000000000002</ele></trkpt><trkpt lat="-27.021675" lon="-48.610805"><ele>1.2000000000000002</ele></trkpt><trkpt lat="-27.021675" lon="-48.610805"><ele>1.2000000000000002</ele></trkpt><trkpt lat="-27.021675" lon="-48.610805"><ele>1.2000000000000002</ele></trkpt><trkpt lat="-27.021675" lon="-48.610805"><ele>1.2000000000000002</ele></trkpt><trkpt lat="-27.021675" lon="-48.610805"><ele>1.2000000000000002</ele></trkpt><trkpt lat="-27.021675" lon="-48.610805"><ele>1.2000000000000002</ele></trkpt><trkpt lat="-27.021675" lon="-48.610805"><ele>1.2000000000000002</ele></trkpt><trkpt lat="-27.021675" lon="-48.610805"><ele>1.2000000000000002</ele></trkpt><trkpt lat="-27.021675" lon="-48.610805"><ele>1.2000000000000002</ele></trkpt><trkpt lat="-27.021675" lon="-48.610805"><ele>1.2000000000000002</ele></trkpt><trkpt lat="-27.021675" lon="-48.610805"><ele>1.2000000000000002</ele></trkpt><trkpt lat="-27.021675" lon="-48.610805"><ele>1.2000000000000002</ele></trkpt><trkpt lat="-27.021675" lon="-48.610805"><ele>1.2000000000000002</ele></trkpt><trkpt lat="-27.021675" lon="-48.610805"><ele>1.2000000000000002</ele></trkpt><trkpt lat="-27.021673333333336" lon="-48.61081166666666"><ele>0.20000000000000018</ele></trkpt><trkpt lat="-27.021673333333336" lon="-48.61081166666666"><ele>0.20000000000000018</ele></trkpt><trkpt lat="-27.021675" lon="-48.61081166666666"><ele>0.30000000000000004</ele></trkpt><trkpt lat="-27.021676666666668" lon="-48.610801666666674"><ele>0.5</ele></trkpt><trkpt lat="-27.02167833333333" lon="-48.610801666666674"><ele>0.7000000000000001</ele></trkpt><trkpt lat="-27.021683333333332" lon="-48.610801666666674"><ele>0.9000000000000001</ele></trkpt><trkpt lat="-27.021673333333336" lon="-48.61080666666667"><ele>3.4000000000000004</ele></trkpt><trkpt lat="-27.021673333333336" lon="-48.61080666666667"><ele>3.4000000000000004</ele></trkpt><trkpt lat="-27.021673333333336" lon="-48.61080666666667"><ele>3.4000000000000004</ele></trkpt><trkpt lat="-27.021673333333336" lon="-48.61080666666667"><ele>3.4000000000000004</ele></trkpt></trkseg></trk></gpx>