<?xml version="1.0" encoding="UTF-8"?>
<gpx xmlns="http://www.topografix.com/GPX/1/1" version="1.1" creator="@dwayneparton/geojson-to-gpx"><wpt lat="-27.007126666666668" lon="-48.64330499999999"><ele>4.9</ele><name>2 faixas</name></wpt><wpt lat="-27.00791166666667" lon="-48.64251833333333"><ele>3.1</ele><name>45</name></wpt><wpt lat="-27.007828333333336" lon="-48.64257666666667"><ele>3.7</ele><name>240</name></wpt><wpt lat="-27.007795" lon="-48.64263166666667"><ele>4</ele><name>300</name></wpt><wpt lat="-27.00778833333333" lon="-48.64265166666667"><ele>2.8</ele><name>1650</name></wpt><wpt lat="-27.008053" lon="-48.642406"><name>A ciclo é completamente reta.</name></wpt><wpt lat="-27.00806166666667" lon="-48.642408333333336"><ele>3.9</ele><name>A pintura está boa, COMPLETA e visível</name></wpt><wpt lat="-27.00711666666667" lon="-48.64329833333333"><ele>4.5</ele><name>Apenas faixas vermelhas nas bordas, com travessias pintadas nos cruzamentos</name></wpt><wpt lat="-27.00791166666667" lon="-48.64251833333333"><ele>3.1</ele><name>Área de amortecimento da ciclo (cm)</name></wpt><wpt lat="-27.007828333333336" lon="-48.64257666666667"><ele>3.7</ele><name>Área transitável da ciclo (cm)</name></wpt><wpt lat="-27.00711666666667" lon="-48.64329833333333"><ele>4.5</ele><name>Asfalto</name></wpt><wpt lat="-27.007123333333332" lon="-48.64333333333334"><ele>2.7</ele><name>Bidirecional</name></wpt><wpt lat="-27.00806166666667" lon="-48.642408333333336"><ele>3.9</ele><name>Bom estado</name></wpt><wpt lat="-27.00711666666667" lon="-48.64329833333333"><ele>4.5</ele><name>Canteiros</name></wpt><wpt lat="-27.007124999999995" lon="-48.64333499999999"><ele>2.9000000000000004</ele><name>Ciclovia</name></wpt><wpt lat="-27.007098333333335" lon="-48.643301666666666"><ele>5.1</ele><name>Em bordo de Via de Mão Dupla</name></wpt><wpt lat="-27.007126666666668" lon="-48.64330499999999"><ele>4.9</ele><name>Estacionamento dos dois lados</name></wpt><wpt lat="-27.007795" lon="-48.64263166666667"><ele>4</ele><name>Faixa de carros logo ao lado da ciclo (cm)</name></wpt><wpt lat="-27.007106666666665" lon="-48.64327166666667"><ele>4.1</ele><name>Foto</name></wpt><wpt lat="-27.007168333333333" lon="-48.64324833333333"><ele>4</ele><name>Foto</name></wpt><wpt lat="-27.007121666666663" lon="-48.643319999999996"><ele>2.3</ele><name>Foto</name></wpt><wpt lat="-27.007468333333335" lon="-48.643029999999996"><ele>1.5</ele><name>Foto</name></wpt><wpt lat="-27.007513333333335" lon="-48.642961666666665"><ele>2.7</ele><name>Foto</name></wpt><wpt lat="-27.007565" lon="-48.642914999999995"><ele>4.300000000000001</ele><name>Foto</name></wpt><wpt lat="-27.007690000000004" lon="-48.64280833333334"><ele>1.5</ele><name>Foto</name></wpt><wpt lat="-27.007828333333336" lon="-48.64257666666667"><ele>3.7</ele><name>Foto</name></wpt><wpt lat="-27.007903333333335" lon="-48.64255"><ele>4.6</ele><name>Foto</name></wpt><wpt lat="-27.008021666666664" lon="-48.64244999999999"><ele>2.6</ele><name>Foto</name></wpt><wpt lat="-27.00806166666667" lon="-48.642408333333336"><ele>3.9</ele><name>Iluminação geral na via do outro lado da infraestrutura</name></wpt><wpt lat="-27.007113333333336" lon="-48.643299999999996"><ele>4.6</ele><name>Mão Dupla</name></wpt><wpt lat="-27.00806166666667" lon="-48.642408333333336"><ele>3.9</ele><name>Não há árvores nem mudas</name></wpt><wpt lat="-27.00806" lon="-48.642406666666666"><ele>4.2</ele><name>Nenhum elemento de controle de velocidade na via</name></wpt><wpt lat="-27.00711833333333" lon="-48.64327333333334"><ele>3.9</ele><name>Pictograma BOA condição</name></wpt><wpt lat="-27.007406666666665" lon="-48.643049999999995"><ele>0.8</ele><name>Pictograma BOA condição</name></wpt><wpt lat="-27.007525" lon="-48.642935"><ele>4.2</ele><name>Pictograma BOA condição</name></wpt><wpt lat="-27.007763333333333" lon="-48.64267666666667"><ele>1.7000000000000002</ele><name>Pictograma BOA condição</name></wpt><wpt lat="-27.00786666666667" lon="-48.64256833333334"><ele>4.6</ele><name>Pictograma BOA condição</name></wpt><wpt lat="-27.008021666666664" lon="-48.64244999999999"><ele>2.6</ele><name>Pictograma BOA condição</name></wpt><wpt lat="-27.007506666666668" lon="-48.64297499999999"><ele>1.7000000000000002</ele><name>Em cruzamento BOA condição</name></wpt><wpt lat="-27.007768333333335" lon="-48.642689999999995"><ele>1</ele><name>Em cruzamento BOA condição</name></wpt><wpt lat="-27.008021666666664" lon="-48.64244999999999"><ele>2.6</ele><name>Em cruzamento BOA condição</name></wpt><wpt lat="-27.007106666666665" lon="-48.643276666666665"><ele>4.2</ele><name>Em cruzamento MÁ condição</name></wpt><wpt lat="-27.00806166666667" lon="-48.642408333333336"><ele>3.9</ele><name>SE CICLOVIA: segregação impede completamente a invasão de automóvel e não há trechos desprotegidos</name></wpt><wpt lat="-27.00806166666667" lon="-48.642408333333336"><ele>3.9</ele><name>Segregadores NÃO DIFICULTAM o acesso de ciclistas</name></wpt><wpt lat="-27.00712" lon="-48.64327166666667"><ele>4</ele><name>Seta BOA condição</name></wpt><wpt lat="-27.00778833333333" lon="-48.64265166666667"><ele>2.8</ele><name>Total da via (incluindo a ciclo) (cm)</name></wpt><wpt lat="-27.00806166666667" lon="-48.642408333333336"><ele>3.9</ele><name>Via transversal COM acesso à ciclovia</name></wpt><trk><name>Ciclovia Pref. Gilberto A. Meirinho - BC</name><trkseg><trkpt lat="-27.007128333333338" lon="-48.64332833333333"><ele>2.1</ele></trkpt><trkpt lat="-27.007124999999995" lon="-48.64333333333334"><ele>-0.6000000000000001</ele></trkpt><trkpt lat="-27.00711666666667" lon="-48.64333833333333"><ele>-1.2999999999999998</ele></trkpt><trkpt lat="-27.007098333333335" lon="-48.64330333333334"><ele>-2.8000000000000003</ele></trkpt><trkpt lat="-27.00709" lon="-48.64328999999999"><ele>-3.4</ele></trkpt><trkpt lat="-27.007081666666668" lon="-48.643280000000004"><ele>-2.4999999999999996</ele></trkpt><trkpt lat="-27.007076666666663" lon="-48.643274999999996"><ele>-0.8999999999999999</ele></trkpt><trkpt lat="-27.00707166666667" lon="-48.64327"><ele>0.40000000000000013</ele></trkpt><trkpt lat="-27.007064999999997" lon="-48.64326333333334"><ele>0.7000000000000001</ele></trkpt><trkpt lat="-27.00705833333333" lon="-48.64326166666667"><ele>1.3</ele></trkpt><trkpt lat="-27.007051666666666" lon="-48.643256666666666"><ele>2.2</ele></trkpt><trkpt lat="-27.007049999999996" lon="-48.64325166666666"><ele>2.6</ele></trkpt><trkpt lat="-27.007053333333335" lon="-48.64324666666666"><ele>3</ele></trkpt><trkpt lat="-27.00705833333333" lon="-48.64324166666667"><ele>3.6</ele></trkpt><trkpt lat="-27.007063333333335" lon="-48.64323833333333"><ele>4</ele></trkpt><trkpt lat="-27.00707" lon="-48.64323833333333"><ele>4.2</ele></trkpt><trkpt lat="-27.00709" lon="-48.643346666666666"><ele>6.1</ele></trkpt><trkpt lat="-27.007124999999995" lon="-48.64330666666667"><ele>3.4000000000000004</ele></trkpt><trkpt lat="-27.007124999999995" lon="-48.643301666666666"><ele>5.1</ele></trkpt><trkpt lat="-27.00712" lon="-48.64331000000001"><ele>5.6</ele></trkpt><trkpt lat="-27.00711833333333" lon="-48.643319999999996"><ele>5.6</ele></trkpt><trkpt lat="-27.00712" lon="-48.643325000000004"><ele>5.1</ele></trkpt><trkpt lat="-27.007121666666663" lon="-48.64333166666667"><ele>4.5</ele></trkpt><trkpt lat="-27.007123333333332" lon="-48.64333666666666"><ele>4</ele></trkpt><trkpt lat="-27.007124999999995" lon="-48.64333666666666"><ele>3.5</ele></trkpt><trkpt lat="-27.007124999999995" lon="-48.64333499999999"><ele>2.9000000000000004</ele></trkpt><trkpt lat="-27.007124999999995" lon="-48.64333499999999"><ele>2.9000000000000004</ele></trkpt><trkpt lat="-27.007123333333332" lon="-48.64333333333334"><ele>2.7</ele></trkpt><trkpt lat="-27.007123333333332" lon="-48.64333333333334"><ele>2.7</ele></trkpt><trkpt lat="-27.007121666666663" lon="-48.64333333333334"><ele>2.7</ele></trkpt><trkpt lat="-27.00711833333333" lon="-48.64333166666667"><ele>2.6</ele></trkpt><trkpt lat="-27.007113333333336" lon="-48.64333"><ele>2.6</ele></trkpt><trkpt lat="-27.007108333333335" lon="-48.643325000000004"><ele>2.7</ele></trkpt><trkpt lat="-27.007105000000003" lon="-48.643325000000004"><ele>3.2</ele></trkpt><trkpt lat="-27.007099999999998" lon="-48.643323333333335"><ele>3.6</ele></trkpt><trkpt lat="-27.007098333333335" lon="-48.643319999999996"><ele>4.1</ele></trkpt><trkpt lat="-27.007094999999996" lon="-48.643315"><ele>4.5</ele></trkpt><trkpt lat="-27.007094999999996" lon="-48.64331166666666"><ele>4.7</ele></trkpt><trkpt lat="-27.007094999999996" lon="-48.64331000000001"><ele>4.9</ele></trkpt><trkpt lat="-27.007096666666666" lon="-48.64330666666667"><ele>5</ele></trkpt><trkpt lat="-27.007098333333335" lon="-48.643301666666666"><ele>5.1</ele></trkpt><trkpt lat="-27.007098333333335" lon="-48.643301666666666"><ele>5.1</ele></trkpt><trkpt lat="-27.007099999999998" lon="-48.64329833333333"><ele>5.300000000000001</ele></trkpt><trkpt lat="-27.007101666666667" lon="-48.64329833333333"><ele>5.300000000000001</ele></trkpt><trkpt lat="-27.007101666666667" lon="-48.64329666666666"><ele>5.2</ele></trkpt><trkpt lat="-27.007101666666667" lon="-48.643295"><ele>5</ele></trkpt><trkpt lat="-27.007099999999998" lon="-48.64329166666666"><ele>4.800000000000001</ele></trkpt><trkpt lat="-27.007099999999998" lon="-48.64328999999999"><ele>4.6</ele></trkpt><trkpt lat="-27.007101666666667" lon="-48.64328999999999"><ele>4.5</ele></trkpt><trkpt lat="-27.007105000000003" lon="-48.64329333333333"><ele>4.5</ele></trkpt><trkpt lat="-27.007109999999997" lon="-48.64329666666666"><ele>4.6</ele></trkpt><trkpt lat="-27.007113333333336" lon="-48.643299999999996"><ele>4.6</ele></trkpt><trkpt lat="-27.007113333333336" lon="-48.643299999999996"><ele>4.6</ele></trkpt><trkpt lat="-27.00711666666667" lon="-48.64329833333333"><ele>4.5</ele></trkpt><trkpt lat="-27.00711666666667" lon="-48.64329833333333"><ele>4.5</ele></trkpt><trkpt lat="-27.00711666666667" lon="-48.64329833333333"><ele>4.5</ele></trkpt><trkpt lat="-27.00711666666667" lon="-48.64329833333333"><ele>4.5</ele></trkpt><trkpt lat="-27.00711666666667" lon="-48.64329833333333"><ele>4.5</ele></trkpt><trkpt lat="-27.00711666666667" lon="-48.64329833333333"><ele>4.5</ele></trkpt><trkpt lat="-27.00711666666667" lon="-48.64329833333333"><ele>4.5</ele></trkpt><trkpt lat="-27.00711666666667" lon="-48.64329833333333"><ele>4.5</ele></trkpt><trkpt lat="-27.00711666666667" lon="-48.64329833333333"><ele>4.5</ele></trkpt><trkpt lat="-27.00711666666667" lon="-48.64329833333333"><ele>4.5</ele></trkpt><trkpt lat="-27.00711666666667" lon="-48.64329833333333"><ele>4.5</ele></trkpt><trkpt lat="-27.00711666666667" lon="-48.64329833333333"><ele>4.5</ele></trkpt><trkpt lat="-27.00711666666667" lon="-48.64329833333333"><ele>4.5</ele></trkpt><trkpt lat="-27.00711666666667" lon="-48.64329833333333"><ele>4.5</ele></trkpt><trkpt lat="-27.00711666666667" lon="-48.64329833333333"><ele>4.5</ele></trkpt><trkpt lat="-27.00711666666667" lon="-48.64329833333333"><ele>4.5</ele></trkpt><trkpt lat="-27.00711666666667" lon="-48.64329833333333"><ele>4.5</ele></trkpt><trkpt lat="-27.00711666666667" lon="-48.64329833333333"><ele>4.5</ele></trkpt><trkpt lat="-27.00711666666667" lon="-48.64329833333333"><ele>4.5</ele></trkpt><trkpt lat="-27.00711666666667" lon="-48.64329833333333"><ele>4.5</ele></trkpt><trkpt lat="-27.00711666666667" lon="-48.64329833333333"><ele>4.5</ele></trkpt><trkpt lat="-27.00711666666667" lon="-48.64329833333333"><ele>4.5</ele></trkpt><trkpt lat="-27.00711666666667" lon="-48.64329833333333"><ele>4.5</ele></trkpt><trkpt lat="-27.00711666666667" lon="-48.64329833333333"><ele>4.5</ele></trkpt><trkpt lat="-27.00711666666667" lon="-48.64329833333333"><ele>4.5</ele></trkpt><trkpt lat="-27.00711666666667" lon="-48.64329833333333"><ele>4.5</ele></trkpt><trkpt lat="-27.00711666666667" lon="-48.64329833333333"><ele>4.5</ele></trkpt><trkpt lat="-27.00711666666667" lon="-48.64329833333333"><ele>4.5</ele></trkpt><trkpt lat="-27.00711666666667" lon="-48.64329833333333"><ele>4.5</ele></trkpt><trkpt lat="-27.00711666666667" lon="-48.64329833333333"><ele>4.5</ele></trkpt><trkpt lat="-27.00711666666667" lon="-48.64329833333333"><ele>4.5</ele></trkpt><trkpt lat="-27.00711666666667" lon="-48.64329833333333"><ele>4.5</ele></trkpt><trkpt lat="-27.00711666666667" lon="-48.64329833333333"><ele>4.5</ele></trkpt><trkpt lat="-27.00711666666667" lon="-48.64329833333333"><ele>4.5</ele></trkpt><trkpt lat="-27.00711666666667" lon="-48.64329833333333"><ele>4.5</ele></trkpt><trkpt lat="-27.00711666666667" lon="-48.64329833333333"><ele>4.5</ele></trkpt><trkpt lat="-27.00711666666667" lon="-48.64329833333333"><ele>4.5</ele></trkpt><trkpt lat="-27.007111666666667" lon="-48.64330333333334"><ele>4.800000000000001</ele></trkpt><trkpt lat="-27.00711833333333" lon="-48.64331000000001"><ele>5.1</ele></trkpt><trkpt lat="-27.007126666666668" lon="-48.64331166666666"><ele>5</ele></trkpt><trkpt lat="-27.007135" lon="-48.64331333333333"><ele>5.300000000000001</ele></trkpt><trkpt lat="-27.007139999999996" lon="-48.64331333333333"><ele>5.300000000000001</ele></trkpt><trkpt lat="-27.007138333333334" lon="-48.64331333333333"><ele>5.4</ele></trkpt><trkpt lat="-27.007135" lon="-48.64330833333334"><ele>5.5</ele></trkpt><trkpt lat="-27.00713166666667" lon="-48.64330666666667"><ele>5.300000000000001</ele></trkpt><trkpt lat="-27.00713" lon="-48.64330666666667"><ele>5.1</ele></trkpt><trkpt lat="-27.007128333333338" lon="-48.64330666666667"><ele>4.9</ele></trkpt><trkpt lat="-27.007126666666668" lon="-48.64330499999999"><ele>4.9</ele></trkpt><trkpt lat="-27.007126666666668" lon="-48.64330499999999"><ele>4.9</ele></trkpt><trkpt lat="-27.007126666666668" lon="-48.64330499999999"><ele>4.9</ele></trkpt><trkpt lat="-27.007126666666668" lon="-48.64330499999999"><ele>4.9</ele></trkpt><trkpt lat="-27.007126666666668" lon="-48.64330499999999"><ele>4.9</ele></trkpt><trkpt lat="-27.007126666666668" lon="-48.64330499999999"><ele>4.9</ele></trkpt><trkpt lat="-27.007126666666668" lon="-48.64330499999999"><ele>4.9</ele></trkpt><trkpt lat="-27.007126666666668" lon="-48.64330499999999"><ele>4.9</ele></trkpt><trkpt lat="-27.007126666666668" lon="-48.64330499999999"><ele>4.9</ele></trkpt><trkpt lat="-27.007126666666668" lon="-48.64330499999999"><ele>4.9</ele></trkpt><trkpt lat="-27.007126666666668" lon="-48.64330499999999"><ele>4.9</ele></trkpt><trkpt lat="-27.007126666666668" lon="-48.64330499999999"><ele>4.9</ele></trkpt><trkpt lat="-27.007126666666668" lon="-48.64330499999999"><ele>4.9</ele></trkpt><trkpt lat="-27.007126666666668" lon="-48.64330499999999"><ele>4.9</ele></trkpt><trkpt lat="-27.007126666666668" lon="-48.64330499999999"><ele>4.9</ele></trkpt><trkpt lat="-27.007126666666668" lon="-48.64330499999999"><ele>4.9</ele></trkpt><trkpt lat="-27.007126666666668" lon="-48.64330499999999"><ele>4.9</ele></trkpt><trkpt lat="-27.007126666666668" lon="-48.64330499999999"><ele>4.9</ele></trkpt><trkpt lat="-27.007126666666668" lon="-48.64330499999999"><ele>4.9</ele></trkpt><trkpt lat="-27.007126666666668" lon="-48.64330499999999"><ele>4.9</ele></trkpt><trkpt lat="-27.007126666666668" lon="-48.64330499999999"><ele>4.9</ele></trkpt><trkpt lat="-27.007126666666668" lon="-48.64330499999999"><ele>4.9</ele></trkpt><trkpt lat="-27.007126666666668" lon="-48.64330499999999"><ele>4.9</ele></trkpt><trkpt lat="-27.007126666666668" lon="-48.64330499999999"><ele>4.9</ele></trkpt><trkpt lat="-27.007126666666668" lon="-48.64330499999999"><ele>4.9</ele></trkpt><trkpt lat="-27.007126666666668" lon="-48.64330499999999"><ele>4.9</ele></trkpt><trkpt lat="-27.007126666666668" lon="-48.64330499999999"><ele>4.9</ele></trkpt><trkpt lat="-27.007126666666668" lon="-48.64330499999999"><ele>4.9</ele></trkpt><trkpt lat="-27.007126666666668" lon="-48.64330499999999"><ele>4.9</ele></trkpt><trkpt lat="-27.007126666666668" lon="-48.64330499999999"><ele>4.9</ele></trkpt><trkpt lat="-27.007126666666668" lon="-48.64330499999999"><ele>4.9</ele></trkpt><trkpt lat="-27.007126666666668" lon="-48.64330499999999"><ele>4.9</ele></trkpt><trkpt lat="-27.007126666666668" lon="-48.64330499999999"><ele>4.9</ele></trkpt><trkpt lat="-27.007126666666668" lon="-48.64330499999999"><ele>4.9</ele></trkpt><trkpt lat="-27.007126666666668" lon="-48.64330499999999"><ele>4.9</ele></trkpt><trkpt lat="-27.007126666666668" lon="-48.64330499999999"><ele>4.9</ele></trkpt><trkpt lat="-27.007126666666668" lon="-48.64330499999999"><ele>4.9</ele></trkpt><trkpt lat="-27.007126666666668" lon="-48.64330499999999"><ele>4.9</ele></trkpt><trkpt lat="-27.007113333333336" lon="-48.643319999999996"><ele>5.6</ele></trkpt><trkpt lat="-27.007111666666667" lon="-48.64331666666667"><ele>5.300000000000001</ele></trkpt><trkpt lat="-27.007111666666667" lon="-48.64331333333333"><ele>5.2</ele></trkpt><trkpt lat="-27.007106666666665" lon="-48.64330666666667"><ele>5</ele></trkpt><trkpt lat="-27.007105000000003" lon="-48.643301666666666"><ele>5.1</ele></trkpt><trkpt lat="-27.007105000000003" lon="-48.64329666666666"><ele>4.9</ele></trkpt><trkpt lat="-27.007105000000003" lon="-48.64329333333333"><ele>4.800000000000001</ele></trkpt><trkpt lat="-27.007105000000003" lon="-48.64328833333334"><ele>4.7</ele></trkpt><trkpt lat="-27.007105000000003" lon="-48.64328333333333"><ele>4.5</ele></trkpt><trkpt lat="-27.007105000000003" lon="-48.643280000000004"><ele>4.300000000000001</ele></trkpt><trkpt lat="-27.007106666666665" lon="-48.643276666666665"><ele>4.2</ele></trkpt><trkpt lat="-27.007106666666665" lon="-48.643276666666665"><ele>4.2</ele></trkpt><trkpt lat="-27.007105000000003" lon="-48.64327166666667"><ele>4.2</ele></trkpt><trkpt lat="-27.007106666666665" lon="-48.64327166666667"><ele>4.1</ele></trkpt><trkpt lat="-27.007106666666665" lon="-48.64327166666667"><ele>4.1</ele></trkpt><trkpt lat="-27.007106666666665" lon="-48.64327166666667"><ele>4.1</ele></trkpt><trkpt lat="-27.007106666666665" lon="-48.64327166666667"><ele>4.1</ele></trkpt><trkpt lat="-27.007106666666665" lon="-48.64327166666667"><ele>4.1</ele></trkpt><trkpt lat="-27.007106666666665" lon="-48.64327166666667"><ele>4.1</ele></trkpt><trkpt lat="-27.007106666666665" lon="-48.64327166666667"><ele>4.1</ele></trkpt><trkpt lat="-27.007106666666665" lon="-48.64327166666667"><ele>4.1</ele></trkpt><trkpt lat="-27.007106666666665" lon="-48.64327166666667"><ele>4.1</ele></trkpt><trkpt lat="-27.007106666666665" lon="-48.64327166666667"><ele>4.1</ele></trkpt><trkpt lat="-27.007106666666665" lon="-48.64327166666667"><ele>4.1</ele></trkpt><trkpt lat="-27.007106666666665" lon="-48.64327166666667"><ele>4.1</ele></trkpt><trkpt lat="-27.007106666666665" lon="-48.64327166666667"><ele>4.1</ele></trkpt><trkpt lat="-27.007106666666665" lon="-48.64327166666667"><ele>4.1</ele></trkpt><trkpt lat="-27.007106666666665" lon="-48.64327166666667"><ele>4.1</ele></trkpt><trkpt lat="-27.007106666666665" lon="-48.64327166666667"><ele>4.1</ele></trkpt><trkpt lat="-27.007106666666665" lon="-48.64327166666667"><ele>4.1</ele></trkpt><trkpt lat="-27.007106666666665" lon="-48.64327166666667"><ele>4.1</ele></trkpt><trkpt lat="-27.007106666666665" lon="-48.64327166666667"><ele>4.1</ele></trkpt><trkpt lat="-27.007106666666665" lon="-48.64327166666667"><ele>4.1</ele></trkpt><trkpt lat="-27.007106666666665" lon="-48.64327166666667"><ele>4.1</ele></trkpt><trkpt lat="-27.007106666666665" lon="-48.64327166666667"><ele>4.1</ele></trkpt><trkpt lat="-27.007106666666665" lon="-48.64327166666667"><ele>4.1</ele></trkpt><trkpt lat="-27.007106666666665" lon="-48.64327166666667"><ele>4.1</ele></trkpt><trkpt lat="-27.007106666666665" lon="-48.64327166666667"><ele>4.1</ele></trkpt><trkpt lat="-27.007106666666665" lon="-48.64327166666667"><ele>4.1</ele></trkpt><trkpt lat="-27.007106666666665" lon="-48.64327166666667"><ele>4.1</ele></trkpt><trkpt lat="-27.007106666666665" lon="-48.64327166666667"><ele>4.1</ele></trkpt><trkpt lat="-27.007106666666665" lon="-48.64327166666667"><ele>4.1</ele></trkpt><trkpt lat="-27.007106666666665" lon="-48.64327166666667"><ele>4.1</ele></trkpt><trkpt lat="-27.007106666666665" lon="-48.64327166666667"><ele>4.1</ele></trkpt><trkpt lat="-27.00712" lon="-48.643278333333335"><ele>3.9</ele></trkpt><trkpt lat="-27.00711833333333" lon="-48.64327333333334"><ele>3.9</ele></trkpt><trkpt lat="-27.00711833333333" lon="-48.64327333333334"><ele>3.9</ele></trkpt><trkpt lat="-27.00712" lon="-48.64327166666667"><ele>4</ele></trkpt><trkpt lat="-27.00712" lon="-48.64327166666667"><ele>4</ele></trkpt><trkpt lat="-27.007121666666663" lon="-48.64326666666666"><ele>4</ele></trkpt><trkpt lat="-27.007121666666663" lon="-48.64326666666666"><ele>4</ele></trkpt><trkpt lat="-27.007135" lon="-48.64325833333334"><ele>3.8000000000000003</ele></trkpt><trkpt lat="-27.007143333333335" lon="-48.64325333333333"><ele>3.7</ele></trkpt><trkpt lat="-27.007150000000003" lon="-48.64325"><ele>3.8000000000000003</ele></trkpt><trkpt lat="-27.007153333333335" lon="-48.64325"><ele>4</ele></trkpt><trkpt lat="-27.00716" lon="-48.64324833333333"><ele>4.1</ele></trkpt><trkpt lat="-27.007168333333333" lon="-48.64324833333333"><ele>4</ele></trkpt><trkpt lat="-27.007168333333333" lon="-48.64324833333333"><ele>4</ele></trkpt><trkpt lat="-27.007175" lon="-48.64324833333333"><ele>4.1</ele></trkpt><trkpt lat="-27.007181666666664" lon="-48.64325"><ele>3.9</ele></trkpt><trkpt lat="-27.007188333333335" lon="-48.64324666666666"><ele>3.5</ele></trkpt><trkpt lat="-27.007184999999996" lon="-48.64324499999999"><ele>3.1</ele></trkpt><trkpt lat="-27.00718" lon="-48.64324166666667"><ele>2.7</ele></trkpt><trkpt lat="-27.007171666666668" lon="-48.64324"><ele>2.6</ele></trkpt><trkpt lat="-27.007165" lon="-48.64324166666667"><ele>2.4000000000000004</ele></trkpt><trkpt lat="-27.007156666666667" lon="-48.64325"><ele>2.5</ele></trkpt><trkpt lat="-27.007146666666667" lon="-48.64325833333334"><ele>2.7</ele></trkpt><trkpt lat="-27.007136666666664" lon="-48.64326833333333"><ele>2.5</ele></trkpt><trkpt lat="-27.007124999999995" lon="-48.643278333333335"><ele>2.6</ele></trkpt><trkpt lat="-27.007115" lon="-48.64328999999999"><ele>2.5</ele></trkpt><trkpt lat="-27.007113333333336" lon="-48.64329833333333"><ele>2.4000000000000004</ele></trkpt><trkpt lat="-27.00711666666667" lon="-48.643299999999996"><ele>2.5</ele></trkpt><trkpt lat="-27.00711833333333" lon="-48.64330499999999"><ele>2.6</ele></trkpt><trkpt lat="-27.00712" lon="-48.64331000000001"><ele>2.5</ele></trkpt><trkpt lat="-27.00711833333333" lon="-48.64331666666667"><ele>2.1</ele></trkpt><trkpt lat="-27.00711833333333" lon="-48.643319999999996"><ele>2.2</ele></trkpt><trkpt lat="-27.00712" lon="-48.643319999999996"><ele>2.3</ele></trkpt><trkpt lat="-27.007121666666663" lon="-48.643319999999996"><ele>2.3</ele></trkpt><trkpt lat="-27.007121666666663" lon="-48.643319999999996"><ele>2.3</ele></trkpt><trkpt lat="-27.007123333333332" lon="-48.643319999999996"><ele>2.3</ele></trkpt><trkpt lat="-27.007123333333332" lon="-48.643319999999996"><ele>1.9000000000000001</ele></trkpt><trkpt lat="-27.007128333333338" lon="-48.643323333333335"><ele>1.7000000000000002</ele></trkpt><trkpt lat="-27.007128333333338" lon="-48.643323333333335"><ele>1.7000000000000002</ele></trkpt><trkpt lat="-27.00713" lon="-48.64333"><ele>1.4000000000000001</ele></trkpt><trkpt lat="-27.007121666666663" lon="-48.64333499999999"><ele>1.3</ele></trkpt><trkpt lat="-27.00712" lon="-48.64334"><ele>1.1</ele></trkpt><trkpt lat="-27.007123333333332" lon="-48.64334833333334"><ele>0.9000000000000001</ele></trkpt><trkpt lat="-27.007124999999995" lon="-48.64335333333334"><ele>1.1</ele></trkpt><trkpt lat="-27.007123333333332" lon="-48.64335500000001"><ele>1.2000000000000002</ele></trkpt><trkpt lat="-27.007123333333332" lon="-48.64335500000001"><ele>1.3</ele></trkpt><trkpt lat="-27.00712" lon="-48.64335500000001"><ele>1.5</ele></trkpt><trkpt lat="-27.007123333333332" lon="-48.64334999999999"><ele>1.5</ele></trkpt><trkpt lat="-27.007126666666668" lon="-48.64334166666666"><ele>1.6</ele></trkpt><trkpt lat="-27.00713166666667" lon="-48.64332666666666"><ele>1.5</ele></trkpt><trkpt lat="-27.007135" lon="-48.64330333333334"><ele>1.4000000000000001</ele></trkpt><trkpt lat="-27.007138333333334" lon="-48.64328833333334"><ele>1.2000000000000002</ele></trkpt><trkpt lat="-27.007144999999998" lon="-48.643274999999996"><ele>0.7000000000000001</ele></trkpt><trkpt lat="-27.007150000000003" lon="-48.64327"><ele>0.6000000000000001</ele></trkpt><trkpt lat="-27.00716166666667" lon="-48.64325999999999"><ele>0.6000000000000001</ele></trkpt><trkpt lat="-27.007171666666668" lon="-48.64325333333333"><ele>0.8</ele></trkpt><trkpt lat="-27.007183333333334" lon="-48.64324833333333"><ele>1.2000000000000002</ele></trkpt><trkpt lat="-27.007196666666665" lon="-48.64324166666667"><ele>1.5</ele></trkpt><trkpt lat="-27.00720666666667" lon="-48.643231666666665"><ele>1.8</ele></trkpt><trkpt lat="-27.007214999999995" lon="-48.64322000000001"><ele>1.9000000000000001</ele></trkpt><trkpt lat="-27.007218333333338" lon="-48.64321333333334"><ele>1.6</ele></trkpt><trkpt lat="-27.007225000000002" lon="-48.64320166666666"><ele>1.3</ele></trkpt><trkpt lat="-27.007234999999998" lon="-48.643191666666674"><ele>1.1</ele></trkpt><trkpt lat="-27.007243333333335" lon="-48.64318"><ele>0.9000000000000001</ele></trkpt><trkpt lat="-27.00725" lon="-48.64317166666667"><ele>0.9000000000000001</ele></trkpt><trkpt lat="-27.007258333333333" lon="-48.643166666666666"><ele>0.8</ele></trkpt><trkpt lat="-27.00726666666667" lon="-48.64316166666667"><ele>0.6000000000000001</ele></trkpt><trkpt lat="-27.007276666666666" lon="-48.64315166666667"><ele>1</ele></trkpt><trkpt lat="-27.007286666666666" lon="-48.643145000000004"><ele>1</ele></trkpt><trkpt lat="-27.00729666666667" lon="-48.64313833333334"><ele>0.8</ele></trkpt><trkpt lat="-27.00730666666667" lon="-48.64312833333334"><ele>0.7000000000000001</ele></trkpt><trkpt lat="-27.007315000000002" lon="-48.64311833333333"><ele>0.9000000000000001</ele></trkpt><trkpt lat="-27.007324999999998" lon="-48.64311333333333"><ele>1</ele></trkpt><trkpt lat="-27.007331666666666" lon="-48.64310833333334"><ele>1.1</ele></trkpt><trkpt lat="-27.00734" lon="-48.643101666666674"><ele>1</ele></trkpt><trkpt lat="-27.007349999999995" lon="-48.64309333333334"><ele>1.3</ele></trkpt><trkpt lat="-27.007358333333332" lon="-48.643085000000006"><ele>1.3</ele></trkpt><trkpt lat="-27.007364999999997" lon="-48.643076666666666"><ele>1</ele></trkpt><trkpt lat="-27.00737333333333" lon="-48.64307"><ele>0.9000000000000001</ele></trkpt><trkpt lat="-27.007381666666667" lon="-48.64306333333334"><ele>0.8</ele></trkpt><trkpt lat="-27.007391666666663" lon="-48.643055000000004"><ele>0.8</ele></trkpt><trkpt lat="-27.007406666666665" lon="-48.643049999999995"><ele>0.8</ele></trkpt><trkpt lat="-27.007406666666665" lon="-48.643049999999995"><ele>0.8</ele></trkpt><trkpt lat="-27.007421666666666" lon="-48.64304333333333"><ele>0.9000000000000001</ele></trkpt><trkpt lat="-27.007435" lon="-48.64303499999999"><ele>1.1</ele></trkpt><trkpt lat="-27.007443333333338" lon="-48.643031666666666"><ele>1.2000000000000002</ele></trkpt><trkpt lat="-27.007445" lon="-48.643025"><ele>1.2000000000000002</ele></trkpt><trkpt lat="-27.007448333333333" lon="-48.64302166666666"><ele>1.4000000000000001</ele></trkpt><trkpt lat="-27.007451666666665" lon="-48.64302333333333"><ele>1.5</ele></trkpt><trkpt lat="-27.007456666666666" lon="-48.64302333333333"><ele>1.5</ele></trkpt><trkpt lat="-27.007461666666668" lon="-48.64302666666667"><ele>1.6</ele></trkpt><trkpt lat="-27.00746333333333" lon="-48.643029999999996"><ele>1.4000000000000001</ele></trkpt><trkpt lat="-27.007466666666666" lon="-48.643031666666666"><ele>1.4000000000000001</ele></trkpt><trkpt lat="-27.007468333333335" lon="-48.643029999999996"><ele>1.5</ele></trkpt><trkpt lat="-27.007468333333335" lon="-48.643029999999996"><ele>1.5</ele></trkpt><trkpt lat="-27.007471666666667" lon="-48.643028333333326"><ele>1.3</ele></trkpt><trkpt lat="-27.007475" lon="-48.643025"><ele>1.4000000000000001</ele></trkpt><trkpt lat="-27.00748" lon="-48.64301999999999"><ele>1.4000000000000001</ele></trkpt><trkpt lat="-27.00748666666667" lon="-48.64301166666667"><ele>1.3</ele></trkpt><trkpt lat="-27.007496666666665" lon="-48.643004999999995"><ele>1.3</ele></trkpt><trkpt lat="-27.007501666666666" lon="-48.642995000000006"><ele>1.1</ele></trkpt><trkpt lat="-27.00750833333333" lon="-48.64298999999999"><ele>1.1</ele></trkpt><trkpt lat="-27.007506666666668" lon="-48.642983333333326"><ele>1.3</ele></trkpt><trkpt lat="-27.007506666666668" lon="-48.64297833333333"><ele>1.4000000000000001</ele></trkpt><trkpt lat="-27.007506666666668" lon="-48.64297499999999"><ele>1.7000000000000002</ele></trkpt><trkpt lat="-27.007506666666668" lon="-48.64297499999999"><ele>1.7000000000000002</ele></trkpt><trkpt lat="-27.007505" lon="-48.64297499999999"><ele>2</ele></trkpt><trkpt lat="-27.007505" lon="-48.64297333333334"><ele>2.3</ele></trkpt><trkpt lat="-27.007503333333336" lon="-48.64297166666667"><ele>2.2</ele></trkpt><trkpt lat="-27.007506666666668" lon="-48.64296833333333"><ele>2.4000000000000004</ele></trkpt><trkpt lat="-27.007510000000003" lon="-48.64296666666667"><ele>2.5</ele></trkpt><trkpt lat="-27.007513333333335" lon="-48.642961666666665"><ele>2.7</ele></trkpt><trkpt lat="-27.007513333333335" lon="-48.642961666666665"><ele>2.7</ele></trkpt><trkpt lat="-27.007513333333335" lon="-48.642961666666665"><ele>2.7</ele></trkpt><trkpt lat="-27.007513333333335" lon="-48.642961666666665"><ele>2.7</ele></trkpt><trkpt lat="-27.007513333333335" lon="-48.642961666666665"><ele>2.7</ele></trkpt><trkpt lat="-27.007513333333335" lon="-48.642961666666665"><ele>2.7</ele></trkpt><trkpt lat="-27.007513333333335" lon="-48.642961666666665"><ele>2.7</ele></trkpt><trkpt lat="-27.007513333333335" lon="-48.642961666666665"><ele>2.7</ele></trkpt><trkpt lat="-27.007513333333335" lon="-48.642961666666665"><ele>2.7</ele></trkpt><trkpt lat="-27.007513333333335" lon="-48.642961666666665"><ele>2.7</ele></trkpt><trkpt lat="-27.007513333333335" lon="-48.642961666666665"><ele>2.7</ele></trkpt><trkpt lat="-27.007513333333335" lon="-48.642961666666665"><ele>2.7</ele></trkpt><trkpt lat="-27.007513333333335" lon="-48.642961666666665"><ele>2.7</ele></trkpt><trkpt lat="-27.007513333333335" lon="-48.642961666666665"><ele>2.7</ele></trkpt><trkpt lat="-27.007513333333335" lon="-48.642961666666665"><ele>2.7</ele></trkpt><trkpt lat="-27.007513333333335" lon="-48.642961666666665"><ele>2.7</ele></trkpt><trkpt lat="-27.007513333333335" lon="-48.642961666666665"><ele>2.7</ele></trkpt><trkpt lat="-27.007511666666666" lon="-48.642939999999996"><ele>4.6</ele></trkpt><trkpt lat="-27.007518333333337" lon="-48.64293666666667"><ele>4.5</ele></trkpt><trkpt lat="-27.007525" lon="-48.642935"><ele>4.2</ele></trkpt><trkpt lat="-27.007525" lon="-48.642935"><ele>4.2</ele></trkpt><trkpt lat="-27.007528333333333" lon="-48.64293333333333"><ele>4.2</ele></trkpt><trkpt lat="-27.007535" lon="-48.64293333333333"><ele>4.300000000000001</ele></trkpt><trkpt lat="-27.007541666666665" lon="-48.64292999999999"><ele>4.2</ele></trkpt><trkpt lat="-27.007548333333336" lon="-48.64292666666667"><ele>4.1</ele></trkpt><trkpt lat="-27.007556666666666" lon="-48.64292166666667"><ele>4</ele></trkpt><trkpt lat="-27.007565" lon="-48.642914999999995"><ele>4.300000000000001</ele></trkpt><trkpt lat="-27.007565" lon="-48.642914999999995"><ele>4.300000000000001</ele></trkpt><trkpt lat="-27.00757666666667" lon="-48.64290333333334"><ele>4.1</ele></trkpt><trkpt lat="-27.007585000000002" lon="-48.642894999999996"><ele>4</ele></trkpt><trkpt lat="-27.007596666666668" lon="-48.64288166666667"><ele>3.3</ele></trkpt><trkpt lat="-27.007606666666668" lon="-48.642873333333334"><ele>2.7</ele></trkpt><trkpt lat="-27.00761333333333" lon="-48.64286833333334"><ele>2.2</ele></trkpt><trkpt lat="-27.00762166666667" lon="-48.64286666666667"><ele>1.8</ele></trkpt><trkpt lat="-27.007630000000002" lon="-48.642860000000006"><ele>1.3</ele></trkpt><trkpt lat="-27.007636666666667" lon="-48.642851666666665"><ele>0.9000000000000001</ele></trkpt><trkpt lat="-27.00764333333333" lon="-48.64284666666667"><ele>0.8</ele></trkpt><trkpt lat="-27.00765333333333" lon="-48.64283999999999"><ele>0.8</ele></trkpt><trkpt lat="-27.007661666666664" lon="-48.642835"><ele>0.8</ele></trkpt><trkpt lat="-27.00767" lon="-48.642828333333334"><ele>0.9000000000000001</ele></trkpt><trkpt lat="-27.007675000000003" lon="-48.64282"><ele>1</ele></trkpt><trkpt lat="-27.00768333333333" lon="-48.642815000000006"><ele>1.2000000000000002</ele></trkpt><trkpt lat="-27.007690000000004" lon="-48.64280833333334"><ele>1.5</ele></trkpt><trkpt lat="-27.007690000000004" lon="-48.64280833333334"><ele>1.5</ele></trkpt><trkpt lat="-27.007696666666668" lon="-48.6428"><ele>1.4000000000000001</ele></trkpt><trkpt lat="-27.007705" lon="-48.64279333333334"><ele>1.2000000000000002</ele></trkpt><trkpt lat="-27.00771333333333" lon="-48.64278833333333"><ele>1</ele></trkpt><trkpt lat="-27.007724999999997" lon="-48.642779999999995"><ele>1.1</ele></trkpt><trkpt lat="-27.00773333333333" lon="-48.64277333333333"><ele>1.1</ele></trkpt><trkpt lat="-27.00774333333333" lon="-48.642770000000006"><ele>1</ele></trkpt><trkpt lat="-27.007751666666664" lon="-48.642761666666665"><ele>0.7000000000000001</ele></trkpt><trkpt lat="-27.007753333333334" lon="-48.64274833333334"><ele>0.5</ele></trkpt><trkpt lat="-27.007754999999996" lon="-48.642734999999995"><ele>0.30000000000000004</ele></trkpt><trkpt lat="-27.007754999999996" lon="-48.64271999999999"><ele>0.40000000000000013</ele></trkpt><trkpt lat="-27.00775833333333" lon="-48.64271"><ele>0.40000000000000013</ele></trkpt><trkpt lat="-27.007763333333333" lon="-48.64269833333333"><ele>0.6000000000000001</ele></trkpt><trkpt lat="-27.007766666666665" lon="-48.642695"><ele>0.7000000000000001</ele></trkpt><trkpt lat="-27.007768333333335" lon="-48.642691666666664"><ele>0.9000000000000001</ele></trkpt><trkpt lat="-27.007768333333335" lon="-48.642689999999995"><ele>1</ele></trkpt><trkpt lat="-27.007768333333335" lon="-48.642689999999995"><ele>1</ele></trkpt><trkpt lat="-27.007766666666665" lon="-48.64268666666667"><ele>1.2000000000000002</ele></trkpt><trkpt lat="-27.007765000000003" lon="-48.642681666666675"><ele>1.4000000000000001</ele></trkpt><trkpt lat="-27.007763333333333" lon="-48.64267666666667"><ele>1.7000000000000002</ele></trkpt><trkpt lat="-27.007763333333333" lon="-48.64267666666667"><ele>1.7000000000000002</ele></trkpt><trkpt lat="-27.00776166666667" lon="-48.64267333333334"><ele>2.1</ele></trkpt><trkpt lat="-27.00776" lon="-48.642671666666665"><ele>2.2</ele></trkpt><trkpt lat="-27.00776" lon="-48.642668333333326"><ele>2.1</ele></trkpt><trkpt lat="-27.00776" lon="-48.64266333333333"><ele>2.2</ele></trkpt><trkpt lat="-27.00776" lon="-48.64266333333333"><ele>2.2</ele></trkpt><trkpt lat="-27.00776" lon="-48.64266333333333"><ele>2.2</ele></trkpt><trkpt lat="-27.00776" lon="-48.64266333333333"><ele>2.2</ele></trkpt><trkpt lat="-27.007771666666667" lon="-48.642646666666664"><ele>2.3</ele></trkpt><trkpt lat="-27.007775" lon="-48.64264166666667"><ele>2.3</ele></trkpt><trkpt lat="-27.007783333333336" lon="-48.642636666666675"><ele>2.2</ele></trkpt><trkpt lat="-27.00779" lon="-48.642635000000006"><ele>2.1</ele></trkpt><trkpt lat="-27.007795" lon="-48.642633333333336"><ele>2</ele></trkpt><trkpt lat="-27.00780166666667" lon="-48.642633333333336"><ele>1.9000000000000001</ele></trkpt><trkpt lat="-27.00780666666667" lon="-48.64262999999999"><ele>1.9000000000000001</ele></trkpt><trkpt lat="-27.007813333333335" lon="-48.64262833333334"><ele>1.9000000000000001</ele></trkpt><trkpt lat="-27.007816666666667" lon="-48.642624999999995"><ele>1.8</ele></trkpt><trkpt lat="-27.00782" lon="-48.64262166666667"><ele>1.6</ele></trkpt><trkpt lat="-27.007825000000004" lon="-48.64261833333333"><ele>1.4000000000000001</ele></trkpt><trkpt lat="-27.007826666666666" lon="-48.64261666666666"><ele>1.1</ele></trkpt><trkpt lat="-27.007828333333336" lon="-48.64261499999999"><ele>0.8</ele></trkpt><trkpt lat="-27.007826666666666" lon="-48.64261666666666"><ele>0.7000000000000001</ele></trkpt><trkpt lat="-27.007825000000004" lon="-48.64261833333333"><ele>0.8</ele></trkpt><trkpt lat="-27.007825000000004" lon="-48.64262"><ele>1.1</ele></trkpt><trkpt lat="-27.007826666666666" lon="-48.64261833333333"><ele>1.3</ele></trkpt><trkpt lat="-27.00783" lon="-48.64261499999999"><ele>1.5</ele></trkpt><trkpt lat="-27.00783333333333" lon="-48.64261333333334"><ele>1.5</ele></trkpt><trkpt lat="-27.00783333333333" lon="-48.64261333333334"><ele>1.5</ele></trkpt><trkpt lat="-27.00783333333333" lon="-48.64261333333334"><ele>1.5</ele></trkpt><trkpt lat="-27.00783333333333" lon="-48.64261333333334"><ele>1.5</ele></trkpt><trkpt lat="-27.00783333333333" lon="-48.64261333333334"><ele>1.5</ele></trkpt><trkpt lat="-27.00783333333333" lon="-48.64261333333334"><ele>1.5</ele></trkpt><trkpt lat="-27.00783333333333" lon="-48.64261333333334"><ele>1.5</ele></trkpt><trkpt lat="-27.00783333333333" lon="-48.64261333333334"><ele>1.5</ele></trkpt><trkpt lat="-27.00783333333333" lon="-48.64261333333334"><ele>1.5</ele></trkpt><trkpt lat="-27.00783333333333" lon="-48.64261333333334"><ele>1.5</ele></trkpt><trkpt lat="-27.00783333333333" lon="-48.64261333333334"><ele>1.5</ele></trkpt><trkpt lat="-27.00783333333333" lon="-48.64261333333334"><ele>1.5</ele></trkpt><trkpt lat="-27.00783" lon="-48.642595"><ele>3.1</ele></trkpt><trkpt lat="-27.00783" lon="-48.642591666666675"><ele>3</ele></trkpt><trkpt lat="-27.00783" lon="-48.642588333333336"><ele>3.1</ele></trkpt><trkpt lat="-27.007831666666668" lon="-48.64258333333334"><ele>3.2</ele></trkpt><trkpt lat="-27.007835" lon="-48.642578333333326"><ele>3.6</ele></trkpt><trkpt lat="-27.00783666666667" lon="-48.642575"><ele>3.9</ele></trkpt><trkpt lat="-27.007835" lon="-48.642575"><ele>3.9</ele></trkpt><trkpt lat="-27.00783333333333" lon="-48.642575"><ele>3.7</ele></trkpt><trkpt lat="-27.007831666666668" lon="-48.642575"><ele>3.7</ele></trkpt><trkpt lat="-27.007831666666668" lon="-48.642575"><ele>3.6</ele></trkpt><trkpt lat="-27.00783333333333" lon="-48.64257666666667"><ele>3.7</ele></trkpt><trkpt lat="-27.007828333333336" lon="-48.64257666666667"><ele>3.7</ele></trkpt><trkpt lat="-27.007828333333336" lon="-48.64257666666667"><ele>3.7</ele></trkpt><trkpt lat="-27.007828333333336" lon="-48.64257666666667"><ele>3.7</ele></trkpt><trkpt lat="-27.007828333333336" lon="-48.64257666666667"><ele>3.7</ele></trkpt><trkpt lat="-27.007828333333336" lon="-48.64257666666667"><ele>3.7</ele></trkpt><trkpt lat="-27.007828333333336" lon="-48.64257666666667"><ele>3.7</ele></trkpt><trkpt lat="-27.007828333333336" lon="-48.64257666666667"><ele>3.7</ele></trkpt><trkpt lat="-27.007828333333336" lon="-48.64257666666667"><ele>3.7</ele></trkpt><trkpt lat="-27.007828333333336" lon="-48.64257666666667"><ele>3.7</ele></trkpt><trkpt lat="-27.007828333333336" lon="-48.64257666666667"><ele>3.7</ele></trkpt><trkpt lat="-27.007828333333336" lon="-48.64257666666667"><ele>3.7</ele></trkpt><trkpt lat="-27.007828333333336" lon="-48.64257666666667"><ele>3.7</ele></trkpt><trkpt lat="-27.007828333333336" lon="-48.64257666666667"><ele>3.7</ele></trkpt><trkpt lat="-27.007828333333336" lon="-48.64257666666667"><ele>3.7</ele></trkpt><trkpt lat="-27.007828333333336" lon="-48.64257666666667"><ele>3.7</ele></trkpt><trkpt lat="-27.007828333333336" lon="-48.64257666666667"><ele>3.7</ele></trkpt><trkpt lat="-27.007828333333336" lon="-48.64257666666667"><ele>3.7</ele></trkpt><trkpt lat="-27.007828333333336" lon="-48.64257666666667"><ele>3.7</ele></trkpt><trkpt lat="-27.007828333333336" lon="-48.64257666666667"><ele>3.7</ele></trkpt><trkpt lat="-27.007828333333336" lon="-48.64257666666667"><ele>3.7</ele></trkpt><trkpt lat="-27.007828333333336" lon="-48.64257666666667"><ele>3.7</ele></trkpt><trkpt lat="-27.007828333333336" lon="-48.64257666666667"><ele>3.7</ele></trkpt><trkpt lat="-27.007828333333336" lon="-48.64257666666667"><ele>3.7</ele></trkpt><trkpt lat="-27.007828333333336" lon="-48.64257666666667"><ele>3.7</ele></trkpt><trkpt lat="-27.007828333333336" lon="-48.64257666666667"><ele>3.7</ele></trkpt><trkpt lat="-27.007828333333336" lon="-48.64257666666667"><ele>3.7</ele></trkpt><trkpt lat="-27.007828333333336" lon="-48.64257666666667"><ele>3.7</ele></trkpt><trkpt lat="-27.007828333333336" lon="-48.64257666666667"><ele>3.7</ele></trkpt><trkpt lat="-27.007828333333336" lon="-48.64257666666667"><ele>3.7</ele></trkpt><trkpt lat="-27.007828333333336" lon="-48.64257666666667"><ele>3.7</ele></trkpt><trkpt lat="-27.007828333333336" lon="-48.64257666666667"><ele>3.7</ele></trkpt><trkpt lat="-27.007828333333336" lon="-48.64257666666667"><ele>3.7</ele></trkpt><trkpt lat="-27.007828333333336" lon="-48.64257666666667"><ele>3.7</ele></trkpt><trkpt lat="-27.007828333333336" lon="-48.64257666666667"><ele>3.7</ele></trkpt><trkpt lat="-27.007828333333336" lon="-48.64257666666667"><ele>3.7</ele></trkpt><trkpt lat="-27.007828333333336" lon="-48.64257666666667"><ele>3.7</ele></trkpt><trkpt lat="-27.007828333333336" lon="-48.64257666666667"><ele>3.7</ele></trkpt><trkpt lat="-27.007828333333336" lon="-48.64257666666667"><ele>3.7</ele></trkpt><trkpt lat="-27.007828333333336" lon="-48.64257666666667"><ele>3.7</ele></trkpt><trkpt lat="-27.007828333333336" lon="-48.64257666666667"><ele>3.7</ele></trkpt><trkpt lat="-27.007813333333335" lon="-48.64259666666667"><ele>7.5</ele></trkpt><trkpt lat="-27.00782166666667" lon="-48.642590000000006"><ele>7.800000000000001</ele></trkpt><trkpt lat="-27.00783333333333" lon="-48.642586666666666"><ele>7.699999999999999</ele></trkpt><trkpt lat="-27.007843333333334" lon="-48.64257666666667"><ele>7.5</ele></trkpt><trkpt lat="-27.007859999999997" lon="-48.64256999999999"><ele>7.4</ele></trkpt><trkpt lat="-27.007873333333336" lon="-48.642565"><ele>7.300000000000001</ele></trkpt><trkpt lat="-27.007886666666664" lon="-48.642556666666664"><ele>7.5</ele></trkpt><trkpt lat="-27.007901666666665" lon="-48.64254833333333"><ele>7.6</ele></trkpt><trkpt lat="-27.007903333333335" lon="-48.642536666666665"><ele>7.6</ele></trkpt><trkpt lat="-27.00791" lon="-48.64252833333333"><ele>7.300000000000001</ele></trkpt><trkpt lat="-27.00792" lon="-48.64252333333334"><ele>7</ele></trkpt><trkpt lat="-27.00793" lon="-48.64252333333334"><ele>6.699999999999999</ele></trkpt><trkpt lat="-27.00794" lon="-48.64252499999999"><ele>6.6</ele></trkpt><trkpt lat="-27.007949999999997" lon="-48.64252499999999"><ele>6.5</ele></trkpt><trkpt lat="-27.007955" lon="-48.64252666666666"><ele>6.1</ele></trkpt><trkpt lat="-27.00795666666667" lon="-48.64253"><ele>5.5</ele></trkpt><trkpt lat="-27.00795833333333" lon="-48.64253"><ele>5.300000000000001</ele></trkpt><trkpt lat="-27.00795666666667" lon="-48.64252833333333"><ele>5.2</ele></trkpt><trkpt lat="-27.00795333333333" lon="-48.64252666666666"><ele>4.800000000000001</ele></trkpt><trkpt lat="-27.007946666666665" lon="-48.64252499999999"><ele>4.5</ele></trkpt><trkpt lat="-27.00794166666667" lon="-48.64251833333333"><ele>4.300000000000001</ele></trkpt><trkpt lat="-27.007938333333332" lon="-48.64251333333333"><ele>4.4</ele></trkpt><trkpt lat="-27.007931666666664" lon="-48.64250333333333"><ele>4.2</ele></trkpt><trkpt lat="-27.00792666666667" lon="-48.64249499999999"><ele>3.9</ele></trkpt><trkpt lat="-27.007916666666667" lon="-48.642488333333326"><ele>3.9</ele></trkpt><trkpt lat="-27.00791166666667" lon="-48.642485"><ele>3.7</ele></trkpt><trkpt lat="-27.007916666666667" lon="-48.64248666666667"><ele>3.6</ele></trkpt><trkpt lat="-27.007916666666667" lon="-48.64248666666667"><ele>3.6</ele></trkpt><trkpt lat="-27.007916666666667" lon="-48.64248666666667"><ele>3.6</ele></trkpt><trkpt lat="-27.007916666666667" lon="-48.64248666666667"><ele>3.6</ele></trkpt><trkpt lat="-27.007916666666667" lon="-48.64248666666667"><ele>3.6</ele></trkpt><trkpt lat="-27.007916666666667" lon="-48.64248666666667"><ele>3.6</ele></trkpt><trkpt lat="-27.007916666666667" lon="-48.64248666666667"><ele>3.6</ele></trkpt><trkpt lat="-27.007916666666667" lon="-48.64248666666667"><ele>3.6</ele></trkpt><trkpt lat="-27.007916666666667" lon="-48.64248666666667"><ele>3.6</ele></trkpt><trkpt lat="-27.007916666666667" lon="-48.64248666666667"><ele>3.6</ele></trkpt><trkpt lat="-27.00791166666667" lon="-48.64251833333333"><ele>3.1</ele></trkpt><trkpt lat="-27.00791166666667" lon="-48.64251833333333"><ele>3.1</ele></trkpt><trkpt lat="-27.00791166666667" lon="-48.64251833333333"><ele>3.1</ele></trkpt><trkpt lat="-27.00790833333333" lon="-48.64252833333333"><ele>3.1</ele></trkpt><trkpt lat="-27.007903333333335" lon="-48.642536666666665"><ele>3</ele></trkpt><trkpt lat="-27.007900000000003" lon="-48.642541666666666"><ele>3.1</ele></trkpt><trkpt lat="-27.007895" lon="-48.642546666666675"><ele>3.3</ele></trkpt><trkpt lat="-27.007888333333334" lon="-48.64255166666667"><ele>3.3</ele></trkpt><trkpt lat="-27.007883333333332" lon="-48.64255166666667"><ele>3.2</ele></trkpt><trkpt lat="-27.00787833333333" lon="-48.64254833333333"><ele>3.4000000000000004</ele></trkpt><trkpt lat="-27.007870000000004" lon="-48.642543333333336"><ele>3.6</ele></trkpt><trkpt lat="-27.00786333333333" lon="-48.642541666666666"><ele>3.7</ele></trkpt><trkpt lat="-27.007853333333333" lon="-48.64255"><ele>3.6</ele></trkpt><trkpt lat="-27.007844999999996" lon="-48.642558333333334"><ele>3.9</ele></trkpt><trkpt lat="-27.007838333333332" lon="-48.64256833333334"><ele>4.1</ele></trkpt><trkpt lat="-27.007828333333336" lon="-48.64257333333333"><ele>4.2</ele></trkpt><trkpt lat="-27.00782166666667" lon="-48.64257666666667"><ele>4</ele></trkpt><trkpt lat="-27.00781833333333" lon="-48.642579999999995"><ele>3.9</ele></trkpt><trkpt lat="-27.007814999999997" lon="-48.642586666666666"><ele>3.9</ele></trkpt><trkpt lat="-27.007811666666665" lon="-48.64259333333333"><ele>3.8000000000000003</ele></trkpt><trkpt lat="-27.007810000000003" lon="-48.64259666666667"><ele>3.6</ele></trkpt><trkpt lat="-27.007810000000003" lon="-48.64259666666667"><ele>3.6</ele></trkpt><trkpt lat="-27.007808333333333" lon="-48.64259666666667"><ele>3.6</ele></trkpt><trkpt lat="-27.00780666666667" lon="-48.64259333333333"><ele>3.6</ele></trkpt><trkpt lat="-27.007805" lon="-48.64259333333333"><ele>3.6</ele></trkpt><trkpt lat="-27.007799999999996" lon="-48.642591666666675"><ele>3.8000000000000003</ele></trkpt><trkpt lat="-27.007796666666664" lon="-48.642590000000006"><ele>4</ele></trkpt><trkpt lat="-27.007796666666664" lon="-48.642591666666675"><ele>4.1</ele></trkpt><trkpt lat="-27.007796666666664" lon="-48.642591666666675"><ele>4.1</ele></trkpt><trkpt lat="-27.00779" lon="-48.642595"><ele>4.1</ele></trkpt><trkpt lat="-27.007781666666666" lon="-48.642599999999995"><ele>3.8000000000000003</ele></trkpt><trkpt lat="-27.00777333333333" lon="-48.64261166666667"><ele>3.7</ele></trkpt><trkpt lat="-27.007765000000003" lon="-48.64261833333333"><ele>3.5</ele></trkpt><trkpt lat="-27.00775666666667" lon="-48.64262833333334"><ele>3.5</ele></trkpt><trkpt lat="-27.007751666666664" lon="-48.64263833333333"><ele>3.4000000000000004</ele></trkpt><trkpt lat="-27.00774666666667" lon="-48.642646666666664"><ele>3.3</ele></trkpt><trkpt lat="-27.007741666666668" lon="-48.64265833333334"><ele>3</ele></trkpt><trkpt lat="-27.007738333333336" lon="-48.64267333333334"><ele>2.9000000000000004</ele></trkpt><trkpt lat="-27.007735000000004" lon="-48.64268333333333"><ele>2.8</ele></trkpt><trkpt lat="-27.007735000000004" lon="-48.642691666666664"><ele>2.6</ele></trkpt><trkpt lat="-27.007736666666666" lon="-48.64270166666667"><ele>2.4000000000000004</ele></trkpt><trkpt lat="-27.007736666666666" lon="-48.64271166666667"><ele>2.2</ele></trkpt><trkpt lat="-27.007736666666666" lon="-48.64272166666667"><ele>2.1</ele></trkpt><trkpt lat="-27.007736666666666" lon="-48.64273"><ele>1.7000000000000002</ele></trkpt><trkpt lat="-27.007741666666668" lon="-48.642736666666664"><ele>1.7000000000000002</ele></trkpt><trkpt lat="-27.00774666666667" lon="-48.64274"><ele>1.5</ele></trkpt><trkpt lat="-27.007748333333332" lon="-48.642736666666664"><ele>1.5</ele></trkpt><trkpt lat="-27.007751666666664" lon="-48.64273333333334"><ele>1.3</ele></trkpt><trkpt lat="-27.007753333333334" lon="-48.64273"><ele>1.2000000000000002</ele></trkpt><trkpt lat="-27.007754999999996" lon="-48.64272833333333"><ele>1.1</ele></trkpt><trkpt lat="-27.00775833333333" lon="-48.64272833333333"><ele>0.9000000000000001</ele></trkpt><trkpt lat="-27.00775833333333" lon="-48.64273"><ele>0.7000000000000001</ele></trkpt><trkpt lat="-27.00775833333333" lon="-48.64273"><ele>0.6000000000000001</ele></trkpt><trkpt lat="-27.00776" lon="-48.64273"><ele>0.40000000000000013</ele></trkpt><trkpt lat="-27.00776" lon="-48.64273"><ele>0.40000000000000013</ele></trkpt><trkpt lat="-27.00776" lon="-48.64273"><ele>0.40000000000000013</ele></trkpt><trkpt lat="-27.00776" lon="-48.64273"><ele>0.40000000000000013</ele></trkpt><trkpt lat="-27.00776" lon="-48.64273"><ele>0.40000000000000013</ele></trkpt><trkpt lat="-27.00776" lon="-48.64273"><ele>0.40000000000000013</ele></trkpt><trkpt lat="-27.00776" lon="-48.64273"><ele>0.40000000000000013</ele></trkpt><trkpt lat="-27.00776" lon="-48.64273"><ele>0.40000000000000013</ele></trkpt><trkpt lat="-27.00776" lon="-48.64273"><ele>0.40000000000000013</ele></trkpt><trkpt lat="-27.00776" lon="-48.64273"><ele>0.40000000000000013</ele></trkpt><trkpt lat="-27.00776" lon="-48.64273"><ele>0.40000000000000013</ele></trkpt><trkpt lat="-27.00776" lon="-48.64273"><ele>0.40000000000000013</ele></trkpt><trkpt lat="-27.00776" lon="-48.64273"><ele>0.40000000000000013</ele></trkpt><trkpt lat="-27.00776" lon="-48.64273"><ele>0.40000000000000013</ele></trkpt><trkpt lat="-27.00776" lon="-48.64273"><ele>0.40000000000000013</ele></trkpt><trkpt lat="-27.00776" lon="-48.64273"><ele>0.40000000000000013</ele></trkpt><trkpt lat="-27.00776" lon="-48.64273"><ele>0.40000000000000013</ele></trkpt><trkpt lat="-27.00776" lon="-48.64273"><ele>0.40000000000000013</ele></trkpt><trkpt lat="-27.00776" lon="-48.64273"><ele>0.40000000000000013</ele></trkpt><trkpt lat="-27.00775666666667" lon="-48.642725000000006"><ele>0.20000000000000018</ele></trkpt><trkpt lat="-27.007753333333334" lon="-48.64271999999999"><ele>0.30000000000000004</ele></trkpt><trkpt lat="-27.007753333333334" lon="-48.642723333333336"><ele>0.30000000000000004</ele></trkpt><trkpt lat="-27.00775" lon="-48.642726666666675"><ele>0.30000000000000004</ele></trkpt><trkpt lat="-27.007748333333332" lon="-48.64272833333333"><ele>0.20000000000000018</ele></trkpt><trkpt lat="-27.007748333333332" lon="-48.64272833333333"><ele>0.20000000000000018</ele></trkpt><trkpt lat="-27.007748333333332" lon="-48.64272833333333"><ele>0.20000000000000018</ele></trkpt><trkpt lat="-27.007748333333332" lon="-48.64272833333333"><ele>0.20000000000000018</ele></trkpt><trkpt lat="-27.007748333333332" lon="-48.64272833333333"><ele>0.20000000000000018</ele></trkpt><trkpt lat="-27.007748333333332" lon="-48.64272833333333"><ele>0.20000000000000018</ele></trkpt><trkpt lat="-27.007748333333332" lon="-48.64272833333333"><ele>0.20000000000000018</ele></trkpt><trkpt lat="-27.007748333333332" lon="-48.64272833333333"><ele>0.20000000000000018</ele></trkpt><trkpt lat="-27.007748333333332" lon="-48.64272833333333"><ele>0.20000000000000018</ele></trkpt><trkpt lat="-27.007748333333332" lon="-48.64272833333333"><ele>0.20000000000000018</ele></trkpt><trkpt lat="-27.007748333333332" lon="-48.64272833333333"><ele>0.20000000000000018</ele></trkpt><trkpt lat="-27.007748333333332" lon="-48.64272833333333"><ele>0.20000000000000018</ele></trkpt><trkpt lat="-27.007748333333332" lon="-48.64272833333333"><ele>0.20000000000000018</ele></trkpt><trkpt lat="-27.007748333333332" lon="-48.64272833333333"><ele>0.20000000000000018</ele></trkpt><trkpt lat="-27.007748333333332" lon="-48.64272833333333"><ele>0.20000000000000018</ele></trkpt><trkpt lat="-27.007748333333332" lon="-48.64272833333333"><ele>0.20000000000000018</ele></trkpt><trkpt lat="-27.007748333333332" lon="-48.64272833333333"><ele>0.20000000000000018</ele></trkpt><trkpt lat="-27.007748333333332" lon="-48.64272833333333"><ele>0.20000000000000018</ele></trkpt><trkpt lat="-27.007748333333332" lon="-48.64272833333333"><ele>0.20000000000000018</ele></trkpt><trkpt lat="-27.007748333333332" lon="-48.64272833333333"><ele>0.20000000000000018</ele></trkpt><trkpt lat="-27.007748333333332" lon="-48.64272833333333"><ele>0.20000000000000018</ele></trkpt><trkpt lat="-27.007748333333332" lon="-48.64272833333333"><ele>0.20000000000000018</ele></trkpt><trkpt lat="-27.007748333333332" lon="-48.64272833333333"><ele>0.20000000000000018</ele></trkpt><trkpt lat="-27.007748333333332" lon="-48.64272833333333"><ele>0.20000000000000018</ele></trkpt><trkpt lat="-27.007748333333332" lon="-48.64272833333333"><ele>0.20000000000000018</ele></trkpt><trkpt lat="-27.007748333333332" lon="-48.64272833333333"><ele>0.20000000000000018</ele></trkpt><trkpt lat="-27.007748333333332" lon="-48.64272833333333"><ele>0.20000000000000018</ele></trkpt><trkpt lat="-27.007748333333332" lon="-48.64272833333333"><ele>0.20000000000000018</ele></trkpt><trkpt lat="-27.007748333333332" lon="-48.64272833333333"><ele>0.20000000000000018</ele></trkpt><trkpt lat="-27.007748333333332" lon="-48.64272833333333"><ele>0.20000000000000018</ele></trkpt><trkpt lat="-27.007748333333332" lon="-48.64272833333333"><ele>0.20000000000000018</ele></trkpt><trkpt lat="-27.007748333333332" lon="-48.64272833333333"><ele>0.20000000000000018</ele></trkpt><trkpt lat="-27.007748333333332" lon="-48.64272833333333"><ele>0.20000000000000018</ele></trkpt><trkpt lat="-27.007748333333332" lon="-48.64272833333333"><ele>0.20000000000000018</ele></trkpt><trkpt lat="-27.007748333333332" lon="-48.64272833333333"><ele>0.20000000000000018</ele></trkpt><trkpt lat="-27.007748333333332" lon="-48.64272833333333"><ele>0.20000000000000018</ele></trkpt><trkpt lat="-27.007748333333332" lon="-48.64272833333333"><ele>0.20000000000000018</ele></trkpt><trkpt lat="-27.007748333333332" lon="-48.64272833333333"><ele>0.20000000000000018</ele></trkpt><trkpt lat="-27.007748333333332" lon="-48.64272833333333"><ele>0.20000000000000018</ele></trkpt><trkpt lat="-27.007748333333332" lon="-48.64272833333333"><ele>0.20000000000000018</ele></trkpt><trkpt lat="-27.007748333333332" lon="-48.64272833333333"><ele>0.20000000000000018</ele></trkpt><trkpt lat="-27.007748333333332" lon="-48.64272833333333"><ele>0.20000000000000018</ele></trkpt><trkpt lat="-27.007748333333332" lon="-48.64272833333333"><ele>0.20000000000000018</ele></trkpt><trkpt lat="-27.007748333333332" lon="-48.64272833333333"><ele>0.20000000000000018</ele></trkpt><trkpt lat="-27.007748333333332" lon="-48.64272833333333"><ele>0.20000000000000018</ele></trkpt><trkpt lat="-27.007748333333332" lon="-48.64272833333333"><ele>0.20000000000000018</ele></trkpt><trkpt lat="-27.007748333333332" lon="-48.64272833333333"><ele>0.20000000000000018</ele></trkpt><trkpt lat="-27.007748333333332" lon="-48.64272833333333"><ele>0.20000000000000018</ele></trkpt><trkpt lat="-27.007748333333332" lon="-48.64272833333333"><ele>0.20000000000000018</ele></trkpt><trkpt lat="-27.007748333333332" lon="-48.64272833333333"><ele>0.20000000000000018</ele></trkpt><trkpt lat="-27.007748333333332" lon="-48.64272833333333"><ele>0.20000000000000018</ele></trkpt><trkpt lat="-27.007748333333332" lon="-48.64272833333333"><ele>0.20000000000000018</ele></trkpt><trkpt lat="-27.007748333333332" lon="-48.64272833333333"><ele>0.20000000000000018</ele></trkpt><trkpt lat="-27.007748333333332" lon="-48.64272833333333"><ele>0.20000000000000018</ele></trkpt><trkpt lat="-27.007748333333332" lon="-48.64272833333333"><ele>0.20000000000000018</ele></trkpt><trkpt lat="-27.007748333333332" lon="-48.64272833333333"><ele>0.20000000000000018</ele></trkpt><trkpt lat="-27.007748333333332" lon="-48.64272833333333"><ele>0.20000000000000018</ele></trkpt><trkpt lat="-27.007748333333332" lon="-48.64272833333333"><ele>0.20000000000000018</ele></trkpt><trkpt lat="-27.007748333333332" lon="-48.64272833333333"><ele>0.20000000000000018</ele></trkpt><trkpt lat="-27.007748333333332" lon="-48.64272833333333"><ele>0.20000000000000018</ele></trkpt><trkpt lat="-27.007748333333332" lon="-48.64272833333333"><ele>0.20000000000000018</ele></trkpt><trkpt lat="-27.007748333333332" lon="-48.64272833333333"><ele>0.20000000000000018</ele></trkpt><trkpt lat="-27.007748333333332" lon="-48.64272833333333"><ele>0.20000000000000018</ele></trkpt><trkpt lat="-27.007748333333332" lon="-48.64272833333333"><ele>0.20000000000000018</ele></trkpt><trkpt lat="-27.007748333333332" lon="-48.64272833333333"><ele>0.20000000000000018</ele></trkpt><trkpt lat="-27.007748333333332" lon="-48.64272833333333"><ele>0.20000000000000018</ele></trkpt><trkpt lat="-27.007748333333332" lon="-48.64272833333333"><ele>0.20000000000000018</ele></trkpt><trkpt lat="-27.007748333333332" lon="-48.64272833333333"><ele>0.20000000000000018</ele></trkpt><trkpt lat="-27.007748333333332" lon="-48.64272833333333"><ele>0.20000000000000018</ele></trkpt><trkpt lat="-27.007748333333332" lon="-48.64272833333333"><ele>0.20000000000000018</ele></trkpt><trkpt lat="-27.007748333333332" lon="-48.64272833333333"><ele>0.20000000000000018</ele></trkpt><trkpt lat="-27.007748333333332" lon="-48.64272833333333"><ele>0.20000000000000018</ele></trkpt><trkpt lat="-27.007748333333332" lon="-48.64272833333333"><ele>0.20000000000000018</ele></trkpt><trkpt lat="-27.007748333333332" lon="-48.64272833333333"><ele>0.20000000000000018</ele></trkpt><trkpt lat="-27.007748333333332" lon="-48.64272833333333"><ele>0.20000000000000018</ele></trkpt><trkpt lat="-27.007748333333332" lon="-48.64272833333333"><ele>0.20000000000000018</ele></trkpt><trkpt lat="-27.007748333333332" lon="-48.64272833333333"><ele>0.20000000000000018</ele></trkpt><trkpt lat="-27.007748333333332" lon="-48.64272833333333"><ele>0.20000000000000018</ele></trkpt><trkpt lat="-27.007748333333332" lon="-48.64272833333333"><ele>0.20000000000000018</ele></trkpt><trkpt lat="-27.007748333333332" lon="-48.64272833333333"><ele>0.20000000000000018</ele></trkpt><trkpt lat="-27.007748333333332" lon="-48.64272833333333"><ele>0.20000000000000018</ele></trkpt><trkpt lat="-27.007748333333332" lon="-48.64272833333333"><ele>0.20000000000000018</ele></trkpt><trkpt lat="-27.007748333333332" lon="-48.64272833333333"><ele>0.20000000000000018</ele></trkpt><trkpt lat="-27.007748333333332" lon="-48.64272833333333"><ele>0.20000000000000018</ele></trkpt><trkpt lat="-27.007705" lon="-48.64271166666667"><ele>0.5</ele></trkpt><trkpt lat="-27.007703333333332" lon="-48.64269833333333"><ele>0</ele></trkpt><trkpt lat="-27.00770166666667" lon="-48.642681666666675"><ele>0.6000000000000001</ele></trkpt><trkpt lat="-27.0077" lon="-48.642665"><ele>1</ele></trkpt><trkpt lat="-27.007691666666666" lon="-48.64265"><ele>1.7000000000000002</ele></trkpt><trkpt lat="-27.007681666666667" lon="-48.642636666666675"><ele>2.1</ele></trkpt><trkpt lat="-27.00767" lon="-48.642623333333326"><ele>2.7</ele></trkpt><trkpt lat="-27.007661666666664" lon="-48.64260833333333"><ele>3</ele></trkpt><trkpt lat="-27.00766" lon="-48.64259833333334"><ele>3.4000000000000004</ele></trkpt><trkpt lat="-27.00765833333333" lon="-48.642595"><ele>3.4000000000000004</ele></trkpt><trkpt lat="-27.00766666666667" lon="-48.642599999999995"><ele>3.5</ele></trkpt><trkpt lat="-27.007673333333333" lon="-48.64261"><ele>3.8000000000000003</ele></trkpt><trkpt lat="-27.00768333333333" lon="-48.64262166666667"><ele>3.7</ele></trkpt><trkpt lat="-27.007693333333336" lon="-48.642635000000006"><ele>3.6</ele></trkpt><trkpt lat="-27.007705" lon="-48.642646666666664"><ele>3.4000000000000004</ele></trkpt><trkpt lat="-27.00771666666667" lon="-48.64265666666667"><ele>3</ele></trkpt><trkpt lat="-27.00772833333333" lon="-48.642665"><ele>2.7</ele></trkpt><trkpt lat="-27.00774" lon="-48.64267333333334"><ele>2.4000000000000004</ele></trkpt><trkpt lat="-27.007753333333334" lon="-48.64267666666667"><ele>2.4000000000000004</ele></trkpt><trkpt lat="-27.007765000000003" lon="-48.642678333333336"><ele>2.5</ele></trkpt><trkpt lat="-27.007775" lon="-48.64267333333334"><ele>2.6</ele></trkpt><trkpt lat="-27.007783333333336" lon="-48.64266333333333"><ele>2.6</ele></trkpt><trkpt lat="-27.00778833333333" lon="-48.64265166666667"><ele>2.8</ele></trkpt><trkpt lat="-27.00778833333333" lon="-48.64265166666667"><ele>2.8</ele></trkpt><trkpt lat="-27.00778833333333" lon="-48.64265166666667"><ele>2.8</ele></trkpt><trkpt lat="-27.007795" lon="-48.642646666666664"><ele>2.8</ele></trkpt><trkpt lat="-27.007798333333334" lon="-48.64264166666667"><ele>2.8</ele></trkpt><trkpt lat="-27.00780333333333" lon="-48.64263833333333"><ele>3</ele></trkpt><trkpt lat="-27.00780666666667" lon="-48.642633333333336"><ele>3.1</ele></trkpt><trkpt lat="-27.00780666666667" lon="-48.64262999999999"><ele>3.3</ele></trkpt><trkpt lat="-27.00780333333333" lon="-48.64262833333334"><ele>3.5</ele></trkpt><trkpt lat="-27.007799999999996" lon="-48.64263166666667"><ele>3.5</ele></trkpt><trkpt lat="-27.007796666666664" lon="-48.64263166666667"><ele>3.8000000000000003</ele></trkpt><trkpt lat="-27.007795" lon="-48.64263166666667"><ele>4</ele></trkpt><trkpt lat="-27.007795" lon="-48.64263166666667"><ele>4</ele></trkpt><trkpt lat="-27.007795" lon="-48.64263166666667"><ele>4</ele></trkpt><trkpt lat="-27.00779166666667" lon="-48.64263166666667"><ele>4.300000000000001</ele></trkpt><trkpt lat="-27.00779166666667" lon="-48.64263166666667"><ele>4.5</ele></trkpt><trkpt lat="-27.007793333333332" lon="-48.64262999999999"><ele>4.7</ele></trkpt><trkpt lat="-27.007793333333332" lon="-48.64262999999999"><ele>4.7</ele></trkpt><trkpt lat="-27.00780333333333" lon="-48.64262"><ele>4.800000000000001</ele></trkpt><trkpt lat="-27.007813333333335" lon="-48.64261499999999"><ele>4.9</ele></trkpt><trkpt lat="-27.00782" lon="-48.64260666666667"><ele>5</ele></trkpt><trkpt lat="-27.00782333333333" lon="-48.64259333333333"><ele>4.800000000000001</ele></trkpt><trkpt lat="-27.007828333333336" lon="-48.64258499999999"><ele>4.800000000000001</ele></trkpt><trkpt lat="-27.00783333333333" lon="-48.64258499999999"><ele>4.6</ele></trkpt><trkpt lat="-27.007835" lon="-48.642586666666666"><ele>4.4</ele></trkpt><trkpt lat="-27.007835" lon="-48.642586666666666"><ele>4.5</ele></trkpt><trkpt lat="-27.007835" lon="-48.64258499999999"><ele>4.6</ele></trkpt><trkpt lat="-27.00783666666667" lon="-48.642581666666665"><ele>4.7</ele></trkpt><trkpt lat="-27.007841666666664" lon="-48.64257666666667"><ele>4.5</ele></trkpt><trkpt lat="-27.00785" lon="-48.64256833333334"><ele>4.6</ele></trkpt><trkpt lat="-27.007858333333335" lon="-48.64256666666667"><ele>4.7</ele></trkpt><trkpt lat="-27.00786666666667" lon="-48.64256833333334"><ele>4.6</ele></trkpt><trkpt lat="-27.00786666666667" lon="-48.64256833333334"><ele>4.6</ele></trkpt><trkpt lat="-27.007875" lon="-48.64256333333333"><ele>4.6</ele></trkpt><trkpt lat="-27.007885" lon="-48.642558333333334"><ele>4.4</ele></trkpt><trkpt lat="-27.007889999999996" lon="-48.64255333333334"><ele>4.5</ele></trkpt><trkpt lat="-27.007895" lon="-48.64254833333333"><ele>4.7</ele></trkpt><trkpt lat="-27.007898333333333" lon="-48.64255"><ele>4.7</ele></trkpt><trkpt lat="-27.007901666666665" lon="-48.64255"><ele>4.6</ele></trkpt><trkpt lat="-27.007903333333335" lon="-48.64255"><ele>4.6</ele></trkpt><trkpt lat="-27.007903333333335" lon="-48.64255"><ele>4.6</ele></trkpt><trkpt lat="-27.007906666666667" lon="-48.64254833333333"><ele>4.7</ele></trkpt><trkpt lat="-27.00791333333333" lon="-48.642545000000005"><ele>4.6</ele></trkpt><trkpt lat="-27.00792666666667" lon="-48.642536666666665"><ele>4.5</ele></trkpt><trkpt lat="-27.00793666666667" lon="-48.64253"><ele>4.4</ele></trkpt><trkpt lat="-27.007946666666665" lon="-48.64252"><ele>4</ele></trkpt><trkpt lat="-27.00795666666667" lon="-48.642509999999994"><ele>3.4000000000000004</ele></trkpt><trkpt lat="-27.007961666666667" lon="-48.64250333333333"><ele>2.7</ele></trkpt><trkpt lat="-27.00797" lon="-48.642498333333336"><ele>2.3</ele></trkpt><trkpt lat="-27.007978333333334" lon="-48.642488333333326"><ele>2.1</ele></trkpt><trkpt lat="-27.007988333333333" lon="-48.64248166666666"><ele>1.8</ele></trkpt><trkpt lat="-27.00799833333333" lon="-48.64247666666667"><ele>1.8</ele></trkpt><trkpt lat="-27.008006666666667" lon="-48.64247333333333"><ele>1.6</ele></trkpt><trkpt lat="-27.00801333333333" lon="-48.64246833333333"><ele>1.4000000000000001</ele></trkpt><trkpt lat="-27.008018333333332" lon="-48.642466666666664"><ele>1.3</ele></trkpt><trkpt lat="-27.008018333333332" lon="-48.642466666666664"><ele>1.3</ele></trkpt><trkpt lat="-27.008020000000002" lon="-48.642464999999994"><ele>1.3</ele></trkpt><trkpt lat="-27.008020000000002" lon="-48.64246166666667"><ele>1.6</ele></trkpt><trkpt lat="-27.008021666666664" lon="-48.64246166666667"><ele>2</ele></trkpt><trkpt lat="-27.008021666666664" lon="-48.64245833333333"><ele>2.1</ele></trkpt><trkpt lat="-27.008021666666664" lon="-48.642455000000005"><ele>2.2</ele></trkpt><trkpt lat="-27.008021666666664" lon="-48.642451666666666"><ele>2.3</ele></trkpt><trkpt lat="-27.008021666666664" lon="-48.64244999999999"><ele>2.6</ele></trkpt><trkpt lat="-27.008021666666664" lon="-48.64244999999999"><ele>2.6</ele></trkpt><trkpt lat="-27.008021666666664" lon="-48.64244999999999"><ele>2.6</ele></trkpt><trkpt lat="-27.008021666666664" lon="-48.64244999999999"><ele>2.6</ele></trkpt><trkpt lat="-27.008021666666664" lon="-48.64244999999999"><ele>2.6</ele></trkpt><trkpt lat="-27.008021666666664" lon="-48.64244999999999"><ele>2.6</ele></trkpt><trkpt lat="-27.008021666666664" lon="-48.64244999999999"><ele>2.6</ele></trkpt><trkpt lat="-27.008021666666664" lon="-48.64244999999999"><ele>2.6</ele></trkpt><trkpt lat="-27.008021666666664" lon="-48.64244999999999"><ele>2.6</ele></trkpt><trkpt lat="-27.008021666666664" lon="-48.64244999999999"><ele>2.6</ele></trkpt><trkpt lat="-27.008021666666664" lon="-48.64244999999999"><ele>2.6</ele></trkpt><trkpt lat="-27.008021666666664" lon="-48.64244999999999"><ele>2.6</ele></trkpt><trkpt lat="-27.008021666666664" lon="-48.64244999999999"><ele>2.6</ele></trkpt><trkpt lat="-27.008021666666664" lon="-48.64244999999999"><ele>2.6</ele></trkpt><trkpt lat="-27.008021666666664" lon="-48.64244999999999"><ele>2.6</ele></trkpt><trkpt lat="-27.008021666666664" lon="-48.64244999999999"><ele>2.6</ele></trkpt><trkpt lat="-27.008021666666664" lon="-48.64244999999999"><ele>2.6</ele></trkpt><trkpt lat="-27.008021666666664" lon="-48.64244999999999"><ele>2.6</ele></trkpt><trkpt lat="-27.008021666666664" lon="-48.64244999999999"><ele>2.6</ele></trkpt><trkpt lat="-27.008021666666664" lon="-48.64244999999999"><ele>2.6</ele></trkpt><trkpt lat="-27.008021666666664" lon="-48.64244999999999"><ele>2.6</ele></trkpt><trkpt lat="-27.008021666666664" lon="-48.64244999999999"><ele>2.6</ele></trkpt><trkpt lat="-27.008021666666664" lon="-48.64244999999999"><ele>2.6</ele></trkpt><trkpt lat="-27.008021666666664" lon="-48.64244999999999"><ele>2.6</ele></trkpt><trkpt lat="-27.008021666666664" lon="-48.64244999999999"><ele>2.6</ele></trkpt><trkpt lat="-27.008023333333334" lon="-48.642446666666665"><ele>5.1</ele></trkpt><trkpt lat="-27.008033333333334" lon="-48.64244"><ele>5</ele></trkpt><trkpt lat="-27.008045" lon="-48.64243499999999"><ele>5</ele></trkpt><trkpt lat="-27.008050000000004" lon="-48.64243"><ele>4.7</ele></trkpt><trkpt lat="-27.00805666666667" lon="-48.642425"><ele>4.7</ele></trkpt><trkpt lat="-27.00806" lon="-48.642419999999994"><ele>4.6</ele></trkpt><trkpt lat="-27.00806" lon="-48.64241833333334"><ele>4.4</ele></trkpt><trkpt lat="-27.00806" lon="-48.642415"><ele>4.2</ele></trkpt><trkpt lat="-27.00805833333333" lon="-48.642415"><ele>4.1</ele></trkpt><trkpt lat="-27.00805833333333" lon="-48.64241333333333"><ele>3.9</ele></trkpt><trkpt lat="-27.00805833333333" lon="-48.642410000000005"><ele>3.9</ele></trkpt><trkpt lat="-27.00805833333333" lon="-48.642410000000005"><ele>4</ele></trkpt><trkpt lat="-27.00806" lon="-48.642406666666666"><ele>4.2</ele></trkpt><trkpt lat="-27.00806" lon="-48.642406666666666"><ele>4.2</ele></trkpt><trkpt lat="-27.00806" lon="-48.642406666666666"><ele>4.2</ele></trkpt><trkpt lat="-27.00806166666667" lon="-48.642408333333336"><ele>3.9</ele></trkpt><trkpt lat="-27.00806166666667" lon="-48.642408333333336"><ele>3.9</ele></trkpt><trkpt lat="-27.00806166666667" lon="-48.642408333333336"><ele>3.9</ele></trkpt><trkpt lat="-27.00806166666667" lon="-48.642408333333336"><ele>3.9</ele></trkpt><trkpt lat="-27.00806166666667" lon="-48.642408333333336"><ele>3.9</ele></trkpt><trkpt lat="-27.00806166666667" lon="-48.642408333333336"><ele>3.9</ele></trkpt><trkpt lat="-27.00806166666667" lon="-48.642408333333336"><ele>3.9</ele></trkpt><trkpt lat="-27.00806166666667" lon="-48.642408333333336"><ele>3.9</ele></trkpt><trkpt lat="-27.00806166666667" lon="-48.642408333333336"><ele>3.9</ele></trkpt><trkpt lat="-27.00806166666667" lon="-48.642408333333336"><ele>3.9</ele></trkpt><trkpt lat="-27.00806166666667" lon="-48.642408333333336"><ele>3.9</ele></trkpt><trkpt lat="-27.00806166666667" lon="-48.642408333333336"><ele>3.9</ele></trkpt><trkpt lat="-27.00806166666667" lon="-48.642408333333336"><ele>3.9</ele></trkpt><trkpt lat="-27.00806166666667" lon="-48.642408333333336"><ele>3.9</ele></trkpt><trkpt lat="-27.00806166666667" lon="-48.642408333333336"><ele>3.9</ele></trkpt><trkpt lat="-27.00806166666667" lon="-48.642408333333336"><ele>3.9</ele></trkpt><trkpt lat="-27.00806166666667" lon="-48.642408333333336"><ele>3.9</ele></trkpt><trkpt lat="-27.00806166666667" lon="-48.642408333333336"><ele>3.9</ele></trkpt><trkpt lat="-27.00806166666667" lon="-48.642408333333336"><ele>3.9</ele></trkpt><trkpt lat="-27.00806166666667" lon="-48.642408333333336"><ele>3.9</ele></trkpt><trkpt lat="-27.00806166666667" lon="-48.642408333333336"><ele>3.9</ele></trkpt><trkpt lat="-27.00806166666667" lon="-48.642408333333336"><ele>3.9</ele></trkpt><trkpt lat="-27.00806166666667" lon="-48.642408333333336"><ele>3.9</ele></trkpt><trkpt lat="-27.00806166666667" lon="-48.642408333333336"><ele>3.9</ele></trkpt><trkpt lat="-27.00806166666667" lon="-48.642408333333336"><ele>3.9</ele></trkpt><trkpt lat="-27.00806166666667" lon="-48.642408333333336"><ele>3.9</ele></trkpt><trkpt lat="-27.00806166666667" lon="-48.642408333333336"><ele>3.9</ele></trkpt><trkpt lat="-27.00806166666667" lon="-48.642408333333336"><ele>3.9</ele></trkpt><trkpt lat="-27.00806166666667" lon="-48.642408333333336"><ele>3.9</ele></trkpt><trkpt lat="-27.00806166666667" lon="-48.642408333333336"><ele>3.9</ele></trkpt><trkpt lat="-27.00806166666667" lon="-48.642408333333336"><ele>3.9</ele></trkpt><trkpt lat="-27.00806166666667" lon="-48.642408333333336"><ele>3.9</ele></trkpt><trkpt lat="-27.00806166666667" lon="-48.642408333333336"><ele>3.9</ele></trkpt><trkpt lat="-27.00806166666667" lon="-48.642408333333336"><ele>3.9</ele></trkpt><trkpt lat="-27.00806166666667" lon="-48.642408333333336"><ele>3.9</ele></trkpt><trkpt lat="-27.00806166666667" lon="-48.642408333333336"><ele>3.9</ele></trkpt><trkpt lat="-27.00806166666667" lon="-48.642408333333336"><ele>3.9</ele></trkpt><trkpt lat="-27.00806166666667" lon="-48.642408333333336"><ele>3.9</ele></trkpt><trkpt lat="-27.00806166666667" lon="-48.642408333333336"><ele>3.9</ele></trkpt><trkpt lat="-27.00806166666667" lon="-48.642408333333336"><ele>3.9</ele></trkpt><trkpt lat="-27.00806166666667" lon="-48.642408333333336"><ele>3.9</ele></trkpt><trkpt lat="-27.00806166666667" lon="-48.642408333333336"><ele>3.9</ele></trkpt><trkpt lat="-27.00806166666667" lon="-48.642408333333336"><ele>3.9</ele></trkpt><trkpt lat="-27.00806166666667" lon="-48.642408333333336"><ele>3.9</ele></trkpt><trkpt lat="-27.00806166666667" lon="-48.642408333333336"><ele>3.9</ele></trkpt><trkpt lat="-27.00806166666667" lon="-48.642408333333336"><ele>3.9</ele></trkpt><trkpt lat="-27.00806166666667" lon="-48.642408333333336"><ele>3.9</ele></trkpt><trkpt lat="-27.00806166666667" lon="-48.642408333333336"><ele>3.9</ele></trkpt><trkpt lat="-27.00806166666667" lon="-48.642408333333336"><ele>3.9</ele></trkpt><trkpt lat="-27.00806166666667" lon="-48.642408333333336"><ele>3.9</ele></trkpt><trkpt lat="-27.00806166666667" lon="-48.642408333333336"><ele>3.9</ele></trkpt><trkpt lat="-27.00806166666667" lon="-48.642408333333336"><ele>3.9</ele></trkpt><trkpt lat="-27.00806166666667" lon="-48.642408333333336"><ele>3.9</ele></trkpt><trkpt lat="-27.00806166666667" lon="-48.642408333333336"><ele>3.9</ele></trkpt><trkpt lat="-27.00806166666667" lon="-48.642408333333336"><ele>3.9</ele></trkpt><trkpt lat="-27.00806166666667" lon="-48.642408333333336"><ele>3.9</ele></trkpt><trkpt lat="-27.00806166666667" lon="-48.642408333333336"><ele>3.9</ele></trkpt><trkpt lat="-27.00806166666667" lon="-48.642408333333336"><ele>3.9</ele></trkpt><trkpt lat="-27.00806166666667" lon="-48.642408333333336"><ele>3.9</ele></trkpt><trkpt lat="-27.00806166666667" lon="-48.642408333333336"><ele>3.9</ele></trkpt><trkpt lat="-27.00806166666667" lon="-48.642408333333336"><ele>3.9</ele></trkpt><trkpt lat="-27.00806166666667" lon="-48.642408333333336"><ele>3.9</ele></trkpt><trkpt lat="-27.00806166666667" lon="-48.642408333333336"><ele>3.9</ele></trkpt><trkpt lat="-27.00806166666667" lon="-48.642408333333336"><ele>3.9</ele></trkpt><trkpt lat="-27.00806166666667" lon="-48.642408333333336"><ele>3.9</ele></trkpt><trkpt lat="-27.00806166666667" lon="-48.642408333333336"><ele>3.9</ele></trkpt><trkpt lat="-27.00806166666667" lon="-48.642408333333336"><ele>3.9</ele></trkpt><trkpt lat="-27.00806166666667" lon="-48.642408333333336"><ele>3.9</ele></trkpt><trkpt lat="-27.00806166666667" lon="-48.642408333333336"><ele>3.9</ele></trkpt><trkpt lat="-27.00806166666667" lon="-48.642408333333336"><ele>3.9</ele></trkpt><trkpt lat="-27.00806166666667" lon="-48.642408333333336"><ele>3.9</ele></trkpt></trkseg></trk></gpx>