<?xml version="1.0" encoding="UTF-8"?>
<gpx xmlns="http://www.topografix.com/GPX/1/1" version="1.1" creator="@dwayneparton/geojson-to-gpx"><wpt lat="-27.00475" lon="-48.621083"><ele>8</ele><name>2 faixas</name></wpt><wpt lat="-27.004599" lon="-48.621152"><name>22</name></wpt><wpt lat="-27.005025" lon="-48.621188"><ele>9.8</ele><name>152</name></wpt><wpt lat="-27.00592" lon="-48.62178"><ele>3.4</ele><name>A ciclo é completamente reta.</name></wpt><wpt lat="-27.00592" lon="-48.62178"><ele>3.4</ele><name>A pintura é falha em VÁRIOS pontos</name></wpt><wpt lat="-27.005183" lon="-48.621356"><name>Ambas: Alguns trechos sem segregadores. Automóvel consegue passar por entre estes com facilidade</name></wpt><wpt lat="-27.004579" lon="-48.621144"><name>Área de amortecimento da ciclo (cm)</name></wpt><wpt lat="-27.005025" lon="-48.621188"><ele>9.8</ele><name>Área transitável da ciclo (cm)</name></wpt><wpt lat="-27.004752" lon="-48.621088"><ele>8.3</ele><name>Asfalto</name></wpt><wpt lat="-27.004742" lon="-48.621118"><ele>6</ele><name>Ausência de conexão entre ciclos.</name></wpt><wpt lat="-27.004732" lon="-48.62111"><ele>15.4</ele><name>Bidirecional</name></wpt><wpt lat="-27.00592" lon="-48.62178"><ele>3.4</ele><name>Bom estado</name></wpt><wpt lat="-27.004727" lon="-48.621113"><ele>15.8</ele><name>Ciclofaixa</name></wpt><wpt lat="-27.004755" lon="-48.621085"><ele>12.9</ele><name>Em bordo de Via de Mão Dupla</name></wpt><wpt lat="-27.005558" lon="-48.621657"><ele>4.5</ele><name>Estacionamento dedicado de um lado, segregado da circulação</name></wpt><wpt lat="-27.00475" lon="-48.621083"><ele>8</ele><name>Estacionamento proibido na via</name></wpt><wpt lat="-27.00504" lon="-48.621212"><ele>9.6</ele><name>Faixa de carros logo ao lado da ciclo (cm)</name></wpt><wpt lat="-27.006033" lon="-48.621835"><ele>2.6</ele><name>Fim</name></wpt><wpt lat="-27.004665" lon="-48.621068"><ele>23.3</ele><name>Foto</name></wpt><wpt lat="-27.004638" lon="-48.621093"><ele>21.9</ele><name>Foto</name></wpt><wpt lat="-27.004772" lon="-48.621138"><ele>6.8</ele><name>Foto</name></wpt><wpt lat="-27.005523" lon="-48.6215"><ele>7.7</ele><name>Foto</name></wpt><wpt lat="-27.00555" lon="-48.621603"><ele>6.9</ele><name>Foto</name></wpt><wpt lat="-27.005762" lon="-48.62173"><ele>4.6</ele><name>Foto</name></wpt><wpt lat="-27.005867" lon="-48.62178"><ele>-2.4</ele><name>Foto</name></wpt><wpt lat="-27.00607" lon="-48.621852"><ele>2.2</ele><name>Foto</name></wpt><wpt lat="-27.006038" lon="-48.621845"><ele>4.6</ele><name>Foto</name></wpt><wpt lat="-27.006062" lon="-48.62191"><ele>5</ele><name>Foto</name></wpt><wpt lat="-27.006032" lon="-48.62189"><ele>5.2</ele><name>Foto</name></wpt><wpt lat="-27.006072" lon="-48.621872"><ele>7.8</ele><name>Foto</name></wpt><wpt lat="-27.005558" lon="-48.621657"><ele>4.5</ele><name>Foto</name></wpt><wpt lat="-27.00592" lon="-48.62178"><ele>3.4</ele><name>Iluminação geral na via do mesmo lado da estrutura</name></wpt><wpt lat="-27.006063" lon="-48.621842"><ele>1.7</ele><name>Início</name></wpt><wpt lat="-27.004758" lon="-48.621077"><ele>11.9</ele><name>Mão Dupla</name></wpt><wpt lat="-27.00504" lon="-48.621212"><ele>9.6</ele><name>medir depois </name></wpt><wpt lat="-27.00504" lon="-48.621212"><ele>9.6</ele><name>medir depois </name></wpt><wpt lat="-27.00592" lon="-48.62178"><ele>3.4</ele><name>Não há árvores nem mudas</name></wpt><wpt lat="-27.005918" lon="-48.621778"><ele>3.7</ele><name>Nenhum elemento de controle de velocidade na via</name></wpt><wpt lat="-27.00592" lon="-48.62178"><ele>3.4</ele><name>SE CICLOFAIXA: para invadir a ciclo parte do automóvel passa obrigatoriamente por cima de segregadores</name></wpt><wpt lat="-27.00453" lon="-48.621122"><name>SEM Semáforo exclusivo</name></wpt><wpt lat="-27.004524" lon="-48.621127"><name>Semáforo para motorizado</name></wpt><wpt lat="-27.004752" lon="-48.621095"><ele>9</ele><name>Tachões</name></wpt><wpt lat="-27.004758" lon="-48.621082"><ele>9.5</ele><name>Toda área de circulação pintada de vermelho</name></wpt><wpt lat="-27.00504" lon="-48.621212"><ele>9.6</ele><name>Total da via (incluindo a ciclo) (cm)</name></wpt><trk><name>Ciclofaixa R. 3700 T2 - BC</name><trkseg><trkpt lat="-27.004387" lon="-48.621145"><ele>17.4</ele></trkpt><trkpt lat="-27.004523" lon="-48.62167"><ele>35.8</ele></trkpt><trkpt lat="-27.00451" lon="-48.621608"><ele>25.7</ele></trkpt><trkpt lat="-27.004523" lon="-48.62138"><ele>25.8</ele></trkpt><trkpt lat="-27.00451" lon="-48.621593"><ele>25.8</ele></trkpt><trkpt lat="-27.004508" lon="-48.621588"><ele>25.8</ele></trkpt><trkpt lat="-27.004507" lon="-48.621578"><ele>25.8</ele></trkpt><trkpt lat="-27.004503" lon="-48.621567"><ele>25.8</ele></trkpt><trkpt lat="-27.004538" lon="-48.621548"><ele>26</ele></trkpt><trkpt lat="-27.004548" lon="-48.621542"><ele>25.5</ele></trkpt><trkpt lat="-27.004555" lon="-48.621527"><ele>25.5</ele></trkpt><trkpt lat="-27.004565" lon="-48.621492"><ele>25.3</ele></trkpt><trkpt lat="-27.004565" lon="-48.621492"><ele>25.3</ele></trkpt><trkpt lat="-27.004565" lon="-48.621492"><ele>25.3</ele></trkpt><trkpt lat="-27.004552" lon="-48.62148"><ele>25.6</ele></trkpt><trkpt lat="-27.004557" lon="-48.621475"><ele>25.9</ele></trkpt><trkpt lat="-27.004547" lon="-48.621462"><ele>26.1</ele></trkpt><trkpt lat="-27.004547" lon="-48.621453"><ele>26.1</ele></trkpt><trkpt lat="-27.004548" lon="-48.62144"><ele>26.1</ele></trkpt><trkpt lat="-27.004543" lon="-48.621428"><ele>26</ele></trkpt><trkpt lat="-27.004555" lon="-48.621413"><ele>25.9</ele></trkpt><trkpt lat="-27.00456" lon="-48.621395"><ele>25.7</ele></trkpt><trkpt lat="-27.004698" lon="-48.621115"><ele>25.4</ele></trkpt><trkpt lat="-27.00469" lon="-48.6211"><ele>25.2</ele></trkpt><trkpt lat="-27.004687" lon="-48.621082"><ele>25</ele></trkpt><trkpt lat="-27.004683" lon="-48.62108"><ele>24.9</ele></trkpt><trkpt lat="-27.004682" lon="-48.621078"><ele>24.8</ele></trkpt><trkpt lat="-27.004682" lon="-48.62108"><ele>25</ele></trkpt><trkpt lat="-27.004682" lon="-48.621082"><ele>25</ele></trkpt><trkpt lat="-27.004682" lon="-48.621083"><ele>25.1</ele></trkpt><trkpt lat="-27.004682" lon="-48.621082"><ele>25.1</ele></trkpt><trkpt lat="-27.004677" lon="-48.62108"><ele>25.2</ele></trkpt><trkpt lat="-27.004682" lon="-48.621068"><ele>25.1</ele></trkpt><trkpt lat="-27.004687" lon="-48.621057"><ele>25.1</ele></trkpt><trkpt lat="-27.00469" lon="-48.621055"><ele>25</ele></trkpt><trkpt lat="-27.004693" lon="-48.621052"><ele>25.1</ele></trkpt><trkpt lat="-27.004697" lon="-48.62105"><ele>25</ele></trkpt><trkpt lat="-27.004698" lon="-48.621048"><ele>25</ele></trkpt><trkpt lat="-27.004698" lon="-48.621048"><ele>25</ele></trkpt><trkpt lat="-27.004698" lon="-48.621048"><ele>25</ele></trkpt><trkpt lat="-27.004698" lon="-48.621048"><ele>25</ele></trkpt><trkpt lat="-27.004698" lon="-48.621048"><ele>25</ele></trkpt><trkpt lat="-27.004698" lon="-48.621048"><ele>25</ele></trkpt><trkpt lat="-27.004698" lon="-48.621048"><ele>25</ele></trkpt><trkpt lat="-27.004698" lon="-48.621048"><ele>25</ele></trkpt><trkpt lat="-27.004698" lon="-48.621048"><ele>25</ele></trkpt><trkpt lat="-27.004698" lon="-48.621048"><ele>25</ele></trkpt><trkpt lat="-27.004698" lon="-48.621048"><ele>25</ele></trkpt><trkpt lat="-27.004698" lon="-48.621048"><ele>25</ele></trkpt><trkpt lat="-27.004698" lon="-48.621048"><ele>25</ele></trkpt><trkpt lat="-27.004707" lon="-48.621047"><ele>24.5</ele></trkpt><trkpt lat="-27.004705" lon="-48.621047"><ele>24.3</ele></trkpt><trkpt lat="-27.004697" lon="-48.62105"><ele>24.2</ele></trkpt><trkpt lat="-27.004688" lon="-48.621055"><ele>23.9</ele></trkpt><trkpt lat="-27.004677" lon="-48.621062"><ele>23.6</ele></trkpt><trkpt lat="-27.004665" lon="-48.621068"><ele>23.3</ele></trkpt><trkpt lat="-27.004665" lon="-48.621068"><ele>23.3</ele></trkpt><trkpt lat="-27.004657" lon="-48.621073"><ele>23</ele></trkpt><trkpt lat="-27.004652" lon="-48.621075"><ele>22.6</ele></trkpt><trkpt lat="-27.004648" lon="-48.621078"><ele>22.6</ele></trkpt><trkpt lat="-27.004643" lon="-48.621083"><ele>22.5</ele></trkpt><trkpt lat="-27.00464" lon="-48.62109"><ele>22.3</ele></trkpt><trkpt lat="-27.004638" lon="-48.621093"><ele>21.9</ele></trkpt><trkpt lat="-27.004638" lon="-48.621093"><ele>21.9</ele></trkpt><trkpt lat="-27.00464" lon="-48.621097"><ele>21.5</ele></trkpt><trkpt lat="-27.00465" lon="-48.621098"><ele>21.2</ele></trkpt><trkpt lat="-27.004663" lon="-48.621097"><ele>20.9</ele></trkpt><trkpt lat="-27.004672" lon="-48.621102"><ele>20.6</ele></trkpt><trkpt lat="-27.004683" lon="-48.621105"><ele>20.4</ele></trkpt><trkpt lat="-27.004693" lon="-48.62111"><ele>20</ele></trkpt><trkpt lat="-27.004695" lon="-48.621118"><ele>19.7</ele></trkpt><trkpt lat="-27.004698" lon="-48.62112"><ele>19.1</ele></trkpt><trkpt lat="-27.004702" lon="-48.621122"><ele>18.5</ele></trkpt><trkpt lat="-27.004708" lon="-48.621122"><ele>17.8</ele></trkpt><trkpt lat="-27.004713" lon="-48.621122"><ele>17.1</ele></trkpt><trkpt lat="-27.00472" lon="-48.621117"><ele>16.5</ele></trkpt><trkpt lat="-27.004727" lon="-48.621113"><ele>15.8</ele></trkpt><trkpt lat="-27.004727" lon="-48.621113"><ele>15.8</ele></trkpt><trkpt lat="-27.004732" lon="-48.62111"><ele>15.4</ele></trkpt><trkpt lat="-27.004732" lon="-48.62111"><ele>15.4</ele></trkpt><trkpt lat="-27.004735" lon="-48.621107"><ele>14.9</ele></trkpt><trkpt lat="-27.00474" lon="-48.621103"><ele>14.4</ele></trkpt><trkpt lat="-27.004743" lon="-48.6211"><ele>14.2</ele></trkpt><trkpt lat="-27.004747" lon="-48.621097"><ele>13.8</ele></trkpt><trkpt lat="-27.00475" lon="-48.621093"><ele>13.4</ele></trkpt><trkpt lat="-27.004753" lon="-48.62109"><ele>13.1</ele></trkpt><trkpt lat="-27.004755" lon="-48.621085"><ele>12.9</ele></trkpt><trkpt lat="-27.004755" lon="-48.621085"><ele>12.9</ele></trkpt><trkpt lat="-27.004757" lon="-48.621082"><ele>12.6</ele></trkpt><trkpt lat="-27.004757" lon="-48.621078"><ele>12.1</ele></trkpt><trkpt lat="-27.004758" lon="-48.621077"><ele>11.9</ele></trkpt><trkpt lat="-27.004758" lon="-48.621077"><ele>11.9</ele></trkpt><trkpt lat="-27.004758" lon="-48.621077"><ele>11.9</ele></trkpt><trkpt lat="-27.004758" lon="-48.621077"><ele>11.9</ele></trkpt><trkpt lat="-27.004758" lon="-48.621077"><ele>11.9</ele></trkpt><trkpt lat="-27.004758" lon="-48.621077"><ele>11.9</ele></trkpt><trkpt lat="-27.004758" lon="-48.621077"><ele>11.9</ele></trkpt><trkpt lat="-27.004758" lon="-48.621077"><ele>11.9</ele></trkpt><trkpt lat="-27.004758" lon="-48.621077"><ele>11.9</ele></trkpt><trkpt lat="-27.004758" lon="-48.621077"><ele>11.9</ele></trkpt><trkpt lat="-27.004758" lon="-48.621077"><ele>11.9</ele></trkpt><trkpt lat="-27.004758" lon="-48.621077"><ele>11.9</ele></trkpt><trkpt lat="-27.004758" lon="-48.621077"><ele>11.9</ele></trkpt><trkpt lat="-27.004758" lon="-48.621077"><ele>11.9</ele></trkpt><trkpt lat="-27.004758" lon="-48.621077"><ele>11.9</ele></trkpt><trkpt lat="-27.004758" lon="-48.621077"><ele>11.9</ele></trkpt><trkpt lat="-27.004763" lon="-48.621077"><ele>10.1</ele></trkpt><trkpt lat="-27.00476" lon="-48.621082"><ele>9.8</ele></trkpt><trkpt lat="-27.004758" lon="-48.621082"><ele>9.5</ele></trkpt><trkpt lat="-27.004758" lon="-48.621082"><ele>9.5</ele></trkpt><trkpt lat="-27.004755" lon="-48.621087"><ele>9.5</ele></trkpt><trkpt lat="-27.004753" lon="-48.62109"><ele>9.5</ele></trkpt><trkpt lat="-27.004752" lon="-48.621093"><ele>9.2</ele></trkpt><trkpt lat="-27.004752" lon="-48.621095"><ele>9</ele></trkpt><trkpt lat="-27.004752" lon="-48.621095"><ele>9</ele></trkpt><trkpt lat="-27.004752" lon="-48.621095"><ele>8.8</ele></trkpt><trkpt lat="-27.004752" lon="-48.621093"><ele>8.6</ele></trkpt><trkpt lat="-27.004752" lon="-48.621093"><ele>8.5</ele></trkpt><trkpt lat="-27.004752" lon="-48.621088"><ele>8.3</ele></trkpt><trkpt lat="-27.004752" lon="-48.621088"><ele>8.3</ele></trkpt><trkpt lat="-27.00475" lon="-48.621083"><ele>8</ele></trkpt><trkpt lat="-27.00475" lon="-48.621083"><ele>8</ele></trkpt><trkpt lat="-27.00475" lon="-48.621083"><ele>8</ele></trkpt><trkpt lat="-27.00475" lon="-48.621083"><ele>8</ele></trkpt><trkpt lat="-27.00475" lon="-48.621083"><ele>8</ele></trkpt><trkpt lat="-27.00475" lon="-48.621083"><ele>8</ele></trkpt><trkpt lat="-27.00475" lon="-48.621083"><ele>8</ele></trkpt><trkpt lat="-27.00475" lon="-48.621083"><ele>8</ele></trkpt><trkpt lat="-27.00475" lon="-48.621083"><ele>8</ele></trkpt><trkpt lat="-27.00475" lon="-48.621083"><ele>8</ele></trkpt><trkpt lat="-27.00475" lon="-48.621083"><ele>8</ele></trkpt><trkpt lat="-27.00475" lon="-48.621083"><ele>8</ele></trkpt><trkpt lat="-27.00475" lon="-48.621083"><ele>8</ele></trkpt><trkpt lat="-27.00475" lon="-48.621083"><ele>8</ele></trkpt><trkpt lat="-27.00475" lon="-48.621083"><ele>8</ele></trkpt><trkpt lat="-27.00475" lon="-48.621083"><ele>8</ele></trkpt><trkpt lat="-27.00475" lon="-48.621083"><ele>8</ele></trkpt><trkpt lat="-27.00475" lon="-48.621083"><ele>8</ele></trkpt><trkpt lat="-27.00475" lon="-48.621083"><ele>8</ele></trkpt><trkpt lat="-27.00475" lon="-48.621083"><ele>8</ele></trkpt><trkpt lat="-27.00475" lon="-48.621083"><ele>8</ele></trkpt><trkpt lat="-27.00475" lon="-48.621083"><ele>8</ele></trkpt><trkpt lat="-27.00475" lon="-48.621083"><ele>8</ele></trkpt><trkpt lat="-27.00475" lon="-48.621083"><ele>8</ele></trkpt><trkpt lat="-27.00475" lon="-48.621083"><ele>8</ele></trkpt><trkpt lat="-27.00475" lon="-48.621083"><ele>8</ele></trkpt><trkpt lat="-27.00475" lon="-48.621083"><ele>8</ele></trkpt><trkpt lat="-27.004752" lon="-48.621093"><ele>7.8</ele></trkpt><trkpt lat="-27.00475" lon="-48.621098"><ele>7.7</ele></trkpt><trkpt lat="-27.004752" lon="-48.621105"><ele>7.5</ele></trkpt><trkpt lat="-27.004752" lon="-48.621107"><ele>7.4</ele></trkpt><trkpt lat="-27.004752" lon="-48.621107"><ele>7.4</ele></trkpt><trkpt lat="-27.004752" lon="-48.621107"><ele>7.4</ele></trkpt><trkpt lat="-27.004752" lon="-48.621107"><ele>7.4</ele></trkpt><trkpt lat="-27.004752" lon="-48.621107"><ele>7.4</ele></trkpt><trkpt lat="-27.004752" lon="-48.621107"><ele>7.4</ele></trkpt><trkpt lat="-27.004752" lon="-48.621107"><ele>7.4</ele></trkpt><trkpt lat="-27.004752" lon="-48.621107"><ele>7.4</ele></trkpt><trkpt lat="-27.004752" lon="-48.621107"><ele>7.4</ele></trkpt><trkpt lat="-27.004752" lon="-48.621107"><ele>7.4</ele></trkpt><trkpt lat="-27.004752" lon="-48.621107"><ele>7.4</ele></trkpt><trkpt lat="-27.004752" lon="-48.621107"><ele>7.4</ele></trkpt><trkpt lat="-27.004752" lon="-48.621107"><ele>7.4</ele></trkpt><trkpt lat="-27.004752" lon="-48.621107"><ele>7.4</ele></trkpt><trkpt lat="-27.004752" lon="-48.621107"><ele>7.4</ele></trkpt><trkpt lat="-27.004752" lon="-48.621107"><ele>7.4</ele></trkpt><trkpt lat="-27.004752" lon="-48.621107"><ele>7.4</ele></trkpt><trkpt lat="-27.004752" lon="-48.621107"><ele>7.4</ele></trkpt><trkpt lat="-27.004752" lon="-48.621107"><ele>7.4</ele></trkpt><trkpt lat="-27.004752" lon="-48.621107"><ele>7.4</ele></trkpt><trkpt lat="-27.004752" lon="-48.621107"><ele>7.4</ele></trkpt><trkpt lat="-27.004742" lon="-48.621118"><ele>6</ele></trkpt><trkpt lat="-27.004742" lon="-48.621118"><ele>6</ele></trkpt><trkpt lat="-27.004743" lon="-48.62112"><ele>5.8</ele></trkpt><trkpt lat="-27.004743" lon="-48.621123"><ele>5.8</ele></trkpt><trkpt lat="-27.004742" lon="-48.621125"><ele>5.7</ele></trkpt><trkpt lat="-27.004742" lon="-48.621125"><ele>5.7</ele></trkpt><trkpt lat="-27.004742" lon="-48.621125"><ele>5.7</ele></trkpt><trkpt lat="-27.004742" lon="-48.621125"><ele>5.7</ele></trkpt><trkpt lat="-27.004742" lon="-48.621125"><ele>5.7</ele></trkpt><trkpt lat="-27.004742" lon="-48.621125"><ele>5.7</ele></trkpt><trkpt lat="-27.004742" lon="-48.621125"><ele>5.7</ele></trkpt><trkpt lat="-27.004742" lon="-48.621125"><ele>5.7</ele></trkpt><trkpt lat="-27.004742" lon="-48.621125"><ele>5.7</ele></trkpt><trkpt lat="-27.004742" lon="-48.621125"><ele>5.7</ele></trkpt><trkpt lat="-27.004742" lon="-48.621125"><ele>5.7</ele></trkpt><trkpt lat="-27.004742" lon="-48.621125"><ele>5.7</ele></trkpt><trkpt lat="-27.004742" lon="-48.621125"><ele>5.7</ele></trkpt><trkpt lat="-27.004742" lon="-48.621125"><ele>5.7</ele></trkpt><trkpt lat="-27.004742" lon="-48.621125"><ele>5.7</ele></trkpt><trkpt lat="-27.004742" lon="-48.621125"><ele>5.7</ele></trkpt><trkpt lat="-27.004742" lon="-48.621125"><ele>5.7</ele></trkpt><trkpt lat="-27.004742" lon="-48.621125"><ele>5.7</ele></trkpt><trkpt lat="-27.004742" lon="-48.621125"><ele>5.7</ele></trkpt><trkpt lat="-27.004742" lon="-48.621125"><ele>5.7</ele></trkpt><trkpt lat="-27.004742" lon="-48.621125"><ele>5.7</ele></trkpt><trkpt lat="-27.004742" lon="-48.621125"><ele>5.7</ele></trkpt><trkpt lat="-27.004742" lon="-48.621125"><ele>5.7</ele></trkpt><trkpt lat="-27.004742" lon="-48.621125"><ele>5.7</ele></trkpt><trkpt lat="-27.004742" lon="-48.621125"><ele>5.7</ele></trkpt><trkpt lat="-27.004742" lon="-48.621125"><ele>5.7</ele></trkpt><trkpt lat="-27.004742" lon="-48.621125"><ele>5.7</ele></trkpt><trkpt lat="-27.004742" lon="-48.621125"><ele>5.7</ele></trkpt><trkpt lat="-27.004742" lon="-48.621125"><ele>5.7</ele></trkpt><trkpt lat="-27.004742" lon="-48.621125"><ele>5.7</ele></trkpt><trkpt lat="-27.004742" lon="-48.621125"><ele>5.7</ele></trkpt><trkpt lat="-27.004742" lon="-48.621125"><ele>5.7</ele></trkpt><trkpt lat="-27.004742" lon="-48.621125"><ele>5.7</ele></trkpt><trkpt lat="-27.004742" lon="-48.621125"><ele>5.7</ele></trkpt><trkpt lat="-27.004742" lon="-48.621125"><ele>5.7</ele></trkpt><trkpt lat="-27.004742" lon="-48.621125"><ele>5.7</ele></trkpt><trkpt lat="-27.004742" lon="-48.621125"><ele>5.7</ele></trkpt><trkpt lat="-27.004742" lon="-48.621125"><ele>5.7</ele></trkpt><trkpt lat="-27.004742" lon="-48.621125"><ele>5.7</ele></trkpt><trkpt lat="-27.004742" lon="-48.621125"><ele>5.7</ele></trkpt><trkpt lat="-27.004742" lon="-48.621125"><ele>5.7</ele></trkpt><trkpt lat="-27.004732" lon="-48.621075"><ele>6.3</ele></trkpt><trkpt lat="-27.004733" lon="-48.621085"><ele>6.3</ele></trkpt><trkpt lat="-27.00474" lon="-48.621098"><ele>6.4</ele></trkpt><trkpt lat="-27.004748" lon="-48.621108"><ele>6.6</ele></trkpt><trkpt lat="-27.004757" lon="-48.621118"><ele>6.8</ele></trkpt><trkpt lat="-27.004762" lon="-48.621123"><ele>6.9</ele></trkpt><trkpt lat="-27.004765" lon="-48.62113"><ele>6.9</ele></trkpt><trkpt lat="-27.004767" lon="-48.621133"><ele>7</ele></trkpt><trkpt lat="-27.004767" lon="-48.621138"><ele>7.2</ele></trkpt><trkpt lat="-27.004768" lon="-48.621143"><ele>7.4</ele></trkpt><trkpt lat="-27.004768" lon="-48.621147"><ele>7.5</ele></trkpt><trkpt lat="-27.004768" lon="-48.621148"><ele>7.4</ele></trkpt><trkpt lat="-27.004768" lon="-48.621147"><ele>7.2</ele></trkpt><trkpt lat="-27.004772" lon="-48.621145"><ele>7.1</ele></trkpt><trkpt lat="-27.004773" lon="-48.621145"><ele>7</ele></trkpt><trkpt lat="-27.004775" lon="-48.621147"><ele>6.9</ele></trkpt><trkpt lat="-27.004773" lon="-48.621142"><ele>6.8</ele></trkpt><trkpt lat="-27.004772" lon="-48.621138"><ele>6.8</ele></trkpt><trkpt lat="-27.004772" lon="-48.621138"><ele>6.8</ele></trkpt><trkpt lat="-27.004772" lon="-48.621138"><ele>6.8</ele></trkpt><trkpt lat="-27.004772" lon="-48.621138"><ele>6.8</ele></trkpt><trkpt lat="-27.00478" lon="-48.621137"><ele>6.6</ele></trkpt><trkpt lat="-27.004787" lon="-48.62114"><ele>6.7</ele></trkpt><trkpt lat="-27.004792" lon="-48.621138"><ele>7</ele></trkpt><trkpt lat="-27.004795" lon="-48.621135"><ele>7.4</ele></trkpt><trkpt lat="-27.004798" lon="-48.621138"><ele>7.6</ele></trkpt><trkpt lat="-27.004793" lon="-48.621138"><ele>7.8</ele></trkpt><trkpt lat="-27.004783" lon="-48.621142"><ele>8</ele></trkpt><trkpt lat="-27.004785" lon="-48.621143"><ele>8</ele></trkpt><trkpt lat="-27.004792" lon="-48.621145"><ele>8.1</ele></trkpt><trkpt lat="-27.004803" lon="-48.62115"><ele>8.4</ele></trkpt><trkpt lat="-27.00482" lon="-48.621157"><ele>8.3</ele></trkpt><trkpt lat="-27.00484" lon="-48.621155"><ele>8.2</ele></trkpt><trkpt lat="-27.004862" lon="-48.621158"><ele>8.1</ele></trkpt><trkpt lat="-27.00488" lon="-48.621165"><ele>8</ele></trkpt><trkpt lat="-27.0049" lon="-48.621175"><ele>7.7</ele></trkpt><trkpt lat="-27.004913" lon="-48.62118"><ele>7.5</ele></trkpt><trkpt lat="-27.004922" lon="-48.621188"><ele>7.5</ele></trkpt><trkpt lat="-27.004927" lon="-48.621193"><ele>7.5</ele></trkpt><trkpt lat="-27.004932" lon="-48.621202"><ele>7.4</ele></trkpt><trkpt lat="-27.004933" lon="-48.621212"><ele>7.2</ele></trkpt><trkpt lat="-27.004935" lon="-48.621217"><ele>7.2</ele></trkpt><trkpt lat="-27.004932" lon="-48.621218"><ele>7.2</ele></trkpt><trkpt lat="-27.004928" lon="-48.621223"><ele>7.1</ele></trkpt><trkpt lat="-27.00493" lon="-48.621228"><ele>7.1</ele></trkpt><trkpt lat="-27.004938" lon="-48.621232"><ele>7.1</ele></trkpt><trkpt lat="-27.004952" lon="-48.621235"><ele>7.2</ele></trkpt><trkpt lat="-27.004962" lon="-48.62124"><ele>7.3</ele></trkpt><trkpt lat="-27.004975" lon="-48.621245"><ele>7.1</ele></trkpt><trkpt lat="-27.004983" lon="-48.621253"><ele>7.2</ele></trkpt><trkpt lat="-27.004985" lon="-48.62126"><ele>7.3</ele></trkpt><trkpt lat="-27.004992" lon="-48.621262"><ele>7.2</ele></trkpt><trkpt lat="-27.004995" lon="-48.621265"><ele>7.1</ele></trkpt><trkpt lat="-27.004993" lon="-48.621265"><ele>7.3</ele></trkpt><trkpt lat="-27.004995" lon="-48.621262"><ele>7.2</ele></trkpt><trkpt lat="-27.004998" lon="-48.621258"><ele>7.2</ele></trkpt><trkpt lat="-27.005003" lon="-48.621248"><ele>6.9</ele></trkpt><trkpt lat="-27.005003" lon="-48.621237"><ele>6.7</ele></trkpt><trkpt lat="-27.005007" lon="-48.62123"><ele>6.6</ele></trkpt><trkpt lat="-27.005008" lon="-48.621223"><ele>6.6</ele></trkpt><trkpt lat="-27.005008" lon="-48.621215"><ele>6.8</ele></trkpt><trkpt lat="-27.005008" lon="-48.621215"><ele>6.8</ele></trkpt><trkpt lat="-27.005008" lon="-48.621215"><ele>6.8</ele></trkpt><trkpt lat="-27.005008" lon="-48.621215"><ele>6.8</ele></trkpt><trkpt lat="-27.005008" lon="-48.621215"><ele>6.8</ele></trkpt><trkpt lat="-27.005008" lon="-48.621215"><ele>6.8</ele></trkpt><trkpt lat="-27.005008" lon="-48.621215"><ele>6.8</ele></trkpt><trkpt lat="-27.005008" lon="-48.621215"><ele>6.8</ele></trkpt><trkpt lat="-27.005008" lon="-48.621215"><ele>6.8</ele></trkpt><trkpt lat="-27.005008" lon="-48.621215"><ele>6.8</ele></trkpt><trkpt lat="-27.005008" lon="-48.621215"><ele>6.8</ele></trkpt><trkpt lat="-27.005008" lon="-48.621215"><ele>6.8</ele></trkpt><trkpt lat="-27.005008" lon="-48.621215"><ele>6.8</ele></trkpt><trkpt lat="-27.005008" lon="-48.621215"><ele>6.8</ele></trkpt><trkpt lat="-27.005008" lon="-48.621215"><ele>6.8</ele></trkpt><trkpt lat="-27.005008" lon="-48.621215"><ele>6.8</ele></trkpt><trkpt lat="-27.005008" lon="-48.621215"><ele>6.8</ele></trkpt><trkpt lat="-27.005008" lon="-48.621215"><ele>6.8</ele></trkpt><trkpt lat="-27.005008" lon="-48.621215"><ele>6.8</ele></trkpt><trkpt lat="-27.005008" lon="-48.621215"><ele>6.8</ele></trkpt><trkpt lat="-27.005008" lon="-48.621215"><ele>6.8</ele></trkpt><trkpt lat="-27.005017" lon="-48.62116"><ele>9</ele></trkpt><trkpt lat="-27.005015" lon="-48.621157"><ele>8.8</ele></trkpt><trkpt lat="-27.005015" lon="-48.621157"><ele>8.4</ele></trkpt><trkpt lat="-27.005015" lon="-48.621155"><ele>8.2</ele></trkpt><trkpt lat="-27.005015" lon="-48.621155"><ele>8.2</ele></trkpt><trkpt lat="-27.005015" lon="-48.621155"><ele>8.2</ele></trkpt><trkpt lat="-27.005015" lon="-48.621155"><ele>8.2</ele></trkpt><trkpt lat="-27.005015" lon="-48.621155"><ele>8.2</ele></trkpt><trkpt lat="-27.005015" lon="-48.621155"><ele>8.2</ele></trkpt><trkpt lat="-27.005015" lon="-48.621155"><ele>8.2</ele></trkpt><trkpt lat="-27.005015" lon="-48.621155"><ele>8.2</ele></trkpt><trkpt lat="-27.005015" lon="-48.621155"><ele>8.2</ele></trkpt><trkpt lat="-27.005018" lon="-48.621162"><ele>10</ele></trkpt><trkpt lat="-27.00502" lon="-48.62117"><ele>10.3</ele></trkpt><trkpt lat="-27.00502" lon="-48.621175"><ele>10.5</ele></trkpt><trkpt lat="-27.005022" lon="-48.621178"><ele>10.5</ele></trkpt><trkpt lat="-27.005022" lon="-48.621178"><ele>10.5</ele></trkpt><trkpt lat="-27.005025" lon="-48.621188"><ele>9.8</ele></trkpt><trkpt lat="-27.005025" lon="-48.621188"><ele>9.8</ele></trkpt><trkpt lat="-27.005025" lon="-48.621188"><ele>9.8</ele></trkpt><trkpt lat="-27.005028" lon="-48.621192"><ele>9.6</ele></trkpt><trkpt lat="-27.00503" lon="-48.621195"><ele>9.6</ele></trkpt><trkpt lat="-27.005032" lon="-48.621198"><ele>9.5</ele></trkpt><trkpt lat="-27.005032" lon="-48.621207"><ele>9.6</ele></trkpt><trkpt lat="-27.005035" lon="-48.62121"><ele>9.8</ele></trkpt><trkpt lat="-27.005038" lon="-48.621213"><ele>9.5</ele></trkpt><trkpt lat="-27.005038" lon="-48.621213"><ele>9.5</ele></trkpt><trkpt lat="-27.00504" lon="-48.621212"><ele>9.6</ele></trkpt><trkpt lat="-27.00504" lon="-48.621212"><ele>9.6</ele></trkpt><trkpt lat="-27.00504" lon="-48.621212"><ele>9.6</ele></trkpt><trkpt lat="-27.00504" lon="-48.621212"><ele>9.6</ele></trkpt><trkpt lat="-27.00504" lon="-48.621212"><ele>9.6</ele></trkpt><trkpt lat="-27.00504" lon="-48.621212"><ele>9.6</ele></trkpt><trkpt lat="-27.00504" lon="-48.621212"><ele>9.6</ele></trkpt><trkpt lat="-27.00504" lon="-48.621212"><ele>9.6</ele></trkpt><trkpt lat="-27.00504" lon="-48.621212"><ele>9.6</ele></trkpt><trkpt lat="-27.00504" lon="-48.621212"><ele>9.6</ele></trkpt><trkpt lat="-27.00504" lon="-48.621212"><ele>9.6</ele></trkpt><trkpt lat="-27.00504" lon="-48.621212"><ele>9.6</ele></trkpt><trkpt lat="-27.00504" lon="-48.621212"><ele>9.6</ele></trkpt><trkpt lat="-27.00504" lon="-48.621212"><ele>9.6</ele></trkpt><trkpt lat="-27.00504" lon="-48.621212"><ele>9.6</ele></trkpt><trkpt lat="-27.00504" lon="-48.621212"><ele>9.6</ele></trkpt><trkpt lat="-27.00504" lon="-48.621212"><ele>9.6</ele></trkpt><trkpt lat="-27.00504" lon="-48.621212"><ele>9.6</ele></trkpt><trkpt lat="-27.00504" lon="-48.621212"><ele>9.6</ele></trkpt><trkpt lat="-27.00504" lon="-48.621212"><ele>9.6</ele></trkpt><trkpt lat="-27.00504" lon="-48.621212"><ele>9.6</ele></trkpt><trkpt lat="-27.00504" lon="-48.621212"><ele>9.6</ele></trkpt><trkpt lat="-27.00504" lon="-48.621212"><ele>9.6</ele></trkpt><trkpt lat="-27.00504" lon="-48.621212"><ele>9.6</ele></trkpt><trkpt lat="-27.00504" lon="-48.621212"><ele>9.6</ele></trkpt><trkpt lat="-27.00504" lon="-48.621212"><ele>9.6</ele></trkpt><trkpt lat="-27.005047" lon="-48.621195"><ele>8.5</ele></trkpt><trkpt lat="-27.005045" lon="-48.621197"><ele>8.5</ele></trkpt><trkpt lat="-27.005043" lon="-48.621197"><ele>8.5</ele></trkpt><trkpt lat="-27.005042" lon="-48.621198"><ele>8.4</ele></trkpt><trkpt lat="-27.005042" lon="-48.621198"><ele>8.4</ele></trkpt><trkpt lat="-27.005052" lon="-48.62121"><ele>8.2</ele></trkpt><trkpt lat="-27.005062" lon="-48.621212"><ele>8.3</ele></trkpt><trkpt lat="-27.005078" lon="-48.621217"><ele>8.1</ele></trkpt><trkpt lat="-27.0051" lon="-48.621223"><ele>8</ele></trkpt><trkpt lat="-27.005125" lon="-48.621235"><ele>7.9</ele></trkpt><trkpt lat="-27.005153" lon="-48.621245"><ele>7.8</ele></trkpt><trkpt lat="-27.00518" lon="-48.621257"><ele>7.9</ele></trkpt><trkpt lat="-27.005207" lon="-48.62127"><ele>8</ele></trkpt><trkpt lat="-27.005232" lon="-48.621283"><ele>8</ele></trkpt><trkpt lat="-27.005257" lon="-48.621295"><ele>7.9</ele></trkpt><trkpt lat="-27.005282" lon="-48.621313"><ele>7.9</ele></trkpt><trkpt lat="-27.00531" lon="-48.621337"><ele>7.9</ele></trkpt><trkpt lat="-27.005337" lon="-48.621357"><ele>7.9</ele></trkpt><trkpt lat="-27.005363" lon="-48.62138"><ele>8.2</ele></trkpt><trkpt lat="-27.005392" lon="-48.6214"><ele>8.4</ele></trkpt><trkpt lat="-27.00542" lon="-48.621417"><ele>8.1</ele></trkpt><trkpt lat="-27.005445" lon="-48.621435"><ele>8.1</ele></trkpt><trkpt lat="-27.00547" lon="-48.621452"><ele>8</ele></trkpt><trkpt lat="-27.005495" lon="-48.62147"><ele>8.1</ele></trkpt><trkpt lat="-27.005513" lon="-48.621488"><ele>8.4</ele></trkpt><trkpt lat="-27.005523" lon="-48.621498"><ele>8.7</ele></trkpt><trkpt lat="-27.005527" lon="-48.621497"><ele>9</ele></trkpt><trkpt lat="-27.00553" lon="-48.6215"><ele>8.7</ele></trkpt><trkpt lat="-27.005532" lon="-48.6215"><ele>8.7</ele></trkpt><trkpt lat="-27.00553" lon="-48.621507"><ele>8.5</ele></trkpt><trkpt lat="-27.005527" lon="-48.621507"><ele>8.3</ele></trkpt><trkpt lat="-27.005527" lon="-48.621505"><ele>8</ele></trkpt><trkpt lat="-27.005527" lon="-48.621503"><ele>7.8</ele></trkpt><trkpt lat="-27.005523" lon="-48.6215"><ele>7.7</ele></trkpt><trkpt lat="-27.005523" lon="-48.6215"><ele>7.7</ele></trkpt><trkpt lat="-27.00552" lon="-48.621502"><ele>7.7</ele></trkpt><trkpt lat="-27.005513" lon="-48.621505"><ele>7.7</ele></trkpt><trkpt lat="-27.00551" lon="-48.621508"><ele>7.6</ele></trkpt><trkpt lat="-27.00551" lon="-48.621508"><ele>7.6</ele></trkpt><trkpt lat="-27.00551" lon="-48.621508"><ele>7.6</ele></trkpt><trkpt lat="-27.00551" lon="-48.621508"><ele>7.6</ele></trkpt><trkpt lat="-27.00551" lon="-48.621508"><ele>7.6</ele></trkpt><trkpt lat="-27.00551" lon="-48.621508"><ele>7.6</ele></trkpt><trkpt lat="-27.00551" lon="-48.621508"><ele>7.6</ele></trkpt><trkpt lat="-27.00551" lon="-48.621508"><ele>7.6</ele></trkpt><trkpt lat="-27.00551" lon="-48.621508"><ele>7.6</ele></trkpt><trkpt lat="-27.00551" lon="-48.621508"><ele>7.6</ele></trkpt><trkpt lat="-27.00551" lon="-48.621508"><ele>7.6</ele></trkpt><trkpt lat="-27.00551" lon="-48.621508"><ele>7.6</ele></trkpt><trkpt lat="-27.00551" lon="-48.621508"><ele>7.6</ele></trkpt><trkpt lat="-27.00551" lon="-48.621508"><ele>7.6</ele></trkpt><trkpt lat="-27.00551" lon="-48.621508"><ele>7.6</ele></trkpt><trkpt lat="-27.00551" lon="-48.621508"><ele>7.6</ele></trkpt><trkpt lat="-27.00551" lon="-48.621508"><ele>7.6</ele></trkpt><trkpt lat="-27.00551" lon="-48.621508"><ele>7.6</ele></trkpt><trkpt lat="-27.00551" lon="-48.621508"><ele>7.6</ele></trkpt><trkpt lat="-27.00551" lon="-48.621508"><ele>7.6</ele></trkpt><trkpt lat="-27.00551" lon="-48.621508"><ele>7.6</ele></trkpt><trkpt lat="-27.00551" lon="-48.621508"><ele>7.6</ele></trkpt><trkpt lat="-27.00551" lon="-48.621508"><ele>7.6</ele></trkpt><trkpt lat="-27.00551" lon="-48.621508"><ele>7.6</ele></trkpt><trkpt lat="-27.00551" lon="-48.621508"><ele>7.6</ele></trkpt><trkpt lat="-27.00551" lon="-48.621508"><ele>7.6</ele></trkpt><trkpt lat="-27.00551" lon="-48.621508"><ele>7.6</ele></trkpt><trkpt lat="-27.00551" lon="-48.621508"><ele>7.6</ele></trkpt><trkpt lat="-27.00551" lon="-48.621508"><ele>7.6</ele></trkpt><trkpt lat="-27.005502" lon="-48.621542"><ele>7.2</ele></trkpt><trkpt lat="-27.00551" lon="-48.621542"><ele>7.2</ele></trkpt><trkpt lat="-27.005522" lon="-48.621547"><ele>7</ele></trkpt><trkpt lat="-27.005532" lon="-48.621563"><ele>6.8</ele></trkpt><trkpt lat="-27.00554" lon="-48.621583"><ele>6.7</ele></trkpt><trkpt lat="-27.005543" lon="-48.621598"><ele>6.8</ele></trkpt><trkpt lat="-27.005547" lon="-48.621602"><ele>6.7</ele></trkpt><trkpt lat="-27.005548" lon="-48.621602"><ele>6.8</ele></trkpt><trkpt lat="-27.005548" lon="-48.621602"><ele>7</ele></trkpt><trkpt lat="-27.005548" lon="-48.6216"><ele>7.1</ele></trkpt><trkpt lat="-27.005548" lon="-48.621602"><ele>7.1</ele></trkpt><trkpt lat="-27.00555" lon="-48.621603"><ele>6.9</ele></trkpt><trkpt lat="-27.00555" lon="-48.621603"><ele>6.9</ele></trkpt><trkpt lat="-27.005548" lon="-48.621608"><ele>7</ele></trkpt><trkpt lat="-27.00554" lon="-48.62162"><ele>7.2</ele></trkpt><trkpt lat="-27.005533" lon="-48.621642"><ele>7.5</ele></trkpt><trkpt lat="-27.005537" lon="-48.621658"><ele>7.7</ele></trkpt><trkpt lat="-27.005543" lon="-48.621675"><ele>7.9</ele></trkpt><trkpt lat="-27.005557" lon="-48.621697"><ele>8.1</ele></trkpt><trkpt lat="-27.005573" lon="-48.621717"><ele>8.2</ele></trkpt><trkpt lat="-27.00559" lon="-48.621738"><ele>8.5</ele></trkpt><trkpt lat="-27.005613" lon="-48.621752"><ele>8.6</ele></trkpt><trkpt lat="-27.005642" lon="-48.621763"><ele>8.6</ele></trkpt><trkpt lat="-27.005668" lon="-48.621775"><ele>8.7</ele></trkpt><trkpt lat="-27.0057" lon="-48.621783"><ele>9.1</ele></trkpt><trkpt lat="-27.005727" lon="-48.621797"><ele>9.5</ele></trkpt><trkpt lat="-27.00575" lon="-48.621792"><ele>9.5</ele></trkpt><trkpt lat="-27.005763" lon="-48.621788"><ele>9.4</ele></trkpt><trkpt lat="-27.005777" lon="-48.621788"><ele>9.2</ele></trkpt><trkpt lat="-27.005785" lon="-48.621782"><ele>8.5</ele></trkpt><trkpt lat="-27.005783" lon="-48.621778"><ele>8.2</ele></trkpt><trkpt lat="-27.00578" lon="-48.621777"><ele>8.2</ele></trkpt><trkpt lat="-27.005778" lon="-48.621772"><ele>7.9</ele></trkpt><trkpt lat="-27.005775" lon="-48.621763"><ele>7.5</ele></trkpt><trkpt lat="-27.00577" lon="-48.621757"><ele>7.1</ele></trkpt><trkpt lat="-27.005767" lon="-48.62175"><ele>6.6</ele></trkpt><trkpt lat="-27.005765" lon="-48.621745"><ele>5.9</ele></trkpt><trkpt lat="-27.005762" lon="-48.621737"><ele>5.3</ele></trkpt><trkpt lat="-27.005762" lon="-48.62173"><ele>4.6</ele></trkpt><trkpt lat="-27.005762" lon="-48.62173"><ele>4.6</ele></trkpt><trkpt lat="-27.005762" lon="-48.62173"><ele>4.6</ele></trkpt><trkpt lat="-27.005762" lon="-48.62173"><ele>4.6</ele></trkpt><trkpt lat="-27.005762" lon="-48.62173"><ele>4.6</ele></trkpt><trkpt lat="-27.005762" lon="-48.62173"><ele>4.6</ele></trkpt><trkpt lat="-27.005762" lon="-48.62173"><ele>4.6</ele></trkpt><trkpt lat="-27.005762" lon="-48.62173"><ele>4.6</ele></trkpt><trkpt lat="-27.005762" lon="-48.62173"><ele>4.6</ele></trkpt><trkpt lat="-27.005762" lon="-48.62173"><ele>4.6</ele></trkpt><trkpt lat="-27.005762" lon="-48.62173"><ele>4.6</ele></trkpt><trkpt lat="-27.005762" lon="-48.62173"><ele>4.6</ele></trkpt><trkpt lat="-27.005762" lon="-48.62173"><ele>4.6</ele></trkpt><trkpt lat="-27.005762" lon="-48.62173"><ele>4.6</ele></trkpt><trkpt lat="-27.005762" lon="-48.62173"><ele>4.6</ele></trkpt><trkpt lat="-27.005762" lon="-48.62173"><ele>4.6</ele></trkpt><trkpt lat="-27.005762" lon="-48.62173"><ele>4.6</ele></trkpt><trkpt lat="-27.005762" lon="-48.62173"><ele>4.6</ele></trkpt><trkpt lat="-27.005762" lon="-48.62173"><ele>4.6</ele></trkpt><trkpt lat="-27.005762" lon="-48.62173"><ele>4.6</ele></trkpt><trkpt lat="-27.005762" lon="-48.62173"><ele>4.6</ele></trkpt><trkpt lat="-27.005762" lon="-48.62173"><ele>4.6</ele></trkpt><trkpt lat="-27.005762" lon="-48.62173"><ele>4.6</ele></trkpt><trkpt lat="-27.005762" lon="-48.62173"><ele>4.6</ele></trkpt><trkpt lat="-27.005762" lon="-48.62173"><ele>4.6</ele></trkpt><trkpt lat="-27.005762" lon="-48.62173"><ele>4.6</ele></trkpt><trkpt lat="-27.005762" lon="-48.62173"><ele>4.6</ele></trkpt><trkpt lat="-27.005762" lon="-48.62173"><ele>4.6</ele></trkpt><trkpt lat="-27.005762" lon="-48.62173"><ele>4.6</ele></trkpt><trkpt lat="-27.005762" lon="-48.62173"><ele>4.6</ele></trkpt><trkpt lat="-27.005762" lon="-48.62173"><ele>4.6</ele></trkpt><trkpt lat="-27.005762" lon="-48.62173"><ele>4.6</ele></trkpt><trkpt lat="-27.005762" lon="-48.62173"><ele>4.6</ele></trkpt><trkpt lat="-27.005762" lon="-48.62173"><ele>4.6</ele></trkpt><trkpt lat="-27.005762" lon="-48.62173"><ele>4.6</ele></trkpt><trkpt lat="-27.005762" lon="-48.62173"><ele>4.6</ele></trkpt><trkpt lat="-27.005762" lon="-48.62173"><ele>4.6</ele></trkpt><trkpt lat="-27.005762" lon="-48.62173"><ele>4.6</ele></trkpt><trkpt lat="-27.005762" lon="-48.62173"><ele>4.6</ele></trkpt><trkpt lat="-27.005762" lon="-48.62173"><ele>4.6</ele></trkpt><trkpt lat="-27.005762" lon="-48.62173"><ele>4.6</ele></trkpt><trkpt lat="-27.005762" lon="-48.62173"><ele>4.6</ele></trkpt><trkpt lat="-27.005762" lon="-48.62173"><ele>4.6</ele></trkpt><trkpt lat="-27.005762" lon="-48.62173"><ele>4.6</ele></trkpt><trkpt lat="-27.005762" lon="-48.62173"><ele>4.6</ele></trkpt><trkpt lat="-27.005762" lon="-48.62173"><ele>4.6</ele></trkpt><trkpt lat="-27.005795" lon="-48.621727"><ele>-3.5</ele></trkpt><trkpt lat="-27.005802" lon="-48.621733"><ele>-3.5</ele></trkpt><trkpt lat="-27.005815" lon="-48.621752"><ele>-3</ele></trkpt><trkpt lat="-27.005833" lon="-48.621763"><ele>-2.7</ele></trkpt><trkpt lat="-27.005852" lon="-48.621772"><ele>-2.6</ele></trkpt><trkpt lat="-27.005867" lon="-48.62178"><ele>-2.4</ele></trkpt><trkpt lat="-27.005867" lon="-48.62178"><ele>-2.4</ele></trkpt><trkpt lat="-27.00588" lon="-48.62179"><ele>-2</ele></trkpt><trkpt lat="-27.005895" lon="-48.621797"><ele>-2.1</ele></trkpt><trkpt lat="-27.005912" lon="-48.621803"><ele>-2.1</ele></trkpt><trkpt lat="-27.005932" lon="-48.621807"><ele>-2.1</ele></trkpt><trkpt lat="-27.005957" lon="-48.621813"><ele>-1.7</ele></trkpt><trkpt lat="-27.00598" lon="-48.621822"><ele>-1.5</ele></trkpt><trkpt lat="-27.005998" lon="-48.621828"><ele>-0.7</ele></trkpt><trkpt lat="-27.006012" lon="-48.621837"><ele>0</ele></trkpt><trkpt lat="-27.006028" lon="-48.621835"><ele>0.4</ele></trkpt><trkpt lat="-27.006035" lon="-48.621835"><ele>1.1</ele></trkpt><trkpt lat="-27.006033" lon="-48.621832"><ele>1.7</ele></trkpt><trkpt lat="-27.006027" lon="-48.621833"><ele>2.2</ele></trkpt><trkpt lat="-27.006023" lon="-48.621838"><ele>2.6</ele></trkpt><trkpt lat="-27.006022" lon="-48.62184"><ele>2.6</ele></trkpt><trkpt lat="-27.006023" lon="-48.621838"><ele>2.5</ele></trkpt><trkpt lat="-27.006027" lon="-48.621842"><ele>2.3</ele></trkpt><trkpt lat="-27.006035" lon="-48.621845"><ele>1.9</ele></trkpt><trkpt lat="-27.006042" lon="-48.62185"><ele>1.6</ele></trkpt><trkpt lat="-27.006047" lon="-48.621853"><ele>1.3</ele></trkpt><trkpt lat="-27.006058" lon="-48.621862"><ele>1.2</ele></trkpt><trkpt lat="-27.006067" lon="-48.62187"><ele>1.5</ele></trkpt><trkpt lat="-27.006072" lon="-48.621878"><ele>2</ele></trkpt><trkpt lat="-27.006075" lon="-48.621883"><ele>2.7</ele></trkpt><trkpt lat="-27.006078" lon="-48.621888"><ele>3.4</ele></trkpt><trkpt lat="-27.006078" lon="-48.621892"><ele>3.8</ele></trkpt><trkpt lat="-27.006083" lon="-48.621898"><ele>4.1</ele></trkpt><trkpt lat="-27.006085" lon="-48.621902"><ele>4</ele></trkpt><trkpt lat="-27.006085" lon="-48.621893"><ele>4.2</ele></trkpt><trkpt lat="-27.006087" lon="-48.621888"><ele>4.3</ele></trkpt><trkpt lat="-27.006088" lon="-48.621875"><ele>4.5</ele></trkpt><trkpt lat="-27.00609" lon="-48.621865"><ele>4.3</ele></trkpt><trkpt lat="-27.006087" lon="-48.621858"><ele>4.3</ele></trkpt><trkpt lat="-27.006082" lon="-48.621848"><ele>3.7</ele></trkpt><trkpt lat="-27.00608" lon="-48.62184"><ele>3.6</ele></trkpt><trkpt lat="-27.006075" lon="-48.621832"><ele>3.4</ele></trkpt><trkpt lat="-27.00607" lon="-48.621835"><ele>3.3</ele></trkpt><trkpt lat="-27.006067" lon="-48.621838"><ele>3.4</ele></trkpt><trkpt lat="-27.006063" lon="-48.621845"><ele>3.1</ele></trkpt><trkpt lat="-27.006063" lon="-48.621853"><ele>2.9</ele></trkpt><trkpt lat="-27.006065" lon="-48.621855"><ele>2.6</ele></trkpt><trkpt lat="-27.006067" lon="-48.621853"><ele>2.3</ele></trkpt><trkpt lat="-27.006068" lon="-48.62185"><ele>2.1</ele></trkpt><trkpt lat="-27.006065" lon="-48.62185"><ele>2</ele></trkpt><trkpt lat="-27.006065" lon="-48.621848"><ele>1.8</ele></trkpt><trkpt lat="-27.006065" lon="-48.621845"><ele>1.7</ele></trkpt><trkpt lat="-27.006063" lon="-48.621842"><ele>1.7</ele></trkpt><trkpt lat="-27.006063" lon="-48.621842"><ele>1.7</ele></trkpt><trkpt lat="-27.006067" lon="-48.621843"><ele>1.8</ele></trkpt><trkpt lat="-27.006068" lon="-48.621848"><ele>1.8</ele></trkpt><trkpt lat="-27.00607" lon="-48.621852"><ele>2.2</ele></trkpt><trkpt lat="-27.00607" lon="-48.621852"><ele>2.2</ele></trkpt><trkpt lat="-27.00607" lon="-48.621852"><ele>2.2</ele></trkpt><trkpt lat="-27.00607" lon="-48.621852"><ele>2.2</ele></trkpt><trkpt lat="-27.00607" lon="-48.621852"><ele>2.2</ele></trkpt><trkpt lat="-27.00607" lon="-48.621852"><ele>2.2</ele></trkpt><trkpt lat="-27.00607" lon="-48.621852"><ele>2.2</ele></trkpt><trkpt lat="-27.00607" lon="-48.621852"><ele>2.2</ele></trkpt><trkpt lat="-27.00607" lon="-48.621852"><ele>2.2</ele></trkpt><trkpt lat="-27.00607" lon="-48.621852"><ele>2.2</ele></trkpt><trkpt lat="-27.00607" lon="-48.621852"><ele>2.2</ele></trkpt><trkpt lat="-27.00607" lon="-48.621852"><ele>2.2</ele></trkpt><trkpt lat="-27.00607" lon="-48.621852"><ele>2.2</ele></trkpt><trkpt lat="-27.006078" lon="-48.621853"><ele>2.9</ele></trkpt><trkpt lat="-27.006072" lon="-48.62185"><ele>2.9</ele></trkpt><trkpt lat="-27.006065" lon="-48.62185"><ele>2.7</ele></trkpt><trkpt lat="-27.006053" lon="-48.621842"><ele>2.7</ele></trkpt><trkpt lat="-27.006047" lon="-48.621837"><ele>2.7</ele></trkpt><trkpt lat="-27.006038" lon="-48.621835"><ele>2.7</ele></trkpt><trkpt lat="-27.006033" lon="-48.621835"><ele>2.6</ele></trkpt><trkpt lat="-27.006033" lon="-48.621835"><ele>2.6</ele></trkpt><trkpt lat="-27.006027" lon="-48.621837"><ele>2.7</ele></trkpt><trkpt lat="-27.006028" lon="-48.621837"><ele>2.8</ele></trkpt><trkpt lat="-27.00603" lon="-48.621837"><ele>2.8</ele></trkpt><trkpt lat="-27.006035" lon="-48.621838"><ele>2.6</ele></trkpt><trkpt lat="-27.006035" lon="-48.621837"><ele>2.8</ele></trkpt><trkpt lat="-27.006038" lon="-48.621837"><ele>3.2</ele></trkpt><trkpt lat="-27.006037" lon="-48.621838"><ele>3.6</ele></trkpt><trkpt lat="-27.006038" lon="-48.621843"><ele>4.3</ele></trkpt><trkpt lat="-27.006038" lon="-48.621845"><ele>4.6</ele></trkpt><trkpt lat="-27.006038" lon="-48.621845"><ele>4.6</ele></trkpt><trkpt lat="-27.006038" lon="-48.621845"><ele>4.6</ele></trkpt><trkpt lat="-27.006038" lon="-48.621845"><ele>4.6</ele></trkpt><trkpt lat="-27.006038" lon="-48.621845"><ele>4.6</ele></trkpt><trkpt lat="-27.006047" lon="-48.621873"><ele>4.7</ele></trkpt><trkpt lat="-27.006048" lon="-48.621878"><ele>4.9</ele></trkpt><trkpt lat="-27.00605" lon="-48.621883"><ele>4.9</ele></trkpt><trkpt lat="-27.006052" lon="-48.621888"><ele>4.9</ele></trkpt><trkpt lat="-27.006055" lon="-48.621897"><ele>4.8</ele></trkpt><trkpt lat="-27.006057" lon="-48.621905"><ele>4.8</ele></trkpt><trkpt lat="-27.006057" lon="-48.621912"><ele>4.9</ele></trkpt><trkpt lat="-27.006062" lon="-48.62191"><ele>5</ele></trkpt><trkpt lat="-27.006062" lon="-48.62191"><ele>5</ele></trkpt><trkpt lat="-27.006065" lon="-48.621913"><ele>5.1</ele></trkpt><trkpt lat="-27.006063" lon="-48.621912"><ele>5</ele></trkpt><trkpt lat="-27.006062" lon="-48.621903"><ele>5</ele></trkpt><trkpt lat="-27.00606" lon="-48.621895"><ele>5</ele></trkpt><trkpt lat="-27.00606" lon="-48.621895"><ele>5</ele></trkpt><trkpt lat="-27.006052" lon="-48.621892"><ele>4.8</ele></trkpt><trkpt lat="-27.006043" lon="-48.62189"><ele>4.9</ele></trkpt><trkpt lat="-27.006038" lon="-48.62189"><ele>4.8</ele></trkpt><trkpt lat="-27.006035" lon="-48.621888"><ele>4.8</ele></trkpt><trkpt lat="-27.00603" lon="-48.62189"><ele>5.1</ele></trkpt><trkpt lat="-27.006032" lon="-48.62189"><ele>5.2</ele></trkpt><trkpt lat="-27.006032" lon="-48.62189"><ele>5.2</ele></trkpt><trkpt lat="-27.006032" lon="-48.62189"><ele>5.2</ele></trkpt><trkpt lat="-27.006032" lon="-48.62189"><ele>5.2</ele></trkpt><trkpt lat="-27.006032" lon="-48.62189"><ele>5.2</ele></trkpt><trkpt lat="-27.006032" lon="-48.62189"><ele>5.2</ele></trkpt><trkpt lat="-27.006032" lon="-48.62189"><ele>5.2</ele></trkpt><trkpt lat="-27.006032" lon="-48.62189"><ele>5.2</ele></trkpt><trkpt lat="-27.006032" lon="-48.62189"><ele>5.2</ele></trkpt><trkpt lat="-27.006032" lon="-48.62189"><ele>5.2</ele></trkpt><trkpt lat="-27.006032" lon="-48.62189"><ele>5.2</ele></trkpt><trkpt lat="-27.006032" lon="-48.62189"><ele>5.2</ele></trkpt><trkpt lat="-27.006032" lon="-48.62189"><ele>5.2</ele></trkpt><trkpt lat="-27.006032" lon="-48.62189"><ele>5.2</ele></trkpt><trkpt lat="-27.006032" lon="-48.62189"><ele>5.2</ele></trkpt><trkpt lat="-27.006032" lon="-48.62189"><ele>5.2</ele></trkpt><trkpt lat="-27.006032" lon="-48.62189"><ele>5.2</ele></trkpt><trkpt lat="-27.006032" lon="-48.62189"><ele>5.2</ele></trkpt><trkpt lat="-27.006032" lon="-48.62189"><ele>5.2</ele></trkpt><trkpt lat="-27.006032" lon="-48.62189"><ele>5.2</ele></trkpt><trkpt lat="-27.006032" lon="-48.62189"><ele>5.2</ele></trkpt><trkpt lat="-27.006032" lon="-48.62189"><ele>5.2</ele></trkpt><trkpt lat="-27.006032" lon="-48.62189"><ele>5.2</ele></trkpt><trkpt lat="-27.006032" lon="-48.62189"><ele>5.2</ele></trkpt><trkpt lat="-27.006032" lon="-48.62189"><ele>5.2</ele></trkpt><trkpt lat="-27.006032" lon="-48.62189"><ele>5.2</ele></trkpt><trkpt lat="-27.006058" lon="-48.621868"><ele>7.7</ele></trkpt><trkpt lat="-27.006062" lon="-48.62187"><ele>7.7</ele></trkpt><trkpt lat="-27.006065" lon="-48.621872"><ele>7.9</ele></trkpt><trkpt lat="-27.00607" lon="-48.621873"><ele>8</ele></trkpt><trkpt lat="-27.006073" lon="-48.621872"><ele>7.8</ele></trkpt><trkpt lat="-27.006072" lon="-48.621872"><ele>7.8</ele></trkpt><trkpt lat="-27.006072" lon="-48.621872"><ele>7.8</ele></trkpt><trkpt lat="-27.006072" lon="-48.621872"><ele>7.8</ele></trkpt><trkpt lat="-27.006072" lon="-48.621872"><ele>7.8</ele></trkpt><trkpt lat="-27.006072" lon="-48.621872"><ele>7.8</ele></trkpt><trkpt lat="-27.006072" lon="-48.621872"><ele>7.8</ele></trkpt><trkpt lat="-27.006072" lon="-48.621872"><ele>7.8</ele></trkpt><trkpt lat="-27.006072" lon="-48.621872"><ele>7.8</ele></trkpt><trkpt lat="-27.006072" lon="-48.621872"><ele>7.8</ele></trkpt><trkpt lat="-27.006072" lon="-48.621872"><ele>7.8</ele></trkpt><trkpt lat="-27.006072" lon="-48.621872"><ele>7.8</ele></trkpt><trkpt lat="-27.006072" lon="-48.621872"><ele>7.8</ele></trkpt><trkpt lat="-27.006072" lon="-48.621872"><ele>7.8</ele></trkpt><trkpt lat="-27.006023" lon="-48.621883"><ele>8.1</ele></trkpt><trkpt lat="-27.00602" lon="-48.621875"><ele>8</ele></trkpt><trkpt lat="-27.006013" lon="-48.62187"><ele>7.8</ele></trkpt><trkpt lat="-27.006007" lon="-48.621868"><ele>7.6</ele></trkpt><trkpt lat="-27.006002" lon="-48.621865"><ele>7.3</ele></trkpt><trkpt lat="-27.006" lon="-48.621865"><ele>7</ele></trkpt><trkpt lat="-27.005998" lon="-48.621865"><ele>7</ele></trkpt><trkpt lat="-27.006" lon="-48.621865"><ele>6.8</ele></trkpt><trkpt lat="-27.006003" lon="-48.621867"><ele>6.3</ele></trkpt><trkpt lat="-27.00601" lon="-48.621872"><ele>6.2</ele></trkpt><trkpt lat="-27.006022" lon="-48.621877"><ele>5.7</ele></trkpt><trkpt lat="-27.006038" lon="-48.621887"><ele>5.5</ele></trkpt><trkpt lat="-27.006055" lon="-48.621897"><ele>5.5</ele></trkpt><trkpt lat="-27.006073" lon="-48.621905"><ele>5.5</ele></trkpt><trkpt lat="-27.006088" lon="-48.621913"><ele>5.6</ele></trkpt><trkpt lat="-27.006103" lon="-48.621918"><ele>5.5</ele></trkpt><trkpt lat="-27.006112" lon="-48.621912"><ele>5.6</ele></trkpt><trkpt lat="-27.006115" lon="-48.621902"><ele>5.6</ele></trkpt><trkpt lat="-27.006112" lon="-48.621895"><ele>5.4</ele></trkpt><trkpt lat="-27.006097" lon="-48.621893"><ele>5.2</ele></trkpt><trkpt lat="-27.006078" lon="-48.621885"><ele>5.6</ele></trkpt><trkpt lat="-27.006058" lon="-48.621873"><ele>5.2</ele></trkpt><trkpt lat="-27.006035" lon="-48.621858"><ele>5.1</ele></trkpt><trkpt lat="-27.006012" lon="-48.621845"><ele>5</ele></trkpt><trkpt lat="-27.005987" lon="-48.62183"><ele>4.8</ele></trkpt><trkpt lat="-27.00596" lon="-48.621815"><ele>4.7</ele></trkpt><trkpt lat="-27.005933" lon="-48.6218"><ele>4</ele></trkpt><trkpt lat="-27.005907" lon="-48.621785"><ele>3.3</ele></trkpt><trkpt lat="-27.00588" lon="-48.621772"><ele>3</ele></trkpt><trkpt lat="-27.005853" lon="-48.621757"><ele>3.1</ele></trkpt><trkpt lat="-27.005825" lon="-48.621742"><ele>2.8</ele></trkpt><trkpt lat="-27.005797" lon="-48.621728"><ele>2.6</ele></trkpt><trkpt lat="-27.005772" lon="-48.621717"><ele>2.9</ele></trkpt><trkpt lat="-27.005748" lon="-48.621705"><ele>3.2</ele></trkpt><trkpt lat="-27.005725" lon="-48.621693"><ele>3.1</ele></trkpt><trkpt lat="-27.005703" lon="-48.621682"><ele>2.8</ele></trkpt><trkpt lat="-27.005683" lon="-48.621667"><ele>2.6</ele></trkpt><trkpt lat="-27.005663" lon="-48.621653"><ele>2.4</ele></trkpt><trkpt lat="-27.005638" lon="-48.621642"><ele>2.7</ele></trkpt><trkpt lat="-27.005615" lon="-48.621632"><ele>2.5</ele></trkpt><trkpt lat="-27.005593" lon="-48.621623"><ele>2.5</ele></trkpt><trkpt lat="-27.005578" lon="-48.621617"><ele>2.6</ele></trkpt><trkpt lat="-27.005567" lon="-48.621618"><ele>3.8</ele></trkpt><trkpt lat="-27.005565" lon="-48.621617"><ele>3.4</ele></trkpt><trkpt lat="-27.005563" lon="-48.621627"><ele>3.3</ele></trkpt><trkpt lat="-27.005563" lon="-48.621632"><ele>3.4</ele></trkpt><trkpt lat="-27.005562" lon="-48.621637"><ele>3.6</ele></trkpt><trkpt lat="-27.005562" lon="-48.62164"><ele>3.8</ele></trkpt><trkpt lat="-27.00556" lon="-48.62164"><ele>3.5</ele></trkpt><trkpt lat="-27.00556" lon="-48.621642"><ele>3.8</ele></trkpt><trkpt lat="-27.00556" lon="-48.621647"><ele>4</ele></trkpt><trkpt lat="-27.005558" lon="-48.621652"><ele>4.3</ele></trkpt><trkpt lat="-27.005558" lon="-48.621657"><ele>4.5</ele></trkpt><trkpt lat="-27.005558" lon="-48.621657"><ele>4.5</ele></trkpt><trkpt lat="-27.005558" lon="-48.621657"><ele>4.5</ele></trkpt><trkpt lat="-27.005558" lon="-48.621657"><ele>4.5</ele></trkpt><trkpt lat="-27.005558" lon="-48.621657"><ele>4.5</ele></trkpt><trkpt lat="-27.005558" lon="-48.621657"><ele>4.5</ele></trkpt><trkpt lat="-27.005558" lon="-48.621657"><ele>4.5</ele></trkpt><trkpt lat="-27.005558" lon="-48.621657"><ele>4.5</ele></trkpt><trkpt lat="-27.005558" lon="-48.621657"><ele>4.5</ele></trkpt><trkpt lat="-27.005558" lon="-48.621657"><ele>4.5</ele></trkpt><trkpt lat="-27.005558" lon="-48.621657"><ele>4.5</ele></trkpt><trkpt lat="-27.005558" lon="-48.621657"><ele>4.5</ele></trkpt><trkpt lat="-27.005558" lon="-48.621657"><ele>4.5</ele></trkpt><trkpt lat="-27.005558" lon="-48.621657"><ele>4.5</ele></trkpt><trkpt lat="-27.005558" lon="-48.621657"><ele>4.5</ele></trkpt><trkpt lat="-27.005558" lon="-48.621657"><ele>4.5</ele></trkpt><trkpt lat="-27.005558" lon="-48.621657"><ele>4.5</ele></trkpt><trkpt lat="-27.005558" lon="-48.621657"><ele>4.5</ele></trkpt><trkpt lat="-27.005558" lon="-48.621657"><ele>4.5</ele></trkpt><trkpt lat="-27.005558" lon="-48.621657"><ele>4.5</ele></trkpt><trkpt lat="-27.005558" lon="-48.621657"><ele>4.5</ele></trkpt><trkpt lat="-27.005558" lon="-48.621657"><ele>4.5</ele></trkpt><trkpt lat="-27.005558" lon="-48.621657"><ele>4.5</ele></trkpt><trkpt lat="-27.005558" lon="-48.621657"><ele>4.5</ele></trkpt><trkpt lat="-27.005558" lon="-48.621657"><ele>4.5</ele></trkpt><trkpt lat="-27.005558" lon="-48.621657"><ele>4.5</ele></trkpt><trkpt lat="-27.005558" lon="-48.621657"><ele>4.5</ele></trkpt><trkpt lat="-27.005558" lon="-48.621657"><ele>4.5</ele></trkpt><trkpt lat="-27.005558" lon="-48.621657"><ele>4.5</ele></trkpt><trkpt lat="-27.005558" lon="-48.621657"><ele>4.5</ele></trkpt><trkpt lat="-27.005558" lon="-48.621657"><ele>4.5</ele></trkpt><trkpt lat="-27.005558" lon="-48.621657"><ele>4.5</ele></trkpt><trkpt lat="-27.005558" lon="-48.621657"><ele>4.5</ele></trkpt><trkpt lat="-27.005558" lon="-48.621657"><ele>4.5</ele></trkpt><trkpt lat="-27.005558" lon="-48.621657"><ele>4.5</ele></trkpt><trkpt lat="-27.005558" lon="-48.621657"><ele>4.5</ele></trkpt><trkpt lat="-27.005558" lon="-48.621657"><ele>4.5</ele></trkpt><trkpt lat="-27.005558" lon="-48.621657"><ele>4.5</ele></trkpt><trkpt lat="-27.005558" lon="-48.621657"><ele>4.5</ele></trkpt><trkpt lat="-27.005558" lon="-48.621657"><ele>4.5</ele></trkpt><trkpt lat="-27.005558" lon="-48.621657"><ele>4.5</ele></trkpt><trkpt lat="-27.005558" lon="-48.621657"><ele>4.5</ele></trkpt><trkpt lat="-27.005558" lon="-48.621657"><ele>4.5</ele></trkpt><trkpt lat="-27.005532" lon="-48.62163"><ele>4.1</ele></trkpt><trkpt lat="-27.005527" lon="-48.621623"><ele>4</ele></trkpt><trkpt lat="-27.005523" lon="-48.621622"><ele>4</ele></trkpt><trkpt lat="-27.005523" lon="-48.621618"><ele>3.8</ele></trkpt><trkpt lat="-27.005533" lon="-48.621622"><ele>3.8</ele></trkpt><trkpt lat="-27.005543" lon="-48.621622"><ele>3.6</ele></trkpt><trkpt lat="-27.005553" lon="-48.621623"><ele>3.5</ele></trkpt><trkpt lat="-27.00556" lon="-48.621623"><ele>3.3</ele></trkpt><trkpt lat="-27.005573" lon="-48.621625"><ele>3.2</ele></trkpt><trkpt lat="-27.005587" lon="-48.62163"><ele>3.2</ele></trkpt><trkpt lat="-27.005603" lon="-48.621642"><ele>3.1</ele></trkpt><trkpt lat="-27.005625" lon="-48.621652"><ele>3.1</ele></trkpt><trkpt lat="-27.005645" lon="-48.62167"><ele>4.3</ele></trkpt><trkpt lat="-27.005663" lon="-48.62169"><ele>5</ele></trkpt><trkpt lat="-27.005677" lon="-48.621715"><ele>5.2</ele></trkpt><trkpt lat="-27.005697" lon="-48.62173"><ele>5.2</ele></trkpt><trkpt lat="-27.005718" lon="-48.621747"><ele>5.3</ele></trkpt><trkpt lat="-27.005748" lon="-48.621752"><ele>5.7</ele></trkpt><trkpt lat="-27.005778" lon="-48.62176"><ele>5.7</ele></trkpt><trkpt lat="-27.005808" lon="-48.621772"><ele>5.6</ele></trkpt><trkpt lat="-27.005837" lon="-48.621782"><ele>6</ele></trkpt><trkpt lat="-27.00586" lon="-48.62179"><ele>5.9</ele></trkpt><trkpt lat="-27.005877" lon="-48.621795"><ele>5.6</ele></trkpt><trkpt lat="-27.005887" lon="-48.6218"><ele>5.5</ele></trkpt><trkpt lat="-27.0059" lon="-48.621802"><ele>5.6</ele></trkpt><trkpt lat="-27.00591" lon="-48.6218"><ele>5.5</ele></trkpt><trkpt lat="-27.005915" lon="-48.621797"><ele>5.5</ele></trkpt><trkpt lat="-27.005915" lon="-48.62179"><ele>5.5</ele></trkpt><trkpt lat="-27.005912" lon="-48.621785"><ele>5.3</ele></trkpt><trkpt lat="-27.005913" lon="-48.621783"><ele>5.2</ele></trkpt><trkpt lat="-27.005913" lon="-48.621783"><ele>4.8</ele></trkpt><trkpt lat="-27.005915" lon="-48.62178"><ele>4.3</ele></trkpt><trkpt lat="-27.005917" lon="-48.62178"><ele>4.1</ele></trkpt><trkpt lat="-27.005918" lon="-48.62178"><ele>4</ele></trkpt><trkpt lat="-27.005918" lon="-48.621778"><ele>3.7</ele></trkpt><trkpt lat="-27.005918" lon="-48.621778"><ele>3.7</ele></trkpt><trkpt lat="-27.00592" lon="-48.62178"><ele>3.4</ele></trkpt><trkpt lat="-27.00592" lon="-48.62178"><ele>3.4</ele></trkpt><trkpt lat="-27.00592" lon="-48.62178"><ele>3.4</ele></trkpt><trkpt lat="-27.00592" lon="-48.62178"><ele>3.4</ele></trkpt><trkpt lat="-27.00592" lon="-48.62178"><ele>3.4</ele></trkpt><trkpt lat="-27.00592" lon="-48.62178"><ele>3.4</ele></trkpt><trkpt lat="-27.00592" lon="-48.62178"><ele>3.4</ele></trkpt><trkpt lat="-27.00592" lon="-48.62178"><ele>3.4</ele></trkpt><trkpt lat="-27.00592" lon="-48.62178"><ele>3.4</ele></trkpt><trkpt lat="-27.00592" lon="-48.62178"><ele>3.4</ele></trkpt><trkpt lat="-27.00592" lon="-48.62178"><ele>3.4</ele></trkpt><trkpt lat="-27.00592" lon="-48.62178"><ele>3.4</ele></trkpt><trkpt lat="-27.00592" lon="-48.62178"><ele>3.4</ele></trkpt><trkpt lat="-27.00592" lon="-48.62178"><ele>3.4</ele></trkpt><trkpt lat="-27.00592" lon="-48.62178"><ele>3.4</ele></trkpt><trkpt lat="-27.00592" lon="-48.62178"><ele>3.4</ele></trkpt><trkpt lat="-27.00592" lon="-48.62178"><ele>3.4</ele></trkpt><trkpt lat="-27.00592" lon="-48.62178"><ele>3.4</ele></trkpt><trkpt lat="-27.00592" lon="-48.62178"><ele>3.4</ele></trkpt><trkpt lat="-27.00592" lon="-48.62178"><ele>3.4</ele></trkpt><trkpt lat="-27.00592" lon="-48.62178"><ele>3.4</ele></trkpt><trkpt lat="-27.00592" lon="-48.62178"><ele>3.4</ele></trkpt><trkpt lat="-27.00592" lon="-48.62178"><ele>3.4</ele></trkpt><trkpt lat="-27.00592" lon="-48.62178"><ele>3.4</ele></trkpt><trkpt lat="-27.00592" lon="-48.62178"><ele>3.4</ele></trkpt><trkpt lat="-27.00592" lon="-48.62178"><ele>3.4</ele></trkpt><trkpt lat="-27.00592" lon="-48.62178"><ele>3.4</ele></trkpt><trkpt lat="-27.00592" lon="-48.62178"><ele>3.4</ele></trkpt><trkpt lat="-27.00592" lon="-48.62178"><ele>3.4</ele></trkpt><trkpt lat="-27.00592" lon="-48.62178"><ele>3.4</ele></trkpt><trkpt lat="-27.00592" lon="-48.62178"><ele>3.4</ele></trkpt><trkpt lat="-27.00592" lon="-48.62178"><ele>3.4</ele></trkpt><trkpt lat="-27.00592" lon="-48.62178"><ele>3.4</ele></trkpt><trkpt lat="-27.00592" lon="-48.62178"><ele>3.4</ele></trkpt><trkpt lat="-27.00592" lon="-48.62178"><ele>3.4</ele></trkpt><trkpt lat="-27.00592" lon="-48.62178"><ele>3.4</ele></trkpt><trkpt lat="-27.00592" lon="-48.62178"><ele>3.4</ele></trkpt><trkpt lat="-27.00592" lon="-48.62178"><ele>3.4</ele></trkpt><trkpt lat="-27.00592" lon="-48.62178"><ele>3.4</ele></trkpt><trkpt lat="-27.00592" lon="-48.62178"><ele>3.4</ele></trkpt><trkpt lat="-27.00592" lon="-48.62178"><ele>3.4</ele></trkpt><trkpt lat="-27.00592" lon="-48.62178"><ele>3.4</ele></trkpt><trkpt lat="-27.00592" lon="-48.62178"><ele>3.4</ele></trkpt><trkpt lat="-27.00592" lon="-48.62178"><ele>3.4</ele></trkpt><trkpt lat="-27.00592" lon="-48.62178"><ele>3.4</ele></trkpt><trkpt lat="-27.00592" lon="-48.62178"><ele>3.4</ele></trkpt><trkpt lat="-27.00592" lon="-48.62178"><ele>3.4</ele></trkpt><trkpt lat="-27.00592" lon="-48.62178"><ele>3.4</ele></trkpt><trkpt lat="-27.00592" lon="-48.62178"><ele>3.4</ele></trkpt><trkpt lat="-27.00592" lon="-48.62178"><ele>3.4</ele></trkpt><trkpt lat="-27.00592" lon="-48.62178"><ele>3.4</ele></trkpt><trkpt lat="-27.00592" lon="-48.62178"><ele>3.4</ele></trkpt><trkpt lat="-27.00592" lon="-48.62178"><ele>3.4</ele></trkpt><trkpt lat="-27.00592" lon="-48.62178"><ele>3.4</ele></trkpt><trkpt lat="-27.00592" lon="-48.62178"><ele>3.4</ele></trkpt><trkpt lat="-27.00592" lon="-48.62178"><ele>3.4</ele></trkpt><trkpt lat="-27.00592" lon="-48.62178"><ele>3.4</ele></trkpt><trkpt lat="-27.00592" lon="-48.62178"><ele>3.4</ele></trkpt><trkpt lat="-27.00592" lon="-48.62178"><ele>3.4</ele></trkpt><trkpt lat="-27.00592" lon="-48.62178"><ele>3.4</ele></trkpt><trkpt lat="-27.00592" lon="-48.62178"><ele>3.4</ele></trkpt><trkpt lat="-27.00592" lon="-48.62178"><ele>3.4</ele></trkpt><trkpt lat="-27.00592" lon="-48.62178"><ele>3.4</ele></trkpt><trkpt lat="-27.00592" lon="-48.62178"><ele>3.4</ele></trkpt><trkpt lat="-27.00592" lon="-48.62178"><ele>3.4</ele></trkpt><trkpt lat="-27.00592" lon="-48.62178"><ele>3.4</ele></trkpt><trkpt lat="-27.00592" lon="-48.62178"><ele>3.4</ele></trkpt><trkpt lat="-27.00592" lon="-48.62178"><ele>3.4</ele></trkpt><trkpt lat="-27.00592" lon="-48.62178"><ele>3.4</ele></trkpt><trkpt lat="-27.00592" lon="-48.62178"><ele>3.4</ele></trkpt><trkpt lat="-27.00592" lon="-48.62178"><ele>3.4</ele></trkpt><trkpt lat="-27.00592" lon="-48.62178"><ele>3.4</ele></trkpt><trkpt lat="-27.00592" lon="-48.62178"><ele>3.4</ele></trkpt><trkpt lat="-27.00592" lon="-48.62178"><ele>3.4</ele></trkpt><trkpt lat="-27.00592" lon="-48.62178"><ele>3.4</ele></trkpt><trkpt lat="-27.00592" lon="-48.62178"><ele>3.4</ele></trkpt><trkpt lat="-27.00592" lon="-48.62178"><ele>3.4</ele></trkpt><trkpt lat="-27.00592" lon="-48.62178"><ele>3.4</ele></trkpt><trkpt lat="-27.00592" lon="-48.62178"><ele>3.4</ele></trkpt><trkpt lat="-27.00592" lon="-48.62178"><ele>3.4</ele></trkpt><trkpt lat="-27.00592" lon="-48.62178"><ele>3.4</ele></trkpt><trkpt lat="-27.00592" lon="-48.62178"><ele>3.4</ele></trkpt><trkpt lat="-27.00592" lon="-48.62178"><ele>3.4</ele></trkpt><trkpt lat="-27.00592" lon="-48.62178"><ele>3.4</ele></trkpt><trkpt lat="-27.00592" lon="-48.62178"><ele>3.4</ele></trkpt><trkpt lat="-27.00592" lon="-48.62178"><ele>3.4</ele></trkpt><trkpt lat="-27.00592" lon="-48.62178"><ele>3.4</ele></trkpt><trkpt lat="-27.00592" lon="-48.62178"><ele>3.4</ele></trkpt><trkpt lat="-27.00592" lon="-48.62178"><ele>3.4</ele></trkpt></trkseg></trk></gpx>