<?xml version="1.0" encoding="UTF-8"?>
<gpx xmlns="http://www.topografix.com/GPX/1/1" version="1.1" creator="@dwayneparton/geojson-to-gpx"><wpt lat="-26.95624" lon="-48.63292499999999"><ele>7.6</ele><name>2 faixas</name></wpt><wpt lat="-26.956273333333336" lon="-48.63289833333333"><ele>5.7</ele><name>210</name></wpt><wpt lat="-26.956276666666668" lon="-48.632916666666674"><ele>3.3</ele><name>25</name></wpt><wpt lat="-26.956295" lon="-48.63244833333333"><ele>8.4</ele><name>A ciclo é completamente reta.</name></wpt><wpt lat="-26.956313333333334" lon="-48.63242833333334"><ele>6.3</ele><name>A pintura está boa, COMPLETA e visível</name></wpt><wpt lat="-26.956265" lon="-48.63294333333333"><ele>5.4</ele><name>Apenas faixas vermelhas nas bordas</name></wpt><wpt lat="-26.956276666666668" lon="-48.632916666666674"><ele>3.3</ele><name>Área de amortecimento da ciclo (cm)</name></wpt><wpt lat="-26.956271666666666" lon="-48.63289499999999"><ele>5.5</ele><name>Área transitável da ciclo (cm)</name></wpt><wpt lat="-26.956265" lon="-48.63294333333333"><ele>5.4</ele><name>Asfalto</name></wpt><wpt lat="-26.95624" lon="-48.63292499999999"><ele>7.6</ele><name>Ausência de conexão entre ciclos.</name></wpt><wpt lat="-26.956274999999998" lon="-48.63290666666667"><ele>7</ele><name>Bidirecional</name></wpt><wpt lat="-26.956313333333334" lon="-48.63242833333334"><ele>6.3</ele><name>Bom estado</name></wpt><wpt lat="-26.95627833333333" lon="-48.632506666666664"><ele>8.4</ele><name>Bueiro</name></wpt><wpt lat="-26.956276666666668" lon="-48.632909999999995"><ele>6.8</ele><name>Ciclofaixa</name></wpt><wpt lat="-26.95624" lon="-48.63292499999999"><ele>7.6</ele><name>Estacionamento proibido na via</name></wpt><wpt lat="-26.956348333333334" lon="-48.63301333333334"><ele>7.8</ele><name>Foto</name></wpt><wpt lat="-26.95626333333333" lon="-48.63294333333333"><ele>10.5</ele><name>Foto</name></wpt><wpt lat="-26.95625" lon="-48.63292666666666"><ele>10</ele><name>Foto</name></wpt><wpt lat="-26.95626666666667" lon="-48.632686666666665"><ele>9.5</ele><name>Foto</name></wpt><wpt lat="-26.956316666666666" lon="-48.632490000000004"><ele>7.7</ele><name>Foto</name></wpt><wpt lat="-26.956274999999998" lon="-48.632508333333334"><ele>8.1</ele><name>Foto</name></wpt><wpt lat="-26.956313333333334" lon="-48.63242833333334"><ele>6.3</ele><name>Iluminação geral dos dois lados da via</name></wpt><wpt lat="-26.956265" lon="-48.63294333333333"><ele>5.4</ele><name>Mão Dupla</name></wpt><wpt lat="-26.956295" lon="-48.63244833333333"><ele>8.4</ele><name>Não há árvores nem mudas</name></wpt><wpt lat="-26.95631166666667" lon="-48.63246666666667"><ele>7.7</ele><name>Nenhum elemento de controle de velocidade na via</name></wpt><wpt lat="-26.95625166666667" lon="-48.63292666666666"><ele>6.9</ele><name>No bordo esquerdo de Via de Mão Única</name></wpt><wpt lat="-26.956255000000002" lon="-48.63293166666667"><ele>10.3</ele><name>R-34</name></wpt><wpt lat="-26.956271666666666" lon="-48.632733333333334"><ele>7.9</ele><name>R-34</name></wpt><wpt lat="-26.956295" lon="-48.63244833333333"><ele>8.4</ele><name>SE CICLOFAIXA: para invadir a ciclo parte do automóvel passa obrigatoriamente por cima de segregadores</name></wpt><wpt lat="-26.956265" lon="-48.63294333333333"><ele>5.4</ele><name>Tachões</name></wpt><trk><name>Ciclofaixa Av. Carlos Drummond de Andrade - BC</name><trkseg><trkpt lat="-26.956205" lon="-48.632813333333324"><ele>13.3</ele></trkpt><trkpt lat="-26.956265" lon="-48.63274833333333"><ele>11.4</ele></trkpt><trkpt lat="-26.956253333333333" lon="-48.632846666666666"><ele>10.6</ele></trkpt><trkpt lat="-26.95629" lon="-48.632909999999995"><ele>9.5</ele></trkpt><trkpt lat="-26.95628333333333" lon="-48.63289833333333"><ele>9.1</ele></trkpt><trkpt lat="-26.95627833333333" lon="-48.63289833333333"><ele>8.6</ele></trkpt><trkpt lat="-26.95627833333333" lon="-48.632901666666676"><ele>8.3</ele></trkpt><trkpt lat="-26.95628" lon="-48.63290833333334"><ele>8</ele></trkpt><trkpt lat="-26.95628166666667" lon="-48.632913333333335"><ele>8.1</ele></trkpt><trkpt lat="-26.95627833333333" lon="-48.63292"><ele>8</ele></trkpt><trkpt lat="-26.956271666666666" lon="-48.63292499999999"><ele>7.9</ele></trkpt><trkpt lat="-26.956270000000004" lon="-48.63292833333333"><ele>7.6</ele></trkpt><trkpt lat="-26.956268333333334" lon="-48.63292833333333"><ele>7.5</ele></trkpt><trkpt lat="-26.95626666666667" lon="-48.63293166666667"><ele>7.5</ele></trkpt><trkpt lat="-26.95626666666667" lon="-48.63293333333333"><ele>7.3</ele></trkpt><trkpt lat="-26.956268333333334" lon="-48.63293333333333"><ele>7.2</ele></trkpt><trkpt lat="-26.956268333333334" lon="-48.632934999999996"><ele>7.2</ele></trkpt><trkpt lat="-26.956268333333334" lon="-48.63293333333333"><ele>7</ele></trkpt><trkpt lat="-26.95626666666667" lon="-48.63293166666667"><ele>7</ele></trkpt><trkpt lat="-26.95626666666667" lon="-48.63293166666667"><ele>7</ele></trkpt><trkpt lat="-26.95626666666667" lon="-48.63293166666667"><ele>7</ele></trkpt><trkpt lat="-26.956268333333334" lon="-48.63292833333333"><ele>6.9</ele></trkpt><trkpt lat="-26.95628" lon="-48.63292"><ele>6.8</ele></trkpt><trkpt lat="-26.95628" lon="-48.632916666666674"><ele>6.8</ele></trkpt><trkpt lat="-26.95627833333333" lon="-48.632911666666665"><ele>6.8</ele></trkpt><trkpt lat="-26.956276666666668" lon="-48.632909999999995"><ele>6.8</ele></trkpt><trkpt lat="-26.956276666666668" lon="-48.632909999999995"><ele>6.8</ele></trkpt><trkpt lat="-26.956276666666668" lon="-48.632905"><ele>6.8</ele></trkpt><trkpt lat="-26.956274999999998" lon="-48.63290666666667"><ele>6.9</ele></trkpt><trkpt lat="-26.956274999999998" lon="-48.63290666666667"><ele>7</ele></trkpt><trkpt lat="-26.956274999999998" lon="-48.63290666666667"><ele>7</ele></trkpt><trkpt lat="-26.956273333333336" lon="-48.632909999999995"><ele>7.1</ele></trkpt><trkpt lat="-26.956271666666666" lon="-48.632911666666665"><ele>7.3</ele></trkpt><trkpt lat="-26.956271666666666" lon="-48.632913333333335"><ele>7.5</ele></trkpt><trkpt lat="-26.956270000000004" lon="-48.632915000000004"><ele>7.7</ele></trkpt><trkpt lat="-26.956270000000004" lon="-48.632916666666674"><ele>7.7</ele></trkpt><trkpt lat="-26.956268333333334" lon="-48.632915000000004"><ele>7.7</ele></trkpt><trkpt lat="-26.95626666666667" lon="-48.632915000000004"><ele>7.6</ele></trkpt><trkpt lat="-26.956265" lon="-48.632915000000004"><ele>7.4</ele></trkpt><trkpt lat="-26.95626333333333" lon="-48.632916666666674"><ele>7.2</ele></trkpt><trkpt lat="-26.956258333333334" lon="-48.63292"><ele>7.2</ele></trkpt><trkpt lat="-26.956255000000002" lon="-48.63292166666667"><ele>7.2</ele></trkpt><trkpt lat="-26.956253333333333" lon="-48.63292333333334"><ele>7.1</ele></trkpt><trkpt lat="-26.95625166666667" lon="-48.63292499999999"><ele>7.1</ele></trkpt><trkpt lat="-26.95625166666667" lon="-48.63292499999999"><ele>7</ele></trkpt><trkpt lat="-26.95625166666667" lon="-48.63292666666666"><ele>6.9</ele></trkpt><trkpt lat="-26.95625166666667" lon="-48.63292666666666"><ele>6.9</ele></trkpt><trkpt lat="-26.95625166666667" lon="-48.63292666666666"><ele>6.8</ele></trkpt><trkpt lat="-26.956253333333333" lon="-48.63292833333333"><ele>6.8</ele></trkpt><trkpt lat="-26.956253333333333" lon="-48.63293"><ele>6.6</ele></trkpt><trkpt lat="-26.956253333333333" lon="-48.63293166666667"><ele>6.5</ele></trkpt><trkpt lat="-26.956255000000002" lon="-48.63293333333333"><ele>6.3</ele></trkpt><trkpt lat="-26.956256666666665" lon="-48.632934999999996"><ele>6.2</ele></trkpt><trkpt lat="-26.956256666666665" lon="-48.632936666666666"><ele>6</ele></trkpt><trkpt lat="-26.956258333333334" lon="-48.632938333333335"><ele>5.9</ele></trkpt><trkpt lat="-26.956258333333334" lon="-48.632938333333335"><ele>5.7</ele></trkpt><trkpt lat="-26.956259999999997" lon="-48.63293999999999"><ele>5.6</ele></trkpt><trkpt lat="-26.956261666666666" lon="-48.63294166666666"><ele>5.5</ele></trkpt><trkpt lat="-26.956265" lon="-48.63294333333333"><ele>5.4</ele></trkpt><trkpt lat="-26.956265" lon="-48.63294333333333"><ele>5.4</ele></trkpt><trkpt lat="-26.956265" lon="-48.63294333333333"><ele>5.4</ele></trkpt><trkpt lat="-26.956265" lon="-48.63294333333333"><ele>5.4</ele></trkpt><trkpt lat="-26.956265" lon="-48.63294333333333"><ele>5.4</ele></trkpt><trkpt lat="-26.956265" lon="-48.63294333333333"><ele>5.4</ele></trkpt><trkpt lat="-26.956265" lon="-48.63294333333333"><ele>5.4</ele></trkpt><trkpt lat="-26.956265" lon="-48.63294333333333"><ele>5.4</ele></trkpt><trkpt lat="-26.956265" lon="-48.63294333333333"><ele>5.4</ele></trkpt><trkpt lat="-26.956265" lon="-48.63294333333333"><ele>5.4</ele></trkpt><trkpt lat="-26.956265" lon="-48.63294333333333"><ele>5.4</ele></trkpt><trkpt lat="-26.956265" lon="-48.63294333333333"><ele>5.4</ele></trkpt><trkpt lat="-26.956265" lon="-48.63294333333333"><ele>5.4</ele></trkpt><trkpt lat="-26.956265" lon="-48.63294333333333"><ele>5.4</ele></trkpt><trkpt lat="-26.956265" lon="-48.63294333333333"><ele>5.4</ele></trkpt><trkpt lat="-26.956265" lon="-48.63294333333333"><ele>5.4</ele></trkpt><trkpt lat="-26.956265" lon="-48.63294333333333"><ele>5.4</ele></trkpt><trkpt lat="-26.956265" lon="-48.63294333333333"><ele>5.4</ele></trkpt><trkpt lat="-26.956265" lon="-48.63294333333333"><ele>5.4</ele></trkpt><trkpt lat="-26.956265" lon="-48.63294333333333"><ele>5.4</ele></trkpt><trkpt lat="-26.956265" lon="-48.63294333333333"><ele>5.4</ele></trkpt><trkpt lat="-26.956265" lon="-48.63294333333333"><ele>5.4</ele></trkpt><trkpt lat="-26.956265" lon="-48.63294333333333"><ele>5.4</ele></trkpt><trkpt lat="-26.956265" lon="-48.63294333333333"><ele>5.4</ele></trkpt><trkpt lat="-26.956265" lon="-48.63294333333333"><ele>5.4</ele></trkpt><trkpt lat="-26.956265" lon="-48.63294333333333"><ele>5.4</ele></trkpt><trkpt lat="-26.956265" lon="-48.63294333333333"><ele>5.4</ele></trkpt><trkpt lat="-26.956265" lon="-48.63294333333333"><ele>5.4</ele></trkpt><trkpt lat="-26.956265" lon="-48.63294333333333"><ele>5.4</ele></trkpt><trkpt lat="-26.956265" lon="-48.63294333333333"><ele>5.4</ele></trkpt><trkpt lat="-26.956265" lon="-48.63294333333333"><ele>5.4</ele></trkpt><trkpt lat="-26.956265" lon="-48.63294333333333"><ele>5.4</ele></trkpt><trkpt lat="-26.956265" lon="-48.63294333333333"><ele>5.4</ele></trkpt><trkpt lat="-26.956265" lon="-48.63294333333333"><ele>5.4</ele></trkpt><trkpt lat="-26.956265" lon="-48.63294333333333"><ele>5.4</ele></trkpt><trkpt lat="-26.956265" lon="-48.63294333333333"><ele>5.4</ele></trkpt><trkpt lat="-26.956265" lon="-48.63294333333333"><ele>5.4</ele></trkpt><trkpt lat="-26.95625166666667" lon="-48.63293"><ele>7.6</ele></trkpt><trkpt lat="-26.956245" lon="-48.63292666666666"><ele>7.4</ele></trkpt><trkpt lat="-26.956241666666664" lon="-48.63292666666666"><ele>7.4</ele></trkpt><trkpt lat="-26.95624" lon="-48.63292499999999"><ele>7.5</ele></trkpt><trkpt lat="-26.95624" lon="-48.63292499999999"><ele>7.6</ele></trkpt><trkpt lat="-26.95624" lon="-48.63292499999999"><ele>7.6</ele></trkpt><trkpt lat="-26.95624" lon="-48.63292499999999"><ele>7.6</ele></trkpt><trkpt lat="-26.95624" lon="-48.63292499999999"><ele>7.6</ele></trkpt><trkpt lat="-26.95624" lon="-48.63292499999999"><ele>7.6</ele></trkpt><trkpt lat="-26.95624" lon="-48.63292499999999"><ele>7.6</ele></trkpt><trkpt lat="-26.95624" lon="-48.63292499999999"><ele>7.6</ele></trkpt><trkpt lat="-26.95624" lon="-48.63292499999999"><ele>7.6</ele></trkpt><trkpt lat="-26.95624" lon="-48.63292499999999"><ele>7.6</ele></trkpt><trkpt lat="-26.95624" lon="-48.63292499999999"><ele>7.6</ele></trkpt><trkpt lat="-26.95624" lon="-48.63292499999999"><ele>7.6</ele></trkpt><trkpt lat="-26.95624" lon="-48.63292499999999"><ele>7.6</ele></trkpt><trkpt lat="-26.95624" lon="-48.63292499999999"><ele>7.6</ele></trkpt><trkpt lat="-26.95624" lon="-48.63292499999999"><ele>7.6</ele></trkpt><trkpt lat="-26.95624" lon="-48.63292499999999"><ele>7.6</ele></trkpt><trkpt lat="-26.95624" lon="-48.63292499999999"><ele>7.6</ele></trkpt><trkpt lat="-26.95624" lon="-48.63292499999999"><ele>7.6</ele></trkpt><trkpt lat="-26.95624" lon="-48.63292499999999"><ele>7.6</ele></trkpt><trkpt lat="-26.95624" lon="-48.63292499999999"><ele>7.6</ele></trkpt><trkpt lat="-26.95624" lon="-48.63292499999999"><ele>7.6</ele></trkpt><trkpt lat="-26.95624" lon="-48.63292499999999"><ele>7.6</ele></trkpt><trkpt lat="-26.95624" lon="-48.63292499999999"><ele>7.6</ele></trkpt><trkpt lat="-26.95624" lon="-48.63292499999999"><ele>7.6</ele></trkpt><trkpt lat="-26.95624" lon="-48.63292499999999"><ele>7.6</ele></trkpt><trkpt lat="-26.95624" lon="-48.63292499999999"><ele>7.6</ele></trkpt><trkpt lat="-26.95624" lon="-48.63292499999999"><ele>7.6</ele></trkpt><trkpt lat="-26.95624" lon="-48.63292499999999"><ele>7.6</ele></trkpt><trkpt lat="-26.95624" lon="-48.63292499999999"><ele>7.6</ele></trkpt><trkpt lat="-26.95624" lon="-48.63292499999999"><ele>7.6</ele></trkpt><trkpt lat="-26.95624" lon="-48.63292499999999"><ele>7.6</ele></trkpt><trkpt lat="-26.95624" lon="-48.63292499999999"><ele>7.6</ele></trkpt><trkpt lat="-26.95624" lon="-48.63292499999999"><ele>7.6</ele></trkpt><trkpt lat="-26.95624" lon="-48.63292499999999"><ele>7.6</ele></trkpt><trkpt lat="-26.95624" lon="-48.63292499999999"><ele>7.6</ele></trkpt><trkpt lat="-26.95624" lon="-48.63292499999999"><ele>7.6</ele></trkpt><trkpt lat="-26.95624" lon="-48.63292499999999"><ele>7.6</ele></trkpt><trkpt lat="-26.95624" lon="-48.63292499999999"><ele>7.6</ele></trkpt><trkpt lat="-26.95624" lon="-48.63292499999999"><ele>7.6</ele></trkpt><trkpt lat="-26.95624" lon="-48.63292499999999"><ele>7.6</ele></trkpt><trkpt lat="-26.95624" lon="-48.63292499999999"><ele>7.6</ele></trkpt><trkpt lat="-26.95624" lon="-48.63292499999999"><ele>7.6</ele></trkpt><trkpt lat="-26.95624" lon="-48.63292499999999"><ele>7.6</ele></trkpt><trkpt lat="-26.95624" lon="-48.63292499999999"><ele>7.6</ele></trkpt><trkpt lat="-26.95624" lon="-48.63292499999999"><ele>7.6</ele></trkpt><trkpt lat="-26.95624" lon="-48.63292499999999"><ele>7.6</ele></trkpt><trkpt lat="-26.95624" lon="-48.63292499999999"><ele>7.6</ele></trkpt><trkpt lat="-26.95624" lon="-48.63292499999999"><ele>7.6</ele></trkpt><trkpt lat="-26.95624" lon="-48.63292499999999"><ele>7.6</ele></trkpt><trkpt lat="-26.95624" lon="-48.63292499999999"><ele>7.6</ele></trkpt><trkpt lat="-26.95624" lon="-48.63292499999999"><ele>7.6</ele></trkpt><trkpt lat="-26.95624" lon="-48.63292499999999"><ele>7.6</ele></trkpt><trkpt lat="-26.95624" lon="-48.63292499999999"><ele>7.6</ele></trkpt><trkpt lat="-26.95624" lon="-48.63292499999999"><ele>7.6</ele></trkpt><trkpt lat="-26.95624" lon="-48.63292499999999"><ele>7.6</ele></trkpt><trkpt lat="-26.95624" lon="-48.63292499999999"><ele>7.6</ele></trkpt><trkpt lat="-26.95624" lon="-48.63292499999999"><ele>7.6</ele></trkpt><trkpt lat="-26.95624" lon="-48.63292499999999"><ele>7.6</ele></trkpt><trkpt lat="-26.95624" lon="-48.63292499999999"><ele>7.6</ele></trkpt><trkpt lat="-26.95624" lon="-48.63292499999999"><ele>7.6</ele></trkpt><trkpt lat="-26.95624" lon="-48.63292499999999"><ele>7.6</ele></trkpt><trkpt lat="-26.95624" lon="-48.63292499999999"><ele>7.6</ele></trkpt><trkpt lat="-26.95624" lon="-48.63292499999999"><ele>7.6</ele></trkpt><trkpt lat="-26.956286666666664" lon="-48.63293999999999"><ele>7.4</ele></trkpt><trkpt lat="-26.95629" lon="-48.632945"><ele>7.5</ele></trkpt><trkpt lat="-26.956295" lon="-48.632946666666676"><ele>7.5</ele></trkpt><trkpt lat="-26.956301666666665" lon="-48.63295166666667"><ele>7.4</ele></trkpt><trkpt lat="-26.95630833333333" lon="-48.63295333333334"><ele>7.3</ele></trkpt><trkpt lat="-26.956313333333334" lon="-48.63295166666667"><ele>7.3</ele></trkpt><trkpt lat="-26.956318333333336" lon="-48.63295"><ele>7.2</ele></trkpt><trkpt lat="-26.956321666666668" lon="-48.632945"><ele>7.2</ele></trkpt><trkpt lat="-26.956321666666668" lon="-48.63294166666666"><ele>7.2</ele></trkpt><trkpt lat="-26.956321666666668" lon="-48.632938333333335"><ele>7.3</ele></trkpt><trkpt lat="-26.95632333333333" lon="-48.632934999999996"><ele>7.3</ele></trkpt><trkpt lat="-26.956325" lon="-48.63293333333333"><ele>7.4</ele></trkpt><trkpt lat="-26.95632666666667" lon="-48.63292833333333"><ele>7.5</ele></trkpt><trkpt lat="-26.95632666666667" lon="-48.63292833333333"><ele>7.5</ele></trkpt><trkpt lat="-26.95632666666667" lon="-48.63292833333333"><ele>7.5</ele></trkpt><trkpt lat="-26.95632666666667" lon="-48.63292833333333"><ele>7.5</ele></trkpt><trkpt lat="-26.95632666666667" lon="-48.63292833333333"><ele>7.5</ele></trkpt><trkpt lat="-26.95632666666667" lon="-48.63292833333333"><ele>7.5</ele></trkpt><trkpt lat="-26.95632666666667" lon="-48.63292833333333"><ele>7.5</ele></trkpt><trkpt lat="-26.95632666666667" lon="-48.63292833333333"><ele>7.5</ele></trkpt><trkpt lat="-26.95632666666667" lon="-48.63292833333333"><ele>7.5</ele></trkpt><trkpt lat="-26.95632666666667" lon="-48.63292833333333"><ele>7.5</ele></trkpt><trkpt lat="-26.95632666666667" lon="-48.63292833333333"><ele>7.5</ele></trkpt><trkpt lat="-26.95632666666667" lon="-48.63292833333333"><ele>7.5</ele></trkpt><trkpt lat="-26.95632666666667" lon="-48.63292833333333"><ele>7.5</ele></trkpt><trkpt lat="-26.95632666666667" lon="-48.63292833333333"><ele>7.5</ele></trkpt><trkpt lat="-26.95632666666667" lon="-48.63292833333333"><ele>7.5</ele></trkpt><trkpt lat="-26.95632666666667" lon="-48.63292833333333"><ele>7.5</ele></trkpt><trkpt lat="-26.95632666666667" lon="-48.63292833333333"><ele>7.5</ele></trkpt><trkpt lat="-26.95632666666667" lon="-48.63292833333333"><ele>7.5</ele></trkpt><trkpt lat="-26.95632666666667" lon="-48.63292833333333"><ele>7.5</ele></trkpt><trkpt lat="-26.95632666666667" lon="-48.63292833333333"><ele>7.5</ele></trkpt><trkpt lat="-26.95632666666667" lon="-48.63292833333333"><ele>7.5</ele></trkpt><trkpt lat="-26.95632666666667" lon="-48.63292833333333"><ele>7.5</ele></trkpt><trkpt lat="-26.95632666666667" lon="-48.63292833333333"><ele>7.5</ele></trkpt><trkpt lat="-26.95632666666667" lon="-48.63292833333333"><ele>7.5</ele></trkpt><trkpt lat="-26.95632666666667" lon="-48.63292833333333"><ele>7.5</ele></trkpt><trkpt lat="-26.95635333333333" lon="-48.632954999999995"><ele>8.5</ele></trkpt><trkpt lat="-26.956358333333334" lon="-48.632961666666674"><ele>8.4</ele></trkpt><trkpt lat="-26.956361666666666" lon="-48.63296999999999"><ele>8.3</ele></trkpt><trkpt lat="-26.956364999999998" lon="-48.63297833333333"><ele>8.1</ele></trkpt><trkpt lat="-26.956364999999998" lon="-48.632983333333335"><ele>8</ele></trkpt><trkpt lat="-26.956363333333336" lon="-48.63299"><ele>7.8</ele></trkpt><trkpt lat="-26.956360000000004" lon="-48.63299666666667"><ele>7.6</ele></trkpt><trkpt lat="-26.956358333333334" lon="-48.632999999999996"><ele>7.5</ele></trkpt><trkpt lat="-26.95635666666667" lon="-48.633003333333335"><ele>7.3</ele></trkpt><trkpt lat="-26.95635333333333" lon="-48.633006666666674"><ele>7.5</ele></trkpt><trkpt lat="-26.95635333333333" lon="-48.63301"><ele>7.5</ele></trkpt><trkpt lat="-26.956351666666666" lon="-48.63301"><ele>7.5</ele></trkpt><trkpt lat="-26.956351666666666" lon="-48.63301166666667"><ele>7.7</ele></trkpt><trkpt lat="-26.956351666666666" lon="-48.63301333333334"><ele>7.9</ele></trkpt><trkpt lat="-26.956348333333334" lon="-48.63301333333334"><ele>7.8</ele></trkpt><trkpt lat="-26.956348333333334" lon="-48.63301333333334"><ele>7.8</ele></trkpt><trkpt lat="-26.956348333333334" lon="-48.63301333333334"><ele>7.8</ele></trkpt><trkpt lat="-26.956348333333334" lon="-48.63301333333334"><ele>7.8</ele></trkpt><trkpt lat="-26.956348333333334" lon="-48.63301333333334"><ele>7.8</ele></trkpt><trkpt lat="-26.956348333333334" lon="-48.63301333333334"><ele>7.8</ele></trkpt><trkpt lat="-26.956348333333334" lon="-48.63301333333334"><ele>7.8</ele></trkpt><trkpt lat="-26.956348333333334" lon="-48.63301333333334"><ele>7.8</ele></trkpt><trkpt lat="-26.95634" lon="-48.63300833333333"><ele>5.7</ele></trkpt><trkpt lat="-26.95633" lon="-48.63301"><ele>6.2</ele></trkpt><trkpt lat="-26.956316666666666" lon="-48.63301333333334"><ele>6.9</ele></trkpt><trkpt lat="-26.95630833333333" lon="-48.63301333333334"><ele>7.4</ele></trkpt><trkpt lat="-26.956301666666665" lon="-48.63302"><ele>7.8</ele></trkpt><trkpt lat="-26.95629" lon="-48.63301833333333"><ele>8.2</ele></trkpt><trkpt lat="-26.95627833333333" lon="-48.63301666666666"><ele>8.6</ele></trkpt><trkpt lat="-26.95626333333333" lon="-48.63301166666667"><ele>8.9</ele></trkpt><trkpt lat="-26.956255000000002" lon="-48.633005000000004"><ele>9.1</ele></trkpt><trkpt lat="-26.95625" lon="-48.632999999999996"><ele>9.8</ele></trkpt><trkpt lat="-26.95624666666667" lon="-48.63299666666667"><ele>10.4</ele></trkpt><trkpt lat="-26.956245" lon="-48.632993333333324"><ele>10.9</ele></trkpt><trkpt lat="-26.956241666666664" lon="-48.63298666666666"><ele>11.2</ele></trkpt><trkpt lat="-26.956245" lon="-48.632981666666666"><ele>11.1</ele></trkpt><trkpt lat="-26.956245" lon="-48.632975"><ele>11.1</ele></trkpt><trkpt lat="-26.95624833333333" lon="-48.63296666666667"><ele>11.2</ele></trkpt><trkpt lat="-26.95625" lon="-48.632965"><ele>11.4</ele></trkpt><trkpt lat="-26.95625166666667" lon="-48.632960000000004"><ele>11.1</ele></trkpt><trkpt lat="-26.956255000000002" lon="-48.632954999999995"><ele>11.1</ele></trkpt><trkpt lat="-26.956256666666665" lon="-48.63295333333334"><ele>11.1</ele></trkpt><trkpt lat="-26.956258333333334" lon="-48.63295333333334"><ele>11</ele></trkpt><trkpt lat="-26.95626333333333" lon="-48.63294333333333"><ele>10.5</ele></trkpt><trkpt lat="-26.95626333333333" lon="-48.63294333333333"><ele>10.5</ele></trkpt><trkpt lat="-26.95626666666667" lon="-48.63293999999999"><ele>10.4</ele></trkpt><trkpt lat="-26.956268333333334" lon="-48.63294166666666"><ele>10.3</ele></trkpt><trkpt lat="-26.95626333333333" lon="-48.63294333333333"><ele>10.4</ele></trkpt><trkpt lat="-26.95626333333333" lon="-48.63294333333333"><ele>10.4</ele></trkpt><trkpt lat="-26.95626333333333" lon="-48.63294333333333"><ele>10.4</ele></trkpt><trkpt lat="-26.956255000000002" lon="-48.63293166666667"><ele>10.3</ele></trkpt><trkpt lat="-26.956255000000002" lon="-48.63293166666667"><ele>10.3</ele></trkpt><trkpt lat="-26.956253333333333" lon="-48.63293"><ele>10.3</ele></trkpt><trkpt lat="-26.95625166666667" lon="-48.63292833333333"><ele>10.2</ele></trkpt><trkpt lat="-26.95625" lon="-48.63292666666666"><ele>10</ele></trkpt><trkpt lat="-26.95625" lon="-48.63292666666666"><ele>10</ele></trkpt><trkpt lat="-26.95625" lon="-48.63292666666666"><ele>10</ele></trkpt><trkpt lat="-26.95625" lon="-48.63292666666666"><ele>10</ele></trkpt><trkpt lat="-26.95625" lon="-48.63292666666666"><ele>10</ele></trkpt><trkpt lat="-26.95625" lon="-48.63292666666666"><ele>10</ele></trkpt><trkpt lat="-26.95625" lon="-48.63292666666666"><ele>10</ele></trkpt><trkpt lat="-26.95625" lon="-48.63292666666666"><ele>10</ele></trkpt><trkpt lat="-26.95625" lon="-48.63292666666666"><ele>10</ele></trkpt><trkpt lat="-26.95625" lon="-48.63292666666666"><ele>10</ele></trkpt><trkpt lat="-26.956256666666665" lon="-48.632901666666676"><ele>9.4</ele></trkpt><trkpt lat="-26.956256666666665" lon="-48.632893333333335"><ele>9.2</ele></trkpt><trkpt lat="-26.956255000000002" lon="-48.63288833333333"><ele>8.8</ele></trkpt><trkpt lat="-26.95625166666667" lon="-48.63288666666667"><ele>8.4</ele></trkpt><trkpt lat="-26.95624833333333" lon="-48.63287999999999"><ele>8</ele></trkpt><trkpt lat="-26.95625" lon="-48.63287833333334"><ele>7.3</ele></trkpt><trkpt lat="-26.95624833333333" lon="-48.632875"><ele>6.9</ele></trkpt><trkpt lat="-26.95624666666667" lon="-48.632875"><ele>6.6</ele></trkpt><trkpt lat="-26.95624666666667" lon="-48.632875"><ele>6.6</ele></trkpt><trkpt lat="-26.95624666666667" lon="-48.632875"><ele>6.6</ele></trkpt><trkpt lat="-26.95624666666667" lon="-48.632875"><ele>6.6</ele></trkpt><trkpt lat="-26.95624666666667" lon="-48.632875"><ele>6.6</ele></trkpt><trkpt lat="-26.95624666666667" lon="-48.632875"><ele>6.6</ele></trkpt><trkpt lat="-26.95624666666667" lon="-48.632875"><ele>6.6</ele></trkpt><trkpt lat="-26.95624666666667" lon="-48.632875"><ele>6.6</ele></trkpt><trkpt lat="-26.95624666666667" lon="-48.632875"><ele>6.6</ele></trkpt><trkpt lat="-26.95624666666667" lon="-48.632875"><ele>6.6</ele></trkpt><trkpt lat="-26.95624666666667" lon="-48.632875"><ele>6.6</ele></trkpt><trkpt lat="-26.95624666666667" lon="-48.632875"><ele>6.6</ele></trkpt><trkpt lat="-26.95624666666667" lon="-48.632875"><ele>6.6</ele></trkpt><trkpt lat="-26.95624666666667" lon="-48.632875"><ele>6.6</ele></trkpt><trkpt lat="-26.95624666666667" lon="-48.632875"><ele>6.6</ele></trkpt><trkpt lat="-26.95624666666667" lon="-48.632875"><ele>6.6</ele></trkpt><trkpt lat="-26.95624666666667" lon="-48.632875"><ele>6.6</ele></trkpt><trkpt lat="-26.95624666666667" lon="-48.632875"><ele>6.6</ele></trkpt><trkpt lat="-26.956271666666666" lon="-48.63289666666666"><ele>5.5</ele></trkpt><trkpt lat="-26.956271666666666" lon="-48.63289499999999"><ele>5.5</ele></trkpt><trkpt lat="-26.956271666666666" lon="-48.63289499999999"><ele>5.5</ele></trkpt><trkpt lat="-26.956273333333336" lon="-48.63289666666666"><ele>5.6</ele></trkpt><trkpt lat="-26.956273333333336" lon="-48.63289833333333"><ele>5.7</ele></trkpt><trkpt lat="-26.956273333333336" lon="-48.63289833333333"><ele>5.7</ele></trkpt><trkpt lat="-26.956273333333336" lon="-48.63289833333333"><ele>5.7</ele></trkpt><trkpt lat="-26.956273333333336" lon="-48.63289833333333"><ele>5.7</ele></trkpt><trkpt lat="-26.956273333333336" lon="-48.63289833333333"><ele>5.7</ele></trkpt><trkpt lat="-26.956273333333336" lon="-48.63289833333333"><ele>5.7</ele></trkpt><trkpt lat="-26.956273333333336" lon="-48.63289833333333"><ele>5.7</ele></trkpt><trkpt lat="-26.956273333333336" lon="-48.63289833333333"><ele>5.7</ele></trkpt><trkpt lat="-26.956273333333336" lon="-48.63289833333333"><ele>5.7</ele></trkpt><trkpt lat="-26.956273333333336" lon="-48.63289833333333"><ele>5.7</ele></trkpt><trkpt lat="-26.956273333333336" lon="-48.63289833333333"><ele>5.7</ele></trkpt><trkpt lat="-26.956273333333336" lon="-48.63289833333333"><ele>5.7</ele></trkpt><trkpt lat="-26.956273333333336" lon="-48.63289833333333"><ele>5.7</ele></trkpt><trkpt lat="-26.956273333333336" lon="-48.63289833333333"><ele>5.7</ele></trkpt><trkpt lat="-26.956273333333336" lon="-48.63289833333333"><ele>5.7</ele></trkpt><trkpt lat="-26.956273333333336" lon="-48.63289833333333"><ele>5.7</ele></trkpt><trkpt lat="-26.956273333333336" lon="-48.63289833333333"><ele>5.7</ele></trkpt><trkpt lat="-26.956273333333336" lon="-48.63289833333333"><ele>5.7</ele></trkpt><trkpt lat="-26.956273333333336" lon="-48.63289833333333"><ele>5.7</ele></trkpt><trkpt lat="-26.956273333333336" lon="-48.63289833333333"><ele>5.7</ele></trkpt><trkpt lat="-26.956273333333336" lon="-48.63289833333333"><ele>5.7</ele></trkpt><trkpt lat="-26.956273333333336" lon="-48.63289833333333"><ele>5.7</ele></trkpt><trkpt lat="-26.956273333333336" lon="-48.63289833333333"><ele>5.7</ele></trkpt><trkpt lat="-26.956273333333336" lon="-48.63289833333333"><ele>5.7</ele></trkpt><trkpt lat="-26.956273333333336" lon="-48.63289833333333"><ele>5.7</ele></trkpt><trkpt lat="-26.956273333333336" lon="-48.63289833333333"><ele>5.7</ele></trkpt><trkpt lat="-26.956273333333336" lon="-48.63289833333333"><ele>5.7</ele></trkpt><trkpt lat="-26.956273333333336" lon="-48.63289833333333"><ele>5.7</ele></trkpt><trkpt lat="-26.956273333333336" lon="-48.63289833333333"><ele>5.7</ele></trkpt><trkpt lat="-26.956273333333336" lon="-48.63289833333333"><ele>5.7</ele></trkpt><trkpt lat="-26.956273333333336" lon="-48.63290833333334"><ele>3.5</ele></trkpt><trkpt lat="-26.956273333333336" lon="-48.632915000000004"><ele>3.5</ele></trkpt><trkpt lat="-26.956273333333336" lon="-48.632915000000004"><ele>3.6</ele></trkpt><trkpt lat="-26.956274999999998" lon="-48.632915000000004"><ele>3.4</ele></trkpt><trkpt lat="-26.956276666666668" lon="-48.632916666666674"><ele>3.3</ele></trkpt><trkpt lat="-26.956276666666668" lon="-48.632916666666674"><ele>3.3</ele></trkpt><trkpt lat="-26.956276666666668" lon="-48.632916666666674"><ele>3.3</ele></trkpt><trkpt lat="-26.956276666666668" lon="-48.632916666666674"><ele>3.3</ele></trkpt><trkpt lat="-26.956276666666668" lon="-48.632916666666674"><ele>3.3</ele></trkpt><trkpt lat="-26.956276666666668" lon="-48.632916666666674"><ele>3.3</ele></trkpt><trkpt lat="-26.956276666666668" lon="-48.632916666666674"><ele>3.3</ele></trkpt><trkpt lat="-26.956276666666668" lon="-48.632916666666674"><ele>3.3</ele></trkpt><trkpt lat="-26.956276666666668" lon="-48.632916666666674"><ele>3.3</ele></trkpt><trkpt lat="-26.956276666666668" lon="-48.632916666666674"><ele>3.3</ele></trkpt><trkpt lat="-26.956276666666668" lon="-48.632916666666674"><ele>3.3</ele></trkpt><trkpt lat="-26.956276666666668" lon="-48.632916666666674"><ele>3.3</ele></trkpt><trkpt lat="-26.956276666666668" lon="-48.632916666666674"><ele>3.3</ele></trkpt><trkpt lat="-26.956276666666668" lon="-48.632916666666674"><ele>3.3</ele></trkpt><trkpt lat="-26.956276666666668" lon="-48.632916666666674"><ele>3.3</ele></trkpt><trkpt lat="-26.956276666666668" lon="-48.632916666666674"><ele>3.3</ele></trkpt><trkpt lat="-26.956276666666668" lon="-48.632916666666674"><ele>3.3</ele></trkpt><trkpt lat="-26.956276666666668" lon="-48.632916666666674"><ele>3.3</ele></trkpt><trkpt lat="-26.956276666666668" lon="-48.632916666666674"><ele>3.3</ele></trkpt><trkpt lat="-26.956276666666668" lon="-48.632916666666674"><ele>3.3</ele></trkpt><trkpt lat="-26.956276666666668" lon="-48.632916666666674"><ele>3.3</ele></trkpt><trkpt lat="-26.956276666666668" lon="-48.632916666666674"><ele>3.3</ele></trkpt><trkpt lat="-26.956276666666668" lon="-48.632916666666674"><ele>3.3</ele></trkpt><trkpt lat="-26.956276666666668" lon="-48.632916666666674"><ele>3.3</ele></trkpt><trkpt lat="-26.956276666666668" lon="-48.632916666666674"><ele>3.3</ele></trkpt><trkpt lat="-26.956276666666668" lon="-48.632916666666674"><ele>3.3</ele></trkpt><trkpt lat="-26.956276666666668" lon="-48.632916666666674"><ele>3.3</ele></trkpt><trkpt lat="-26.956276666666668" lon="-48.632916666666674"><ele>3.3</ele></trkpt><trkpt lat="-26.956286666666664" lon="-48.632909999999995"><ele>3.5</ele></trkpt><trkpt lat="-26.95628" lon="-48.632905"><ele>3.6</ele></trkpt><trkpt lat="-26.95627833333333" lon="-48.63289666666666"><ele>3.9</ele></trkpt><trkpt lat="-26.95627833333333" lon="-48.632885"><ele>4.1</ele></trkpt><trkpt lat="-26.956276666666668" lon="-48.632871666666674"><ele>4.3</ele></trkpt><trkpt lat="-26.956276666666668" lon="-48.63286"><ele>4.5</ele></trkpt><trkpt lat="-26.956274999999998" lon="-48.632848333333335"><ele>4.8</ele></trkpt><trkpt lat="-26.956273333333336" lon="-48.63283666666666"><ele>5</ele></trkpt><trkpt lat="-26.956270000000004" lon="-48.632821666666665"><ele>5.2</ele></trkpt><trkpt lat="-26.956270000000004" lon="-48.63280666666666"><ele>5.7</ele></trkpt><trkpt lat="-26.956271666666666" lon="-48.63279166666666"><ele>6.2</ele></trkpt><trkpt lat="-26.956273333333336" lon="-48.632776666666665"><ele>6.5</ele></trkpt><trkpt lat="-26.956274999999998" lon="-48.632765"><ele>6.7</ele></trkpt><trkpt lat="-26.956274999999998" lon="-48.63274833333333"><ele>7.3</ele></trkpt><trkpt lat="-26.956271666666666" lon="-48.632733333333334"><ele>7.9</ele></trkpt><trkpt lat="-26.956271666666666" lon="-48.632733333333334"><ele>7.9</ele></trkpt><trkpt lat="-26.956271666666666" lon="-48.63272"><ele>8.2</ele></trkpt><trkpt lat="-26.956271666666666" lon="-48.632708333333326"><ele>8.4</ele></trkpt><trkpt lat="-26.956271666666666" lon="-48.63270000000001"><ele>8.3</ele></trkpt><trkpt lat="-26.956274999999998" lon="-48.63269166666667"><ele>8.3</ele></trkpt><trkpt lat="-26.956274999999998" lon="-48.63268500000001"><ele>8.4</ele></trkpt><trkpt lat="-26.956274999999998" lon="-48.63268"><ele>8.9</ele></trkpt><trkpt lat="-26.956276666666668" lon="-48.63268"><ele>9</ele></trkpt><trkpt lat="-26.956276666666668" lon="-48.63268"><ele>9.3</ele></trkpt><trkpt lat="-26.956274999999998" lon="-48.63268"><ele>9.6</ele></trkpt><trkpt lat="-26.956271666666666" lon="-48.63268333333334"><ele>9.6</ele></trkpt><trkpt lat="-26.95626666666667" lon="-48.632686666666665"><ele>9.5</ele></trkpt><trkpt lat="-26.95626666666667" lon="-48.632686666666665"><ele>9.5</ele></trkpt><trkpt lat="-26.95626666666667" lon="-48.632686666666665"><ele>9.5</ele></trkpt><trkpt lat="-26.95626666666667" lon="-48.63268166666667"><ele>9.5</ele></trkpt><trkpt lat="-26.956273333333336" lon="-48.632675"><ele>9.1</ele></trkpt><trkpt lat="-26.956274999999998" lon="-48.632664999999996"><ele>8.8</ele></trkpt><trkpt lat="-26.956276666666668" lon="-48.63265"><ele>9.2</ele></trkpt><trkpt lat="-26.95628" lon="-48.632635"><ele>9.5</ele></trkpt><trkpt lat="-26.956285" lon="-48.63261666666667"><ele>9.4</ele></trkpt><trkpt lat="-26.95629" lon="-48.63260333333333"><ele>9.1</ele></trkpt><trkpt lat="-26.956295" lon="-48.632586666666676"><ele>8.6</ele></trkpt><trkpt lat="-26.95629666666667" lon="-48.63257166666667"><ele>8.3</ele></trkpt><trkpt lat="-26.956301666666665" lon="-48.632555"><ele>7.9</ele></trkpt><trkpt lat="-26.956303333333334" lon="-48.63254"><ele>7.6</ele></trkpt><trkpt lat="-26.956304999999997" lon="-48.632525"><ele>7.4</ele></trkpt><trkpt lat="-26.956304999999997" lon="-48.63251"><ele>7.5</ele></trkpt><trkpt lat="-26.956303333333334" lon="-48.6325"><ele>7.2</ele></trkpt><trkpt lat="-26.956303333333334" lon="-48.63249166666666"><ele>7</ele></trkpt><trkpt lat="-26.956300000000002" lon="-48.632488333333335"><ele>7.1</ele></trkpt><trkpt lat="-26.956301666666665" lon="-48.632484999999996"><ele>7.4</ele></trkpt><trkpt lat="-26.956301666666665" lon="-48.632483333333326"><ele>7.7</ele></trkpt><trkpt lat="-26.956304999999997" lon="-48.632483333333326"><ele>7.7</ele></trkpt><trkpt lat="-26.95631" lon="-48.632484999999996"><ele>7.8</ele></trkpt><trkpt lat="-26.956313333333334" lon="-48.632488333333335"><ele>7.7</ele></trkpt><trkpt lat="-26.956316666666666" lon="-48.632490000000004"><ele>7.7</ele></trkpt><trkpt lat="-26.956316666666666" lon="-48.632490000000004"><ele>7.7</ele></trkpt><trkpt lat="-26.956321666666668" lon="-48.63249166666666"><ele>7.8</ele></trkpt><trkpt lat="-26.95632833333333" lon="-48.63249166666666"><ele>8.1</ele></trkpt><trkpt lat="-26.95633" lon="-48.632483333333326"><ele>8.2</ele></trkpt><trkpt lat="-26.956333333333337" lon="-48.63247333333334"><ele>8.2</ele></trkpt><trkpt lat="-26.95633666666667" lon="-48.63246666666667"><ele>8.2</ele></trkpt><trkpt lat="-26.95633666666667" lon="-48.632455"><ele>8</ele></trkpt><trkpt lat="-26.956335" lon="-48.632445000000004"><ele>7.9</ele></trkpt><trkpt lat="-26.95633666666667" lon="-48.63243333333333"><ele>7.4</ele></trkpt><trkpt lat="-26.95633666666667" lon="-48.63242"><ele>7.1</ele></trkpt><trkpt lat="-26.95633666666667" lon="-48.632406666666675"><ele>6.7</ele></trkpt><trkpt lat="-26.956335" lon="-48.632394999999995"><ele>6.4</ele></trkpt><trkpt lat="-26.956333333333337" lon="-48.63238666666666"><ele>6</ele></trkpt><trkpt lat="-26.956335" lon="-48.63238"><ele>5.7</ele></trkpt><trkpt lat="-26.95633666666667" lon="-48.63237833333333"><ele>5.6</ele></trkpt><trkpt lat="-26.95634" lon="-48.632375"><ele>5.9</ele></trkpt><trkpt lat="-26.956343333333333" lon="-48.632373333333334"><ele>6</ele></trkpt><trkpt lat="-26.956345000000002" lon="-48.632375"><ele>6.3</ele></trkpt><trkpt lat="-26.956345000000002" lon="-48.632371666666664"><ele>6.6</ele></trkpt><trkpt lat="-26.95634166666667" lon="-48.632375"><ele>6.7</ele></trkpt><trkpt lat="-26.95634" lon="-48.63238"><ele>7</ele></trkpt><trkpt lat="-26.95633666666667" lon="-48.63238333333334"><ele>7.1</ele></trkpt><trkpt lat="-26.956335" lon="-48.63238666666666"><ele>7.3</ele></trkpt><trkpt lat="-26.956335" lon="-48.63238666666666"><ele>7.3</ele></trkpt><trkpt lat="-26.956335" lon="-48.63238666666666"><ele>7.3</ele></trkpt><trkpt lat="-26.956335" lon="-48.63238666666666"><ele>7.3</ele></trkpt><trkpt lat="-26.956319999999998" lon="-48.632400000000004"><ele>7.8</ele></trkpt><trkpt lat="-26.956319999999998" lon="-48.63240833333332"><ele>8.1</ele></trkpt><trkpt lat="-26.95632333333333" lon="-48.63241166666667"><ele>8.3</ele></trkpt><trkpt lat="-26.956325" lon="-48.63241500000001"><ele>8.9</ele></trkpt><trkpt lat="-26.956325" lon="-48.63242333333333"><ele>8.9</ele></trkpt><trkpt lat="-26.95632666666667" lon="-48.63243000000001"><ele>9</ele></trkpt><trkpt lat="-26.956325" lon="-48.632438333333326"><ele>9.1</ele></trkpt><trkpt lat="-26.956321666666668" lon="-48.63244666666666"><ele>9.2</ele></trkpt><trkpt lat="-26.956318333333336" lon="-48.63245666666667"><ele>9.2</ele></trkpt><trkpt lat="-26.956318333333336" lon="-48.63246000000001"><ele>9</ele></trkpt><trkpt lat="-26.956318333333336" lon="-48.632465"><ele>8.8</ele></trkpt><trkpt lat="-26.956316666666666" lon="-48.63247166666667"><ele>8.9</ele></trkpt><trkpt lat="-26.956313333333334" lon="-48.63248"><ele>8.6</ele></trkpt><trkpt lat="-26.95631" lon="-48.632484999999996"><ele>8.3</ele></trkpt><trkpt lat="-26.95630833333333" lon="-48.63249166666666"><ele>8.1</ele></trkpt><trkpt lat="-26.956303333333334" lon="-48.632496666666675"><ele>9.2</ele></trkpt><trkpt lat="-26.95629666666667" lon="-48.632498333333324"><ele>9.9</ele></trkpt><trkpt lat="-26.956295" lon="-48.632496666666675"><ele>10.3</ele></trkpt><trkpt lat="-26.95629333333333" lon="-48.632495"><ele>11.1</ele></trkpt><trkpt lat="-26.95629333333333" lon="-48.632488333333335"><ele>12.1</ele></trkpt><trkpt lat="-26.956295" lon="-48.63247833333333"><ele>11.7</ele></trkpt><trkpt lat="-26.956298333333333" lon="-48.632465"><ele>11.3</ele></trkpt><trkpt lat="-26.956301666666665" lon="-48.632451666666675"><ele>11.4</ele></trkpt><trkpt lat="-26.956303333333334" lon="-48.632439999999995"><ele>11.2</ele></trkpt><trkpt lat="-26.956303333333334" lon="-48.63243000000001"><ele>10.8</ele></trkpt><trkpt lat="-26.956304999999997" lon="-48.63242"><ele>10.3</ele></trkpt><trkpt lat="-26.956306666666666" lon="-48.63241"><ele>10.1</ele></trkpt><trkpt lat="-26.95631" lon="-48.63240333333333"><ele>9.8</ele></trkpt><trkpt lat="-26.95631166666667" lon="-48.632398333333335"><ele>9.4</ele></trkpt><trkpt lat="-26.95631" lon="-48.632398333333335"><ele>8.9</ele></trkpt><trkpt lat="-26.956306666666666" lon="-48.632398333333335"><ele>8.6</ele></trkpt><trkpt lat="-26.956306666666666" lon="-48.632398333333335"><ele>8.6</ele></trkpt><trkpt lat="-26.956306666666666" lon="-48.632396666666665"><ele>8.5</ele></trkpt><trkpt lat="-26.956306666666666" lon="-48.632394999999995"><ele>8.6</ele></trkpt><trkpt lat="-26.956304999999997" lon="-48.632394999999995"><ele>8.8</ele></trkpt><trkpt lat="-26.956304999999997" lon="-48.632396666666665"><ele>8.6</ele></trkpt><trkpt lat="-26.956304999999997" lon="-48.632396666666665"><ele>8.6</ele></trkpt><trkpt lat="-26.956304999999997" lon="-48.632396666666665"><ele>8.6</ele></trkpt><trkpt lat="-26.956304999999997" lon="-48.632396666666665"><ele>8.6</ele></trkpt><trkpt lat="-26.956304999999997" lon="-48.632396666666665"><ele>8.6</ele></trkpt><trkpt lat="-26.956304999999997" lon="-48.632393333333326"><ele>9.7</ele></trkpt><trkpt lat="-26.956304999999997" lon="-48.63238833333333"><ele>9.7</ele></trkpt><trkpt lat="-26.956304999999997" lon="-48.63238666666666"><ele>9.5</ele></trkpt><trkpt lat="-26.956304999999997" lon="-48.63238666666666"><ele>9.5</ele></trkpt><trkpt lat="-26.956306666666666" lon="-48.63238666666666"><ele>9.3</ele></trkpt><trkpt lat="-26.956306666666666" lon="-48.63238666666666"><ele>9.3</ele></trkpt><trkpt lat="-26.956306666666666" lon="-48.63238666666666"><ele>9.3</ele></trkpt><trkpt lat="-26.956306666666666" lon="-48.63238666666666"><ele>9.3</ele></trkpt><trkpt lat="-26.956306666666666" lon="-48.63238666666666"><ele>9.3</ele></trkpt><trkpt lat="-26.956306666666666" lon="-48.63238666666666"><ele>9.3</ele></trkpt><trkpt lat="-26.956306666666666" lon="-48.63238666666666"><ele>9.3</ele></trkpt><trkpt lat="-26.956306666666666" lon="-48.63238666666666"><ele>9.3</ele></trkpt><trkpt lat="-26.956306666666666" lon="-48.63238666666666"><ele>9.3</ele></trkpt><trkpt lat="-26.956306666666666" lon="-48.63238666666666"><ele>9.3</ele></trkpt><trkpt lat="-26.956306666666666" lon="-48.63238666666666"><ele>9.3</ele></trkpt><trkpt lat="-26.956306666666666" lon="-48.63238666666666"><ele>9.3</ele></trkpt><trkpt lat="-26.956306666666666" lon="-48.63238666666666"><ele>9.3</ele></trkpt><trkpt lat="-26.956306666666666" lon="-48.63238666666666"><ele>9.3</ele></trkpt><trkpt lat="-26.956306666666666" lon="-48.63238666666666"><ele>9.3</ele></trkpt><trkpt lat="-26.956306666666666" lon="-48.63238666666666"><ele>9.3</ele></trkpt><trkpt lat="-26.956306666666666" lon="-48.63238666666666"><ele>9.3</ele></trkpt><trkpt lat="-26.956306666666666" lon="-48.63238666666666"><ele>9.3</ele></trkpt><trkpt lat="-26.956306666666666" lon="-48.63238666666666"><ele>9.3</ele></trkpt><trkpt lat="-26.956306666666666" lon="-48.63238666666666"><ele>9.3</ele></trkpt><trkpt lat="-26.956306666666666" lon="-48.63238666666666"><ele>9.3</ele></trkpt><trkpt lat="-26.956306666666666" lon="-48.63238666666666"><ele>9.3</ele></trkpt><trkpt lat="-26.956306666666666" lon="-48.63238666666666"><ele>9.3</ele></trkpt><trkpt lat="-26.956306666666666" lon="-48.63238666666666"><ele>9.3</ele></trkpt><trkpt lat="-26.956306666666666" lon="-48.63238666666666"><ele>9.3</ele></trkpt><trkpt lat="-26.956315000000004" lon="-48.63240333333333"><ele>7.6</ele></trkpt><trkpt lat="-26.95631166666667" lon="-48.63241166666667"><ele>7.8</ele></trkpt><trkpt lat="-26.95631" lon="-48.63243166666666"><ele>7.8</ele></trkpt><trkpt lat="-26.956303333333334" lon="-48.632439999999995"><ele>8</ele></trkpt><trkpt lat="-26.956301666666665" lon="-48.63245"><ele>8.2</ele></trkpt><trkpt lat="-26.956300000000002" lon="-48.632463333333334"><ele>8.7</ele></trkpt><trkpt lat="-26.956298333333333" lon="-48.63247500000001"><ele>8.9</ele></trkpt><trkpt lat="-26.956298333333333" lon="-48.632484999999996"><ele>8.9</ele></trkpt><trkpt lat="-26.95629666666667" lon="-48.632495"><ele>9.2</ele></trkpt><trkpt lat="-26.956295" lon="-48.632508333333334"><ele>9</ele></trkpt><trkpt lat="-26.95629" lon="-48.63251333333333"><ele>9</ele></trkpt><trkpt lat="-26.956288333333337" lon="-48.63251333333333"><ele>8.9</ele></trkpt><trkpt lat="-26.95628333333333" lon="-48.63251166666667"><ele>8.8</ele></trkpt><trkpt lat="-26.95628333333333" lon="-48.63251"><ele>8.7</ele></trkpt><trkpt lat="-26.95628166666667" lon="-48.632508333333334"><ele>8.6</ele></trkpt><trkpt lat="-26.95628" lon="-48.632506666666664"><ele>8.5</ele></trkpt><trkpt lat="-26.95627833333333" lon="-48.632506666666664"><ele>8.4</ele></trkpt><trkpt lat="-26.95627833333333" lon="-48.632506666666664"><ele>8.4</ele></trkpt><trkpt lat="-26.956276666666668" lon="-48.632506666666664"><ele>8.3</ele></trkpt><trkpt lat="-26.956276666666668" lon="-48.632506666666664"><ele>8.2</ele></trkpt><trkpt lat="-26.956274999999998" lon="-48.632508333333334"><ele>8.1</ele></trkpt><trkpt lat="-26.956274999999998" lon="-48.632508333333334"><ele>8.1</ele></trkpt><trkpt lat="-26.956274999999998" lon="-48.632508333333334"><ele>8.1</ele></trkpt><trkpt lat="-26.956274999999998" lon="-48.632508333333334"><ele>8.1</ele></trkpt><trkpt lat="-26.956274999999998" lon="-48.632508333333334"><ele>8.1</ele></trkpt><trkpt lat="-26.956274999999998" lon="-48.632508333333334"><ele>8.1</ele></trkpt><trkpt lat="-26.956274999999998" lon="-48.632508333333334"><ele>8.1</ele></trkpt><trkpt lat="-26.956274999999998" lon="-48.632508333333334"><ele>8.1</ele></trkpt><trkpt lat="-26.956274999999998" lon="-48.632508333333334"><ele>8.1</ele></trkpt><trkpt lat="-26.956274999999998" lon="-48.632508333333334"><ele>8.1</ele></trkpt><trkpt lat="-26.956300000000002" lon="-48.632496666666675"><ele>8.1</ele></trkpt><trkpt lat="-26.956304999999997" lon="-48.632488333333335"><ele>8</ele></trkpt><trkpt lat="-26.95630833333333" lon="-48.63247833333333"><ele>8.2</ele></trkpt><trkpt lat="-26.95631" lon="-48.63247166666667"><ele>8.1</ele></trkpt><trkpt lat="-26.95631" lon="-48.63246833333333"><ele>7.9</ele></trkpt><trkpt lat="-26.95631" lon="-48.63246666666667"><ele>7.8</ele></trkpt><trkpt lat="-26.95631166666667" lon="-48.63246666666667"><ele>7.7</ele></trkpt><trkpt lat="-26.95631166666667" lon="-48.63246666666667"><ele>7.7</ele></trkpt><trkpt lat="-26.95631166666667" lon="-48.63246666666667"><ele>7.7</ele></trkpt><trkpt lat="-26.95631" lon="-48.63246666666667"><ele>7.7</ele></trkpt><trkpt lat="-26.95631" lon="-48.632463333333334"><ele>8</ele></trkpt><trkpt lat="-26.95631" lon="-48.632461666666664"><ele>8.1</ele></trkpt><trkpt lat="-26.95631" lon="-48.632461666666664"><ele>8.2</ele></trkpt><trkpt lat="-26.95631166666667" lon="-48.63245833333334"><ele>8.1</ele></trkpt><trkpt lat="-26.95631166666667" lon="-48.63245833333334"><ele>8.1</ele></trkpt><trkpt lat="-26.95631" lon="-48.63244833333333"><ele>8.3</ele></trkpt><trkpt lat="-26.956306666666666" lon="-48.63244666666666"><ele>8.4</ele></trkpt><trkpt lat="-26.956301666666665" lon="-48.63244666666666"><ele>8.4</ele></trkpt><trkpt lat="-26.956295" lon="-48.63244833333333"><ele>8.4</ele></trkpt><trkpt lat="-26.956295" lon="-48.63244833333333"><ele>8.4</ele></trkpt><trkpt lat="-26.956295" lon="-48.63244833333333"><ele>8.4</ele></trkpt><trkpt lat="-26.956295" lon="-48.63244833333333"><ele>8.4</ele></trkpt><trkpt lat="-26.956295" lon="-48.63244833333333"><ele>8.4</ele></trkpt><trkpt lat="-26.956295" lon="-48.63244833333333"><ele>8.4</ele></trkpt><trkpt lat="-26.956295" lon="-48.63244833333333"><ele>8.4</ele></trkpt><trkpt lat="-26.956295" lon="-48.63244833333333"><ele>8.4</ele></trkpt><trkpt lat="-26.956295" lon="-48.63244833333333"><ele>8.4</ele></trkpt><trkpt lat="-26.956295" lon="-48.63244833333333"><ele>8.4</ele></trkpt><trkpt lat="-26.956295" lon="-48.63244833333333"><ele>8.4</ele></trkpt><trkpt lat="-26.956295" lon="-48.63244833333333"><ele>8.4</ele></trkpt><trkpt lat="-26.956295" lon="-48.63244833333333"><ele>8.4</ele></trkpt><trkpt lat="-26.956295" lon="-48.63244833333333"><ele>8.4</ele></trkpt><trkpt lat="-26.956295" lon="-48.63244833333333"><ele>8.4</ele></trkpt><trkpt lat="-26.956295" lon="-48.63244833333333"><ele>8.4</ele></trkpt><trkpt lat="-26.956295" lon="-48.63244833333333"><ele>8.4</ele></trkpt><trkpt lat="-26.956295" lon="-48.63244833333333"><ele>8.4</ele></trkpt><trkpt lat="-26.956295" lon="-48.63244833333333"><ele>8.4</ele></trkpt><trkpt lat="-26.956295" lon="-48.63244833333333"><ele>8.4</ele></trkpt><trkpt lat="-26.956295" lon="-48.63244833333333"><ele>8.4</ele></trkpt><trkpt lat="-26.956295" lon="-48.63244833333333"><ele>8.4</ele></trkpt><trkpt lat="-26.956295" lon="-48.63244833333333"><ele>8.4</ele></trkpt><trkpt lat="-26.956295" lon="-48.63244833333333"><ele>8.4</ele></trkpt><trkpt lat="-26.956295" lon="-48.63244833333333"><ele>8.4</ele></trkpt><trkpt lat="-26.956295" lon="-48.63244833333333"><ele>8.4</ele></trkpt><trkpt lat="-26.956295" lon="-48.63244833333333"><ele>8.4</ele></trkpt><trkpt lat="-26.956295" lon="-48.63244833333333"><ele>8.4</ele></trkpt><trkpt lat="-26.956295" lon="-48.63244833333333"><ele>8.4</ele></trkpt><trkpt lat="-26.956295" lon="-48.63244833333333"><ele>8.4</ele></trkpt><trkpt lat="-26.956295" lon="-48.63244833333333"><ele>8.4</ele></trkpt><trkpt lat="-26.956313333333334" lon="-48.632438333333326"><ele>6.4</ele></trkpt><trkpt lat="-26.956313333333334" lon="-48.632435"><ele>6.4</ele></trkpt><trkpt lat="-26.956315000000004" lon="-48.63243166666666"><ele>6.2</ele></trkpt><trkpt lat="-26.956313333333334" lon="-48.63242833333334"><ele>6.3</ele></trkpt><trkpt lat="-26.956313333333334" lon="-48.63242833333334"><ele>6.3</ele></trkpt><trkpt lat="-26.956313333333334" lon="-48.63242833333334"><ele>6.3</ele></trkpt><trkpt lat="-26.956313333333334" lon="-48.63242833333334"><ele>6.3</ele></trkpt><trkpt lat="-26.956313333333334" lon="-48.63242833333334"><ele>6.3</ele></trkpt><trkpt lat="-26.956313333333334" lon="-48.63242833333334"><ele>6.3</ele></trkpt><trkpt lat="-26.956313333333334" lon="-48.63242833333334"><ele>6.3</ele></trkpt><trkpt lat="-26.956313333333334" lon="-48.63242833333334"><ele>6.3</ele></trkpt><trkpt lat="-26.956313333333334" lon="-48.63242833333334"><ele>6.3</ele></trkpt><trkpt lat="-26.956313333333334" lon="-48.63242833333334"><ele>6.3</ele></trkpt><trkpt lat="-26.956313333333334" lon="-48.63242833333334"><ele>6.3</ele></trkpt><trkpt lat="-26.956313333333334" lon="-48.63242833333334"><ele>6.3</ele></trkpt><trkpt lat="-26.956313333333334" lon="-48.63242833333334"><ele>6.3</ele></trkpt><trkpt lat="-26.956313333333334" lon="-48.63242833333334"><ele>6.3</ele></trkpt><trkpt lat="-26.956313333333334" lon="-48.63242833333334"><ele>6.3</ele></trkpt><trkpt lat="-26.956313333333334" lon="-48.63242833333334"><ele>6.3</ele></trkpt><trkpt lat="-26.956313333333334" lon="-48.63242833333334"><ele>6.3</ele></trkpt><trkpt lat="-26.956313333333334" lon="-48.63242833333334"><ele>6.3</ele></trkpt><trkpt lat="-26.956313333333334" lon="-48.63242833333334"><ele>6.3</ele></trkpt><trkpt lat="-26.956313333333334" lon="-48.63242833333334"><ele>6.3</ele></trkpt><trkpt lat="-26.956313333333334" lon="-48.63242833333334"><ele>6.3</ele></trkpt><trkpt lat="-26.956313333333334" lon="-48.63242833333334"><ele>6.3</ele></trkpt><trkpt lat="-26.956304999999997" lon="-48.63238833333333"><ele>5.6</ele></trkpt><trkpt lat="-26.956304999999997" lon="-48.632385000000006"><ele>5.7</ele></trkpt><trkpt lat="-26.956303333333334" lon="-48.63238166666667"><ele>5.9</ele></trkpt><trkpt lat="-26.956303333333334" lon="-48.63238"><ele>6</ele></trkpt><trkpt lat="-26.956303333333334" lon="-48.63238"><ele>6</ele></trkpt><trkpt lat="-26.956303333333334" lon="-48.63238"><ele>6</ele></trkpt><trkpt lat="-26.956303333333334" lon="-48.63238"><ele>6</ele></trkpt></trkseg></trk></gpx>