<?xml version="1.0" encoding="UTF-8"?>
<gpx xmlns="http://www.topografix.com/GPX/1/1" version="1.1" creator="@dwayneparton/geojson-to-gpx">
    <wpt lat="-27.002654999999997" lon="-48.65013833333334">
        <ele>11</ele>
        <name>1 faixa</name>
    </wpt>
    <wpt lat="-27.002654999999997" lon="-48.65013833333334">
        <ele>11</ele>
        <name>Mão Única</name>
    </wpt>Mão Única
    <wpt lat="-27.001371666666667" lon="-48.64820833333333">
        <ele>7.300000000000001</ele>
        <name>23</name>
    </wpt>
    <wpt lat="-27.002161666666666" lon="-48.64928">
        <ele>13.299999999999999</ele>
        <name>40km/h</name>
    </wpt>
    <wpt lat="-27.001069999999995" lon="-48.647793333333325">
        <ele>7.699999999999999</ele>
        <name>40km/h</name>
    </wpt>
    <wpt lat="-27.001371666666667" lon="-48.64820833333333">
        <ele>7.300000000000001</ele>
        <name>130</name>
    </wpt>
    <wpt lat="-27.001365000000003" lon="-48.64822833333333">
        <ele>5.300000000000001</ele>
        <name>390</name>
    </wpt>
    <wpt lat="-27.001351666666665" lon="-48.648258333333324">
        <ele>6.1</ele>
        <name>760</name>
    </wpt>
    <wpt lat="-27.000391666666662" lon="-48.64664666666666">
        <ele>5.5</ele>
        <name>A ciclo é completamente reta.</name>
    </wpt>
    <wpt lat="-27.000391666666662" lon="-48.64664666666666">
        <ele>5.5</ele>
        <name>A pintura está boa, COMPLETA e visível</name>
    </wpt>
    <wpt lat="-27.001371666666667" lon="-48.64820833333333">
        <ele>7.300000000000001</ele>
        <name>Área de amortecimento da ciclo (cm)</name>
    </wpt>
    <wpt lat="-27.001371666666667" lon="-48.64820833333333">
        <ele>7.300000000000001</ele>
        <name>Área transitável da ciclo (cm)</name>
    </wpt>
    <wpt lat="-27.002654999999997" lon="-48.650135">
        <ele>12.299999999999999</ele>
        <name>Asfalto</name>
    </wpt>
    <wpt lat="-27.002553333333335" lon="-48.65020666666666">
        <ele>10.299999999999999</ele>
        <name>Bidirecional</name>
    </wpt>
    <wpt lat="-27.000391666666662" lon="-48.64664666666666">
        <ele>5.5</ele>
        <name>Bom estado</name>
    </wpt>
    <wpt lat="-27.002418333333335" lon="-48.649719999999995">
        <ele>6.300000000000001</ele>
        <name>Bueiro</name>
    </wpt>
    <wpt lat="-27.002235000000002" lon="-48.64938833333334">
        <ele>12.5</ele>
        <name>Bueiro</name>
    </wpt>
    <wpt lat="-27.002096666666663" lon="-48.64919">
        <ele>13.2</ele>
        <name>Bueiro</name>
    </wpt>
    <wpt lat="-27.001596666666668" lon="-48.648405000000004">
        <ele>7.199999999999999</ele>
        <name>Bueiro</name>
    </wpt>
    <wpt lat="-27.00137833333333" lon="-48.648223333333334">
        <ele>6.699999999999999</ele>
        <name>Bueiro</name>
    </wpt>
    <wpt lat="-27.001188333333335" lon="-48.647951666666664">
        <ele>4.9</ele>
        <name>Bueiro</name>
    </wpt>
    <wpt lat="-27.000966666666667" lon="-48.64753833333332">
        <ele>7</ele>
        <name>Bueiro</name>
    </wpt>
    <wpt lat="-27.000656666666668" lon="-48.64704666666667">
        <ele>9.9</ele>
        <name>Bueiro</name>
    </wpt>
    <wpt lat="-27.000410000000002" lon="-48.64664500000001">
        <ele>4.9</ele>
        <name>Bueiro</name>
    </wpt>
    <wpt lat="-27.00248" lon="-48.65032833333333">
        <ele>9.2</ele>
        <name>Ciclofaixa</name>
    </wpt>
    <wpt lat="-27.002658333333336" lon="-48.65013166666666">
        <ele>10.6</ele>
        <name>Estacionamento dedicado de um lado, segregado da circulação</name>
    </wpt>
    <wpt lat="-27.001365000000003" lon="-48.64822833333333">
        <ele>5.300000000000001</ele>
        <name>Faixa de carros logo ao lado da ciclo (cm)</name>
    </wpt>
    <wpt lat="-27.002715" lon="-48.65014666666666">
        <ele>10.9</ele>
        <name>Foto</name>
    </wpt>
    <wpt lat="-27.002793333333337" lon="-48.65020333333334">
        <ele>11.1</ele>
        <name>Foto</name>
    </wpt>
    <wpt lat="-27.002726666666664" lon="-48.65009666666666">
        <ele>10.1</ele>
        <name>Foto</name>
    </wpt>
    <wpt lat="-27.002551666666665" lon="-48.64986166666666">
        <ele>5.1</ele>
        <name>Foto</name>
    </wpt>
    <wpt lat="-27.00241" lon="-48.649725000000004">
        <ele>8</ele>
        <name>Foto</name>
    </wpt>
    <wpt lat="-27.002233333333333" lon="-48.649391666666666">
        <ele>12.6</ele>
        <name>Foto</name>
    </wpt>
    <wpt lat="-27.00215166666667" lon="-48.64927833333333">
        <ele>13</ele>
        <name>Foto</name>
    </wpt>
    <wpt lat="-27.002083333333335" lon="-48.649179999999994">
        <ele>13</ele>
        <name>Foto</name>
    </wpt>
    <wpt lat="-27.001916666666663" lon="-48.64890833333334">
        <ele>9.4</ele>
        <name>Foto</name>
    </wpt>
    <wpt lat="-27.001816666666667" lon="-48.648741666666666">
        <ele>8.7</ele>
        <name>Foto</name>
    </wpt>
    <wpt lat="-27.00169" lon="-48.648540000000004">
        <ele>9</ele>
        <name>Foto</name>
    </wpt>
    <wpt lat="-27.00159833333333" lon="-48.64840666666667">
        <ele>6.5</ele>
        <name>Foto</name>
    </wpt>
    <wpt lat="-27.001371666666667" lon="-48.64820833333333">
        <ele>7.300000000000001</ele>
        <name>Foto</name>
    </wpt>
    <wpt lat="-27.001255" lon="-48.648025000000004">
        <ele>4.300000000000001</ele>
        <name>Foto</name>
    </wpt>
    <wpt lat="-27.001168333333332" lon="-48.64794">
        <ele>6.5</ele>
        <name>Foto</name>
    </wpt>
    <wpt lat="-27.001054999999997" lon="-48.647655">
        <ele>7.4</ele>
        <name>Foto</name>
    </wpt>
    <wpt lat="-27.000945" lon="-48.64752166666667">
        <ele>5.5</ele>
        <name>Foto</name>
    </wpt>
    <wpt lat="-27.000878333333336" lon="-48.647385">
        <ele>7.5</ele>
        <name>Foto</name>
    </wpt>
    <wpt lat="-27.000625" lon="-48.64700166666667">
        <ele>8.5</ele>
        <name>Foto</name>
    </wpt>
    <wpt lat="-27.000486666666667" lon="-48.64672333333333">
        <ele>3.9</ele>
        <name>Foto</name>
    </wpt>
    <wpt lat="-27.000428333333335" lon="-48.64666166666666">
        <ele>3.7</ele>
        <name>Foto</name>
    </wpt>
    <wpt lat="-27.00039333333333" lon="-48.64664333333334">
        <ele>5</ele>
        <name>Foto</name>
    </wpt>
    <wpt lat="-27.000391666666662" lon="-48.64664666666666">
        <ele>5.5</ele>
        <name>Iluminação geral na via do mesmo lado da estrutura</name>
    </wpt>
    <wpt lat="-27.000391666666662" lon="-48.64664666666666">
        <ele>5.5</ele>
        <name>Não há árvores nem mudas</name>
    </wpt>
    <wpt lat="-27.002625" lon="-48.65013166666666">
        <ele>14.6</ele>
        <name>No bordo direito de Via de Mão Única</name>
    </wpt>
    <wpt lat="-27.00275" lon="-48.65011666666666">
        <ele>11</ele>
        <name>Pictograma BOA condição</name>
    </wpt>
    <wpt lat="-27.000443333333337" lon="-48.64666999999999">
        <ele>3.5</ele>
        <name>Pictograma BOA condição</name>
    </wpt>
    <wpt lat="-27.001683333333336" lon="-48.64853166666667">
        <ele>8.8</ele>
        <name>Em cruzamento MÁ condição</name>
    </wpt>
    <wpt lat="-27.000391666666662" lon="-48.64664666666666">
        <ele>5.5</ele>
        <name>SE CICLOFAIXA: para invadir a ciclo parte do automóvel passa obrigatoriamente por cima de segregadores</name>
    </wpt>
    <wpt lat="-27.002651666666665" lon="-48.65013166666666">
        <ele>13.5</ele>
        <name>Tachões</name>
    </wpt>
    <wpt lat="-27.002639999999996" lon="-48.650130000000004">
        <ele>13.7</ele>
        <name>Toda área de circulação pintada de vermelho</name>
    </wpt>
    <wpt lat="-27.001351666666665" lon="-48.648258333333324">
        <ele>6.1</ele>
        <name>Total da via (incluindo a ciclo) (cm)</name>
    </wpt>
    <wpt lat="-27.001951666666667" lon="-48.64897666666668">
        <ele>10.5</ele>
        <name>Travessia de pedestre em nível (lombofaixa)</name>
    </wpt>
    <wpt lat="-27.001321666666666" lon="-48.648131666666664">
        <ele>3.8000000000000003</ele>
        <name>Travessia de pedestre em nível (lombofaixa)</name>
    </wpt>
    <trk>
        <name>Ciclofaixa R. Guamirim - Cb</name>
        <trkseg>
            <trkpt lat="-27.002426666666665" lon="-48.650315">
                <ele>8.6</ele>
            </trkpt>
            <trkpt lat="-27.002425000000002" lon="-48.65031833333334">
                <ele>8.7</ele>
            </trkpt>
            <trkpt lat="-27.002551666666665" lon="-48.65021">
                <ele>8.7</ele>
            </trkpt>
            <trkpt lat="-27.002428333333334" lon="-48.65032166666666">
                <ele>8.7</ele>
            </trkpt>
            <trkpt lat="-27.002431666666666" lon="-48.650330000000004">
                <ele>8.7</ele>
            </trkpt>
            <trkpt lat="-27.00244" lon="-48.650335">
                <ele>8.7</ele>
            </trkpt>
            <trkpt lat="-27.00245166666667" lon="-48.65033166666667">
                <ele>8.9</ele>
            </trkpt>
            <trkpt lat="-27.002464999999997" lon="-48.650330000000004">
                <ele>9</ele>
            </trkpt>
            <trkpt lat="-27.00248" lon="-48.65032833333333">
                <ele>9.2</ele>
            </trkpt>
            <trkpt lat="-27.00248" lon="-48.65032833333333">
                <ele>9.2</ele>
            </trkpt>
            <trkpt lat="-27.002503333333333" lon="-48.650306666666665">
                <ele>9.1</ele>
            </trkpt>
            <trkpt lat="-27.002515000000002" lon="-48.65028">
                <ele>9.2</ele>
            </trkpt>
            <trkpt lat="-27.002533333333336" lon="-48.65024833333334">
                <ele>9.4</ele>
            </trkpt>
            <trkpt lat="-27.002553333333335" lon="-48.65020666666666">
                <ele>10.299999999999999</ele>
            </trkpt>
            <trkpt lat="-27.002553333333335" lon="-48.65020666666666">
                <ele>10.299999999999999</ele>
            </trkpt>
            <trkpt lat="-27.002571666666668" lon="-48.65018666666666">
                <ele>10.7</ele>
            </trkpt>
            <trkpt lat="-27.002585" lon="-48.650171666666665">
                <ele>11.4</ele>
            </trkpt>
            <trkpt lat="-27.002603333333333" lon="-48.65015333333334">
                <ele>13</ele>
            </trkpt>
            <trkpt lat="-27.002615" lon="-48.65014333333333">
                <ele>13.9</ele>
            </trkpt>
            <trkpt lat="-27.00262" lon="-48.65013833333334">
                <ele>14.2</ele>
            </trkpt>
            <trkpt lat="-27.002625" lon="-48.65013166666666">
                <ele>14.6</ele>
            </trkpt>
            <trkpt lat="-27.002625" lon="-48.65013166666666">
                <ele>14.6</ele>
            </trkpt>
            <trkpt lat="-27.00263" lon="-48.650130000000004">
                <ele>14.799999999999999</ele>
            </trkpt>
            <trkpt lat="-27.002633333333332" lon="-48.650128333333335">
                <ele>14.5</ele>
            </trkpt>
            <trkpt lat="-27.002636666666664" lon="-48.650128333333335">
                <ele>14.2</ele>
            </trkpt>
            <trkpt lat="-27.002639999999996" lon="-48.650128333333335">
                <ele>13.799999999999999</ele>
            </trkpt>
            <trkpt lat="-27.002638333333334" lon="-48.650130000000004">
                <ele>13.6</ele>
            </trkpt>
            <trkpt lat="-27.002639999999996" lon="-48.650130000000004">
                <ele>13.7</ele>
            </trkpt>
            <trkpt lat="-27.002639999999996" lon="-48.650130000000004">
                <ele>13.7</ele>
            </trkpt>
            <trkpt lat="-27.002641666666666" lon="-48.650130000000004">
                <ele>13.6</ele>
            </trkpt>
            <trkpt lat="-27.002648333333333" lon="-48.650130000000004">
                <ele>13.4</ele>
            </trkpt>
            <trkpt lat="-27.002651666666665" lon="-48.65013166666666">
                <ele>13.5</ele>
            </trkpt>
            <trkpt lat="-27.002651666666665" lon="-48.65013166666666">
                <ele>13.5</ele>
            </trkpt>
            <trkpt lat="-27.002653333333335" lon="-48.65013333333333">
                <ele>13.5</ele>
            </trkpt>
            <trkpt lat="-27.002653333333335" lon="-48.650135">
                <ele>13.1</ele>
            </trkpt>
            <trkpt lat="-27.002654999999997" lon="-48.650135">
                <ele>12.299999999999999</ele>
            </trkpt>
            <trkpt lat="-27.002654999999997" lon="-48.650135">
                <ele>12.299999999999999</ele>
            </trkpt>
            <trkpt lat="-27.002654999999997" lon="-48.650135">
                <ele>11.799999999999999</ele>
            </trkpt>
            <trkpt lat="-27.002656666666667" lon="-48.650135">
                <ele>11.299999999999999</ele>
            </trkpt>
            <trkpt lat="-27.002656666666667" lon="-48.650135">
                <ele>11</ele>
            </trkpt>
            <trkpt lat="-27.002654999999997" lon="-48.65013833333334">
                <ele>11</ele>
            </trkpt>
            <trkpt lat="-27.002654999999997" lon="-48.65013833333334">
                <ele>11</ele>
            </trkpt>
            <trkpt lat="-27.002654999999997" lon="-48.65013833333334">
                <ele>10.799999999999999</ele>
            </trkpt>
            <trkpt lat="-27.002654999999997" lon="-48.65013666666667">
                <ele>10.799999999999999</ele>
            </trkpt>
            <trkpt lat="-27.002658333333336" lon="-48.65013166666666">
                <ele>10.6</ele>
            </trkpt>
            <trkpt lat="-27.002658333333336" lon="-48.65013166666666">
                <ele>10.6</ele>
            </trkpt>
            <trkpt lat="-27.002658333333336" lon="-48.65013166666666">
                <ele>10.6</ele>
            </trkpt>
            <trkpt lat="-27.002658333333336" lon="-48.65013166666666">
                <ele>10.6</ele>
            </trkpt>
            <trkpt lat="-27.002658333333336" lon="-48.65013166666666">
                <ele>10.6</ele>
            </trkpt>
            <trkpt lat="-27.002658333333336" lon="-48.65013166666666">
                <ele>10.6</ele>
            </trkpt>
            <trkpt lat="-27.002658333333336" lon="-48.65013166666666">
                <ele>10.6</ele>
            </trkpt>
            <trkpt lat="-27.002658333333336" lon="-48.65013166666666">
                <ele>10.6</ele>
            </trkpt>
            <trkpt lat="-27.002658333333336" lon="-48.65013166666666">
                <ele>10.6</ele>
            </trkpt>
            <trkpt lat="-27.002658333333336" lon="-48.65013166666666">
                <ele>10.6</ele>
            </trkpt>
            <trkpt lat="-27.002658333333336" lon="-48.65013166666666">
                <ele>10.6</ele>
            </trkpt>
            <trkpt lat="-27.002658333333336" lon="-48.65013166666666">
                <ele>10.6</ele>
            </trkpt>
            <trkpt lat="-27.002658333333336" lon="-48.65013166666666">
                <ele>10.6</ele>
            </trkpt>
            <trkpt lat="-27.002658333333336" lon="-48.65013166666666">
                <ele>10.6</ele>
            </trkpt>
            <trkpt lat="-27.002658333333336" lon="-48.65013166666666">
                <ele>10.6</ele>
            </trkpt>
            <trkpt lat="-27.002658333333336" lon="-48.65013166666666">
                <ele>10.6</ele>
            </trkpt>
            <trkpt lat="-27.002658333333336" lon="-48.65013166666666">
                <ele>10.6</ele>
            </trkpt>
            <trkpt lat="-27.002658333333336" lon="-48.65013166666666">
                <ele>10.6</ele>
            </trkpt>
            <trkpt lat="-27.002658333333336" lon="-48.65013166666666">
                <ele>10.6</ele>
            </trkpt>
            <trkpt lat="-27.002658333333336" lon="-48.65013166666666">
                <ele>10.6</ele>
            </trkpt>
            <trkpt lat="-27.002658333333336" lon="-48.65013166666666">
                <ele>10.6</ele>
            </trkpt>
            <trkpt lat="-27.00268" lon="-48.65012166666667">
                <ele>9.799999999999999</ele>
            </trkpt>
            <trkpt lat="-27.002683333333334" lon="-48.65013333333333">
                <ele>10</ele>
            </trkpt>
            <trkpt lat="-27.002693333333333" lon="-48.65014166666666">
                <ele>10.2</ele>
            </trkpt>
            <trkpt lat="-27.002703333333336" lon="-48.65014666666666">
                <ele>10.299999999999999</ele>
            </trkpt>
            <trkpt lat="-27.00270666666667" lon="-48.650150000000004">
                <ele>10.6</ele>
            </trkpt>
            <trkpt lat="-27.002711666666663" lon="-48.65014833333333">
                <ele>10.9</ele>
            </trkpt>
            <trkpt lat="-27.002715" lon="-48.65014666666666">
                <ele>10.9</ele>
            </trkpt>
            <trkpt lat="-27.002715" lon="-48.65014666666666">
                <ele>10.9</ele>
            </trkpt>
            <trkpt lat="-27.00272166666667" lon="-48.65014166666666">
                <ele>10.7</ele>
            </trkpt>
            <trkpt lat="-27.002738333333333" lon="-48.650145">
                <ele>10.799999999999999</ele>
            </trkpt>
            <trkpt lat="-27.002748333333336" lon="-48.65015166666667">
                <ele>10.799999999999999</ele>
            </trkpt>
            <trkpt lat="-27.002765" lon="-48.65016166666666">
                <ele>11</ele>
            </trkpt>
            <trkpt lat="-27.002776666666666" lon="-48.650169999999996">
                <ele>11.2</ele>
            </trkpt>
            <trkpt lat="-27.002786666666665" lon="-48.65018833333333">
                <ele>11.299999999999999</ele>
            </trkpt>
            <trkpt lat="-27.002791666666667" lon="-48.650195000000004">
                <ele>11.4</ele>
            </trkpt>
            <trkpt lat="-27.002791666666667" lon="-48.650195000000004">
                <ele>11.299999999999999</ele>
            </trkpt>
            <trkpt lat="-27.002795" lon="-48.650195000000004">
                <ele>11.4</ele>
            </trkpt>
            <trkpt lat="-27.002789999999997" lon="-48.65019833333334">
                <ele>11.5</ele>
            </trkpt>
            <trkpt lat="-27.002791666666667" lon="-48.65020166666667">
                <ele>11.4</ele>
            </trkpt>
            <trkpt lat="-27.002793333333337" lon="-48.65020333333334">
                <ele>11.1</ele>
            </trkpt>
            <trkpt lat="-27.002793333333337" lon="-48.65020333333334">
                <ele>11.1</ele>
            </trkpt>
            <trkpt lat="-27.00279833333333" lon="-48.65020166666667">
                <ele>11.2</ele>
            </trkpt>
            <trkpt lat="-27.002805" lon="-48.650195000000004">
                <ele>11.299999999999999</ele>
            </trkpt>
            <trkpt lat="-27.002813333333332" lon="-48.65018499999999">
                <ele>11.6</ele>
            </trkpt>
            <trkpt lat="-27.002819999999996" lon="-48.650169999999996">
                <ele>11.6</ele>
            </trkpt>
            <trkpt lat="-27.00281" lon="-48.650150000000004">
                <ele>12.2</ele>
            </trkpt>
            <trkpt lat="-27.0028" lon="-48.65013666666667">
                <ele>12.5</ele>
            </trkpt>
            <trkpt lat="-27.002789999999997" lon="-48.650130000000004">
                <ele>12.1</ele>
            </trkpt>
            <trkpt lat="-27.002783333333333" lon="-48.650124999999996">
                <ele>11.799999999999999</ele>
            </trkpt>
            <trkpt lat="-27.002773333333334" lon="-48.65011833333333">
                <ele>11.4</ele>
            </trkpt>
            <trkpt lat="-27.002763333333338" lon="-48.65011833333333">
                <ele>11.299999999999999</ele>
            </trkpt>
            <trkpt lat="-27.002756666666663" lon="-48.65012">
                <ele>11.299999999999999</ele>
            </trkpt>
            <trkpt lat="-27.00275" lon="-48.65011666666666">
                <ele>11</ele>
            </trkpt>
            <trkpt lat="-27.00275" lon="-48.65011666666666">
                <ele>11</ele>
            </trkpt>
            <trkpt lat="-27.002740000000003" lon="-48.65011166666667">
                <ele>10.799999999999999</ele>
            </trkpt>
            <trkpt lat="-27.002733333333335" lon="-48.65010833333334">
                <ele>10.6</ele>
            </trkpt>
            <trkpt lat="-27.002729999999996" lon="-48.650105">
                <ele>10.2</ele>
            </trkpt>
            <trkpt lat="-27.002726666666664" lon="-48.6501">
                <ele>9.9</ele>
            </trkpt>
            <trkpt lat="-27.002726666666664" lon="-48.65009666666666">
                <ele>10.1</ele>
            </trkpt>
            <trkpt lat="-27.002726666666664" lon="-48.65009666666666">
                <ele>10.1</ele>
            </trkpt>
            <trkpt lat="-27.002726666666664" lon="-48.65009666666666">
                <ele>10.1</ele>
            </trkpt>
            <trkpt lat="-27.002728333333334" lon="-48.65009333333334">
                <ele>10.2</ele>
            </trkpt>
            <trkpt lat="-27.002726666666664" lon="-48.65009333333334">
                <ele>10.1</ele>
            </trkpt>
            <trkpt lat="-27.002728333333334" lon="-48.65009499999999">
                <ele>10.4</ele>
            </trkpt>
            <trkpt lat="-27.002728333333334" lon="-48.650085000000004">
                <ele>10.5</ele>
            </trkpt>
            <trkpt lat="-27.002726666666664" lon="-48.65007000000001">
                <ele>10.9</ele>
            </trkpt>
            <trkpt lat="-27.00272166666667" lon="-48.65005333333333">
                <ele>10.7</ele>
            </trkpt>
            <trkpt lat="-27.002715" lon="-48.650040000000004">
                <ele>10.2</ele>
            </trkpt>
            <trkpt lat="-27.002705" lon="-48.65003166666667">
                <ele>9.6</ele>
            </trkpt>
            <trkpt lat="-27.002689999999998" lon="-48.65001833333334">
                <ele>8.8</ele>
            </trkpt>
            <trkpt lat="-27.00268" lon="-48.64999833333333">
                <ele>7.800000000000001</ele>
            </trkpt>
            <trkpt lat="-27.002668333333336" lon="-48.649975">
                <ele>7</ele>
            </trkpt>
            <trkpt lat="-27.002643333333335" lon="-48.64995333333333">
                <ele>7.5</ele>
            </trkpt>
            <trkpt lat="-27.002621666666663" lon="-48.649935000000006">
                <ele>7.800000000000001</ele>
            </trkpt>
            <trkpt lat="-27.002598333333335" lon="-48.64991499999999">
                <ele>7.300000000000001</ele>
            </trkpt>
            <trkpt lat="-27.002578333333336" lon="-48.64989166666666">
                <ele>6.1</ele>
            </trkpt>
            <trkpt lat="-27.002551666666665" lon="-48.64986166666666">
                <ele>5.1</ele>
            </trkpt>
            <trkpt lat="-27.002551666666665" lon="-48.64986166666666">
                <ele>5.1</ele>
            </trkpt>
            <trkpt lat="-27.002521666666667" lon="-48.649833333333326">
                <ele>5.1</ele>
            </trkpt>
            <trkpt lat="-27.002501666666664" lon="-48.649811666666665">
                <ele>5</ele>
            </trkpt>
            <trkpt lat="-27.002478333333336" lon="-48.64979333333334">
                <ele>4.800000000000001</ele>
            </trkpt>
            <trkpt lat="-27.002458333333333" lon="-48.64977333333333">
                <ele>4.1</ele>
            </trkpt>
            <trkpt lat="-27.002444999999998" lon="-48.64976">
                <ele>3.7</ele>
            </trkpt>
            <trkpt lat="-27.002436666666668" lon="-48.64975">
                <ele>3.6</ele>
            </trkpt>
            <trkpt lat="-27.002429999999997" lon="-48.64973666666666">
                <ele>3.3</ele>
            </trkpt>
            <trkpt lat="-27.002429999999997" lon="-48.64973333333334">
                <ele>3.6</ele>
            </trkpt>
            <trkpt lat="-27.002431666666666" lon="-48.64973333333334">
                <ele>3.9</ele>
            </trkpt>
            <trkpt lat="-27.002426666666665" lon="-48.64972666666666">
                <ele>4.7</ele>
            </trkpt>
            <trkpt lat="-27.00242166666667" lon="-48.649723333333334">
                <ele>5.6</ele>
            </trkpt>
            <trkpt lat="-27.002418333333335" lon="-48.649719999999995">
                <ele>6.300000000000001</ele>
            </trkpt>
            <trkpt lat="-27.002418333333335" lon="-48.649719999999995">
                <ele>6.300000000000001</ele>
            </trkpt>
            <trkpt lat="-27.002414999999996" lon="-48.649721666666665">
                <ele>6.800000000000001</ele>
            </trkpt>
            <trkpt lat="-27.002413333333333" lon="-48.649721666666665">
                <ele>7</ele>
            </trkpt>
            <trkpt lat="-27.002413333333333" lon="-48.649721666666665">
                <ele>7.5</ele>
            </trkpt>
            <trkpt lat="-27.002413333333333" lon="-48.649721666666665">
                <ele>7.699999999999999</ele>
            </trkpt>
            <trkpt lat="-27.00241" lon="-48.649725000000004">
                <ele>8</ele>
            </trkpt>
            <trkpt lat="-27.00241" lon="-48.649725000000004">
                <ele>8</ele>
            </trkpt>
            <trkpt lat="-27.00241" lon="-48.649725000000004">
                <ele>8</ele>
            </trkpt>
            <trkpt lat="-27.00241" lon="-48.649725000000004">
                <ele>8</ele>
            </trkpt>
            <trkpt lat="-27.00241" lon="-48.649725000000004">
                <ele>8</ele>
            </trkpt>
            <trkpt lat="-27.002401666666668" lon="-48.64970166666667">
                <ele>9.1</ele>
            </trkpt>
            <trkpt lat="-27.002396666666662" lon="-48.649674999999995">
                <ele>10.1</ele>
            </trkpt>
            <trkpt lat="-27.002388333333336" lon="-48.64965166666666">
                <ele>10.5</ele>
            </trkpt>
            <trkpt lat="-27.00237666666667" lon="-48.64962833333334">
                <ele>10.6</ele>
            </trkpt>
            <trkpt lat="-27.00236" lon="-48.64960666666666">
                <ele>10.5</ele>
            </trkpt>
            <trkpt lat="-27.002343333333336" lon="-48.64957833333333">
                <ele>10.4</ele>
            </trkpt>
            <trkpt lat="-27.002321666666663" lon="-48.649539999999995">
                <ele>10.6</ele>
            </trkpt>
            <trkpt lat="-27.002293333333334" lon="-48.649515">
                <ele>10.7</ele>
            </trkpt>
            <trkpt lat="-27.00227333333333" lon="-48.649475">
                <ele>10.299999999999999</ele>
            </trkpt>
            <trkpt lat="-27.00226" lon="-48.649445">
                <ele>10.5</ele>
            </trkpt>
            <trkpt lat="-27.002250000000004" lon="-48.64941833333334">
                <ele>11.1</ele>
            </trkpt>
            <trkpt lat="-27.00224166666667" lon="-48.64938833333334">
                <ele>12</ele>
            </trkpt>
            <trkpt lat="-27.002233333333333" lon="-48.64937666666666">
                <ele>12.9</ele>
            </trkpt>
            <trkpt lat="-27.002235000000002" lon="-48.64938166666668">
                <ele>12.4</ele>
            </trkpt>
            <trkpt lat="-27.002235000000002" lon="-48.64938833333334">
                <ele>12.5</ele>
            </trkpt>
            <trkpt lat="-27.002235000000002" lon="-48.64938833333334">
                <ele>12.5</ele>
            </trkpt>
            <trkpt lat="-27.002236666666665" lon="-48.649391666666666">
                <ele>12.799999999999999</ele>
            </trkpt>
            <trkpt lat="-27.002235000000002" lon="-48.64939">
                <ele>12.7</ele>
            </trkpt>
            <trkpt lat="-27.002233333333333" lon="-48.64938833333334">
                <ele>12.6</ele>
            </trkpt>
            <trkpt lat="-27.002233333333333" lon="-48.64939">
                <ele>12.5</ele>
            </trkpt>
            <trkpt lat="-27.002233333333333" lon="-48.649391666666666">
                <ele>12.6</ele>
            </trkpt>
            <trkpt lat="-27.002233333333333" lon="-48.649391666666666">
                <ele>12.6</ele>
            </trkpt>
            <trkpt lat="-27.00223" lon="-48.649393333333336">
                <ele>12.7</ele>
            </trkpt>
            <trkpt lat="-27.00222666666667" lon="-48.64939833333333">
                <ele>13</ele>
            </trkpt>
            <trkpt lat="-27.002220000000005" lon="-48.649391666666666">
                <ele>12.799999999999999</ele>
            </trkpt>
            <trkpt lat="-27.002215" lon="-48.649383333333326">
                <ele>13.1</ele>
            </trkpt>
            <trkpt lat="-27.002201666666664" lon="-48.64935833333334">
                <ele>13.2</ele>
            </trkpt>
            <trkpt lat="-27.002188333333333" lon="-48.64932999999999">
                <ele>13.5</ele>
            </trkpt>
            <trkpt lat="-27.002171666666662" lon="-48.64929833333334">
                <ele>13.5</ele>
            </trkpt>
            <trkpt lat="-27.002161666666666" lon="-48.64928">
                <ele>13.299999999999999</ele>
            </trkpt>
            <trkpt lat="-27.002161666666666" lon="-48.64928">
                <ele>13.299999999999999</ele>
            </trkpt>
            <trkpt lat="-27.002156666666664" lon="-48.649275">
                <ele>13</ele>
            </trkpt>
            <trkpt lat="-27.002153333333332" lon="-48.64927666666667">
                <ele>13</ele>
            </trkpt>
            <trkpt lat="-27.002149999999997" lon="-48.64927666666667">
                <ele>13</ele>
            </trkpt>
            <trkpt lat="-27.002149999999997" lon="-48.64927833333333">
                <ele>13</ele>
            </trkpt>
            <trkpt lat="-27.00215166666667" lon="-48.64927833333333">
                <ele>13</ele>
            </trkpt>
            <trkpt lat="-27.00215166666667" lon="-48.64927833333333">
                <ele>13</ele>
            </trkpt>
            <trkpt lat="-27.002153333333332" lon="-48.64927833333333">
                <ele>13.1</ele>
            </trkpt>
            <trkpt lat="-27.002153333333332" lon="-48.64927833333333">
                <ele>13.4</ele>
            </trkpt>
            <trkpt lat="-27.002153333333332" lon="-48.64927333333333">
                <ele>13.5</ele>
            </trkpt>
            <trkpt lat="-27.002148333333334" lon="-48.64926333333333">
                <ele>13.5</ele>
            </trkpt>
            <trkpt lat="-27.002133333333337" lon="-48.64924333333333">
                <ele>13.799999999999999</ele>
            </trkpt>
            <trkpt lat="-27.002121666666667" lon="-48.649224999999994">
                <ele>13.7</ele>
            </trkpt>
            <trkpt lat="-27.002110000000002" lon="-48.649205">
                <ele>13.6</ele>
            </trkpt>
            <trkpt lat="-27.002096666666663" lon="-48.64919">
                <ele>13.2</ele>
            </trkpt>
            <trkpt lat="-27.002096666666663" lon="-48.64919">
                <ele>13.2</ele>
            </trkpt>
            <trkpt lat="-27.00209166666667" lon="-48.64918333333333">
                <ele>13</ele>
            </trkpt>
            <trkpt lat="-27.002088333333337" lon="-48.649185">
                <ele>13</ele>
            </trkpt>
            <trkpt lat="-27.002086666666667" lon="-48.649181666666664">
                <ele>12.9</ele>
            </trkpt>
            <trkpt lat="-27.002083333333335" lon="-48.649179999999994">
                <ele>13</ele>
            </trkpt>
            <trkpt lat="-27.002083333333335" lon="-48.649179999999994">
                <ele>13</ele>
            </trkpt>
            <trkpt lat="-27.00207833333333" lon="-48.64917666666667">
                <ele>13</ele>
            </trkpt>
            <trkpt lat="-27.002074999999998" lon="-48.649170000000005">
                <ele>13.1</ele>
            </trkpt>
            <trkpt lat="-27.00206166666667" lon="-48.649158333333325">
                <ele>13</ele>
            </trkpt>
            <trkpt lat="-27.00204833333333" lon="-48.64913833333333">
                <ele>13.1</ele>
            </trkpt>
            <trkpt lat="-27.00203333333333" lon="-48.64911">
                <ele>13.1</ele>
            </trkpt>
            <trkpt lat="-27.00202" lon="-48.649085">
                <ele>12.6</ele>
            </trkpt>
            <trkpt lat="-27.002006666666663" lon="-48.64906166666666">
                <ele>12.4</ele>
            </trkpt>
            <trkpt lat="-27.00199166666666" lon="-48.649036666666674">
                <ele>12</ele>
            </trkpt>
            <trkpt lat="-27.001976666666664" lon="-48.64901833333333">
                <ele>11.299999999999999</ele>
            </trkpt>
            <trkpt lat="-27.001963333333332" lon="-48.64900333333333">
                <ele>11</ele>
            </trkpt>
            <trkpt lat="-27.00195833333333" lon="-48.648990000000005">
                <ele>10.799999999999999</ele>
            </trkpt>
            <trkpt lat="-27.001951666666667" lon="-48.64897666666668">
                <ele>10.5</ele>
            </trkpt>
            <trkpt lat="-27.001951666666667" lon="-48.64897666666668">
                <ele>10.5</ele>
            </trkpt>
            <trkpt lat="-27.00194333333333" lon="-48.64896333333333">
                <ele>10.6</ele>
            </trkpt>
            <trkpt lat="-27.001938333333335" lon="-48.64895">
                <ele>10.2</ele>
            </trkpt>
            <trkpt lat="-27.001931666666664" lon="-48.64893833333334">
                <ele>9.9</ele>
            </trkpt>
            <trkpt lat="-27.001928333333332" lon="-48.64892833333333">
                <ele>9.799999999999999</ele>
            </trkpt>
            <trkpt lat="-27.001921666666664" lon="-48.64891833333333">
                <ele>9.6</ele>
            </trkpt>
            <trkpt lat="-27.001916666666663" lon="-48.64890833333334">
                <ele>9.4</ele>
            </trkpt>
            <trkpt lat="-27.001916666666663" lon="-48.64890833333334">
                <ele>9.4</ele>
            </trkpt>
            <trkpt lat="-27.00191" lon="-48.64889333333334">
                <ele>8.9</ele>
            </trkpt>
            <trkpt lat="-27.001896666666667" lon="-48.64888166666666">
                <ele>8.8</ele>
            </trkpt>
            <trkpt lat="-27.001890000000003" lon="-48.648864999999994">
                <ele>8.9</ele>
            </trkpt>
            <trkpt lat="-27.001876666666664" lon="-48.64884166666668">
                <ele>8.8</ele>
            </trkpt>
            <trkpt lat="-27.001863333333336" lon="-48.64881666666667">
                <ele>8.7</ele>
            </trkpt>
            <trkpt lat="-27.001849999999997" lon="-48.648786666666666">
                <ele>8.9</ele>
            </trkpt>
            <trkpt lat="-27.001831666666664" lon="-48.648763333333335">
                <ele>8.9</ele>
            </trkpt>
            <trkpt lat="-27.001816666666667" lon="-48.648741666666666">
                <ele>8.7</ele>
            </trkpt>
            <trkpt lat="-27.001816666666667" lon="-48.648741666666666">
                <ele>8.7</ele>
            </trkpt>
            <trkpt lat="-27.001804999999997" lon="-48.648718333333335">
                <ele>8.8</ele>
            </trkpt>
            <trkpt lat="-27.00179666666667" lon="-48.64869333333333">
                <ele>8</ele>
            </trkpt>
            <trkpt lat="-27.001785" lon="-48.648675000000004">
                <ele>7.6</ele>
            </trkpt>
            <trkpt lat="-27.001768333333334" lon="-48.648649999999996">
                <ele>8</ele>
            </trkpt>
            <trkpt lat="-27.001753333333333" lon="-48.648628333333335">
                <ele>8.5</ele>
            </trkpt>
            <trkpt lat="-27.00174" lon="-48.648608333333335">
                <ele>9.5</ele>
            </trkpt>
            <trkpt lat="-27.001725000000004" lon="-48.648583333333335">
                <ele>9.6</ele>
            </trkpt>
            <trkpt lat="-27.001710000000003" lon="-48.64856666666666">
                <ele>9.1</ele>
            </trkpt>
            <trkpt lat="-27.001693333333332" lon="-48.64854999999999">
                <ele>8.9</ele>
            </trkpt>
            <trkpt lat="-27.001686666666668" lon="-48.648536666666665">
                <ele>8.6</ele>
            </trkpt>
            <trkpt lat="-27.001683333333336" lon="-48.64853166666667">
                <ele>8.8</ele>
            </trkpt>
            <trkpt lat="-27.001683333333336" lon="-48.64853166666667">
                <ele>8.8</ele>
            </trkpt>
            <trkpt lat="-27.001685" lon="-48.648528333333324">
                <ele>8.5</ele>
            </trkpt>
            <trkpt lat="-27.001685" lon="-48.64853166666667">
                <ele>8.5</ele>
            </trkpt>
            <trkpt lat="-27.001686666666668" lon="-48.64853333333334">
                <ele>8.8</ele>
            </trkpt>
            <trkpt lat="-27.001686666666668" lon="-48.648536666666665">
                <ele>8.9</ele>
            </trkpt>
            <trkpt lat="-27.00169" lon="-48.648540000000004">
                <ele>9</ele>
            </trkpt>
            <trkpt lat="-27.00169" lon="-48.648540000000004">
                <ele>9</ele>
            </trkpt>
            <trkpt lat="-27.001685" lon="-48.648534999999995">
                <ele>9.1</ele>
            </trkpt>
            <trkpt lat="-27.001683333333336" lon="-48.648528333333324">
                <ele>9</ele>
            </trkpt>
            <trkpt lat="-27.001680000000004" lon="-48.64851333333333">
                <ele>8.6</ele>
            </trkpt>
            <trkpt lat="-27.001671666666667" lon="-48.648495000000004">
                <ele>8.5</ele>
            </trkpt>
            <trkpt lat="-27.001654999999996" lon="-48.648469999999996">
                <ele>7.9</ele>
            </trkpt>
            <trkpt lat="-27.001636666666666" lon="-48.648446666666665">
                <ele>7.699999999999999</ele>
            </trkpt>
            <trkpt lat="-27.001621666666665" lon="-48.648426666666666">
                <ele>7.300000000000001</ele>
            </trkpt>
            <trkpt lat="-27.001609999999996" lon="-48.64841333333334">
                <ele>7.1</ele>
            </trkpt>
            <trkpt lat="-27.001603333333332" lon="-48.64841">
                <ele>7</ele>
            </trkpt>
            <trkpt lat="-27.001596666666668" lon="-48.64840833333333">
                <ele>7</ele>
            </trkpt>
            <trkpt lat="-27.001595" lon="-48.64840833333333">
                <ele>7.199999999999999</ele>
            </trkpt>
            <trkpt lat="-27.001595" lon="-48.64840833333333">
                <ele>7.4</ele>
            </trkpt>
            <trkpt lat="-27.001596666666668" lon="-48.648405000000004">
                <ele>7.199999999999999</ele>
            </trkpt>
            <trkpt lat="-27.001596666666668" lon="-48.648405000000004">
                <ele>7.199999999999999</ele>
            </trkpt>
            <trkpt lat="-27.001596666666668" lon="-48.648403333333334">
                <ele>7.199999999999999</ele>
            </trkpt>
            <trkpt lat="-27.00159833333333" lon="-48.648403333333334">
                <ele>7</ele>
            </trkpt>
            <trkpt lat="-27.00159833333333" lon="-48.648405000000004">
                <ele>6.800000000000001</ele>
            </trkpt>
            <trkpt lat="-27.001596666666668" lon="-48.648403333333334">
                <ele>6.699999999999999</ele>
            </trkpt>
            <trkpt lat="-27.001596666666668" lon="-48.648405000000004">
                <ele>6.699999999999999</ele>
            </trkpt>
            <trkpt lat="-27.00159833333333" lon="-48.64840666666667">
                <ele>6.5</ele>
            </trkpt>
            <trkpt lat="-27.00159833333333" lon="-48.64840666666667">
                <ele>6.5</ele>
            </trkpt>
            <trkpt lat="-27.00159833333333" lon="-48.64840666666667">
                <ele>6.5</ele>
            </trkpt>
            <trkpt lat="-27.00159833333333" lon="-48.64840666666667">
                <ele>6.5</ele>
            </trkpt>
            <trkpt lat="-27.001585" lon="-48.64839833333334">
                <ele>7</ele>
            </trkpt>
            <trkpt lat="-27.001581666666667" lon="-48.648385000000005">
                <ele>6.6</ele>
            </trkpt>
            <trkpt lat="-27.00157" lon="-48.648365">
                <ele>6.300000000000001</ele>
            </trkpt>
            <trkpt lat="-27.00155666666667" lon="-48.648348333333324">
                <ele>6.300000000000001</ele>
            </trkpt>
            <trkpt lat="-27.001545000000004" lon="-48.64834166666666">
                <ele>6.5</ele>
            </trkpt>
            <trkpt lat="-27.00152666666667" lon="-48.64833166666667">
                <ele>6.9</ele>
            </trkpt>
            <trkpt lat="-27.001515" lon="-48.64832">
                <ele>7.199999999999999</ele>
            </trkpt>
            <trkpt lat="-27.001500000000004" lon="-48.64830666666667">
                <ele>7.300000000000001</ele>
            </trkpt>
            <trkpt lat="-27.001488333333334" lon="-48.648289999999996">
                <ele>7.300000000000001</ele>
            </trkpt>
            <trkpt lat="-27.001474999999996" lon="-48.648270000000004">
                <ele>7.300000000000001</ele>
            </trkpt>
            <trkpt lat="-27.001455000000004" lon="-48.64825333333333">
                <ele>7.1</ele>
            </trkpt>
            <trkpt lat="-27.001438333333333" lon="-48.64824166666667">
                <ele>6.9</ele>
            </trkpt>
            <trkpt lat="-27.00141833333333" lon="-48.64822666666667">
                <ele>6.4</ele>
            </trkpt>
            <trkpt lat="-27.001413333333335" lon="-48.648225000000004">
                <ele>4.9</ele>
            </trkpt>
            <trkpt lat="-27.001410000000003" lon="-48.648223333333334">
                <ele>4.9</ele>
            </trkpt>
            <trkpt lat="-27.001405" lon="-48.64822666666667">
                <ele>5.2</ele>
            </trkpt>
            <trkpt lat="-27.001399999999997" lon="-48.64823">
                <ele>5.6</ele>
            </trkpt>
            <trkpt lat="-27.001393333333333" lon="-48.64822833333333">
                <ele>6.300000000000001</ele>
            </trkpt>
            <trkpt lat="-27.00138666666667" lon="-48.64822666666667">
                <ele>6.300000000000001</ele>
            </trkpt>
            <trkpt lat="-27.00137833333333" lon="-48.648223333333334">
                <ele>6.699999999999999</ele>
            </trkpt>
            <trkpt lat="-27.00137833333333" lon="-48.648223333333334">
                <ele>6.699999999999999</ele>
            </trkpt>
            <trkpt lat="-27.001369999999998" lon="-48.64822000000001">
                <ele>6.9</ele>
            </trkpt>
            <trkpt lat="-27.001369999999998" lon="-48.648215">
                <ele>7.1</ele>
            </trkpt>
            <trkpt lat="-27.00137333333333" lon="-48.648211666666676">
                <ele>7.300000000000001</ele>
            </trkpt>
            <trkpt lat="-27.001371666666667" lon="-48.648211666666676">
                <ele>7.300000000000001</ele>
            </trkpt>
            <trkpt lat="-27.001371666666667" lon="-48.64820833333333">
                <ele>7.300000000000001</ele>
            </trkpt>
            <trkpt lat="-27.001371666666667" lon="-48.64820833333333">
                <ele>7.300000000000001</ele>
            </trkpt>
            <trkpt lat="-27.001371666666667" lon="-48.64820833333333">
                <ele>7.300000000000001</ele>
            </trkpt>
            <trkpt lat="-27.001371666666667" lon="-48.64820833333333">
                <ele>7.300000000000001</ele>
            </trkpt>
            <trkpt lat="-27.001371666666667" lon="-48.64820833333333">
                <ele>7.300000000000001</ele>
            </trkpt>
            <trkpt lat="-27.001371666666667" lon="-48.64820833333333">
                <ele>7.300000000000001</ele>
            </trkpt>
            <trkpt lat="-27.001371666666667" lon="-48.64820833333333">
                <ele>7.300000000000001</ele>
            </trkpt>
            <trkpt lat="-27.001371666666667" lon="-48.64820833333333">
                <ele>7.300000000000001</ele>
            </trkpt>
            <trkpt lat="-27.001371666666667" lon="-48.64820833333333">
                <ele>7.300000000000001</ele>
            </trkpt>
            <trkpt lat="-27.001371666666667" lon="-48.64820833333333">
                <ele>7.300000000000001</ele>
            </trkpt>
            <trkpt lat="-27.001371666666667" lon="-48.64820833333333">
                <ele>7.300000000000001</ele>
            </trkpt>
            <trkpt lat="-27.001371666666667" lon="-48.64820833333333">
                <ele>7.300000000000001</ele>
            </trkpt>
            <trkpt lat="-27.001371666666667" lon="-48.64820833333333">
                <ele>7.300000000000001</ele>
            </trkpt>
            <trkpt lat="-27.001371666666667" lon="-48.64820833333333">
                <ele>7.300000000000001</ele>
            </trkpt>
            <trkpt lat="-27.001371666666667" lon="-48.64820833333333">
                <ele>7.300000000000001</ele>
            </trkpt>
            <trkpt lat="-27.001371666666667" lon="-48.64820833333333">
                <ele>7.300000000000001</ele>
            </trkpt>
            <trkpt lat="-27.001371666666667" lon="-48.64820833333333">
                <ele>7.300000000000001</ele>
            </trkpt>
            <trkpt lat="-27.001371666666667" lon="-48.64820833333333">
                <ele>7.300000000000001</ele>
            </trkpt>
            <trkpt lat="-27.001371666666667" lon="-48.64820833333333">
                <ele>7.300000000000001</ele>
            </trkpt>
            <trkpt lat="-27.001371666666667" lon="-48.64820833333333">
                <ele>7.300000000000001</ele>
            </trkpt>
            <trkpt lat="-27.001371666666667" lon="-48.64820833333333">
                <ele>7.300000000000001</ele>
            </trkpt>
            <trkpt lat="-27.001371666666667" lon="-48.64820833333333">
                <ele>7.300000000000001</ele>
            </trkpt>
            <trkpt lat="-27.001371666666667" lon="-48.64820833333333">
                <ele>7.300000000000001</ele>
            </trkpt>
            <trkpt lat="-27.001371666666667" lon="-48.64820833333333">
                <ele>7.300000000000001</ele>
            </trkpt>
            <trkpt lat="-27.001371666666667" lon="-48.64820833333333">
                <ele>7.300000000000001</ele>
            </trkpt>
            <trkpt lat="-27.001371666666667" lon="-48.64820833333333">
                <ele>7.300000000000001</ele>
            </trkpt>
            <trkpt lat="-27.001371666666667" lon="-48.64820833333333">
                <ele>7.300000000000001</ele>
            </trkpt>
            <trkpt lat="-27.001371666666667" lon="-48.64820833333333">
                <ele>7.300000000000001</ele>
            </trkpt>
            <trkpt lat="-27.001371666666667" lon="-48.64820833333333">
                <ele>7.300000000000001</ele>
            </trkpt>
            <trkpt lat="-27.001371666666667" lon="-48.64820833333333">
                <ele>7.300000000000001</ele>
            </trkpt>
            <trkpt lat="-27.001371666666667" lon="-48.64820833333333">
                <ele>7.300000000000001</ele>
            </trkpt>
            <trkpt lat="-27.001371666666667" lon="-48.64820833333333">
                <ele>7.300000000000001</ele>
            </trkpt>
            <trkpt lat="-27.001371666666667" lon="-48.64820833333333">
                <ele>7.300000000000001</ele>
            </trkpt>
            <trkpt lat="-27.001371666666667" lon="-48.64820833333333">
                <ele>7.300000000000001</ele>
            </trkpt>
            <trkpt lat="-27.001371666666667" lon="-48.64820833333333">
                <ele>7.300000000000001</ele>
            </trkpt>
            <trkpt lat="-27.001371666666667" lon="-48.64820833333333">
                <ele>7.300000000000001</ele>
            </trkpt>
            <trkpt lat="-27.001371666666667" lon="-48.64820833333333">
                <ele>7.300000000000001</ele>
            </trkpt>
            <trkpt lat="-27.001371666666667" lon="-48.64820833333333">
                <ele>7.300000000000001</ele>
            </trkpt>
            <trkpt lat="-27.001371666666667" lon="-48.64820833333333">
                <ele>7.300000000000001</ele>
            </trkpt>
            <trkpt lat="-27.001371666666667" lon="-48.64820833333333">
                <ele>7.300000000000001</ele>
            </trkpt>
            <trkpt lat="-27.001371666666667" lon="-48.64820833333333">
                <ele>7.300000000000001</ele>
            </trkpt>
            <trkpt lat="-27.001371666666667" lon="-48.64820833333333">
                <ele>7.300000000000001</ele>
            </trkpt>
            <trkpt lat="-27.001371666666667" lon="-48.64820833333333">
                <ele>7.300000000000001</ele>
            </trkpt>
            <trkpt lat="-27.001371666666667" lon="-48.64820833333333">
                <ele>7.300000000000001</ele>
            </trkpt>
            <trkpt lat="-27.001371666666667" lon="-48.64820833333333">
                <ele>7.300000000000001</ele>
            </trkpt>
            <trkpt lat="-27.001371666666667" lon="-48.64820833333333">
                <ele>7.300000000000001</ele>
            </trkpt>
            <trkpt lat="-27.001371666666667" lon="-48.64820833333333">
                <ele>7.300000000000001</ele>
            </trkpt>
            <trkpt lat="-27.001371666666667" lon="-48.64820833333333">
                <ele>7.300000000000001</ele>
            </trkpt>
            <trkpt lat="-27.001371666666667" lon="-48.64820833333333">
                <ele>7.300000000000001</ele>
            </trkpt>
            <trkpt lat="-27.001371666666667" lon="-48.64820833333333">
                <ele>7.300000000000001</ele>
            </trkpt>
            <trkpt lat="-27.001371666666667" lon="-48.64820833333333">
                <ele>7.300000000000001</ele>
            </trkpt>
            <trkpt lat="-27.001371666666667" lon="-48.64820833333333">
                <ele>7.300000000000001</ele>
            </trkpt>
            <trkpt lat="-27.001371666666667" lon="-48.64820833333333">
                <ele>7.300000000000001</ele>
            </trkpt>
            <trkpt lat="-27.001371666666667" lon="-48.64820833333333">
                <ele>7.300000000000001</ele>
            </trkpt>
            <trkpt lat="-27.001371666666667" lon="-48.64820833333333">
                <ele>7.300000000000001</ele>
            </trkpt>
            <trkpt lat="-27.001371666666667" lon="-48.64820833333333">
                <ele>7.300000000000001</ele>
            </trkpt>
            <trkpt lat="-27.001393333333333" lon="-48.64823166666667">
                <ele>5.5</ele>
            </trkpt>
            <trkpt lat="-27.00137833333333" lon="-48.64823666666666">
                <ele>5.6</ele>
            </trkpt>
            <trkpt lat="-27.001366666666666" lon="-48.648246666666665">
                <ele>5.9</ele>
            </trkpt>
            <trkpt lat="-27.00135833333333" lon="-48.64825333333333">
                <ele>6.1</ele>
            </trkpt>
            <trkpt lat="-27.001353333333334" lon="-48.648258333333324">
                <ele>6.199999999999999</ele>
            </trkpt>
            <trkpt lat="-27.001351666666665" lon="-48.648258333333324">
                <ele>6.1</ele>
            </trkpt>
            <trkpt lat="-27.001351666666665" lon="-48.648258333333324">
                <ele>6.1</ele>
            </trkpt>
            <trkpt lat="-27.001351666666665" lon="-48.648258333333324">
                <ele>6.1</ele>
            </trkpt>
            <trkpt lat="-27.001351666666665" lon="-48.648258333333324">
                <ele>6.1</ele>
            </trkpt>
            <trkpt lat="-27.001351666666665" lon="-48.648258333333324">
                <ele>6.1</ele>
            </trkpt>
            <trkpt lat="-27.001351666666665" lon="-48.648258333333324">
                <ele>6.1</ele>
            </trkpt>
            <trkpt lat="-27.001351666666665" lon="-48.648258333333324">
                <ele>6.1</ele>
            </trkpt>
            <trkpt lat="-27.001351666666665" lon="-48.648258333333324">
                <ele>6.1</ele>
            </trkpt>
            <trkpt lat="-27.001351666666665" lon="-48.648258333333324">
                <ele>6.1</ele>
            </trkpt>
            <trkpt lat="-27.001351666666665" lon="-48.648258333333324">
                <ele>6.1</ele>
            </trkpt>
            <trkpt lat="-27.001351666666665" lon="-48.648258333333324">
                <ele>6.1</ele>
            </trkpt>
            <trkpt lat="-27.001365000000003" lon="-48.64823333333334">
                <ele>5.4</ele>
            </trkpt>
            <trkpt lat="-27.001365000000003" lon="-48.64822833333333">
                <ele>5.300000000000001</ele>
            </trkpt>
            <trkpt lat="-27.001365000000003" lon="-48.64822833333333">
                <ele>5.300000000000001</ele>
            </trkpt>
            <trkpt lat="-27.001365000000003" lon="-48.64822833333333">
                <ele>5.300000000000001</ele>
            </trkpt>
            <trkpt lat="-27.001365000000003" lon="-48.648223333333334">
                <ele>5.699999999999999</ele>
            </trkpt>
            <trkpt lat="-27.001363333333334" lon="-48.64821833333334">
                <ele>5.699999999999999</ele>
            </trkpt>
            <trkpt lat="-27.001363333333334" lon="-48.64821833333334">
                <ele>5.699999999999999</ele>
            </trkpt>
            <trkpt lat="-27.001363333333334" lon="-48.64821833333334">
                <ele>5.699999999999999</ele>
            </trkpt>
            <trkpt lat="-27.001363333333334" lon="-48.64821833333334">
                <ele>5.699999999999999</ele>
            </trkpt>
            <trkpt lat="-27.001363333333334" lon="-48.64821833333334">
                <ele>5.699999999999999</ele>
            </trkpt>
            <trkpt lat="-27.001363333333334" lon="-48.64821833333334">
                <ele>5.699999999999999</ele>
            </trkpt>
            <trkpt lat="-27.001363333333334" lon="-48.64821833333334">
                <ele>5.699999999999999</ele>
            </trkpt>
            <trkpt lat="-27.001363333333334" lon="-48.64821833333334">
                <ele>5.699999999999999</ele>
            </trkpt>
            <trkpt lat="-27.001363333333334" lon="-48.64821833333334">
                <ele>5.699999999999999</ele>
            </trkpt>
            <trkpt lat="-27.001363333333334" lon="-48.64821833333334">
                <ele>5.699999999999999</ele>
            </trkpt>
            <trkpt lat="-27.001363333333334" lon="-48.64821833333334">
                <ele>5.699999999999999</ele>
            </trkpt>
            <trkpt lat="-27.001363333333334" lon="-48.64821833333334">
                <ele>5.699999999999999</ele>
            </trkpt>
            <trkpt lat="-27.001363333333334" lon="-48.64821833333334">
                <ele>5.699999999999999</ele>
            </trkpt>
            <trkpt lat="-27.001363333333334" lon="-48.64821833333334">
                <ele>5.699999999999999</ele>
            </trkpt>
            <trkpt lat="-27.001363333333334" lon="-48.64821833333334">
                <ele>5.699999999999999</ele>
            </trkpt>
            <trkpt lat="-27.001363333333334" lon="-48.64821833333334">
                <ele>5.699999999999999</ele>
            </trkpt>
            <trkpt lat="-27.001363333333334" lon="-48.64821833333334">
                <ele>5.699999999999999</ele>
            </trkpt>
            <trkpt lat="-27.001363333333334" lon="-48.64821833333334">
                <ele>5.699999999999999</ele>
            </trkpt>
            <trkpt lat="-27.001363333333334" lon="-48.64821833333334">
                <ele>5.699999999999999</ele>
            </trkpt>
            <trkpt lat="-27.001363333333334" lon="-48.64821833333334">
                <ele>5.699999999999999</ele>
            </trkpt>
            <trkpt lat="-27.001363333333334" lon="-48.64821833333334">
                <ele>5.699999999999999</ele>
            </trkpt>
            <trkpt lat="-27.001363333333334" lon="-48.64821833333334">
                <ele>5.699999999999999</ele>
            </trkpt>
            <trkpt lat="-27.001338333333333" lon="-48.64823">
                <ele>3.7</ele>
            </trkpt>
            <trkpt lat="-27.00134333333333" lon="-48.64823833333333">
                <ele>3.8000000000000003</ele>
            </trkpt>
            <trkpt lat="-27.001351666666665" lon="-48.64824166666667">
                <ele>4</ele>
            </trkpt>
            <trkpt lat="-27.001363333333334" lon="-48.64824">
                <ele>4.2</ele>
            </trkpt>
            <trkpt lat="-27.001368333333335" lon="-48.64823833333333">
                <ele>4.2</ele>
            </trkpt>
            <trkpt lat="-27.00137333333333" lon="-48.64823833333333">
                <ele>4.4</ele>
            </trkpt>
            <trkpt lat="-27.00137833333333" lon="-48.64823833333333">
                <ele>4.4</ele>
            </trkpt>
            <trkpt lat="-27.00138" lon="-48.64823666666666">
                <ele>4.7</ele>
            </trkpt>
            <trkpt lat="-27.001383333333333" lon="-48.64823333333334">
                <ele>4.9</ele>
            </trkpt>
            <trkpt lat="-27.001383333333333" lon="-48.64823">
                <ele>4.7</ele>
            </trkpt>
            <trkpt lat="-27.001383333333333" lon="-48.648225000000004">
                <ele>4.800000000000001</ele>
            </trkpt>
            <trkpt lat="-27.001384999999996" lon="-48.648225000000004">
                <ele>5</ele>
            </trkpt>
            <trkpt lat="-27.00137333333333" lon="-48.648213333333324">
                <ele>5</ele>
            </trkpt>
            <trkpt lat="-27.001366666666666" lon="-48.648201666666665">
                <ele>5</ele>
            </trkpt>
            <trkpt lat="-27.00135833333333" lon="-48.64819000000001">
                <ele>4.5</ele>
            </trkpt>
            <trkpt lat="-27.001348333333333" lon="-48.648178333333334">
                <ele>4.2</ele>
            </trkpt>
            <trkpt lat="-27.001338333333333" lon="-48.64816333333333">
                <ele>4</ele>
            </trkpt>
            <trkpt lat="-27.00133" lon="-48.64814833333333">
                <ele>3.9</ele>
            </trkpt>
            <trkpt lat="-27.001321666666666" lon="-48.648131666666664">
                <ele>3.8000000000000003</ele>
            </trkpt>
            <trkpt lat="-27.001321666666666" lon="-48.648131666666664">
                <ele>3.8000000000000003</ele>
            </trkpt>
            <trkpt lat="-27.001314999999998" lon="-48.648111666666665">
                <ele>3.5</ele>
            </trkpt>
            <trkpt lat="-27.001303333333333" lon="-48.64809">
                <ele>3.4000000000000004</ele>
            </trkpt>
            <trkpt lat="-27.001291666666663" lon="-48.64807833333332">
                <ele>3.4000000000000004</ele>
            </trkpt>
            <trkpt lat="-27.001285" lon="-48.648064999999995">
                <ele>3.4000000000000004</ele>
            </trkpt>
            <trkpt lat="-27.001276666666666" lon="-48.64805333333334">
                <ele>3.7</ele>
            </trkpt>
            <trkpt lat="-27.001268333333336" lon="-48.64803833333334">
                <ele>4.1</ele>
            </trkpt>
            <trkpt lat="-27.001255" lon="-48.648025000000004">
                <ele>4.300000000000001</ele>
            </trkpt>
            <trkpt lat="-27.001255" lon="-48.648025000000004">
                <ele>4.300000000000001</ele>
            </trkpt>
            <trkpt lat="-27.00124166666667" lon="-48.64801166666666">
                <ele>4.2</ele>
            </trkpt>
            <trkpt lat="-27.001224999999998" lon="-48.64799">
                <ele>4.300000000000001</ele>
            </trkpt>
            <trkpt lat="-27.00121" lon="-48.647973333333326">
                <ele>4.9</ele>
            </trkpt>
            <trkpt lat="-27.00119833333333" lon="-48.64795833333333">
                <ele>4.9</ele>
            </trkpt>
            <trkpt lat="-27.001188333333335" lon="-48.647951666666664">
                <ele>4.9</ele>
            </trkpt>
            <trkpt lat="-27.001188333333335" lon="-48.647951666666664">
                <ele>4.9</ele>
            </trkpt>
            <trkpt lat="-27.001183333333334" lon="-48.647953333333334">
                <ele>5.2</ele>
            </trkpt>
            <trkpt lat="-27.001179999999998" lon="-48.647955">
                <ele>5.6</ele>
            </trkpt>
            <trkpt lat="-27.001179999999998" lon="-48.64794833333334">
                <ele>5.9</ele>
            </trkpt>
            <trkpt lat="-27.001178333333336" lon="-48.64794666666667">
                <ele>6.300000000000001</ele>
            </trkpt>
            <trkpt lat="-27.001168333333332" lon="-48.64794">
                <ele>6.5</ele>
            </trkpt>
            <trkpt lat="-27.001168333333332" lon="-48.64794">
                <ele>6.5</ele>
            </trkpt>
            <trkpt lat="-27.001155" lon="-48.647933333333334">
                <ele>6.4</ele>
            </trkpt>
            <trkpt lat="-27.001140000000003" lon="-48.64792666666667">
                <ele>6.1</ele>
            </trkpt>
            <trkpt lat="-27.001123333333332" lon="-48.64791666666667">
                <ele>6.199999999999999</ele>
            </trkpt>
            <trkpt lat="-27.00110833333333" lon="-48.647896666666675">
                <ele>6.9</ele>
            </trkpt>
            <trkpt lat="-27.001089999999998" lon="-48.647875000000006">
                <ele>7.699999999999999</ele>
            </trkpt>
            <trkpt lat="-27.001083333333334" lon="-48.647841666666665">
                <ele>7.800000000000001</ele>
            </trkpt>
            <trkpt lat="-27.00108" lon="-48.64781">
                <ele>7.5</ele>
            </trkpt>
            <trkpt lat="-27.001069999999995" lon="-48.647793333333325">
                <ele>7.699999999999999</ele>
            </trkpt>
            <trkpt lat="-27.001069999999995" lon="-48.647793333333325">
                <ele>7.699999999999999</ele>
            </trkpt>
            <trkpt lat="-27.00106166666667" lon="-48.64777333333333">
                <ele>8</ele>
            </trkpt>
            <trkpt lat="-27.001053333333335" lon="-48.647755000000004">
                <ele>8.3</ele>
            </trkpt>
            <trkpt lat="-27.001043333333335" lon="-48.64773666666667">
                <ele>8.1</ele>
            </trkpt>
            <trkpt lat="-27.001043333333335" lon="-48.64772333333334">
                <ele>8</ele>
            </trkpt>
            <trkpt lat="-27.001044999999998" lon="-48.647708333333334">
                <ele>7.4</ele>
            </trkpt>
            <trkpt lat="-27.001053333333335" lon="-48.64769166666667">
                <ele>6.9</ele>
            </trkpt>
            <trkpt lat="-27.001056666666667" lon="-48.64767333333332">
                <ele>7.300000000000001</ele>
            </trkpt>
            <trkpt lat="-27.001054999999997" lon="-48.647655">
                <ele>7.4</ele>
            </trkpt>
            <trkpt lat="-27.001054999999997" lon="-48.647655">
                <ele>7.4</ele>
            </trkpt>
            <trkpt lat="-27.001050000000003" lon="-48.64764166666667">
                <ele>7.300000000000001</ele>
            </trkpt>
            <trkpt lat="-27.001033333333332" lon="-48.64763">
                <ele>7.4</ele>
            </trkpt>
            <trkpt lat="-27.00101666666667" lon="-48.64761">
                <ele>7.199999999999999</ele>
            </trkpt>
            <trkpt lat="-27.00100166666667" lon="-48.64758666666667">
                <ele>7.1</ele>
            </trkpt>
            <trkpt lat="-27.000988333333332" lon="-48.647565">
                <ele>6.9</ele>
            </trkpt>
            <trkpt lat="-27.000978333333332" lon="-48.64755">
                <ele>7.199999999999999</ele>
            </trkpt>
            <trkpt lat="-27.000966666666667" lon="-48.64753833333332">
                <ele>7</ele>
            </trkpt>
            <trkpt lat="-27.000966666666667" lon="-48.64753833333332">
                <ele>7</ele>
            </trkpt>
            <trkpt lat="-27.000961666666665" lon="-48.647526666666664">
                <ele>6.5</ele>
            </trkpt>
            <trkpt lat="-27.00095666666667" lon="-48.64752">
                <ele>6.1</ele>
            </trkpt>
            <trkpt lat="-27.000953333333335" lon="-48.64751666666666">
                <ele>6.1</ele>
            </trkpt>
            <trkpt lat="-27.000948333333334" lon="-48.64751833333333">
                <ele>6.1</ele>
            </trkpt>
            <trkpt lat="-27.000946666666664" lon="-48.64752166666667">
                <ele>5.9</ele>
            </trkpt>
            <trkpt lat="-27.000945" lon="-48.64752166666667">
                <ele>5.6</ele>
            </trkpt>
            <trkpt lat="-27.000945" lon="-48.64752166666667">
                <ele>5.5</ele>
            </trkpt>
            <trkpt lat="-27.000945" lon="-48.64752166666667">
                <ele>5.5</ele>
            </trkpt>
            <trkpt lat="-27.000945" lon="-48.647515000000006">
                <ele>5.1</ele>
            </trkpt>
            <trkpt lat="-27.000938333333337" lon="-48.64750333333333">
                <ele>5.300000000000001</ele>
            </trkpt>
            <trkpt lat="-27.00092833333333" lon="-48.647485">
                <ele>5.9</ele>
            </trkpt>
            <trkpt lat="-27.000913333333333" lon="-48.64746166666667">
                <ele>6.199999999999999</ele>
            </trkpt>
            <trkpt lat="-27.0009" lon="-48.64744">
                <ele>6.800000000000001</ele>
            </trkpt>
            <trkpt lat="-27.000891666666668" lon="-48.647415">
                <ele>7.199999999999999</ele>
            </trkpt>
            <trkpt lat="-27.000878333333336" lon="-48.647385">
                <ele>7.5</ele>
            </trkpt>
            <trkpt lat="-27.000878333333336" lon="-48.647385">
                <ele>7.5</ele>
            </trkpt>
            <trkpt lat="-27.00086666666667" lon="-48.647355">
                <ele>8.2</ele>
            </trkpt>
            <trkpt lat="-27.000855" lon="-48.647325">
                <ele>9.5</ele>
            </trkpt>
            <trkpt lat="-27.000833333333336" lon="-48.647286666666666">
                <ele>9.3</ele>
            </trkpt>
            <trkpt lat="-27.000805" lon="-48.647245000000005">
                <ele>9.7</ele>
            </trkpt>
            <trkpt lat="-27.000773333333335" lon="-48.64720166666666">
                <ele>9.7</ele>
            </trkpt>
            <trkpt lat="-27.000740000000004" lon="-48.64716166666667">
                <ele>11.1</ele>
            </trkpt>
            <trkpt lat="-27.00071833333333" lon="-48.64713">
                <ele>11.6</ele>
            </trkpt>
            <trkpt lat="-27.000691666666665" lon="-48.64709666666666">
                <ele>11.1</ele>
            </trkpt>
            <trkpt lat="-27.00067166666667" lon="-48.64706833333333">
                <ele>10.299999999999999</ele>
            </trkpt>
            <trkpt lat="-27.000656666666668" lon="-48.64704666666667">
                <ele>9.9</ele>
            </trkpt>
            <trkpt lat="-27.000656666666668" lon="-48.64704666666667">
                <ele>9.9</ele>
            </trkpt>
            <trkpt lat="-27.000648333333334" lon="-48.64703333333333">
                <ele>8.9</ele>
            </trkpt>
            <trkpt lat="-27.00064166666667" lon="-48.647020000000005">
                <ele>9.1</ele>
            </trkpt>
            <trkpt lat="-27.000638333333335" lon="-48.647018333333335">
                <ele>9.2</ele>
            </trkpt>
            <trkpt lat="-27.000631666666663" lon="-48.64701">
                <ele>8.9</ele>
            </trkpt>
            <trkpt lat="-27.000625" lon="-48.64700166666667">
                <ele>8.5</ele>
            </trkpt>
            <trkpt lat="-27.000625" lon="-48.64700166666667">
                <ele>8.5</ele>
            </trkpt>
            <trkpt lat="-27.000611666666668" lon="-48.646984999999994">
                <ele>8.5</ele>
            </trkpt>
            <trkpt lat="-27.000594999999997" lon="-48.64696333333333">
                <ele>8.6</ele>
            </trkpt>
            <trkpt lat="-27.000585" lon="-48.64694333333333">
                <ele>8.3</ele>
            </trkpt>
            <trkpt lat="-27.000571666666662" lon="-48.64691500000001">
                <ele>8.4</ele>
            </trkpt>
            <trkpt lat="-27.000563333333336" lon="-48.646881666666665">
                <ele>7</ele>
            </trkpt>
            <trkpt lat="-27.00055166666667" lon="-48.64685166666666">
                <ele>5.800000000000001</ele>
            </trkpt>
            <trkpt lat="-27.00053666666667" lon="-48.64682666666666">
                <ele>5.699999999999999</ele>
            </trkpt>
            <trkpt lat="-27.000521666666668" lon="-48.6468">
                <ele>5.4</ele>
            </trkpt>
            <trkpt lat="-27.000510000000002" lon="-48.646775">
                <ele>4.6</ele>
            </trkpt>
            <trkpt lat="-27.000498333333333" lon="-48.646748333333335">
                <ele>4.300000000000001</ele>
            </trkpt>
            <trkpt lat="-27.000486666666667" lon="-48.64672333333333">
                <ele>3.9</ele>
            </trkpt>
            <trkpt lat="-27.000486666666667" lon="-48.64672333333333">
                <ele>3.9</ele>
            </trkpt>
            <trkpt lat="-27.000471666666666" lon="-48.646703333333335">
                <ele>3.5</ele>
            </trkpt>
            <trkpt lat="-27.000459999999997" lon="-48.64668666666667">
                <ele>2.9000000000000004</ele>
            </trkpt>
            <trkpt lat="-27.000455000000002" lon="-48.64666999999999">
                <ele>2.7</ele>
            </trkpt>
            <trkpt lat="-27.00044833333333" lon="-48.64666833333334">
                <ele>3.1</ele>
            </trkpt>
            <trkpt lat="-27.000443333333337" lon="-48.64666999999999">
                <ele>3.5</ele>
            </trkpt>
            <trkpt lat="-27.000443333333337" lon="-48.64666999999999">
                <ele>3.5</ele>
            </trkpt>
            <trkpt lat="-27.000443333333337" lon="-48.64667333333333">
                <ele>3.6</ele>
            </trkpt>
            <trkpt lat="-27.000443333333337" lon="-48.64667666666666">
                <ele>3.9</ele>
            </trkpt>
            <trkpt lat="-27.000441666666667" lon="-48.646679999999996">
                <ele>3.9</ele>
            </trkpt>
            <trkpt lat="-27.000441666666667" lon="-48.646679999999996">
                <ele>3.9</ele>
            </trkpt>
            <trkpt lat="-27.000440000000005" lon="-48.646675">
                <ele>3.6</ele>
            </trkpt>
            <trkpt lat="-27.00043333333333" lon="-48.64666833333334">
                <ele>3.7</ele>
            </trkpt>
            <trkpt lat="-27.000428333333335" lon="-48.64666166666666">
                <ele>3.7</ele>
            </trkpt>
            <trkpt lat="-27.000428333333335" lon="-48.64666166666666">
                <ele>3.7</ele>
            </trkpt>
            <trkpt lat="-27.000421666666664" lon="-48.64665333333334">
                <ele>3.9</ele>
            </trkpt>
            <trkpt lat="-27.00041666666667" lon="-48.64664833333333">
                <ele>4.300000000000001</ele>
            </trkpt>
            <trkpt lat="-27.000413333333334" lon="-48.64664666666666">
                <ele>4.800000000000001</ele>
            </trkpt>
            <trkpt lat="-27.000410000000002" lon="-48.64664500000001">
                <ele>4.9</ele>
            </trkpt>
            <trkpt lat="-27.000410000000002" lon="-48.64664500000001">
                <ele>4.9</ele>
            </trkpt>
            <trkpt lat="-27.000410000000002" lon="-48.64664500000001">
                <ele>4.9</ele>
            </trkpt>
            <trkpt lat="-27.000410000000002" lon="-48.64664500000001">
                <ele>4.9</ele>
            </trkpt>
            <trkpt lat="-27.00039333333333" lon="-48.64664333333334">
                <ele>5.2</ele>
            </trkpt>
            <trkpt lat="-27.00039333333333" lon="-48.64664333333334">
                <ele>5.2</ele>
            </trkpt>
            <trkpt lat="-27.00039333333333" lon="-48.64664333333334">
                <ele>5</ele>
            </trkpt>
            <trkpt lat="-27.00039333333333" lon="-48.64664333333334">
                <ele>5</ele>
            </trkpt>
            <trkpt lat="-27.000391666666662" lon="-48.64664666666666">
                <ele>5.5</ele>
            </trkpt>
            <trkpt lat="-27.000391666666662" lon="-48.64664666666666">
                <ele>5.5</ele>
            </trkpt>
            <trkpt lat="-27.000391666666662" lon="-48.64664666666666">
                <ele>5.5</ele>
            </trkpt>
            <trkpt lat="-27.000391666666662" lon="-48.64664666666666">
                <ele>5.5</ele>
            </trkpt>
            <trkpt lat="-27.000391666666662" lon="-48.64664666666666">
                <ele>5.5</ele>
            </trkpt>
            <trkpt lat="-27.000391666666662" lon="-48.64664666666666">
                <ele>5.5</ele>
            </trkpt>
            <trkpt lat="-27.000391666666662" lon="-48.64664666666666">
                <ele>5.5</ele>
            </trkpt>
            <trkpt lat="-27.000391666666662" lon="-48.64664666666666">
                <ele>5.5</ele>
            </trkpt>
            <trkpt lat="-27.000391666666662" lon="-48.64664666666666">
                <ele>5.5</ele>
            </trkpt>
            <trkpt lat="-27.000391666666662" lon="-48.64664666666666">
                <ele>5.5</ele>
            </trkpt>
            <trkpt lat="-27.000391666666662" lon="-48.64664666666666">
                <ele>5.5</ele>
            </trkpt>
            <trkpt lat="-27.000391666666662" lon="-48.64664666666666">
                <ele>5.5</ele>
            </trkpt>
            <trkpt lat="-27.000391666666662" lon="-48.64664666666666">
                <ele>5.5</ele>
            </trkpt>
            <trkpt lat="-27.000391666666662" lon="-48.64664666666666">
                <ele>5.5</ele>
            </trkpt>
            <trkpt lat="-27.000391666666662" lon="-48.64664666666666">
                <ele>5.5</ele>
            </trkpt>
            <trkpt lat="-27.000391666666662" lon="-48.64664666666666">
                <ele>5.5</ele>
            </trkpt>
            <trkpt lat="-27.000391666666662" lon="-48.64664666666666">
                <ele>5.5</ele>
            </trkpt>
            <trkpt lat="-27.000391666666662" lon="-48.64664666666666">
                <ele>5.5</ele>
            </trkpt>
            <trkpt lat="-27.000391666666662" lon="-48.64664666666666">
                <ele>5.5</ele>
            </trkpt>
            <trkpt lat="-27.000391666666662" lon="-48.64664666666666">
                <ele>5.5</ele>
            </trkpt>
            <trkpt lat="-27.000391666666662" lon="-48.64664666666666">
                <ele>5.5</ele>
            </trkpt>
            <trkpt lat="-27.000391666666662" lon="-48.64664666666666">
                <ele>5.5</ele>
            </trkpt>
            <trkpt lat="-27.000391666666662" lon="-48.64664666666666">
                <ele>5.5</ele>
            </trkpt>
            <trkpt lat="-27.000391666666662" lon="-48.64664666666666">
                <ele>5.5</ele>
            </trkpt>
            <trkpt lat="-27.000391666666662" lon="-48.64664666666666">
                <ele>5.5</ele>
            </trkpt>
            <trkpt lat="-27.000391666666662" lon="-48.64664666666666">
                <ele>5.5</ele>
            </trkpt>
            <trkpt lat="-27.000391666666662" lon="-48.64664666666666">
                <ele>5.5</ele>
            </trkpt>
            <trkpt lat="-27.000391666666662" lon="-48.64664666666666">
                <ele>5.5</ele>
            </trkpt>
            <trkpt lat="-27.000391666666662" lon="-48.64664666666666">
                <ele>5.5</ele>
            </trkpt>
            <trkpt lat="-27.000391666666662" lon="-48.64664666666666">
                <ele>5.5</ele>
            </trkpt>
            <trkpt lat="-27.000391666666662" lon="-48.64664666666666">
                <ele>5.5</ele>
            </trkpt>
            <trkpt lat="-27.000391666666662" lon="-48.64664666666666">
                <ele>5.5</ele>
            </trkpt>
            <trkpt lat="-27.000391666666662" lon="-48.64664666666666">
                <ele>5.5</ele>
            </trkpt>
            <trkpt lat="-27.000391666666662" lon="-48.64664666666666">
                <ele>5.5</ele>
            </trkpt>
        </trkseg>
    </trk>
</gpx>