<?xml version="1.0" encoding="UTF-8"?>
<gpx xmlns="http://www.topografix.com/GPX/1/1" version="1.1" creator="@dwayneparton/geojson-to-gpx"><wpt lat="-27.035795" lon="-48.658955"><ele>22.555725</ele><name>1 faixa</name></wpt><wpt lat="-27.035907" lon="-48.659335"><ele>20.296631</ele><name>140</name></wpt><wpt lat="-27.036074" lon="-48.660506"><ele>14.173889</ele><name>185</name></wpt><wpt lat="-27.036048" lon="-48.660459"><ele>22.870605</ele><name>361</name></wpt><wpt lat="-27.035908" lon="-48.659334"><ele>20.182495</ele><name>396</name></wpt><wpt lat="-27.035904" lon="-48.659328"><ele>18.745605</ele><name>782</name></wpt><wpt lat="-27.036038" lon="-48.660448"><ele>19.458496</ele><name>794</name></wpt><wpt lat="-27.034464" lon="-48.660169"><ele>19.821594</ele><name>A ciclo é completamente reta.</name></wpt><wpt lat="-27.034454" lon="-48.660162"><ele>25.221191</ele><name>A pintura está boa, COMPLETA e visível</name></wpt><wpt lat="-27.035801" lon="-48.658949"><ele>22.895813</ele><name>Apenas faixas vermelhas nas bordas, com travessias pintadas nos cruzamentos</name></wpt><wpt lat="-27.035907" lon="-48.659335"><ele>20.296204</ele><name>Área transitável da ciclo (cm)</name></wpt><wpt lat="-27.036105" lon="-48.660548"><ele>13.484192</ele><name>Área transitável da ciclo (cm)</name></wpt><wpt lat="-27.035797" lon="-48.658955"><ele>22.430664</ele><name>Asfalto</name></wpt><wpt lat="-27.035801" lon="-48.658947"><ele>22.673706</ele><name>Bidirecional</name></wpt><wpt lat="-27.03584" lon="-48.659037"><ele>21.284668</ele><name>Bueiro</name></wpt><wpt lat="-27.035923" lon="-48.659301"><ele>20.42804</ele><name>Bueiro</name></wpt><wpt lat="-27.036179" lon="-48.660081"><ele>19.643982</ele><name>Bueiro</name></wpt><wpt lat="-27.035342" lon="-48.660393"><ele>19.042358</ele><name>Bueiro</name></wpt><wpt lat="-27.0358" lon="-48.658948"><ele>22.585083</ele><name>Ciclofaixa</name></wpt><wpt lat="-27.035794" lon="-48.658955"><ele>22.628784</ele><name>Estacionamento dedicado de um lado, segregado da circulação</name></wpt><wpt lat="-27.035908" lon="-48.659335"><ele>20.040894</ele><name>Faixa de carros logo ao lado da ciclo (cm)</name></wpt><wpt lat="-27.035908" lon="-48.659334"><ele>20.182495</ele><name>Faixa de carros logo ao lado da ciclo (cm)</name></wpt><wpt lat="-27.036049" lon="-48.660464"><ele>22.598389</ele><name>Faixa de carros logo ao lado da ciclo (cm)</name></wpt><wpt lat="-27.035738" lon="-48.658805"><ele>20.597351</ele><name>Foto</name></wpt><wpt lat="-27.035741" lon="-48.658818"><ele>19.322388</ele><name>Foto</name></wpt><wpt lat="-27.03616" lon="-48.660377"><ele>18.274048</ele><name>Foto</name></wpt><wpt lat="-27.034452" lon="-48.660155"><ele>25.811096</ele><name>Iluminação geral na via do mesmo lado da estrutura</name></wpt><wpt lat="-27.0358" lon="-48.658949"><ele>23.33197</ele><name>Mão Única</name></wpt><wpt lat="-27.034479" lon="-48.660177"><ele>17.146667</ele><name>Marcação EXTRA: Foram observados trechos com segregadores faltando (arrancados).</name></wpt><wpt lat="-27.034457" lon="-48.660164"><ele>21.586853</ele><name>Não há árvores nem mudas</name></wpt><wpt lat="-27.035802" lon="-48.658951"><ele>22.843628</ele><name>No bordo esquerdo de Via de Mão Única</name></wpt><wpt lat="-27.034447" lon="-48.660158"><ele>24.677307</ele><name>Pequenas imperfeições, como fissuras</name></wpt><wpt lat="-27.036174" lon="-48.66037"><ele>18.179077</ele><name>Em cruzamento BOA condição</name></wpt><wpt lat="-27.034481" lon="-48.66017"><ele>16.315186</ele><name>SE CICLOFAIXA: para invadir a ciclo parte do automóvel passa obrigatoriamente por cima de segregadores</name></wpt><wpt lat="-27.034466" lon="-48.660169"><ele>19.036438</ele><name>Segregadores NÃO DIFICULTAM o acesso de ciclistas</name></wpt><wpt lat="-27.036174" lon="-48.660371"><ele>18.182678</ele><name>SEM Semáforo</name></wpt><wpt lat="-27.035799" lon="-48.658955"><ele>22.100952</ele><name>Tachões</name></wpt><wpt lat="-27.035905" lon="-48.65933"><ele>18.822021</ele><name>Total da via (incluindo a ciclo) (cm)</name></wpt><wpt lat="-27.036038" lon="-48.660448"><ele>19.458496</ele><name>Total da via (incluindo a ciclo) (cm)</name></wpt><wpt lat="-27.035994" lon="-48.659545"><ele>20.304504</ele><name>Travessia de pedestre em nível (lombofaixa)</name></wpt><wpt lat="-27.035521" lon="-48.660425"><ele>20.33136</ele><name>Travessia de pedestre em nível (lombofaixa)</name></wpt><wpt lat="-27.034534" lon="-48.66023"><ele>11.023224</ele><name>Travessia de pedestre em nível (lombofaixa)</name></wpt><wpt lat="-27.035762" lon="-48.658831"><name>Área de amortecimento da ciclo (cm)</name></wpt><wpt lat="-27.035766" lon="-48.658858"><name>22</name></wpt><trk><name>Ciclofaixa R. Porto Velho e R. Minas Gerais T1 - Cb</name><trkseg><trkpt lat="-27.035738" lon="-48.658747"><ele>17.08075</ele></trkpt><trkpt lat="-27.035732" lon="-48.65876"><ele>13.367676</ele></trkpt><trkpt lat="-27.035738" lon="-48.658772"><ele>21.974854</ele></trkpt><trkpt lat="-27.035735" lon="-48.658797"><ele>12.273254</ele></trkpt><trkpt lat="-27.035734" lon="-48.658796"><ele>14.145813</ele></trkpt><trkpt lat="-27.035734" lon="-48.658805"><ele>15.295837</ele></trkpt><trkpt lat="-27.035738" lon="-48.658802"><ele>15.340698</ele></trkpt><trkpt lat="-27.035741" lon="-48.658801"><ele>16.525879</ele></trkpt><trkpt lat="-27.035741" lon="-48.658799"><ele>17.87146</ele></trkpt><trkpt lat="-27.03574" lon="-48.6588"><ele>19.334595</ele></trkpt><trkpt lat="-27.035739" lon="-48.658803"><ele>20.1521</ele></trkpt><trkpt lat="-27.035736" lon="-48.658804"><ele>20.18457</ele></trkpt><trkpt lat="-27.035735" lon="-48.658806"><ele>20.859802</ele></trkpt><trkpt lat="-27.035736" lon="-48.658807"><ele>20.895874</ele></trkpt><trkpt lat="-27.035733" lon="-48.658804"><ele>20.477783</ele></trkpt><trkpt lat="-27.035738" lon="-48.658805"><ele>20.597351</ele></trkpt><trkpt lat="-27.035738" lon="-48.658805"><ele>20.597351</ele></trkpt><trkpt lat="-27.03574" lon="-48.658807"><ele>20.27179</ele></trkpt><trkpt lat="-27.035742" lon="-48.658808"><ele>20.290588</ele></trkpt><trkpt lat="-27.035741" lon="-48.65881"><ele>19.553833</ele></trkpt><trkpt lat="-27.03574" lon="-48.65881"><ele>19.166504</ele></trkpt><trkpt lat="-27.035738" lon="-48.658811"><ele>18.6922</ele></trkpt><trkpt lat="-27.035739" lon="-48.658811"><ele>18.784119</ele></trkpt><trkpt lat="-27.035742" lon="-48.658811"><ele>18.903381</ele></trkpt><trkpt lat="-27.035743" lon="-48.658812"><ele>18.743591</ele></trkpt><trkpt lat="-27.035741" lon="-48.65881"><ele>19.313904</ele></trkpt><trkpt lat="-27.035739" lon="-48.658813"><ele>19.411621</ele></trkpt><trkpt lat="-27.035738" lon="-48.658815"><ele>19.508362</ele></trkpt><trkpt lat="-27.035738" lon="-48.658816"><ele>19.22345</ele></trkpt><trkpt lat="-27.035739" lon="-48.658817"><ele>19.200134</ele></trkpt><trkpt lat="-27.035741" lon="-48.658818"><ele>19.322388</ele></trkpt><trkpt lat="-27.035741" lon="-48.658818"><ele>19.322388</ele></trkpt><trkpt lat="-27.035741" lon="-48.658818"><ele>19.461426</ele></trkpt><trkpt lat="-27.035743" lon="-48.658819"><ele>19.344727</ele></trkpt><trkpt lat="-27.035742" lon="-48.65882"><ele>23.092468</ele></trkpt><trkpt lat="-27.035743" lon="-48.658819"><ele>23.050354</ele></trkpt><trkpt lat="-27.035744" lon="-48.658819"><ele>23.037781</ele></trkpt><trkpt lat="-27.035744" lon="-48.658821"><ele>23.073181</ele></trkpt><trkpt lat="-27.035748" lon="-48.65882"><ele>22.94751</ele></trkpt><trkpt lat="-27.035751" lon="-48.658822"><ele>22.377197</ele></trkpt><trkpt lat="-27.035756" lon="-48.658823"><ele>22.116089</ele></trkpt><trkpt lat="-27.035758" lon="-48.658826"><ele>22.296814</ele></trkpt><trkpt lat="-27.035759" lon="-48.658827"><ele>22.093811</ele></trkpt><trkpt lat="-27.035761" lon="-48.658829"><ele>21.882935</ele></trkpt><trkpt lat="-27.035768" lon="-48.658841"><ele>22.021423</ele></trkpt><trkpt lat="-27.035775" lon="-48.658857"><ele>21.332947</ele></trkpt><trkpt lat="-27.035778" lon="-48.658869"><ele>21.165588</ele></trkpt><trkpt lat="-27.035779" lon="-48.658881"><ele>20.475952</ele></trkpt><trkpt lat="-27.03578" lon="-48.658892"><ele>20.677063</ele></trkpt><trkpt lat="-27.035781" lon="-48.658903"><ele>21.144836</ele></trkpt><trkpt lat="-27.035784" lon="-48.658913"><ele>21.003662</ele></trkpt><trkpt lat="-27.035785" lon="-48.65892"><ele>21.190186</ele></trkpt><trkpt lat="-27.035788" lon="-48.658927"><ele>21.387512</ele></trkpt><trkpt lat="-27.035789" lon="-48.658933"><ele>21.973816</ele></trkpt><trkpt lat="-27.035791" lon="-48.658937"><ele>21.98877</ele></trkpt><trkpt lat="-27.035792" lon="-48.658942"><ele>22.2323</ele></trkpt><trkpt lat="-27.035795" lon="-48.658947"><ele>22.250549</ele></trkpt><trkpt lat="-27.035796" lon="-48.658951"><ele>22.677063</ele></trkpt><trkpt lat="-27.035798" lon="-48.65895"><ele>22.6875</ele></trkpt><trkpt lat="-27.035798" lon="-48.65895"><ele>23.111816</ele></trkpt><trkpt lat="-27.035799" lon="-48.65895"><ele>22.826477</ele></trkpt><trkpt lat="-27.035799" lon="-48.658949"><ele>22.865906</ele></trkpt><trkpt lat="-27.0358" lon="-48.658948"><ele>22.585083</ele></trkpt><trkpt lat="-27.0358" lon="-48.658948"><ele>22.585083</ele></trkpt><trkpt lat="-27.0358" lon="-48.658947"><ele>22.581421</ele></trkpt><trkpt lat="-27.035801" lon="-48.658947"><ele>22.673706</ele></trkpt><trkpt lat="-27.035801" lon="-48.658947"><ele>22.673706</ele></trkpt><trkpt lat="-27.035802" lon="-48.658949"><ele>22.918518</ele></trkpt><trkpt lat="-27.035802" lon="-48.658951"><ele>22.931946</ele></trkpt><trkpt lat="-27.035802" lon="-48.658951"><ele>22.841003</ele></trkpt><trkpt lat="-27.035802" lon="-48.658951"><ele>22.837891</ele></trkpt><trkpt lat="-27.035802" lon="-48.658951"><ele>22.838867</ele></trkpt><trkpt lat="-27.035802" lon="-48.658951"><ele>22.842957</ele></trkpt><trkpt lat="-27.035802" lon="-48.658951"><ele>22.843628</ele></trkpt><trkpt lat="-27.035802" lon="-48.658951"><ele>22.843628</ele></trkpt><trkpt lat="-27.035802" lon="-48.658951"><ele>22.849915</ele></trkpt><trkpt lat="-27.035802" lon="-48.658951"><ele>22.847717</ele></trkpt><trkpt lat="-27.0358" lon="-48.65895"><ele>23.258423</ele></trkpt><trkpt lat="-27.035799" lon="-48.65895"><ele>23.280823</ele></trkpt><trkpt lat="-27.0358" lon="-48.658949"><ele>23.33197</ele></trkpt><trkpt lat="-27.0358" lon="-48.658949"><ele>23.33197</ele></trkpt><trkpt lat="-27.035799" lon="-48.658947"><ele>23.501038</ele></trkpt><trkpt lat="-27.035797" lon="-48.658947"><ele>23.520996</ele></trkpt><trkpt lat="-27.035798" lon="-48.658947"><ele>23.184937</ele></trkpt><trkpt lat="-27.035798" lon="-48.658948"><ele>23.109924</ele></trkpt><trkpt lat="-27.035799" lon="-48.658948"><ele>23.111816</ele></trkpt><trkpt lat="-27.0358" lon="-48.658949"><ele>22.877075</ele></trkpt><trkpt lat="-27.035801" lon="-48.658949"><ele>22.895813</ele></trkpt><trkpt lat="-27.035801" lon="-48.658949"><ele>22.895813</ele></trkpt><trkpt lat="-27.035801" lon="-48.658949"><ele>22.892944</ele></trkpt><trkpt lat="-27.0358" lon="-48.65895"><ele>22.680664</ele></trkpt><trkpt lat="-27.035801" lon="-48.658952"><ele>22.311646</ele></trkpt><trkpt lat="-27.035801" lon="-48.658954"><ele>22.311462</ele></trkpt><trkpt lat="-27.035802" lon="-48.658953"><ele>22.239746</ele></trkpt><trkpt lat="-27.0358" lon="-48.658954"><ele>22.057434</ele></trkpt><trkpt lat="-27.035799" lon="-48.658955"><ele>22.096802</ele></trkpt><trkpt lat="-27.035799" lon="-48.658955"><ele>22.099731</ele></trkpt><trkpt lat="-27.035799" lon="-48.658955"><ele>22.100952</ele></trkpt><trkpt lat="-27.035799" lon="-48.658955"><ele>22.100952</ele></trkpt><trkpt lat="-27.035799" lon="-48.658955"><ele>22.280518</ele></trkpt><trkpt lat="-27.035798" lon="-48.658955"><ele>22.28894</ele></trkpt><trkpt lat="-27.035797" lon="-48.658955"><ele>22.430664</ele></trkpt><trkpt lat="-27.035797" lon="-48.658955"><ele>22.430664</ele></trkpt><trkpt lat="-27.035795" lon="-48.658955"><ele>22.464294</ele></trkpt><trkpt lat="-27.035794" lon="-48.658954"><ele>22.464844</ele></trkpt><trkpt lat="-27.035794" lon="-48.658954"><ele>22.464294</ele></trkpt><trkpt lat="-27.035795" lon="-48.658953"><ele>22.407043</ele></trkpt><trkpt lat="-27.035793" lon="-48.658951"><ele>22.390076</ele></trkpt><trkpt lat="-27.035789" lon="-48.658949"><ele>22.380615</ele></trkpt><trkpt lat="-27.03579" lon="-48.658949"><ele>22.357361</ele></trkpt><trkpt lat="-27.03579" lon="-48.65895"><ele>22.378662</ele></trkpt><trkpt lat="-27.035793" lon="-48.658952"><ele>22.507751</ele></trkpt><trkpt lat="-27.035795" lon="-48.658954"><ele>22.555176</ele></trkpt><trkpt lat="-27.035795" lon="-48.658955"><ele>22.555725</ele></trkpt><trkpt lat="-27.035795" lon="-48.658955"><ele>22.555725</ele></trkpt><trkpt lat="-27.035795" lon="-48.658954"><ele>22.617493</ele></trkpt><trkpt lat="-27.035794" lon="-48.658955"><ele>22.605286</ele></trkpt><trkpt lat="-27.035794" lon="-48.658955"><ele>22.610535</ele></trkpt><trkpt lat="-27.035794" lon="-48.658955"><ele>22.613892</ele></trkpt><trkpt lat="-27.035794" lon="-48.658955"><ele>22.619385</ele></trkpt><trkpt lat="-27.035794" lon="-48.658955"><ele>22.624939</ele></trkpt><trkpt lat="-27.035794" lon="-48.658955"><ele>22.62854</ele></trkpt><trkpt lat="-27.035794" lon="-48.658955"><ele>22.628296</ele></trkpt><trkpt lat="-27.035794" lon="-48.658955"><ele>22.629089</ele></trkpt><trkpt lat="-27.035794" lon="-48.658955"><ele>22.628784</ele></trkpt><trkpt lat="-27.035794" lon="-48.658955"><ele>22.628784</ele></trkpt><trkpt lat="-27.035794" lon="-48.658955"><ele>22.628784</ele></trkpt><trkpt lat="-27.035794" lon="-48.658955"><ele>22.624695</ele></trkpt><trkpt lat="-27.035794" lon="-48.658955"><ele>22.622131</ele></trkpt><trkpt lat="-27.035794" lon="-48.658955"><ele>22.510986</ele></trkpt><trkpt lat="-27.035796" lon="-48.658955"><ele>22.1651</ele></trkpt><trkpt lat="-27.035797" lon="-48.658953"><ele>21.470032</ele></trkpt><trkpt lat="-27.0358" lon="-48.65895"><ele>21.359131</ele></trkpt><trkpt lat="-27.035802" lon="-48.658947"><ele>21.675232</ele></trkpt><trkpt lat="-27.035803" lon="-48.658947"><ele>21.676392</ele></trkpt><trkpt lat="-27.035804" lon="-48.658946"><ele>21.697083</ele></trkpt><trkpt lat="-27.035808" lon="-48.658941"><ele>21.456848</ele></trkpt><trkpt lat="-27.03581" lon="-48.65894"><ele>21.279114</ele></trkpt><trkpt lat="-27.035808" lon="-48.658941"><ele>21.138794</ele></trkpt><trkpt lat="-27.035812" lon="-48.658946"><ele>21.356873</ele></trkpt><trkpt lat="-27.035812" lon="-48.65895"><ele>20.576477</ele></trkpt><trkpt lat="-27.035814" lon="-48.658954"><ele>21.057983</ele></trkpt><trkpt lat="-27.035815" lon="-48.658954"><ele>21.073547</ele></trkpt><trkpt lat="-27.035816" lon="-48.658957"><ele>21.01355</ele></trkpt><trkpt lat="-27.035819" lon="-48.658967"><ele>20.704407</ele></trkpt><trkpt lat="-27.035826" lon="-48.658978"><ele>20.588135</ele></trkpt><trkpt lat="-27.035829" lon="-48.658992"><ele>20.787048</ele></trkpt><trkpt lat="-27.035832" lon="-48.659004"><ele>20.707336</ele></trkpt><trkpt lat="-27.035835" lon="-48.659015"><ele>21.107666</ele></trkpt><trkpt lat="-27.035837" lon="-48.659026"><ele>21.277161</ele></trkpt><trkpt lat="-27.03584" lon="-48.659037"><ele>21.284668</ele></trkpt><trkpt lat="-27.03584" lon="-48.659037"><ele>21.284668</ele></trkpt><trkpt lat="-27.035843" lon="-48.65905"><ele>21.254578</ele></trkpt><trkpt lat="-27.035849" lon="-48.659063"><ele>21.289734</ele></trkpt><trkpt lat="-27.035856" lon="-48.659077"><ele>21.268738</ele></trkpt><trkpt lat="-27.035863" lon="-48.659097"><ele>21.699585</ele></trkpt><trkpt lat="-27.035872" lon="-48.659119"><ele>21.738953</ele></trkpt><trkpt lat="-27.035878" lon="-48.659142"><ele>21.801086</ele></trkpt><trkpt lat="-27.035882" lon="-48.659165"><ele>21.669312</ele></trkpt><trkpt lat="-27.035889" lon="-48.659185"><ele>21.633606</ele></trkpt><trkpt lat="-27.035898" lon="-48.659204"><ele>21.68811</ele></trkpt><trkpt lat="-27.035904" lon="-48.659222"><ele>12.769165</ele></trkpt><trkpt lat="-27.035908" lon="-48.659241"><ele>15.804565</ele></trkpt><trkpt lat="-27.03591" lon="-48.659256"><ele>15.308167</ele></trkpt><trkpt lat="-27.035912" lon="-48.65927"><ele>15.295288</ele></trkpt><trkpt lat="-27.035914" lon="-48.659282"><ele>15.312378</ele></trkpt><trkpt lat="-27.035917" lon="-48.659292"><ele>15.290405</ele></trkpt><trkpt lat="-27.035918" lon="-48.659293"><ele>15.255615</ele></trkpt><trkpt lat="-27.035918" lon="-48.659295"><ele>15.057495</ele></trkpt><trkpt lat="-27.03592" lon="-48.659302"><ele>15.156311</ele></trkpt><trkpt lat="-27.03592" lon="-48.659305"><ele>15.00946</ele></trkpt><trkpt lat="-27.035919" lon="-48.659304"><ele>14.930664</ele></trkpt><trkpt lat="-27.035919" lon="-48.659303"><ele>14.935425</ele></trkpt><trkpt lat="-27.035919" lon="-48.659303"><ele>14.932678</ele></trkpt><trkpt lat="-27.035919" lon="-48.659304"><ele>14.951904</ele></trkpt><trkpt lat="-27.03592" lon="-48.659304"><ele>21.063904</ele></trkpt><trkpt lat="-27.035919" lon="-48.659305"><ele>21.067627</ele></trkpt><trkpt lat="-27.03592" lon="-48.659305"><ele>20.82489</ele></trkpt><trkpt lat="-27.035922" lon="-48.659302"><ele>20.44635</ele></trkpt><trkpt lat="-27.035923" lon="-48.659301"><ele>20.42804</ele></trkpt><trkpt lat="-27.035923" lon="-48.659301"><ele>20.42804</ele></trkpt><trkpt lat="-27.035924" lon="-48.659301"><ele>20.427429</ele></trkpt><trkpt lat="-27.035924" lon="-48.659301"><ele>20.601807</ele></trkpt><trkpt lat="-27.035927" lon="-48.659309"><ele>20.707825</ele></trkpt><trkpt lat="-27.035927" lon="-48.659317"><ele>20.755371</ele></trkpt><trkpt lat="-27.035928" lon="-48.659323"><ele>20.584106</ele></trkpt><trkpt lat="-27.035928" lon="-48.659327"><ele>20.537659</ele></trkpt><trkpt lat="-27.035927" lon="-48.65933"><ele>20.308838</ele></trkpt><trkpt lat="-27.035927" lon="-48.659331"><ele>20.093567</ele></trkpt><trkpt lat="-27.035931" lon="-48.659329"><ele>19.940308</ele></trkpt><trkpt lat="-27.035937" lon="-48.65933"><ele>19.950134</ele></trkpt><trkpt lat="-27.035944" lon="-48.659329"><ele>20.002319</ele></trkpt><trkpt lat="-27.035951" lon="-48.659327"><ele>20.016174</ele></trkpt><trkpt lat="-27.035953" lon="-48.659327"><ele>19.944275</ele></trkpt><trkpt lat="-27.035946" lon="-48.659331"><ele>20.112061</ele></trkpt><trkpt lat="-27.035943" lon="-48.659334"><ele>19.959778</ele></trkpt><trkpt lat="-27.035936" lon="-48.659336"><ele>20.071045</ele></trkpt><trkpt lat="-27.035928" lon="-48.659337"><ele>20.209106</ele></trkpt><trkpt lat="-27.035919" lon="-48.659336"><ele>19.664124</ele></trkpt><trkpt lat="-27.035913" lon="-48.659339"><ele>19.966431</ele></trkpt><trkpt lat="-27.03591" lon="-48.659341"><ele>19.986572</ele></trkpt><trkpt lat="-27.03591" lon="-48.659342"><ele>19.990234</ele></trkpt><trkpt lat="-27.035909" lon="-48.659342"><ele>19.992065</ele></trkpt><trkpt lat="-27.035909" lon="-48.659342"><ele>19.992188</ele></trkpt><trkpt lat="-27.035909" lon="-48.659342"><ele>15.003967</ele></trkpt><trkpt lat="-27.035909" lon="-48.659342"><ele>15.077026</ele></trkpt><trkpt lat="-27.035909" lon="-48.659342"><ele>15.07605</ele></trkpt><trkpt lat="-27.035909" lon="-48.659342"><ele>19.73053</ele></trkpt><trkpt lat="-27.035907" lon="-48.659341"><ele>19.638245</ele></trkpt><trkpt lat="-27.035907" lon="-48.659341"><ele>19.289124</ele></trkpt><trkpt lat="-27.035909" lon="-48.65934"><ele>19.40448</ele></trkpt><trkpt lat="-27.035909" lon="-48.659338"><ele>18.688904</ele></trkpt><trkpt lat="-27.03591" lon="-48.659334"><ele>18.64502</ele></trkpt><trkpt lat="-27.03591" lon="-48.659333"><ele>18.641296</ele></trkpt><trkpt lat="-27.03591" lon="-48.659333"><ele>18.638672</ele></trkpt><trkpt lat="-27.03591" lon="-48.659333"><ele>18.635254</ele></trkpt><trkpt lat="-27.03591" lon="-48.659333"><ele>18.633911</ele></trkpt><trkpt lat="-27.03591" lon="-48.659333"><ele>18.636169</ele></trkpt><trkpt lat="-27.03591" lon="-48.659333"><ele>18.639099</ele></trkpt><trkpt lat="-27.03591" lon="-48.659333"><ele>18.640991</ele></trkpt><trkpt lat="-27.03591" lon="-48.659332"><ele>18.558777</ele></trkpt><trkpt lat="-27.035911" lon="-48.659333"><ele>18.404541</ele></trkpt><trkpt lat="-27.035912" lon="-48.659333"><ele>18.773804</ele></trkpt><trkpt lat="-27.035912" lon="-48.659334"><ele>18.830078</ele></trkpt><trkpt lat="-27.035913" lon="-48.659332"><ele>19.181946</ele></trkpt><trkpt lat="-27.035916" lon="-48.659335"><ele>19.198975</ele></trkpt><trkpt lat="-27.035917" lon="-48.659336"><ele>19.284912</ele></trkpt><trkpt lat="-27.035917" lon="-48.659337"><ele>19.286499</ele></trkpt><trkpt lat="-27.035918" lon="-48.659337"><ele>19.2901</ele></trkpt><trkpt lat="-27.035918" lon="-48.659337"><ele>19.287964</ele></trkpt><trkpt lat="-27.035918" lon="-48.659337"><ele>19.285278</ele></trkpt><trkpt lat="-27.035916" lon="-48.659339"><ele>19.259094</ele></trkpt><trkpt lat="-27.035913" lon="-48.659339"><ele>20.214661</ele></trkpt><trkpt lat="-27.035912" lon="-48.659338"><ele>20.206116</ele></trkpt><trkpt lat="-27.035912" lon="-48.659338"><ele>20.206665</ele></trkpt><trkpt lat="-27.035912" lon="-48.659338"><ele>20.207642</ele></trkpt><trkpt lat="-27.035912" lon="-48.659338"><ele>20.207397</ele></trkpt><trkpt lat="-27.035915" lon="-48.659336"><ele>20.410095</ele></trkpt><trkpt lat="-27.035916" lon="-48.659335"><ele>20.429321</ele></trkpt><trkpt lat="-27.035913" lon="-48.659333"><ele>20.480713</ele></trkpt><trkpt lat="-27.035908" lon="-48.659332"><ele>20.359436</ele></trkpt><trkpt lat="-27.035906" lon="-48.659333"><ele>20.295532</ele></trkpt><trkpt lat="-27.035907" lon="-48.659335"><ele>20.296936</ele></trkpt><trkpt lat="-27.035907" lon="-48.659335"><ele>20.295593</ele></trkpt><trkpt lat="-27.035907" lon="-48.659335"><ele>20.294373</ele></trkpt><trkpt lat="-27.035907" lon="-48.659335"><ele>20.296204</ele></trkpt><trkpt lat="-27.035907" lon="-48.659335"><ele>20.296204</ele></trkpt><trkpt lat="-27.035907" lon="-48.659335"><ele>20.296631</ele></trkpt><trkpt lat="-27.035907" lon="-48.659335"><ele>20.296631</ele></trkpt><trkpt lat="-27.035907" lon="-48.659335"><ele>19.63623</ele></trkpt><trkpt lat="-27.035908" lon="-48.659335"><ele>19.991577</ele></trkpt><trkpt lat="-27.035908" lon="-48.659335"><ele>20.0448</ele></trkpt><trkpt lat="-27.035908" lon="-48.659335"><ele>20.042969</ele></trkpt><trkpt lat="-27.035908" lon="-48.659335"><ele>20.040894</ele></trkpt><trkpt lat="-27.035908" lon="-48.659335"><ele>20.040894</ele></trkpt><trkpt lat="-27.035909" lon="-48.659335"><ele>20.041016</ele></trkpt><trkpt lat="-27.035909" lon="-48.659335"><ele>19.982849</ele></trkpt><trkpt lat="-27.035909" lon="-48.659335"><ele>20.049316</ele></trkpt><trkpt lat="-27.035909" lon="-48.659335"><ele>20.045349</ele></trkpt><trkpt lat="-27.035909" lon="-48.659335"><ele>20.046326</ele></trkpt><trkpt lat="-27.035909" lon="-48.659335"><ele>20.043335</ele></trkpt><trkpt lat="-27.035908" lon="-48.659334"><ele>20.182495</ele></trkpt><trkpt lat="-27.035908" lon="-48.659334"><ele>20.182495</ele></trkpt><trkpt lat="-27.035908" lon="-48.659334"><ele>20.182495</ele></trkpt><trkpt lat="-27.035907" lon="-48.659333"><ele>20.179749</ele></trkpt><trkpt lat="-27.035906" lon="-48.659333"><ele>19.784302</ele></trkpt><trkpt lat="-27.035906" lon="-48.659333"><ele>19.544128</ele></trkpt><trkpt lat="-27.035905" lon="-48.659333"><ele>19.538147</ele></trkpt><trkpt lat="-27.035905" lon="-48.659333"><ele>19.54425</ele></trkpt><trkpt lat="-27.035905" lon="-48.659333"><ele>18.714233</ele></trkpt><trkpt lat="-27.035905" lon="-48.659333"><ele>18.746887</ele></trkpt><trkpt lat="-27.035905" lon="-48.659333"><ele>18.749756</ele></trkpt><trkpt lat="-27.035905" lon="-48.659332"><ele>18.860962</ele></trkpt><trkpt lat="-27.035905" lon="-48.65933"><ele>18.822021</ele></trkpt><trkpt lat="-27.035905" lon="-48.65933"><ele>18.822021</ele></trkpt><trkpt lat="-27.035904" lon="-48.659328"><ele>18.745605</ele></trkpt><trkpt lat="-27.035904" lon="-48.659328"><ele>18.745605</ele></trkpt><trkpt lat="-27.035904" lon="-48.659327"><ele>18.745728</ele></trkpt><trkpt lat="-27.035904" lon="-48.659327"><ele>18.748779</ele></trkpt><trkpt lat="-27.035904" lon="-48.659327"><ele>18.751709</ele></trkpt><trkpt lat="-27.035904" lon="-48.659327"><ele>18.755615</ele></trkpt><trkpt lat="-27.035904" lon="-48.659329"><ele>19.216187</ele></trkpt><trkpt lat="-27.035905" lon="-48.659331"><ele>19.241333</ele></trkpt><trkpt lat="-27.035904" lon="-48.659328"><ele>19.054565</ele></trkpt><trkpt lat="-27.035904" lon="-48.65932"><ele>19.309875</ele></trkpt><trkpt lat="-27.035905" lon="-48.659312"><ele>19.385071</ele></trkpt><trkpt lat="-27.035907" lon="-48.659309"><ele>19.390076</ele></trkpt><trkpt lat="-27.035906" lon="-48.6593"><ele>20.221802</ele></trkpt><trkpt lat="-27.035903" lon="-48.659301"><ele>20.238281</ele></trkpt><trkpt lat="-27.0359" lon="-48.659298"><ele>20.09729</ele></trkpt><trkpt lat="-27.035899" lon="-48.659298"><ele>20.169312</ele></trkpt><trkpt lat="-27.035907" lon="-48.65931"><ele>20.657227</ele></trkpt><trkpt lat="-27.035912" lon="-48.659326"><ele>20.754822</ele></trkpt><trkpt lat="-27.035918" lon="-48.659345"><ele>20.492737</ele></trkpt><trkpt lat="-27.035924" lon="-48.659364"><ele>20.598022</ele></trkpt><trkpt lat="-27.035932" lon="-48.659386"><ele>20.495117</ele></trkpt><trkpt lat="-27.03594" lon="-48.659406"><ele>20.525208</ele></trkpt><trkpt lat="-27.035947" lon="-48.659427"><ele>20.646973</ele></trkpt><trkpt lat="-27.035954" lon="-48.659448"><ele>20.956238</ele></trkpt><trkpt lat="-27.035961" lon="-48.659472"><ele>21.310059</ele></trkpt><trkpt lat="-27.035969" lon="-48.659493"><ele>20.519104</ele></trkpt><trkpt lat="-27.035978" lon="-48.659512"><ele>20.430542</ele></trkpt><trkpt lat="-27.035987" lon="-48.659529"><ele>20.368469</ele></trkpt><trkpt lat="-27.035994" lon="-48.659545"><ele>20.304504</ele></trkpt><trkpt lat="-27.035994" lon="-48.659545"><ele>20.304504</ele></trkpt><trkpt lat="-27.036001" lon="-48.659559"><ele>20.260254</ele></trkpt><trkpt lat="-27.036006" lon="-48.659572"><ele>20.284912</ele></trkpt><trkpt lat="-27.036012" lon="-48.659587"><ele>20.227478</ele></trkpt><trkpt lat="-27.036019" lon="-48.659606"><ele>19.961487</ele></trkpt><trkpt lat="-27.036028" lon="-48.659629"><ele>19.897156</ele></trkpt><trkpt lat="-27.036039" lon="-48.659656"><ele>20.194946</ele></trkpt><trkpt lat="-27.036049" lon="-48.659683"><ele>20.174255</ele></trkpt><trkpt lat="-27.036058" lon="-48.659711"><ele>20.030334</ele></trkpt><trkpt lat="-27.036069" lon="-48.659739"><ele>19.94635</ele></trkpt><trkpt lat="-27.036079" lon="-48.659767"><ele>19.901062</ele></trkpt><trkpt lat="-27.036088" lon="-48.659793"><ele>20.260498</ele></trkpt><trkpt lat="-27.036098" lon="-48.659819"><ele>20.186096</ele></trkpt><trkpt lat="-27.036108" lon="-48.659846"><ele>20.077026</ele></trkpt><trkpt lat="-27.036117" lon="-48.659873"><ele>20.111816</ele></trkpt><trkpt lat="-27.036125" lon="-48.6599"><ele>20.146912</ele></trkpt><trkpt lat="-27.036132" lon="-48.659922"><ele>20.149475</ele></trkpt><trkpt lat="-27.03614" lon="-48.659942"><ele>20.169617</ele></trkpt><trkpt lat="-27.036148" lon="-48.659963"><ele>20.158142</ele></trkpt><trkpt lat="-27.036155" lon="-48.659984"><ele>19.935242</ele></trkpt><trkpt lat="-27.036162" lon="-48.660006"><ele>19.960571</ele></trkpt><trkpt lat="-27.036168" lon="-48.660027"><ele>19.909973</ele></trkpt><trkpt lat="-27.036174" lon="-48.660046"><ele>19.943604</ele></trkpt><trkpt lat="-27.036176" lon="-48.66006"><ele>19.711548</ele></trkpt><trkpt lat="-27.036176" lon="-48.66007"><ele>19.731812</ele></trkpt><trkpt lat="-27.036177" lon="-48.66008"><ele>19.606628</ele></trkpt><trkpt lat="-27.036179" lon="-48.660081"><ele>19.643982</ele></trkpt><trkpt lat="-27.036179" lon="-48.660081"><ele>19.643982</ele></trkpt><trkpt lat="-27.036183" lon="-48.660079"><ele>19.625427</ele></trkpt><trkpt lat="-27.036184" lon="-48.660078"><ele>19.626587</ele></trkpt><trkpt lat="-27.036184" lon="-48.660078"><ele>19.628052</ele></trkpt><trkpt lat="-27.036184" lon="-48.660078"><ele>18.812134</ele></trkpt><trkpt lat="-27.036184" lon="-48.660078"><ele>18.839966</ele></trkpt><trkpt lat="-27.036184" lon="-48.660078"><ele>18.838562</ele></trkpt><trkpt lat="-27.036184" lon="-48.660078"><ele>18.837158</ele></trkpt><trkpt lat="-27.036185" lon="-48.660082"><ele>18.823425</ele></trkpt><trkpt lat="-27.036187" lon="-48.660093"><ele>19.011108</ele></trkpt><trkpt lat="-27.036187" lon="-48.660103"><ele>18.591614</ele></trkpt><trkpt lat="-27.036185" lon="-48.660117"><ele>18.727478</ele></trkpt><trkpt lat="-27.036184" lon="-48.660137"><ele>18.891907</ele></trkpt><trkpt lat="-27.036182" lon="-48.660158"><ele>18.723755</ele></trkpt><trkpt lat="-27.036181" lon="-48.660181"><ele>18.717529</ele></trkpt><trkpt lat="-27.036179" lon="-48.660206"><ele>18.544861</ele></trkpt><trkpt lat="-27.036177" lon="-48.660231"><ele>18.444153</ele></trkpt><trkpt lat="-27.036176" lon="-48.660256"><ele>18.500061</ele></trkpt><trkpt lat="-27.036176" lon="-48.660289"><ele>19.197021</ele></trkpt><trkpt lat="-27.036174" lon="-48.66031"><ele>18.763977</ele></trkpt><trkpt lat="-27.036173" lon="-48.660327"><ele>18.423889</ele></trkpt><trkpt lat="-27.036171" lon="-48.660343"><ele>18.286072</ele></trkpt><trkpt lat="-27.036171" lon="-48.660355"><ele>18.509521</ele></trkpt><trkpt lat="-27.036172" lon="-48.660366"><ele>18.347778</ele></trkpt><trkpt lat="-27.036174" lon="-48.660368"><ele>18.335388</ele></trkpt><trkpt lat="-27.036176" lon="-48.660368"><ele>18.414734</ele></trkpt><trkpt lat="-27.036177" lon="-48.660367"><ele>18.426453</ele></trkpt><trkpt lat="-27.036177" lon="-48.660367"><ele>18.434814</ele></trkpt><trkpt lat="-27.036175" lon="-48.660369"><ele>18.190369</ele></trkpt><trkpt lat="-27.036174" lon="-48.66037"><ele>18.180176</ele></trkpt><trkpt lat="-27.036174" lon="-48.66037"><ele>18.179077</ele></trkpt><trkpt lat="-27.036174" lon="-48.66037"><ele>18.179077</ele></trkpt><trkpt lat="-27.036174" lon="-48.660371"><ele>18.182678</ele></trkpt><trkpt lat="-27.036174" lon="-48.660371"><ele>18.182678</ele></trkpt><trkpt lat="-27.036174" lon="-48.660371"><ele>18.182983</ele></trkpt><trkpt lat="-27.036173" lon="-48.660371"><ele>18.18042</ele></trkpt><trkpt lat="-27.036173" lon="-48.660371"><ele>18.180786</ele></trkpt><trkpt lat="-27.036173" lon="-48.660371"><ele>18.179077</ele></trkpt><trkpt lat="-27.036171" lon="-48.660371"><ele>18.42157</ele></trkpt><trkpt lat="-27.03617" lon="-48.660371"><ele>17.327332</ele></trkpt><trkpt lat="-27.03617" lon="-48.660375"><ele>17.57666</ele></trkpt><trkpt lat="-27.036171" lon="-48.660373"><ele>17.699524</ele></trkpt><trkpt lat="-27.036169" lon="-48.66037"><ele>17.468872</ele></trkpt><trkpt lat="-27.036167" lon="-48.660369"><ele>17.06189</ele></trkpt><trkpt lat="-27.036164" lon="-48.660372"><ele>17.058777</ele></trkpt><trkpt lat="-27.036164" lon="-48.660374"><ele>17.209473</ele></trkpt><trkpt lat="-27.036163" lon="-48.660375"><ele>17.23938</ele></trkpt><trkpt lat="-27.036163" lon="-48.660375"><ele>18.292175</ele></trkpt><trkpt lat="-27.036163" lon="-48.660375"><ele>18.289307</ele></trkpt><trkpt lat="-27.036163" lon="-48.660375"><ele>18.296631</ele></trkpt><trkpt lat="-27.036161" lon="-48.660376"><ele>18.267334</ele></trkpt><trkpt lat="-27.03616" lon="-48.660376"><ele>18.267456</ele></trkpt><trkpt lat="-27.03616" lon="-48.660377"><ele>18.271545</ele></trkpt><trkpt lat="-27.03616" lon="-48.660377"><ele>18.274048</ele></trkpt><trkpt lat="-27.03616" lon="-48.660377"><ele>18.274048</ele></trkpt><trkpt lat="-27.036159" lon="-48.660377"><ele>18.654236</ele></trkpt><trkpt lat="-27.036159" lon="-48.660377"><ele>18.404663</ele></trkpt><trkpt lat="-27.03616" lon="-48.660377"><ele>18.40033</ele></trkpt><trkpt lat="-27.036161" lon="-48.660379"><ele>18.472412</ele></trkpt><trkpt lat="-27.036164" lon="-48.660389"><ele>18.831055</ele></trkpt><trkpt lat="-27.036164" lon="-48.660398"><ele>18.97821</ele></trkpt><trkpt lat="-27.036164" lon="-48.660403"><ele>19.555176</ele></trkpt><trkpt lat="-27.036164" lon="-48.660403"><ele>18.803528</ele></trkpt><trkpt lat="-27.036164" lon="-48.660401"><ele>18.734131</ele></trkpt><trkpt lat="-27.036162" lon="-48.660403"><ele>18.659363</ele></trkpt><trkpt lat="-27.03616" lon="-48.660416"><ele>18.624695</ele></trkpt><trkpt lat="-27.036158" lon="-48.660432"><ele>18.431091</ele></trkpt><trkpt lat="-27.036157" lon="-48.660445"><ele>18.952576</ele></trkpt><trkpt lat="-27.036154" lon="-48.660464"><ele>18.888428</ele></trkpt><trkpt lat="-27.036149" lon="-48.660481"><ele>18.781311</ele></trkpt><trkpt lat="-27.036138" lon="-48.660493"><ele>18.414673</ele></trkpt><trkpt lat="-27.036124" lon="-48.660497"><ele>18.013428</ele></trkpt><trkpt lat="-27.036108" lon="-48.660494"><ele>17.888855</ele></trkpt><trkpt lat="-27.036093" lon="-48.66049"><ele>17.788879</ele></trkpt><trkpt lat="-27.036077" lon="-48.660486"><ele>17.654541</ele></trkpt><trkpt lat="-27.036066" lon="-48.660483"><ele>17.798828</ele></trkpt><trkpt lat="-27.036064" lon="-48.660482"><ele>17.806152</ele></trkpt><trkpt lat="-27.036063" lon="-48.660481"><ele>17.68042</ele></trkpt><trkpt lat="-27.036064" lon="-48.660479"><ele>17.686279</ele></trkpt><trkpt lat="-27.036064" lon="-48.660478"><ele>17.687744</ele></trkpt><trkpt lat="-27.036065" lon="-48.660478"><ele>17.752991</ele></trkpt><trkpt lat="-27.036061" lon="-48.660481"><ele>18.838074</ele></trkpt><trkpt lat="-27.036061" lon="-48.66048"><ele>18.782227</ele></trkpt><trkpt lat="-27.036063" lon="-48.660479"><ele>18.658508</ele></trkpt><trkpt lat="-27.036065" lon="-48.660479"><ele>18.719849</ele></trkpt><trkpt lat="-27.036066" lon="-48.660481"><ele>18.622253</ele></trkpt><trkpt lat="-27.036065" lon="-48.660483"><ele>18.623047</ele></trkpt><trkpt lat="-27.036066" lon="-48.660484"><ele>18.714966</ele></trkpt><trkpt lat="-27.036067" lon="-48.660484"><ele>18.729065</ele></trkpt><trkpt lat="-27.036063" lon="-48.660484"><ele>18.466614</ele></trkpt><trkpt lat="-27.036058" lon="-48.660483"><ele>18.31842</ele></trkpt><trkpt lat="-27.036055" lon="-48.660482"><ele>18.164612</ele></trkpt><trkpt lat="-27.036056" lon="-48.660482"><ele>18.161926</ele></trkpt><trkpt lat="-27.036055" lon="-48.66048"><ele>18.154175</ele></trkpt><trkpt lat="-27.036056" lon="-48.660479"><ele>18.436035</ele></trkpt><trkpt lat="-27.036058" lon="-48.66048"><ele>18.398132</ele></trkpt><trkpt lat="-27.036058" lon="-48.66048"><ele>18.401001</ele></trkpt><trkpt lat="-27.036058" lon="-48.660481"><ele>18.082947</ele></trkpt><trkpt lat="-27.036057" lon="-48.66048"><ele>18.072876</ele></trkpt><trkpt lat="-27.036057" lon="-48.66048"><ele>18.089111</ele></trkpt><trkpt lat="-27.036057" lon="-48.66048"><ele>16.917664</ele></trkpt><trkpt lat="-27.036057" lon="-48.66048"><ele>16.957581</ele></trkpt><trkpt lat="-27.036057" lon="-48.66048"><ele>16.958679</ele></trkpt><trkpt lat="-27.036057" lon="-48.66048"><ele>16.961243</ele></trkpt><trkpt lat="-27.036057" lon="-48.660479"><ele>16.967285</ele></trkpt><trkpt lat="-27.036057" lon="-48.660479"><ele>16.970947</ele></trkpt><trkpt lat="-27.036058" lon="-48.660476"><ele>16.945129</ele></trkpt><trkpt lat="-27.036058" lon="-48.660472"><ele>16.756836</ele></trkpt><trkpt lat="-27.036058" lon="-48.660466"><ele>16.685547</ele></trkpt><trkpt lat="-27.036057" lon="-48.660459"><ele>16.672485</ele></trkpt><trkpt lat="-27.036054" lon="-48.660457"><ele>16.708496</ele></trkpt><trkpt lat="-27.036052" lon="-48.660457"><ele>16.622253</ele></trkpt><trkpt lat="-27.03605" lon="-48.660456"><ele>16.776794</ele></trkpt><trkpt lat="-27.036051" lon="-48.660454"><ele>16.534912</ele></trkpt><trkpt lat="-27.036053" lon="-48.660451"><ele>16.501404</ele></trkpt><trkpt lat="-27.036054" lon="-48.660451"><ele>16.499023</ele></trkpt><trkpt lat="-27.036054" lon="-48.66045"><ele>16.358704</ele></trkpt><trkpt lat="-27.036054" lon="-48.66045"><ele>16.342529</ele></trkpt><trkpt lat="-27.036054" lon="-48.660449"><ele>16.819336</ele></trkpt><trkpt lat="-27.036054" lon="-48.660449"><ele>16.820129</ele></trkpt><trkpt lat="-27.036054" lon="-48.660449"><ele>16.816406</ele></trkpt><trkpt lat="-27.036052" lon="-48.660448"><ele>16.931091</ele></trkpt><trkpt lat="-27.036052" lon="-48.660447"><ele>15.964783</ele></trkpt><trkpt lat="-27.03605" lon="-48.660444"><ele>16.094116</ele></trkpt><trkpt lat="-27.03605" lon="-48.660442"><ele>16.11438</ele></trkpt><trkpt lat="-27.03605" lon="-48.660441"><ele>16.114258</ele></trkpt><trkpt lat="-27.036048" lon="-48.66044"><ele>15.94104</ele></trkpt><trkpt lat="-27.036047" lon="-48.660439"><ele>15.932495</ele></trkpt><trkpt lat="-27.036047" lon="-48.660439"><ele>15.927551</ele></trkpt><trkpt lat="-27.036047" lon="-48.660439"><ele>15.92926</ele></trkpt><trkpt lat="-27.036046" lon="-48.660438"><ele>16.046326</ele></trkpt><trkpt lat="-27.036045" lon="-48.660437"><ele>15.799683</ele></trkpt><trkpt lat="-27.036043" lon="-48.660436"><ele>15.820251</ele></trkpt><trkpt lat="-27.036043" lon="-48.660435"><ele>17.521179</ele></trkpt><trkpt lat="-27.036043" lon="-48.660435"><ele>17.520996</ele></trkpt><trkpt lat="-27.036043" lon="-48.660434"><ele>17.30481</ele></trkpt><trkpt lat="-27.036041" lon="-48.660431"><ele>17.266968</ele></trkpt><trkpt lat="-27.03604" lon="-48.660426"><ele>17.451111</ele></trkpt><trkpt lat="-27.03604" lon="-48.660421"><ele>17.86322</ele></trkpt><trkpt lat="-27.036041" lon="-48.660416"><ele>17.844727</ele></trkpt><trkpt lat="-27.036039" lon="-48.660414"><ele>18.156433</ele></trkpt><trkpt lat="-27.036037" lon="-48.660415"><ele>17.943054</ele></trkpt><trkpt lat="-27.036037" lon="-48.660413"><ele>17.895081</ele></trkpt><trkpt lat="-27.036037" lon="-48.660411"><ele>17.391174</ele></trkpt><trkpt lat="-27.036037" lon="-48.660408"><ele>17.367859</ele></trkpt><trkpt lat="-27.036037" lon="-48.660407"><ele>17.369446</ele></trkpt><trkpt lat="-27.036037" lon="-48.660407"><ele>17.372498</ele></trkpt><trkpt lat="-27.036037" lon="-48.660407"><ele>17.3703</ele></trkpt><trkpt lat="-27.036037" lon="-48.660407"><ele>17.369995</ele></trkpt><trkpt lat="-27.036036" lon="-48.660408"><ele>17.443481</ele></trkpt><trkpt lat="-27.036035" lon="-48.660408"><ele>17.42041</ele></trkpt><trkpt lat="-27.036035" lon="-48.660408"><ele>17.423462</ele></trkpt><trkpt lat="-27.036034" lon="-48.660409"><ele>17.458313</ele></trkpt><trkpt lat="-27.036105" lon="-48.660548"><ele>13.484192</ele></trkpt><trkpt lat="-27.036105" lon="-48.660548"><ele>13.484192</ele></trkpt><trkpt lat="-27.036074" lon="-48.660506"><ele>14.173889</ele></trkpt><trkpt lat="-27.036074" lon="-48.660506"><ele>14.173889</ele></trkpt><trkpt lat="-27.036071" lon="-48.660503"><ele>22.85437</ele></trkpt><trkpt lat="-27.036064" lon="-48.660499"><ele>23.434326</ele></trkpt><trkpt lat="-27.036062" lon="-48.660481"><ele>22.320374</ele></trkpt><trkpt lat="-27.036057" lon="-48.660474"><ele>22.476318</ele></trkpt><trkpt lat="-27.036049" lon="-48.660464"><ele>22.598389</ele></trkpt><trkpt lat="-27.036049" lon="-48.660464"><ele>22.598389</ele></trkpt><trkpt lat="-27.036048" lon="-48.660459"><ele>22.870605</ele></trkpt><trkpt lat="-27.036048" lon="-48.660459"><ele>22.870605</ele></trkpt><trkpt lat="-27.03605" lon="-48.660461"><ele>22.042969</ele></trkpt><trkpt lat="-27.036048" lon="-48.66046"><ele>21.216736</ele></trkpt><trkpt lat="-27.036046" lon="-48.660456"><ele>20.7276</ele></trkpt><trkpt lat="-27.036043" lon="-48.660455"><ele>20.45575</ele></trkpt><trkpt lat="-27.036041" lon="-48.660451"><ele>20.306885</ele></trkpt><trkpt lat="-27.036041" lon="-48.660451"><ele>19.698914</ele></trkpt><trkpt lat="-27.03604" lon="-48.66045"><ele>19.177612</ele></trkpt><trkpt lat="-27.03604" lon="-48.660449"><ele>19.464966</ele></trkpt><trkpt lat="-27.03604" lon="-48.660449"><ele>19.269775</ele></trkpt><trkpt lat="-27.03604" lon="-48.660449"><ele>18.932434</ele></trkpt><trkpt lat="-27.03604" lon="-48.660449"><ele>18.723206</ele></trkpt><trkpt lat="-27.03604" lon="-48.660449"><ele>18.962769</ele></trkpt><trkpt lat="-27.036038" lon="-48.660448"><ele>19.458496</ele></trkpt><trkpt lat="-27.036038" lon="-48.660448"><ele>19.458496</ele></trkpt><trkpt lat="-27.036038" lon="-48.660448"><ele>19.458496</ele></trkpt><trkpt lat="-27.036036" lon="-48.660446"><ele>19.058167</ele></trkpt><trkpt lat="-27.036036" lon="-48.660444"><ele>18.697693</ele></trkpt><trkpt lat="-27.036037" lon="-48.66044"><ele>18.804626</ele></trkpt><trkpt lat="-27.036039" lon="-48.66044"><ele>19.026428</ele></trkpt><trkpt lat="-27.03604" lon="-48.66044"><ele>18.955505</ele></trkpt><trkpt lat="-27.03604" lon="-48.660437"><ele>18.238708</ele></trkpt><trkpt lat="-27.036038" lon="-48.660436"><ele>19.203125</ele></trkpt><trkpt lat="-27.036036" lon="-48.660441"><ele>18.999207</ele></trkpt><trkpt lat="-27.036038" lon="-48.660438"><ele>18.590149</ele></trkpt><trkpt lat="-27.036037" lon="-48.660441"><ele>17.994446</ele></trkpt><trkpt lat="-27.036037" lon="-48.660445"><ele>17.427917</ele></trkpt><trkpt lat="-27.036037" lon="-48.660442"><ele>17.501526</ele></trkpt><trkpt lat="-27.036037" lon="-48.660441"><ele>17.507202</ele></trkpt><trkpt lat="-27.036041" lon="-48.660444"><ele>17.659729</ele></trkpt><trkpt lat="-27.036044" lon="-48.660442"><ele>17.96814</ele></trkpt><trkpt lat="-27.036047" lon="-48.660442"><ele>18.165649</ele></trkpt><trkpt lat="-27.036049" lon="-48.660443"><ele>18.217773</ele></trkpt><trkpt lat="-27.03605" lon="-48.660447"><ele>18.345032</ele></trkpt><trkpt lat="-27.036049" lon="-48.660447"><ele>18.530151</ele></trkpt><trkpt lat="-27.036049" lon="-48.66045"><ele>18.534119</ele></trkpt><trkpt lat="-27.036048" lon="-48.660449"><ele>18.712524</ele></trkpt><trkpt lat="-27.036046" lon="-48.660447"><ele>19.126648</ele></trkpt><trkpt lat="-27.036037" lon="-48.660444"><ele>19.468018</ele></trkpt><trkpt lat="-27.036021" lon="-48.660443"><ele>19.273621</ele></trkpt><trkpt lat="-27.036" lon="-48.660441"><ele>19.538513</ele></trkpt><trkpt lat="-27.035983" lon="-48.660441"><ele>19.22644</ele></trkpt><trkpt lat="-27.035963" lon="-48.66044"><ele>19.15509</ele></trkpt><trkpt lat="-27.035945" lon="-48.660436"><ele>19.340088</ele></trkpt><trkpt lat="-27.035929" lon="-48.660437"><ele>19.255676</ele></trkpt><trkpt lat="-27.035912" lon="-48.66044"><ele>19.114624</ele></trkpt><trkpt lat="-27.035902" lon="-48.660442"><ele>19.304932</ele></trkpt><trkpt lat="-27.035892" lon="-48.660444"><ele>19.384094</ele></trkpt><trkpt lat="-27.03588" lon="-48.660446"><ele>19.502075</ele></trkpt><trkpt lat="-27.035867" lon="-48.660449"><ele>19.477783</ele></trkpt><trkpt lat="-27.035857" lon="-48.660455"><ele>19.395142</ele></trkpt><trkpt lat="-27.035842" lon="-48.660456"><ele>19.170654</ele></trkpt><trkpt lat="-27.03583" lon="-48.660453"><ele>19.885193</ele></trkpt><trkpt lat="-27.035818" lon="-48.66045"><ele>19.657593</ele></trkpt><trkpt lat="-27.035805" lon="-48.660445"><ele>19.244751</ele></trkpt><trkpt lat="-27.035793" lon="-48.660447"><ele>19.195923</ele></trkpt><trkpt lat="-27.035781" lon="-48.660443"><ele>18.578796</ele></trkpt><trkpt lat="-27.035771" lon="-48.660442"><ele>18.544739</ele></trkpt><trkpt lat="-27.035766" lon="-48.660441"><ele>18.458984</ele></trkpt><trkpt lat="-27.035769" lon="-48.660442"><ele>18.468994</ele></trkpt><trkpt lat="-27.035767" lon="-48.660443"><ele>18.463867</ele></trkpt><trkpt lat="-27.035759" lon="-48.660441"><ele>18.33075</ele></trkpt><trkpt lat="-27.035749" lon="-48.660436"><ele>17.754211</ele></trkpt><trkpt lat="-27.035737" lon="-48.660433"><ele>17.542114</ele></trkpt><trkpt lat="-27.035725" lon="-48.660431"><ele>17.518738</ele></trkpt><trkpt lat="-27.035712" lon="-48.660428"><ele>18.089905</ele></trkpt><trkpt lat="-27.035704" lon="-48.660425"><ele>18.302429</ele></trkpt><trkpt lat="-27.035692" lon="-48.660425"><ele>19.020264</ele></trkpt><trkpt lat="-27.035676" lon="-48.660422"><ele>18.87439</ele></trkpt><trkpt lat="-27.035658" lon="-48.660419"><ele>19.240845</ele></trkpt><trkpt lat="-27.035639" lon="-48.660423"><ele>19.361694</ele></trkpt><trkpt lat="-27.035621" lon="-48.660426"><ele>19.53717</ele></trkpt><trkpt lat="-27.035606" lon="-48.660433"><ele>20.025635</ele></trkpt><trkpt lat="-27.03559" lon="-48.660436"><ele>19.24646</ele></trkpt><trkpt lat="-27.035566" lon="-48.660438"><ele>18.865967</ele></trkpt><trkpt lat="-27.035541" lon="-48.66044"><ele>19.370972</ele></trkpt><trkpt lat="-27.035533" lon="-48.660437"><ele>19.904358</ele></trkpt><trkpt lat="-27.035525" lon="-48.66043"><ele>20.557739</ele></trkpt><trkpt lat="-27.035521" lon="-48.660425"><ele>20.33136</ele></trkpt><trkpt lat="-27.035521" lon="-48.660425"><ele>20.33136</ele></trkpt><trkpt lat="-27.035521" lon="-48.660421"><ele>19.906128</ele></trkpt><trkpt lat="-27.035517" lon="-48.660418"><ele>19.822449</ele></trkpt><trkpt lat="-27.035511" lon="-48.660417"><ele>19.622742</ele></trkpt><trkpt lat="-27.035493" lon="-48.660415"><ele>19.805603</ele></trkpt><trkpt lat="-27.035476" lon="-48.66041"><ele>20.132446</ele></trkpt><trkpt lat="-27.035458" lon="-48.660407"><ele>19.945007</ele></trkpt><trkpt lat="-27.035439" lon="-48.660404"><ele>19.734497</ele></trkpt><trkpt lat="-27.035419" lon="-48.660401"><ele>19.837341</ele></trkpt><trkpt lat="-27.035398" lon="-48.660398"><ele>19.613708</ele></trkpt><trkpt lat="-27.035378" lon="-48.660395"><ele>19.655396</ele></trkpt><trkpt lat="-27.03536" lon="-48.660394"><ele>19.262146</ele></trkpt><trkpt lat="-27.035351" lon="-48.660393"><ele>18.957153</ele></trkpt><trkpt lat="-27.035342" lon="-48.660393"><ele>19.042358</ele></trkpt><trkpt lat="-27.035342" lon="-48.660393"><ele>19.042358</ele></trkpt><trkpt lat="-27.035329" lon="-48.660397"><ele>18.547668</ele></trkpt><trkpt lat="-27.035315" lon="-48.660395"><ele>18.328003</ele></trkpt><trkpt lat="-27.035297" lon="-48.660392"><ele>18.320679</ele></trkpt><trkpt lat="-27.03528" lon="-48.660388"><ele>18.767334</ele></trkpt><trkpt lat="-27.035263" lon="-48.660385"><ele>16.324402</ele></trkpt><trkpt lat="-27.035244" lon="-48.660382"><ele>15.513855</ele></trkpt><trkpt lat="-27.035226" lon="-48.66038"><ele>11.19632</ele></trkpt><trkpt lat="-27.035226" lon="-48.66038"><ele>11.19632</ele></trkpt><trkpt lat="-27.035204" lon="-48.660376"><ele>11.045441</ele></trkpt><trkpt lat="-27.035187" lon="-48.660372"><ele>11.588287</ele></trkpt><trkpt lat="-27.03517" lon="-48.660371"><ele>11.572021</ele></trkpt><trkpt lat="-27.035154" lon="-48.660369"><ele>11.395325</ele></trkpt><trkpt lat="-27.035138" lon="-48.660368"><ele>11.433807</ele></trkpt><trkpt lat="-27.035121" lon="-48.660365"><ele>11.144958</ele></trkpt><trkpt lat="-27.035102" lon="-48.660364"><ele>11.450073</ele></trkpt><trkpt lat="-27.035082" lon="-48.66036"><ele>11.632568</ele></trkpt><trkpt lat="-27.035062" lon="-48.660351"><ele>12.235413</ele></trkpt><trkpt lat="-27.035041" lon="-48.660347"><ele>12.534851</ele></trkpt><trkpt lat="-27.035022" lon="-48.660341"><ele>12.839661</ele></trkpt><trkpt lat="-27.035004" lon="-48.660336"><ele>12.766052</ele></trkpt><trkpt lat="-27.034985" lon="-48.660329"><ele>12.716919</ele></trkpt><trkpt lat="-27.034967" lon="-48.660322"><ele>12.420715</ele></trkpt><trkpt lat="-27.034948" lon="-48.660317"><ele>12.205505</ele></trkpt><trkpt lat="-27.034926" lon="-48.660314"><ele>12.240723</ele></trkpt><trkpt lat="-27.034906" lon="-48.660309"><ele>12.63623</ele></trkpt><trkpt lat="-27.034885" lon="-48.660309"><ele>12.859558</ele></trkpt><trkpt lat="-27.034864" lon="-48.660309"><ele>13.498474</ele></trkpt><trkpt lat="-27.034841" lon="-48.660306"><ele>13.565369</ele></trkpt><trkpt lat="-27.034819" lon="-48.660301"><ele>13.56073</ele></trkpt><trkpt lat="-27.034797" lon="-48.660296"><ele>13.792175</ele></trkpt><trkpt lat="-27.034774" lon="-48.660291"><ele>13.688049</ele></trkpt><trkpt lat="-27.034759" lon="-48.660289"><ele>13.041138</ele></trkpt><trkpt lat="-27.034743" lon="-48.660286"><ele>13.167236</ele></trkpt><trkpt lat="-27.034723" lon="-48.660282"><ele>13.351135</ele></trkpt><trkpt lat="-27.034703" lon="-48.660279"><ele>13.123901</ele></trkpt><trkpt lat="-27.034685" lon="-48.660273"><ele>10.722565</ele></trkpt><trkpt lat="-27.034669" lon="-48.660267"><ele>9.949921</ele></trkpt><trkpt lat="-27.034649" lon="-48.660267"><ele>10.35672</ele></trkpt><trkpt lat="-27.034633" lon="-48.660262"><ele>10.17514</ele></trkpt><trkpt lat="-27.034614" lon="-48.660258"><ele>10.212463</ele></trkpt><trkpt lat="-27.034595" lon="-48.660252"><ele>10.958557</ele></trkpt><trkpt lat="-27.03458" lon="-48.660246"><ele>10.519867</ele></trkpt><trkpt lat="-27.034565" lon="-48.660241"><ele>9.974487</ele></trkpt><trkpt lat="-27.034547" lon="-48.660235"><ele>10.087311</ele></trkpt><trkpt lat="-27.034534" lon="-48.66023"><ele>11.023224</ele></trkpt><trkpt lat="-27.034534" lon="-48.66023"><ele>11.023224</ele></trkpt><trkpt lat="-27.034525" lon="-48.660225"><ele>10.733063</ele></trkpt><trkpt lat="-27.034518" lon="-48.660225"><ele>11.256592</ele></trkpt><trkpt lat="-27.034512" lon="-48.660229"><ele>11.77655</ele></trkpt><trkpt lat="-27.034506" lon="-48.660231"><ele>12.627197</ele></trkpt><trkpt lat="-27.034507" lon="-48.660233"><ele>12.478149</ele></trkpt><trkpt lat="-27.034503" lon="-48.660234"><ele>12.199341</ele></trkpt><trkpt lat="-27.0345" lon="-48.660235"><ele>13.145874</ele></trkpt><trkpt lat="-27.034501" lon="-48.660239"><ele>13.483215</ele></trkpt><trkpt lat="-27.034496" lon="-48.660247"><ele>13.21814</ele></trkpt><trkpt lat="-27.034494" lon="-48.660248"><ele>13.718811</ele></trkpt><trkpt lat="-27.034492" lon="-48.660245"><ele>13.982544</ele></trkpt><trkpt lat="-27.034489" lon="-48.660243"><ele>13.10907</ele></trkpt><trkpt lat="-27.034483" lon="-48.660248"><ele>12.508972</ele></trkpt><trkpt lat="-27.03448" lon="-48.66025"><ele>12.190552</ele></trkpt><trkpt lat="-27.034479" lon="-48.660251"><ele>12.30658</ele></trkpt><trkpt lat="-27.034475" lon="-48.660253"><ele>12.77124</ele></trkpt><trkpt lat="-27.034473" lon="-48.660251"><ele>12.876831</ele></trkpt><trkpt lat="-27.034471" lon="-48.660249"><ele>12.674133</ele></trkpt><trkpt lat="-27.034469" lon="-48.660248"><ele>13.005127</ele></trkpt><trkpt lat="-27.034467" lon="-48.660247"><ele>12.77594</ele></trkpt><trkpt lat="-27.034468" lon="-48.660247"><ele>12.387695</ele></trkpt><trkpt lat="-27.034468" lon="-48.660247"><ele>12.23175</ele></trkpt><trkpt lat="-27.034469" lon="-48.660245"><ele>11.82486</ele></trkpt><trkpt lat="-27.034469" lon="-48.660244"><ele>12.808594</ele></trkpt><trkpt lat="-27.03447" lon="-48.660246"><ele>14.285767</ele></trkpt><trkpt lat="-27.034473" lon="-48.660247"><ele>14.522278</ele></trkpt><trkpt lat="-27.034476" lon="-48.660246"><ele>15.080322</ele></trkpt><trkpt lat="-27.034476" lon="-48.660245"><ele>15.907349</ele></trkpt><trkpt lat="-27.034476" lon="-48.660241"><ele>16.451904</ele></trkpt><trkpt lat="-27.034477" lon="-48.660238"><ele>17.915161</ele></trkpt><trkpt lat="-27.034475" lon="-48.660234"><ele>18.318787</ele></trkpt><trkpt lat="-27.034474" lon="-48.66023"><ele>17.20697</ele></trkpt><trkpt lat="-27.034472" lon="-48.66023"><ele>14.583069</ele></trkpt><trkpt lat="-27.034471" lon="-48.660224"><ele>14.518677</ele></trkpt><trkpt lat="-27.034469" lon="-48.660219"><ele>13.924927</ele></trkpt><trkpt lat="-27.034467" lon="-48.660214"><ele>13.418335</ele></trkpt><trkpt lat="-27.034466" lon="-48.660211"><ele>13.407776</ele></trkpt><trkpt lat="-27.034464" lon="-48.660209"><ele>13.318604</ele></trkpt><trkpt lat="-27.034463" lon="-48.660208"><ele>13.527527</ele></trkpt><trkpt lat="-27.034465" lon="-48.660206"><ele>15.640259</ele></trkpt><trkpt lat="-27.034465" lon="-48.660205"><ele>16.346252</ele></trkpt><trkpt lat="-27.034464" lon="-48.660203"><ele>16.995361</ele></trkpt><trkpt lat="-27.034463" lon="-48.660201"><ele>16.820251</ele></trkpt><trkpt lat="-27.034462" lon="-48.660199"><ele>18.003967</ele></trkpt><trkpt lat="-27.034472" lon="-48.660188"><ele>16.242493</ele></trkpt><trkpt lat="-27.034476" lon="-48.660182"><ele>16.676392</ele></trkpt><trkpt lat="-27.034479" lon="-48.660177"><ele>17.146667</ele></trkpt><trkpt lat="-27.034479" lon="-48.660177"><ele>17.146667</ele></trkpt><trkpt lat="-27.03448" lon="-48.660173"><ele>16.921204</ele></trkpt><trkpt lat="-27.034481" lon="-48.66017"><ele>16.315186</ele></trkpt><trkpt lat="-27.034481" lon="-48.66017"><ele>16.315186</ele></trkpt><trkpt lat="-27.034479" lon="-48.660168"><ele>16.160156</ele></trkpt><trkpt lat="-27.034475" lon="-48.660168"><ele>17.220093</ele></trkpt><trkpt lat="-27.034471" lon="-48.660168"><ele>17.809692</ele></trkpt><trkpt lat="-27.034468" lon="-48.660168"><ele>18.368469</ele></trkpt><trkpt lat="-27.034466" lon="-48.660169"><ele>19.036438</ele></trkpt><trkpt lat="-27.034466" lon="-48.660169"><ele>19.036438</ele></trkpt><trkpt lat="-27.034465" lon="-48.660169"><ele>19.294067</ele></trkpt><trkpt lat="-27.034464" lon="-48.660169"><ele>19.655701</ele></trkpt><trkpt lat="-27.034464" lon="-48.660169"><ele>19.739746</ele></trkpt><trkpt lat="-27.034464" lon="-48.660169"><ele>19.771484</ele></trkpt><trkpt lat="-27.034464" lon="-48.660169"><ele>19.775208</ele></trkpt><trkpt lat="-27.034464" lon="-48.660169"><ele>19.776794</ele></trkpt><trkpt lat="-27.034464" lon="-48.660169"><ele>19.782959</ele></trkpt><trkpt lat="-27.034464" lon="-48.660169"><ele>19.801086</ele></trkpt><trkpt lat="-27.034464" lon="-48.660169"><ele>19.821594</ele></trkpt><trkpt lat="-27.034464" lon="-48.660169"><ele>19.821594</ele></trkpt><trkpt lat="-27.034464" lon="-48.660169"><ele>19.82135</ele></trkpt><trkpt lat="-27.034464" lon="-48.660169"><ele>19.822205</ele></trkpt><trkpt lat="-27.034464" lon="-48.660169"><ele>19.828552</ele></trkpt><trkpt lat="-27.034464" lon="-48.660169"><ele>19.828552</ele></trkpt><trkpt lat="-27.034464" lon="-48.660169"><ele>19.769897</ele></trkpt><trkpt lat="-27.034464" lon="-48.660169"><ele>19.838806</ele></trkpt><trkpt lat="-27.034464" lon="-48.660168"><ele>19.84491</ele></trkpt><trkpt lat="-27.034464" lon="-48.660168"><ele>19.848145</ele></trkpt><trkpt lat="-27.034462" lon="-48.66017"><ele>20.794373</ele></trkpt><trkpt lat="-27.034461" lon="-48.660172"><ele>21.451904</ele></trkpt><trkpt lat="-27.03446" lon="-48.660174"><ele>21.84613</ele></trkpt><trkpt lat="-27.034459" lon="-48.660172"><ele>21.429321</ele></trkpt><trkpt lat="-27.034459" lon="-48.66017"><ele>20.961304</ele></trkpt><trkpt lat="-27.034461" lon="-48.660168"><ele>21.036316</ele></trkpt><trkpt lat="-27.034463" lon="-48.660167"><ele>21.197021</ele></trkpt><trkpt lat="-27.034463" lon="-48.660167"><ele>21.398376</ele></trkpt><trkpt lat="-27.034463" lon="-48.660167"><ele>21.596619</ele></trkpt><trkpt lat="-27.034462" lon="-48.660166"><ele>21.468262</ele></trkpt><trkpt lat="-27.034459" lon="-48.660165"><ele>21.498413</ele></trkpt><trkpt lat="-27.034457" lon="-48.660164"><ele>21.586853</ele></trkpt><trkpt lat="-27.034457" lon="-48.660164"><ele>21.586853</ele></trkpt><trkpt lat="-27.034456" lon="-48.660163"><ele>18.715942</ele></trkpt><trkpt lat="-27.034456" lon="-48.660163"><ele>18.709045</ele></trkpt><trkpt lat="-27.034455" lon="-48.660163"><ele>18.700134</ele></trkpt><trkpt lat="-27.034455" lon="-48.660163"><ele>18.69574</ele></trkpt><trkpt lat="-27.034455" lon="-48.660163"><ele>18.683289</ele></trkpt><trkpt lat="-27.034455" lon="-48.660163"><ele>18.685608</ele></trkpt><trkpt lat="-27.034455" lon="-48.660162"><ele>18.678101</ele></trkpt><trkpt lat="-27.034454" lon="-48.660162"><ele>25.212463</ele></trkpt><trkpt lat="-27.034454" lon="-48.660162"><ele>25.213806</ele></trkpt><trkpt lat="-27.034454" lon="-48.660162"><ele>25.218323</ele></trkpt><trkpt lat="-27.034454" lon="-48.660162"><ele>25.221191</ele></trkpt><trkpt lat="-27.034454" lon="-48.660162"><ele>25.221191</ele></trkpt><trkpt lat="-27.034454" lon="-48.660162"><ele>25.221619</ele></trkpt><trkpt lat="-27.034455" lon="-48.660162"><ele>25.223938</ele></trkpt><trkpt lat="-27.034455" lon="-48.660162"><ele>25.230042</ele></trkpt><trkpt lat="-27.034455" lon="-48.660162"><ele>25.233459</ele></trkpt><trkpt lat="-27.034455" lon="-48.660162"><ele>25.234314</ele></trkpt><trkpt lat="-27.034455" lon="-48.660162"><ele>25.234619</ele></trkpt><trkpt lat="-27.034455" lon="-48.660162"><ele>25.235107</ele></trkpt><trkpt lat="-27.034455" lon="-48.660162"><ele>25.238464</ele></trkpt><trkpt lat="-27.034455" lon="-48.660162"><ele>25.233765</ele></trkpt><trkpt lat="-27.034455" lon="-48.660162"><ele>25.232666</ele></trkpt><trkpt lat="-27.034455" lon="-48.660162"><ele>25.233337</ele></trkpt><trkpt lat="-27.034455" lon="-48.660162"><ele>25.229492</ele></trkpt><trkpt lat="-27.034453" lon="-48.660161"><ele>24.958679</ele></trkpt><trkpt lat="-27.034449" lon="-48.660159"><ele>24.592041</ele></trkpt><trkpt lat="-27.034447" lon="-48.660158"><ele>24.677307</ele></trkpt><trkpt lat="-27.034447" lon="-48.660158"><ele>24.677307</ele></trkpt><trkpt lat="-27.034445" lon="-48.660157"><ele>24.631042</ele></trkpt><trkpt lat="-27.034444" lon="-48.660157"><ele>24.763916</ele></trkpt><trkpt lat="-27.034444" lon="-48.660158"><ele>24.815186</ele></trkpt><trkpt lat="-27.034444" lon="-48.660157"><ele>24.885742</ele></trkpt><trkpt lat="-27.034443" lon="-48.660157"><ele>25.001709</ele></trkpt><trkpt lat="-27.034446" lon="-48.660158"><ele>25.220337</ele></trkpt><trkpt lat="-27.034448" lon="-48.660158"><ele>25.279419</ele></trkpt><trkpt lat="-27.034451" lon="-48.660157"><ele>25.358032</ele></trkpt><trkpt lat="-27.034452" lon="-48.660156"><ele>25.413696</ele></trkpt><trkpt lat="-27.034452" lon="-48.660156"><ele>25.622742</ele></trkpt><trkpt lat="-27.034452" lon="-48.660155"><ele>25.811096</ele></trkpt><trkpt lat="-27.034452" lon="-48.660155"><ele>25.811096</ele></trkpt><trkpt lat="-27.034453" lon="-48.660155"><ele>26.060364</ele></trkpt><trkpt lat="-27.034455" lon="-48.660155"><ele>26.307617</ele></trkpt><trkpt lat="-27.034456" lon="-48.660155"><ele>26.251526</ele></trkpt><trkpt lat="-27.034456" lon="-48.660155"><ele>26.34906</ele></trkpt><trkpt lat="-27.034458" lon="-48.660156"><ele>26.1474</ele></trkpt><trkpt lat="-27.034458" lon="-48.660156"><ele>26.325378</ele></trkpt><trkpt lat="-27.034461" lon="-48.660156"><ele>26.225708</ele></trkpt><trkpt lat="-27.034461" lon="-48.660155"><ele>26.064087</ele></trkpt><trkpt lat="-27.034462" lon="-48.660154"><ele>26.23584</ele></trkpt><trkpt lat="-27.034462" lon="-48.660153"><ele>26.213623</ele></trkpt><trkpt lat="-27.034462" lon="-48.660153"><ele>26.213623</ele></trkpt><trkpt lat="-27.034462" lon="-48.660153"><ele>27.003784</ele></trkpt><trkpt lat="-27.034463" lon="-48.660153"><ele>27.059631</ele></trkpt><trkpt lat="-27.034463" lon="-48.660154"><ele>27.004639</ele></trkpt><trkpt lat="-27.034463" lon="-48.660152"><ele>27.007324</ele></trkpt><trkpt lat="-27.034465" lon="-48.660152"><ele>27.342957</ele></trkpt><trkpt lat="-27.034466" lon="-48.660152"><ele>27.528442</ele></trkpt><trkpt lat="-27.034466" lon="-48.660152"><ele>27.834656</ele></trkpt><trkpt lat="-27.034467" lon="-48.660153"><ele>28.090088</ele></trkpt><trkpt lat="-27.034467" lon="-48.660152"><ele>27.87738</ele></trkpt><trkpt lat="-27.034466" lon="-48.660152"><ele>28.027832</ele></trkpt><trkpt lat="-27.034467" lon="-48.660153"><ele>28.087463</ele></trkpt><trkpt lat="-27.034467" lon="-48.660154"><ele>28.415161</ele></trkpt><trkpt lat="-27.034466" lon="-48.660153"><ele>28.407104</ele></trkpt><trkpt lat="-27.034464" lon="-48.660153"><ele>28.477539</ele></trkpt><trkpt lat="-27.034463" lon="-48.660152"><ele>28.53302</ele></trkpt><trkpt lat="-27.034463" lon="-48.660152"><ele>28.540833</ele></trkpt><trkpt lat="-27.034463" lon="-48.660152"><ele>28.375427</ele></trkpt><trkpt lat="-27.034463" lon="-48.660152"><ele>28.83252</ele></trkpt><trkpt lat="-27.034465" lon="-48.660154"><ele>28.821228</ele></trkpt><trkpt lat="-27.034464" lon="-48.660153"><ele>29.266907</ele></trkpt><trkpt lat="-27.034463" lon="-48.660152"><ele>29.657776</ele></trkpt><trkpt lat="-27.034461" lon="-48.660149"><ele>28.407898</ele></trkpt><trkpt lat="-27.034458" lon="-48.660147"><ele>28.605103</ele></trkpt><trkpt lat="-27.034457" lon="-48.660146"><ele>28.775574</ele></trkpt><trkpt lat="-27.034456" lon="-48.660145"><ele>28.924683</ele></trkpt><trkpt lat="-27.034454" lon="-48.660144"><ele>29.18335</ele></trkpt><trkpt lat="-27.034453" lon="-48.660142"><ele>28.955322</ele></trkpt><trkpt lat="-27.034452" lon="-48.660139"><ele>28.724731</ele></trkpt><trkpt lat="-27.034449" lon="-48.660138"><ele>28.511047</ele></trkpt><trkpt lat="-27.034448" lon="-48.660137"><ele>28.262085</ele></trkpt><trkpt lat="-27.034446" lon="-48.660135"><ele>27.887146</ele></trkpt><trkpt lat="-27.034445" lon="-48.660133"><ele>27.646423</ele></trkpt></trkseg></trk></gpx>