<?xml version="1.0" encoding="UTF-8"?>
<gpx xmlns="http://www.topografix.com/GPX/1/1" version="1.1" creator="@dwayneparton/geojson-to-gpx"><wpt lat="-27.006318" lon="-48.638657"><ele>5.59375</ele><name>1 faixa</name></wpt><wpt lat="-27.006328" lon="-48.638648"><ele>5.594177</ele><name>197</name></wpt><wpt lat="-27.006322" lon="-48.638633"><ele>5.272125</ele><name>303</name></wpt><wpt lat="-27.006274" lon="-48.638653"><ele>3.370056</ele><name>370</name></wpt><wpt lat="-27.006277" lon="-48.63865"><ele>3.262878</ele><name>1177</name></wpt><wpt lat="-27.004938" lon="-48.636184"><ele>9.431671</ele><name>A ciclo é sinuosa, exigindo atenção</name></wpt><wpt lat="-27.006322" lon="-48.638631"><ele>5.231567</ele><name>Área de amortecimento da ciclo (cm)</name></wpt><wpt lat="-27.00634" lon="-48.638651"><ele>5.826111</ele><name>Área transitável da ciclo (cm)</name></wpt><wpt lat="-27.006332" lon="-48.638648"><ele>5.535187</ele><name>Área transitável da ciclo (cm)</name></wpt><wpt lat="-27.006319" lon="-48.638676"><ele>5.200623</ele><name>Bidirecional</name></wpt><wpt lat="-27.005646" lon="-48.637703"><ele>4.128937</ele><name>Bueiro</name></wpt><wpt lat="-27.005604" lon="-48.637612"><ele>4.309021</ele><name>Buraco</name></wpt><wpt lat="-27.00633" lon="-48.63866"><ele>8.075195</ele><name>calçada</name></wpt><wpt lat="-27.006329" lon="-48.63866"><ele>5.630707</ele><name>Ciclovia</name></wpt><wpt lat="-27.005487" lon="-48.637319"><ele>6.788422</ele><name>Cruzamento perigoso. EXPLIQUE.</name></wpt><wpt lat="-27.005055" lon="-48.636604"><ele>12.815186</ele><name>Desnível</name></wpt><wpt lat="-27.005057" lon="-48.636604"><ele>12.562378</ele><name>em dias de chuva acumula muito água </name></wpt><wpt lat="-27.006315" lon="-48.638658"><ele>6.233246</ele><name>Estacionamento dedicado de um lado, segregado da circulação</name></wpt><wpt lat="-27.006274" lon="-48.638653"><ele>3.370056</ele><name>Faixa de carros logo ao lado da ciclo (cm)</name></wpt><wpt lat="-27.005581" lon="-48.637559"><ele>5.355713</ele><name>Foto</name></wpt><wpt lat="-27.005495" lon="-48.637313"><ele>6.779297</ele><name>Foto</name></wpt><wpt lat="-27.005067" lon="-48.636604"><ele>11.313843</ele><name>Foto</name></wpt><wpt lat="-27.004939" lon="-48.636215"><ele>7.310547</ele><name>Foto</name></wpt><wpt lat="-27.004936" lon="-48.636189"><ele>10.322418</ele><name>Iluminação geral na via do outro lado da infraestrutura</name></wpt><wpt lat="-27.004936" lon="-48.636193"><ele>11.711212</ele><name>Irregularidades que demandam desvio para circulação</name></wpt><wpt lat="-27.006313" lon="-48.63868"><ele>5.455627</ele><name>Mão Única</name></wpt><wpt lat="-27.006318" lon="-48.638679"><ele>5.390198</ele><name>No bordo direito de Via de Mão Única</name></wpt><wpt lat="-27.006331" lon="-48.63866"><ele>8.321167</ele><name>Outro segregador</name></wpt><wpt lat="-27.00632" lon="-48.638658"><ele>5.75766</ele><name>Paralelepípedo</name></wpt><wpt lat="-27.004938" lon="-48.636178"><ele>9.648346</ele><name>Pintura APAGADA ou somente rastros de tinta</name></wpt><wpt lat="-27.004938" lon="-48.636178"><ele>9.648346</ele><name>Apenas faixas vermelhas nas bordas</name></wpt><wpt lat="-27.006314" lon="-48.638676"><ele>7.20932</ele><name>Pista dupla</name></wpt><wpt lat="-27.004943" lon="-48.636178"><ele>9.030151</ele><name>R3m0v3r Avaliação de Segregadores 🗑️</name></wpt><wpt lat="-27.005624" lon="-48.63764"><ele>4.191437</ele><name>R3m0v3r Obstáculo 🗑️</name></wpt><wpt lat="-27.005485" lon="-48.637322"><ele>6.487885</ele><name>saída e entrada de hospital sem sinalização </name></wpt><wpt lat="-27.004943" lon="-48.636175"><ele>8.266632</ele><name>SE CICLOVIA: segregação impede completamente a invasão de automóvel e não há trechos desprotegidos</name></wpt><wpt lat="-27.004943" lon="-48.636178"><ele>9.03299</ele><name>Segregadores DIFICULTAM o acesso parcialmente de ciclistas</name></wpt><wpt lat="-27.004943" lon="-48.636175"><ele>8.60788</ele><name>Segregadores IMPEDEM o acesso de ciclistas</name></wpt><wpt lat="-27.004938" lon="-48.636176"><ele>9.748749</ele><name>Sombras em alguns trechos, SEM mudas novas</name></wpt><wpt lat="-27.006322" lon="-48.638661"><ele>4.974457</ele><name>Tijolo intertravado</name></wpt><wpt lat="-27.006277" lon="-48.63865"><ele>3.262878</ele><name>Total da via (incluindo a ciclo) (cm)</name></wpt><wpt lat="-27.004935" lon="-48.636197"><ele>12.008667</ele><name>Via transversal COM acesso à ciclovia</name></wpt><trk><name>Ciclovia R. Angelina - BC</name><trkseg><trkpt lat="-27.006358" lon="-48.638709"><ele>15.109009</ele></trkpt><trkpt lat="-27.006319" lon="-48.63868"><ele>13.609314</ele></trkpt><trkpt lat="-27.006317" lon="-48.638676"><ele>6.382965</ele></trkpt><trkpt lat="-27.006329" lon="-48.638672"><ele>6.261444</ele></trkpt><trkpt lat="-27.006325" lon="-48.638664"><ele>6.80426</ele></trkpt><trkpt lat="-27.006328" lon="-48.638665"><ele>6.372711</ele></trkpt><trkpt lat="-27.00633" lon="-48.638663"><ele>7.09024</ele></trkpt><trkpt lat="-27.00633" lon="-48.638664"><ele>6.601074</ele></trkpt><trkpt lat="-27.006329" lon="-48.638661"><ele>6.911438</ele></trkpt><trkpt lat="-27.006329" lon="-48.63866"><ele>6.450378</ele></trkpt><trkpt lat="-27.006331" lon="-48.638662"><ele>6.334045</ele></trkpt><trkpt lat="-27.006332" lon="-48.638662"><ele>6.318054</ele></trkpt><trkpt lat="-27.006333" lon="-48.638662"><ele>5.629425</ele></trkpt><trkpt lat="-27.006334" lon="-48.638664"><ele>5.51181</ele></trkpt><trkpt lat="-27.006333" lon="-48.638664"><ele>5.533661</ele></trkpt><trkpt lat="-27.006332" lon="-48.638662"><ele>5.792145</ele></trkpt><trkpt lat="-27.006332" lon="-48.638662"><ele>5.594208</ele></trkpt><trkpt lat="-27.006331" lon="-48.638661"><ele>5.667542</ele></trkpt><trkpt lat="-27.006331" lon="-48.638661"><ele>5.667236</ele></trkpt><trkpt lat="-27.006331" lon="-48.638661"><ele>5.656158</ele></trkpt><trkpt lat="-27.006331" lon="-48.638662"><ele>5.662354</ele></trkpt><trkpt lat="-27.006329" lon="-48.63866"><ele>5.630707</ele></trkpt><trkpt lat="-27.006329" lon="-48.63866"><ele>5.630707</ele></trkpt><trkpt lat="-27.006331" lon="-48.638659"><ele>5.562103</ele></trkpt><trkpt lat="-27.006332" lon="-48.638658"><ele>5.649628</ele></trkpt><trkpt lat="-27.006333" lon="-48.638657"><ele>5.711334</ele></trkpt><trkpt lat="-27.006333" lon="-48.638655"><ele>5.684631</ele></trkpt><trkpt lat="-27.006333" lon="-48.638655"><ele>5.342316</ele></trkpt><trkpt lat="-27.006332" lon="-48.638656"><ele>5.351624</ele></trkpt><trkpt lat="-27.006331" lon="-48.63866"><ele>5.570587</ele></trkpt><trkpt lat="-27.006327" lon="-48.638663"><ele>5.735474</ele></trkpt><trkpt lat="-27.006325" lon="-48.638666"><ele>5.642456</ele></trkpt><trkpt lat="-27.006322" lon="-48.638667"><ele>5.724792</ele></trkpt><trkpt lat="-27.006322" lon="-48.638668"><ele>5.815002</ele></trkpt><trkpt lat="-27.006323" lon="-48.63867"><ele>5.611206</ele></trkpt><trkpt lat="-27.006322" lon="-48.638672"><ele>5.472626</ele></trkpt><trkpt lat="-27.006321" lon="-48.638674"><ele>5.42215</ele></trkpt><trkpt lat="-27.00632" lon="-48.638675"><ele>5.24646</ele></trkpt><trkpt lat="-27.006319" lon="-48.638676"><ele>5.200623</ele></trkpt><trkpt lat="-27.006319" lon="-48.638676"><ele>5.200623</ele></trkpt><trkpt lat="-27.006318" lon="-48.638677"><ele>5.189362</ele></trkpt><trkpt lat="-27.006318" lon="-48.638678"><ele>5.196533</ele></trkpt><trkpt lat="-27.006318" lon="-48.638678"><ele>5.204865</ele></trkpt><trkpt lat="-27.006317" lon="-48.638677"><ele>5.072968</ele></trkpt><trkpt lat="-27.006317" lon="-48.638677"><ele>4.821991</ele></trkpt><trkpt lat="-27.006318" lon="-48.638678"><ele>4.837982</ele></trkpt><trkpt lat="-27.006318" lon="-48.63868"><ele>4.877228</ele></trkpt><trkpt lat="-27.006319" lon="-48.63868"><ele>5.02063</ele></trkpt><trkpt lat="-27.006319" lon="-48.638681"><ele>5.01709</ele></trkpt><trkpt lat="-27.006319" lon="-48.638681"><ele>5.050354</ele></trkpt><trkpt lat="-27.006319" lon="-48.638682"><ele>5.162781</ele></trkpt><trkpt lat="-27.006318" lon="-48.638681"><ele>5.072876</ele></trkpt><trkpt lat="-27.006319" lon="-48.63868"><ele>5.055939</ele></trkpt><trkpt lat="-27.006318" lon="-48.638679"><ele>5.138062</ele></trkpt><trkpt lat="-27.006318" lon="-48.638679"><ele>5.149872</ele></trkpt><trkpt lat="-27.006319" lon="-48.638679"><ele>5.298492</ele></trkpt><trkpt lat="-27.006319" lon="-48.638679"><ele>5.278809</ele></trkpt><trkpt lat="-27.006319" lon="-48.638678"><ele>5.371368</ele></trkpt><trkpt lat="-27.006318" lon="-48.638679"><ele>5.390198</ele></trkpt><trkpt lat="-27.006318" lon="-48.638679"><ele>5.390198</ele></trkpt><trkpt lat="-27.006317" lon="-48.638678"><ele>5.508057</ele></trkpt><trkpt lat="-27.006316" lon="-48.638678"><ele>5.531219</ele></trkpt><trkpt lat="-27.006316" lon="-48.638679"><ele>5.563049</ele></trkpt><trkpt lat="-27.006313" lon="-48.63868"><ele>5.455627</ele></trkpt><trkpt lat="-27.006313" lon="-48.63868"><ele>5.455627</ele></trkpt><trkpt lat="-27.006312" lon="-48.63868"><ele>5.533356</ele></trkpt><trkpt lat="-27.006311" lon="-48.638681"><ele>5.69281</ele></trkpt><trkpt lat="-27.00631" lon="-48.638682"><ele>5.952789</ele></trkpt><trkpt lat="-27.006311" lon="-48.638682"><ele>6.11615</ele></trkpt><trkpt lat="-27.006311" lon="-48.638682"><ele>6.21817</ele></trkpt><trkpt lat="-27.006313" lon="-48.638682"><ele>6.500366</ele></trkpt><trkpt lat="-27.006313" lon="-48.638681"><ele>6.706543</ele></trkpt><trkpt lat="-27.006314" lon="-48.63868"><ele>6.942688</ele></trkpt><trkpt lat="-27.006314" lon="-48.638679"><ele>6.970154</ele></trkpt><trkpt lat="-27.006314" lon="-48.638676"><ele>7.20932</ele></trkpt><trkpt lat="-27.006314" lon="-48.638676"><ele>7.20932</ele></trkpt><trkpt lat="-27.006316" lon="-48.638674"><ele>7.502899</ele></trkpt><trkpt lat="-27.006316" lon="-48.638672"><ele>7.672668</ele></trkpt><trkpt lat="-27.006317" lon="-48.638671"><ele>7.781555</ele></trkpt><trkpt lat="-27.006317" lon="-48.638671"><ele>7.833008</ele></trkpt><trkpt lat="-27.006317" lon="-48.638671"><ele>7.853363</ele></trkpt><trkpt lat="-27.006317" lon="-48.638671"><ele>7.86145</ele></trkpt><trkpt lat="-27.006317" lon="-48.638671"><ele>7.863831</ele></trkpt><trkpt lat="-27.006317" lon="-48.638671"><ele>8.698792</ele></trkpt><trkpt lat="-27.006317" lon="-48.63867"><ele>8.87262</ele></trkpt><trkpt lat="-27.006317" lon="-48.638669"><ele>9.057098</ele></trkpt><trkpt lat="-27.006316" lon="-48.638669"><ele>9.144196</ele></trkpt><trkpt lat="-27.006316" lon="-48.638668"><ele>9.248199</ele></trkpt><trkpt lat="-27.006316" lon="-48.638667"><ele>9.332947</ele></trkpt><trkpt lat="-27.006316" lon="-48.638665"><ele>9.341156</ele></trkpt><trkpt lat="-27.006316" lon="-48.638664"><ele>9.441437</ele></trkpt><trkpt lat="-27.006317" lon="-48.638663"><ele>9.543213</ele></trkpt><trkpt lat="-27.006317" lon="-48.638662"><ele>9.36026</ele></trkpt><trkpt lat="-27.006318" lon="-48.638661"><ele>9.360016</ele></trkpt><trkpt lat="-27.006318" lon="-48.63866"><ele>9.310089</ele></trkpt><trkpt lat="-27.006317" lon="-48.638659"><ele>9.108856</ele></trkpt><trkpt lat="-27.006317" lon="-48.638661"><ele>8.99115</ele></trkpt><trkpt lat="-27.006317" lon="-48.63866"><ele>9.17984</ele></trkpt><trkpt lat="-27.006321" lon="-48.638656"><ele>9.235962</ele></trkpt><trkpt lat="-27.006321" lon="-48.638656"><ele>9.298889</ele></trkpt><trkpt lat="-27.006322" lon="-48.638657"><ele>9.412628</ele></trkpt><trkpt lat="-27.006322" lon="-48.638657"><ele>9.425964</ele></trkpt><trkpt lat="-27.006324" lon="-48.63866"><ele>9.367859</ele></trkpt><trkpt lat="-27.006324" lon="-48.638661"><ele>9.68573</ele></trkpt><trkpt lat="-27.006329" lon="-48.638665"><ele>9.913116</ele></trkpt><trkpt lat="-27.00633" lon="-48.638667"><ele>9.953369</ele></trkpt><trkpt lat="-27.00633" lon="-48.638667"><ele>9.857452</ele></trkpt><trkpt lat="-27.006329" lon="-48.638668"><ele>9.878143</ele></trkpt><trkpt lat="-27.006328" lon="-48.638669"><ele>9.807953</ele></trkpt><trkpt lat="-27.006328" lon="-48.638671"><ele>9.75769</ele></trkpt><trkpt lat="-27.006328" lon="-48.63867"><ele>9.564362</ele></trkpt><trkpt lat="-27.006327" lon="-48.638665"><ele>8.94931</ele></trkpt><trkpt lat="-27.006327" lon="-48.638661"><ele>8.70163</ele></trkpt><trkpt lat="-27.006326" lon="-48.638661"><ele>8.62442</ele></trkpt><trkpt lat="-27.00633" lon="-48.63866"><ele>8.349915</ele></trkpt><trkpt lat="-27.006331" lon="-48.63866"><ele>8.321167</ele></trkpt><trkpt lat="-27.006331" lon="-48.63866"><ele>8.321167</ele></trkpt><trkpt lat="-27.006331" lon="-48.63866"><ele>8.263916</ele></trkpt><trkpt lat="-27.00633" lon="-48.63866"><ele>8.075195</ele></trkpt><trkpt lat="-27.00633" lon="-48.63866"><ele>8.075195</ele></trkpt><trkpt lat="-27.006329" lon="-48.638662"><ele>7.731018</ele></trkpt><trkpt lat="-27.006331" lon="-48.638662"><ele>7.594299</ele></trkpt><trkpt lat="-27.00633" lon="-48.638661"><ele>7.531158</ele></trkpt><trkpt lat="-27.006328" lon="-48.638661"><ele>7.32666</ele></trkpt><trkpt lat="-27.006327" lon="-48.638661"><ele>7.21814</ele></trkpt><trkpt lat="-27.006326" lon="-48.638661"><ele>7.28598</ele></trkpt><trkpt lat="-27.006326" lon="-48.638659"><ele>6.612396</ele></trkpt><trkpt lat="-27.006327" lon="-48.638658"><ele>6.46994</ele></trkpt><trkpt lat="-27.006326" lon="-48.638656"><ele>6.499115</ele></trkpt><trkpt lat="-27.006326" lon="-48.638656"><ele>6.485535</ele></trkpt><trkpt lat="-27.006326" lon="-48.638655"><ele>6.390869</ele></trkpt><trkpt lat="-27.006326" lon="-48.638656"><ele>6.42865</ele></trkpt><trkpt lat="-27.006327" lon="-48.638656"><ele>6.21286</ele></trkpt><trkpt lat="-27.006326" lon="-48.638655"><ele>6.089355</ele></trkpt><trkpt lat="-27.006326" lon="-48.638654"><ele>5.848724</ele></trkpt><trkpt lat="-27.006326" lon="-48.638656"><ele>5.977722</ele></trkpt><trkpt lat="-27.006325" lon="-48.638657"><ele>6.047028</ele></trkpt><trkpt lat="-27.006324" lon="-48.638657"><ele>6.13382</ele></trkpt><trkpt lat="-27.006322" lon="-48.638657"><ele>5.963379</ele></trkpt><trkpt lat="-27.00632" lon="-48.638658"><ele>5.75766</ele></trkpt><trkpt lat="-27.00632" lon="-48.638658"><ele>5.75766</ele></trkpt><trkpt lat="-27.00632" lon="-48.638657"><ele>5.422241</ele></trkpt><trkpt lat="-27.00632" lon="-48.638655"><ele>4.823578</ele></trkpt><trkpt lat="-27.006319" lon="-48.638654"><ele>4.696869</ele></trkpt><trkpt lat="-27.00632" lon="-48.638654"><ele>4.662933</ele></trkpt><trkpt lat="-27.006321" lon="-48.638654"><ele>4.885803</ele></trkpt><trkpt lat="-27.006321" lon="-48.638654"><ele>5.168854</ele></trkpt><trkpt lat="-27.006321" lon="-48.638655"><ele>5.070557</ele></trkpt><trkpt lat="-27.006322" lon="-48.638655"><ele>5.081421</ele></trkpt><trkpt lat="-27.006323" lon="-48.638657"><ele>4.933411</ele></trkpt><trkpt lat="-27.006322" lon="-48.638657"><ele>4.938385</ele></trkpt><trkpt lat="-27.006322" lon="-48.638659"><ele>4.824677</ele></trkpt><trkpt lat="-27.006322" lon="-48.63866"><ele>4.848022</ele></trkpt><trkpt lat="-27.006322" lon="-48.638661"><ele>4.879181</ele></trkpt><trkpt lat="-27.006322" lon="-48.638661"><ele>4.879181</ele></trkpt><trkpt lat="-27.006323" lon="-48.638662"><ele>4.919098</ele></trkpt><trkpt lat="-27.006322" lon="-48.638661"><ele>4.974457</ele></trkpt><trkpt lat="-27.006322" lon="-48.638661"><ele>4.974457</ele></trkpt><trkpt lat="-27.006322" lon="-48.638661"><ele>4.965912</ele></trkpt><trkpt lat="-27.006322" lon="-48.638659"><ele>4.891998</ele></trkpt><trkpt lat="-27.006323" lon="-48.638659"><ele>4.756561</ele></trkpt><trkpt lat="-27.006323" lon="-48.638658"><ele>4.76651</ele></trkpt><trkpt lat="-27.00632" lon="-48.638658"><ele>4.828552</ele></trkpt><trkpt lat="-27.00632" lon="-48.638657"><ele>5.014771</ele></trkpt><trkpt lat="-27.006318" lon="-48.638654"><ele>5.178284</ele></trkpt><trkpt lat="-27.006318" lon="-48.638654"><ele>5.178284</ele></trkpt><trkpt lat="-27.00632" lon="-48.638653"><ele>5.385132</ele></trkpt><trkpt lat="-27.00632" lon="-48.638653"><ele>5.181244</ele></trkpt><trkpt lat="-27.00632" lon="-48.638654"><ele>5.365417</ele></trkpt><trkpt lat="-27.006319" lon="-48.638656"><ele>5.498047</ele></trkpt><trkpt lat="-27.006319" lon="-48.638656"><ele>5.498047</ele></trkpt><trkpt lat="-27.006319" lon="-48.638656"><ele>5.56543</ele></trkpt><trkpt lat="-27.006319" lon="-48.638656"><ele>5.544708</ele></trkpt><trkpt lat="-27.00632" lon="-48.638656"><ele>5.43927</ele></trkpt><trkpt lat="-27.006319" lon="-48.638656"><ele>5.45694</ele></trkpt><trkpt lat="-27.006319" lon="-48.638656"><ele>5.444061</ele></trkpt><trkpt lat="-27.006318" lon="-48.638656"><ele>5.516357</ele></trkpt><trkpt lat="-27.006318" lon="-48.638657"><ele>5.555298</ele></trkpt><trkpt lat="-27.006318" lon="-48.638657"><ele>5.574493</ele></trkpt><trkpt lat="-27.006318" lon="-48.638657"><ele>5.587036</ele></trkpt><trkpt lat="-27.006318" lon="-48.638657"><ele>5.59375</ele></trkpt><trkpt lat="-27.006318" lon="-48.638657"><ele>5.59375</ele></trkpt><trkpt lat="-27.006318" lon="-48.638657"><ele>5.595428</ele></trkpt><trkpt lat="-27.006318" lon="-48.638657"><ele>5.596802</ele></trkpt><trkpt lat="-27.006318" lon="-48.638657"><ele>5.597565</ele></trkpt><trkpt lat="-27.006318" lon="-48.638657"><ele>5.599243</ele></trkpt><trkpt lat="-27.006318" lon="-48.638657"><ele>5.600922</ele></trkpt><trkpt lat="-27.006318" lon="-48.638657"><ele>5.601837</ele></trkpt><trkpt lat="-27.006318" lon="-48.638659"><ele>5.502045</ele></trkpt><trkpt lat="-27.006317" lon="-48.638659"><ele>5.617828</ele></trkpt><trkpt lat="-27.006316" lon="-48.638659"><ele>5.978027</ele></trkpt><trkpt lat="-27.006315" lon="-48.638658"><ele>6.233246</ele></trkpt><trkpt lat="-27.006315" lon="-48.638658"><ele>6.233246</ele></trkpt><trkpt lat="-27.006315" lon="-48.638657"><ele>6.160553</ele></trkpt><trkpt lat="-27.006315" lon="-48.638655"><ele>6.247711</ele></trkpt><trkpt lat="-27.006315" lon="-48.638654"><ele>6.358887</ele></trkpt><trkpt lat="-27.006316" lon="-48.638654"><ele>6.232483</ele></trkpt><trkpt lat="-27.006317" lon="-48.638656"><ele>6.756836</ele></trkpt><trkpt lat="-27.006317" lon="-48.638656"><ele>6.747009</ele></trkpt><trkpt lat="-27.006317" lon="-48.638656"><ele>6.680542</ele></trkpt><trkpt lat="-27.006318" lon="-48.638655"><ele>6.802124</ele></trkpt><trkpt lat="-27.006319" lon="-48.638655"><ele>6.906921</ele></trkpt><trkpt lat="-27.00632" lon="-48.638654"><ele>7.016083</ele></trkpt><trkpt lat="-27.00632" lon="-48.638655"><ele>7.100525</ele></trkpt><trkpt lat="-27.006321" lon="-48.638655"><ele>7.159851</ele></trkpt><trkpt lat="-27.006323" lon="-48.638655"><ele>7.028931</ele></trkpt><trkpt lat="-27.00632" lon="-48.638658"><ele>6.998779</ele></trkpt><trkpt lat="-27.006319" lon="-48.638659"><ele>6.99411</ele></trkpt><trkpt lat="-27.006319" lon="-48.63866"><ele>6.929169</ele></trkpt><trkpt lat="-27.006321" lon="-48.63866"><ele>6.810455</ele></trkpt><trkpt lat="-27.006323" lon="-48.638659"><ele>6.76712</ele></trkpt><trkpt lat="-27.006326" lon="-48.638657"><ele>6.695648</ele></trkpt><trkpt lat="-27.006326" lon="-48.638655"><ele>6.586456</ele></trkpt><trkpt lat="-27.006327" lon="-48.63865"><ele>6.375458</ele></trkpt><trkpt lat="-27.006328" lon="-48.638646"><ele>6.244141</ele></trkpt><trkpt lat="-27.006329" lon="-48.638646"><ele>6.366425</ele></trkpt><trkpt lat="-27.006331" lon="-48.638647"><ele>6.317169</ele></trkpt><trkpt lat="-27.006336" lon="-48.638651"><ele>6.228729</ele></trkpt><trkpt lat="-27.006337" lon="-48.638653"><ele>6.129913</ele></trkpt><trkpt lat="-27.006338" lon="-48.638652"><ele>6.556122</ele></trkpt><trkpt lat="-27.006341" lon="-48.638651"><ele>6.727997</ele></trkpt><trkpt lat="-27.006343" lon="-48.638652"><ele>6.84079</ele></trkpt><trkpt lat="-27.006344" lon="-48.638651"><ele>6.629883</ele></trkpt><trkpt lat="-27.006344" lon="-48.638653"><ele>6.622894</ele></trkpt><trkpt lat="-27.006345" lon="-48.638652"><ele>6.322601</ele></trkpt><trkpt lat="-27.006345" lon="-48.638653"><ele>6.27533</ele></trkpt><trkpt lat="-27.006344" lon="-48.638653"><ele>6.08551</ele></trkpt><trkpt lat="-27.00634" lon="-48.638651"><ele>5.826111</ele></trkpt><trkpt lat="-27.00634" lon="-48.638651"><ele>5.826111</ele></trkpt><trkpt lat="-27.006337" lon="-48.63865"><ele>6.02243</ele></trkpt><trkpt lat="-27.006332" lon="-48.638648"><ele>5.535187</ele></trkpt><trkpt lat="-27.006332" lon="-48.638648"><ele>5.535187</ele></trkpt><trkpt lat="-27.006328" lon="-48.638648"><ele>5.594177</ele></trkpt><trkpt lat="-27.006328" lon="-48.638648"><ele>5.594177</ele></trkpt><trkpt lat="-27.006324" lon="-48.638648"><ele>5.614136</ele></trkpt><trkpt lat="-27.006324" lon="-48.638647"><ele>5.278259</ele></trkpt><trkpt lat="-27.006326" lon="-48.638645"><ele>5.113617</ele></trkpt><trkpt lat="-27.006327" lon="-48.638644"><ele>5.060791</ele></trkpt><trkpt lat="-27.006328" lon="-48.638644"><ele>5.115845</ele></trkpt><trkpt lat="-27.006327" lon="-48.638643"><ele>4.817688</ele></trkpt><trkpt lat="-27.006327" lon="-48.638642"><ele>4.751923</ele></trkpt><trkpt lat="-27.006327" lon="-48.638641"><ele>4.853607</ele></trkpt><trkpt lat="-27.006327" lon="-48.638641"><ele>4.958099</ele></trkpt><trkpt lat="-27.006325" lon="-48.638643"><ele>5.107239</ele></trkpt><trkpt lat="-27.006322" lon="-48.638642"><ele>4.713593</ele></trkpt><trkpt lat="-27.006324" lon="-48.638641"><ele>4.398102</ele></trkpt><trkpt lat="-27.006325" lon="-48.638642"><ele>4.509857</ele></trkpt><trkpt lat="-27.006325" lon="-48.63864"><ele>4.310425</ele></trkpt><trkpt lat="-27.006325" lon="-48.638639"><ele>4.262421</ele></trkpt><trkpt lat="-27.006326" lon="-48.638636"><ele>4.406525</ele></trkpt><trkpt lat="-27.006326" lon="-48.638636"><ele>4.664093</ele></trkpt><trkpt lat="-27.006327" lon="-48.638636"><ele>4.456543</ele></trkpt><trkpt lat="-27.006326" lon="-48.638637"><ele>4.684753</ele></trkpt><trkpt lat="-27.006325" lon="-48.638638"><ele>4.470398</ele></trkpt><trkpt lat="-27.006326" lon="-48.638638"><ele>4.390564</ele></trkpt><trkpt lat="-27.006326" lon="-48.638638"><ele>4.496582</ele></trkpt><trkpt lat="-27.006326" lon="-48.638639"><ele>4.812012</ele></trkpt><trkpt lat="-27.006324" lon="-48.63864"><ele>4.913879</ele></trkpt><trkpt lat="-27.006323" lon="-48.63864"><ele>5.422333</ele></trkpt><trkpt lat="-27.006325" lon="-48.638638"><ele>5.457245</ele></trkpt><trkpt lat="-27.006324" lon="-48.638638"><ele>5.513428</ele></trkpt><trkpt lat="-27.006323" lon="-48.638635"><ele>5.794037</ele></trkpt><trkpt lat="-27.006323" lon="-48.638634"><ele>5.553284</ele></trkpt><trkpt lat="-27.006326" lon="-48.63863"><ele>5.267517</ele></trkpt><trkpt lat="-27.006327" lon="-48.638629"><ele>5.346802</ele></trkpt><trkpt lat="-27.006325" lon="-48.638629"><ele>5.162567</ele></trkpt><trkpt lat="-27.006325" lon="-48.638629"><ele>5.203156</ele></trkpt><trkpt lat="-27.006324" lon="-48.638629"><ele>5.125916</ele></trkpt><trkpt lat="-27.006322" lon="-48.638631"><ele>5.231567</ele></trkpt><trkpt lat="-27.006322" lon="-48.638631"><ele>5.231567</ele></trkpt><trkpt lat="-27.006322" lon="-48.638633"><ele>5.272125</ele></trkpt><trkpt lat="-27.006322" lon="-48.638633"><ele>5.272125</ele></trkpt><trkpt lat="-27.006322" lon="-48.638634"><ele>5.372467</ele></trkpt><trkpt lat="-27.00632" lon="-48.638634"><ele>4.660278</ele></trkpt><trkpt lat="-27.006317" lon="-48.638634"><ele>4.450104</ele></trkpt><trkpt lat="-27.006314" lon="-48.638634"><ele>4.537872</ele></trkpt><trkpt lat="-27.006312" lon="-48.638636"><ele>4.401245</ele></trkpt><trkpt lat="-27.006308" lon="-48.638638"><ele>4.701721</ele></trkpt><trkpt lat="-27.006302" lon="-48.638641"><ele>4.738068</ele></trkpt><trkpt lat="-27.006298" lon="-48.638647"><ele>4.566101</ele></trkpt><trkpt lat="-27.006296" lon="-48.638649"><ele>4.452698</ele></trkpt><trkpt lat="-27.006296" lon="-48.63865"><ele>4.463104</ele></trkpt><trkpt lat="-27.006295" lon="-48.638649"><ele>4.017242</ele></trkpt><trkpt lat="-27.006294" lon="-48.638649"><ele>3.881805</ele></trkpt><trkpt lat="-27.006294" lon="-48.63865"><ele>3.670013</ele></trkpt><trkpt lat="-27.006294" lon="-48.63865"><ele>3.438049</ele></trkpt><trkpt lat="-27.006293" lon="-48.638653"><ele>3.265167</ele></trkpt><trkpt lat="-27.006293" lon="-48.638655"><ele>3.095032</ele></trkpt><trkpt lat="-27.006293" lon="-48.638655"><ele>3.081177</ele></trkpt><trkpt lat="-27.00629" lon="-48.638657"><ele>2.998413</ele></trkpt><trkpt lat="-27.006288" lon="-48.638657"><ele>3.18573</ele></trkpt><trkpt lat="-27.006287" lon="-48.638658"><ele>3.268066</ele></trkpt><trkpt lat="-27.006285" lon="-48.63866"><ele>3.558441</ele></trkpt><trkpt lat="-27.006285" lon="-48.638663"><ele>3.268005</ele></trkpt><trkpt lat="-27.006283" lon="-48.638669"><ele>3.049652</ele></trkpt><trkpt lat="-27.00628" lon="-48.638676"><ele>2.927948</ele></trkpt><trkpt lat="-27.006278" lon="-48.638679"><ele>3.067749</ele></trkpt><trkpt lat="-27.006281" lon="-48.63868"><ele>3.337708</ele></trkpt><trkpt lat="-27.00628" lon="-48.638678"><ele>3.004517</ele></trkpt><trkpt lat="-27.00628" lon="-48.638676"><ele>2.958191</ele></trkpt><trkpt lat="-27.00628" lon="-48.638676"><ele>2.961426</ele></trkpt><trkpt lat="-27.00628" lon="-48.638676"><ele>2.945709</ele></trkpt><trkpt lat="-27.00628" lon="-48.638675"><ele>3.054962</ele></trkpt><trkpt lat="-27.006281" lon="-48.638675"><ele>2.986816</ele></trkpt><trkpt lat="-27.006281" lon="-48.638676"><ele>2.987427</ele></trkpt><trkpt lat="-27.006281" lon="-48.638676"><ele>2.985931</ele></trkpt><trkpt lat="-27.006281" lon="-48.638676"><ele>2.985809</ele></trkpt><trkpt lat="-27.006281" lon="-48.638676"><ele>2.985291</ele></trkpt><trkpt lat="-27.006281" lon="-48.638676"><ele>2.985565</ele></trkpt><trkpt lat="-27.006281" lon="-48.638676"><ele>2.984406</ele></trkpt><trkpt lat="-27.006281" lon="-48.638676"><ele>3.105103</ele></trkpt><trkpt lat="-27.006282" lon="-48.638676"><ele>3.574493</ele></trkpt><trkpt lat="-27.006283" lon="-48.638675"><ele>3.533813</ele></trkpt><trkpt lat="-27.006281" lon="-48.63867"><ele>3.24472</ele></trkpt><trkpt lat="-27.006276" lon="-48.638663"><ele>3.437927</ele></trkpt><trkpt lat="-27.006272" lon="-48.638661"><ele>3.167389</ele></trkpt><trkpt lat="-27.006271" lon="-48.638657"><ele>3.393066</ele></trkpt><trkpt lat="-27.006273" lon="-48.638654"><ele>3.437042</ele></trkpt><trkpt lat="-27.006274" lon="-48.638653"><ele>3.370056</ele></trkpt><trkpt lat="-27.006274" lon="-48.638653"><ele>3.370056</ele></trkpt><trkpt lat="-27.006274" lon="-48.638653"><ele>3.370056</ele></trkpt><trkpt lat="-27.006276" lon="-48.638651"><ele>3.271362</ele></trkpt><trkpt lat="-27.006277" lon="-48.63865"><ele>3.251831</ele></trkpt><trkpt lat="-27.006277" lon="-48.63865"><ele>3.254852</ele></trkpt><trkpt lat="-27.006277" lon="-48.63865"><ele>3.259796</ele></trkpt><trkpt lat="-27.006277" lon="-48.63865"><ele>3.262878</ele></trkpt><trkpt lat="-27.006277" lon="-48.63865"><ele>3.262878</ele></trkpt><trkpt lat="-27.006277" lon="-48.63865"><ele>3.262878</ele></trkpt><trkpt lat="-27.006277" lon="-48.63865"><ele>3.264313</ele></trkpt><trkpt lat="-27.006278" lon="-48.638651"><ele>3.126099</ele></trkpt><trkpt lat="-27.006278" lon="-48.638654"><ele>3.091736</ele></trkpt><trkpt lat="-27.006277" lon="-48.638655"><ele>3.104858</ele></trkpt><trkpt lat="-27.006277" lon="-48.638654"><ele>3.249146</ele></trkpt><trkpt lat="-27.006278" lon="-48.638653"><ele>3.259125</ele></trkpt><trkpt lat="-27.006277" lon="-48.638649"><ele>3.153259</ele></trkpt><trkpt lat="-27.006276" lon="-48.638645"><ele>2.836212</ele></trkpt><trkpt lat="-27.006275" lon="-48.638645"><ele>2.847687</ele></trkpt><trkpt lat="-27.006275" lon="-48.638645"><ele>3.129791</ele></trkpt><trkpt lat="-27.006277" lon="-48.638646"><ele>3.064667</ele></trkpt><trkpt lat="-27.00628" lon="-48.638642"><ele>2.601288</ele></trkpt><trkpt lat="-27.006284" lon="-48.638643"><ele>2.874664</ele></trkpt><trkpt lat="-27.006293" lon="-48.638648"><ele>2.590088</ele></trkpt><trkpt lat="-27.006296" lon="-48.638652"><ele>2.925812</ele></trkpt><trkpt lat="-27.006297" lon="-48.638656"><ele>3.223663</ele></trkpt><trkpt lat="-27.006295" lon="-48.638659"><ele>3.275757</ele></trkpt><trkpt lat="-27.006294" lon="-48.63866"><ele>3.277527</ele></trkpt><trkpt lat="-27.006294" lon="-48.638661"><ele>3.408447</ele></trkpt><trkpt lat="-27.006294" lon="-48.63866"><ele>3.424469</ele></trkpt><trkpt lat="-27.006295" lon="-48.638657"><ele>3.504852</ele></trkpt><trkpt lat="-27.006295" lon="-48.638658"><ele>3.566345</ele></trkpt><trkpt lat="-27.006295" lon="-48.638659"><ele>3.566254</ele></trkpt><trkpt lat="-27.006295" lon="-48.638659"><ele>3.566162</ele></trkpt><trkpt lat="-27.006295" lon="-48.638658"><ele>3.744965</ele></trkpt><trkpt lat="-27.006296" lon="-48.638657"><ele>3.768005</ele></trkpt><trkpt lat="-27.006298" lon="-48.638653"><ele>3.752014</ele></trkpt><trkpt lat="-27.006299" lon="-48.638651"><ele>3.770782</ele></trkpt><trkpt lat="-27.006302" lon="-48.638648"><ele>3.489868</ele></trkpt><trkpt lat="-27.006306" lon="-48.638645"><ele>3.716614</ele></trkpt><trkpt lat="-27.006309" lon="-48.638642"><ele>3.838928</ele></trkpt><trkpt lat="-27.006312" lon="-48.638638"><ele>3.866608</ele></trkpt><trkpt lat="-27.006314" lon="-48.638633"><ele>4.438202</ele></trkpt><trkpt lat="-27.006315" lon="-48.63863"><ele>4.573547</ele></trkpt><trkpt lat="-27.006314" lon="-48.638624"><ele>4.810455</ele></trkpt><trkpt lat="-27.006312" lon="-48.638621"><ele>4.793182</ele></trkpt><trkpt lat="-27.006312" lon="-48.63862"><ele>4.796783</ele></trkpt><trkpt lat="-27.006311" lon="-48.638622"><ele>5.175903</ele></trkpt><trkpt lat="-27.006311" lon="-48.638624"><ele>5.950684</ele></trkpt><trkpt lat="-27.006314" lon="-48.638624"><ele>5.989777</ele></trkpt><trkpt lat="-27.006312" lon="-48.638623"><ele>6.130341</ele></trkpt><trkpt lat="-27.006311" lon="-48.638621"><ele>6.156067</ele></trkpt><trkpt lat="-27.006311" lon="-48.638621"><ele>6.159058</ele></trkpt><trkpt lat="-27.006312" lon="-48.638623"><ele>5.833984</ele></trkpt><trkpt lat="-27.006308" lon="-48.638623"><ele>6.015442</ele></trkpt><trkpt lat="-27.006308" lon="-48.638621"><ele>6.037415</ele></trkpt><trkpt lat="-27.006311" lon="-48.638622"><ele>6.038635</ele></trkpt><trkpt lat="-27.006311" lon="-48.638622"><ele>6.038025</ele></trkpt><trkpt lat="-27.00631" lon="-48.638618"><ele>6.423553</ele></trkpt><trkpt lat="-27.006306" lon="-48.638613"><ele>5.934753</ele></trkpt><trkpt lat="-27.006303" lon="-48.638611"><ele>6.023438</ele></trkpt><trkpt lat="-27.006298" lon="-48.638604"><ele>5.788727</ele></trkpt><trkpt lat="-27.006291" lon="-48.638594"><ele>6.15448</ele></trkpt><trkpt lat="-27.006284" lon="-48.638583"><ele>6.094574</ele></trkpt><trkpt lat="-27.006276" lon="-48.638571"><ele>6.070129</ele></trkpt><trkpt lat="-27.006265" lon="-48.63856"><ele>6.46701</ele></trkpt><trkpt lat="-27.006254" lon="-48.638549"><ele>6.742126</ele></trkpt><trkpt lat="-27.006243" lon="-48.638537"><ele>7.123352</ele></trkpt><trkpt lat="-27.006232" lon="-48.638524"><ele>6.777069</ele></trkpt><trkpt lat="-27.00622" lon="-48.638509"><ele>6.574005</ele></trkpt><trkpt lat="-27.006211" lon="-48.638491"><ele>6.294189</ele></trkpt><trkpt lat="-27.006203" lon="-48.638472"><ele>6.907501</ele></trkpt><trkpt lat="-27.006194" lon="-48.638454"><ele>7.164886</ele></trkpt><trkpt lat="-27.006185" lon="-48.638438"><ele>7.001221</ele></trkpt><trkpt lat="-27.006174" lon="-48.638424"><ele>7.072357</ele></trkpt><trkpt lat="-27.006164" lon="-48.638409"><ele>7.080078</ele></trkpt><trkpt lat="-27.006153" lon="-48.638397"><ele>7.14386</ele></trkpt><trkpt lat="-27.006143" lon="-48.638384"><ele>7.188843</ele></trkpt><trkpt lat="-27.006132" lon="-48.638365"><ele>6.979492</ele></trkpt><trkpt lat="-27.006124" lon="-48.638344"><ele>7.487091</ele></trkpt><trkpt lat="-27.006114" lon="-48.638324"><ele>7.536316</ele></trkpt><trkpt lat="-27.006101" lon="-48.638309"><ele>6.741913</ele></trkpt><trkpt lat="-27.006088" lon="-48.638294"><ele>7.00528</ele></trkpt><trkpt lat="-27.006077" lon="-48.638281"><ele>7.016968</ele></trkpt><trkpt lat="-27.006065" lon="-48.638266"><ele>7.376282</ele></trkpt><trkpt lat="-27.006054" lon="-48.63825"><ele>7.17038</ele></trkpt><trkpt lat="-27.006041" lon="-48.638232"><ele>7.501923</ele></trkpt><trkpt lat="-27.00603" lon="-48.638216"><ele>7.581543</ele></trkpt><trkpt lat="-27.006017" lon="-48.6382"><ele>7.822784</ele></trkpt><trkpt lat="-27.006002" lon="-48.63819"><ele>8.096375</ele></trkpt><trkpt lat="-27.005986" lon="-48.638183"><ele>8.047333</ele></trkpt><trkpt lat="-27.005974" lon="-48.638169"><ele>8.31546</ele></trkpt><trkpt lat="-27.005884" lon="-48.637987"><ele>3.70575</ele></trkpt><trkpt lat="-27.005605" lon="-48.637717"><ele>4.110016</ele></trkpt><trkpt lat="-27.005644" lon="-48.637712"><ele>4.136841</ele></trkpt><trkpt lat="-27.005646" lon="-48.637703"><ele>4.128937</ele></trkpt><trkpt lat="-27.005646" lon="-48.637703"><ele>4.128937</ele></trkpt><trkpt lat="-27.005643" lon="-48.637679"><ele>4.127563</ele></trkpt><trkpt lat="-27.005624" lon="-48.63764"><ele>4.191437</ele></trkpt><trkpt lat="-27.005624" lon="-48.63764"><ele>4.191437</ele></trkpt><trkpt lat="-27.005608" lon="-48.637625"><ele>4.267334</ele></trkpt><trkpt lat="-27.005604" lon="-48.637612"><ele>4.309021</ele></trkpt><trkpt lat="-27.005604" lon="-48.637612"><ele>4.309021</ele></trkpt><trkpt lat="-27.0056" lon="-48.637597"><ele>4.402924</ele></trkpt><trkpt lat="-27.005598" lon="-48.63759"><ele>4.492645</ele></trkpt><trkpt lat="-27.005595" lon="-48.637585"><ele>4.515686</ele></trkpt><trkpt lat="-27.005591" lon="-48.637581"><ele>4.559692</ele></trkpt><trkpt lat="-27.005592" lon="-48.637576"><ele>4.906586</ele></trkpt><trkpt lat="-27.005591" lon="-48.637573"><ele>4.95697</ele></trkpt><trkpt lat="-27.00559" lon="-48.637571"><ele>5.005981</ele></trkpt><trkpt lat="-27.005589" lon="-48.637571"><ele>5.001434</ele></trkpt><trkpt lat="-27.005582" lon="-48.637569"><ele>5.328979</ele></trkpt><trkpt lat="-27.005581" lon="-48.637559"><ele>5.355713</ele></trkpt><trkpt lat="-27.005581" lon="-48.637559"><ele>5.355713</ele></trkpt><trkpt lat="-27.005579" lon="-48.63755"><ele>5.517029</ele></trkpt><trkpt lat="-27.005582" lon="-48.637535"><ele>5.586151</ele></trkpt><trkpt lat="-27.005585" lon="-48.637536"><ele>5.204773</ele></trkpt><trkpt lat="-27.005579" lon="-48.637542"><ele>5.944855</ele></trkpt><trkpt lat="-27.005578" lon="-48.637541"><ele>5.451538</ele></trkpt><trkpt lat="-27.005577" lon="-48.637536"><ele>5.073395</ele></trkpt><trkpt lat="-27.005577" lon="-48.637534"><ele>5.267548</ele></trkpt><trkpt lat="-27.005578" lon="-48.637534"><ele>5.127289</ele></trkpt><trkpt lat="-27.005579" lon="-48.637534"><ele>5.53653</ele></trkpt><trkpt lat="-27.005579" lon="-48.637532"><ele>5.595612</ele></trkpt><trkpt lat="-27.005579" lon="-48.63753"><ele>5.452057</ele></trkpt><trkpt lat="-27.005573" lon="-48.637525"><ele>6.56488</ele></trkpt><trkpt lat="-27.005563" lon="-48.63752"><ele>6.520386</ele></trkpt><trkpt lat="-27.005554" lon="-48.637517"><ele>7.205109</ele></trkpt><trkpt lat="-27.005546" lon="-48.637517"><ele>7.236877</ele></trkpt><trkpt lat="-27.00554" lon="-48.637509"><ele>6.646912</ele></trkpt><trkpt lat="-27.005537" lon="-48.637507"><ele>6.4935</ele></trkpt><trkpt lat="-27.005537" lon="-48.637504"><ele>5.75708</ele></trkpt><trkpt lat="-27.005535" lon="-48.637499"><ele>5.574493</ele></trkpt><trkpt lat="-27.005534" lon="-48.637491"><ele>5.630829</ele></trkpt><trkpt lat="-27.005527" lon="-48.637487"><ele>5.736969</ele></trkpt><trkpt lat="-27.005521" lon="-48.63748"><ele>6.222473</ele></trkpt><trkpt lat="-27.00552" lon="-48.637478"><ele>7.006866</ele></trkpt><trkpt lat="-27.005519" lon="-48.637476"><ele>7.302338</ele></trkpt><trkpt lat="-27.005521" lon="-48.637472"><ele>7.010071</ele></trkpt><trkpt lat="-27.005519" lon="-48.637465"><ele>6.816833</ele></trkpt><trkpt lat="-27.00552" lon="-48.637459"><ele>7.07843</ele></trkpt><trkpt lat="-27.005515" lon="-48.637446"><ele>6.956238</ele></trkpt><trkpt lat="-27.00551" lon="-48.637434"><ele>6.968536</ele></trkpt><trkpt lat="-27.005503" lon="-48.637412"><ele>7.137634</ele></trkpt><trkpt lat="-27.005493" lon="-48.63739"><ele>7.220001</ele></trkpt><trkpt lat="-27.005484" lon="-48.637373"><ele>7.474182</ele></trkpt><trkpt lat="-27.005476" lon="-48.637353"><ele>7.232025</ele></trkpt><trkpt lat="-27.005468" lon="-48.637336"><ele>7.378723</ele></trkpt><trkpt lat="-27.005465" lon="-48.637323"><ele>7.115845</ele></trkpt><trkpt lat="-27.005463" lon="-48.637316"><ele>6.782959</ele></trkpt><trkpt lat="-27.005461" lon="-48.637316"><ele>6.812836</ele></trkpt><trkpt lat="-27.005463" lon="-48.63732"><ele>6.765717</ele></trkpt><trkpt lat="-27.005462" lon="-48.637317"><ele>7.104004</ele></trkpt><trkpt lat="-27.005464" lon="-48.637314"><ele>7.054993</ele></trkpt><trkpt lat="-27.005464" lon="-48.637314"><ele>6.770203</ele></trkpt><trkpt lat="-27.005463" lon="-48.637313"><ele>7.197723</ele></trkpt><trkpt lat="-27.005469" lon="-48.637305"><ele>6.909393</ele></trkpt><trkpt lat="-27.005473" lon="-48.6373"><ele>7.008392</ele></trkpt><trkpt lat="-27.005472" lon="-48.637299"><ele>7.00824</ele></trkpt><trkpt lat="-27.005474" lon="-48.637299"><ele>6.565979</ele></trkpt><trkpt lat="-27.005477" lon="-48.637299"><ele>6.423004</ele></trkpt><trkpt lat="-27.005478" lon="-48.637302"><ele>6.40155</ele></trkpt><trkpt lat="-27.005477" lon="-48.637304"><ele>5.892609</ele></trkpt><trkpt lat="-27.005478" lon="-48.637307"><ele>5.85379</ele></trkpt><trkpt lat="-27.005479" lon="-48.637308"><ele>5.765503</ele></trkpt><trkpt lat="-27.005477" lon="-48.63731"><ele>5.64444</ele></trkpt><trkpt lat="-27.005476" lon="-48.637311"><ele>5.603546</ele></trkpt><trkpt lat="-27.005475" lon="-48.637312"><ele>5.578674</ele></trkpt><trkpt lat="-27.005475" lon="-48.637312"><ele>5.616577</ele></trkpt><trkpt lat="-27.005475" lon="-48.637313"><ele>5.639557</ele></trkpt><trkpt lat="-27.005474" lon="-48.637313"><ele>5.646576</ele></trkpt><trkpt lat="-27.005475" lon="-48.637313"><ele>5.559937</ele></trkpt><trkpt lat="-27.005477" lon="-48.637312"><ele>5.651337</ele></trkpt><trkpt lat="-27.005478" lon="-48.637311"><ele>5.836884</ele></trkpt><trkpt lat="-27.005478" lon="-48.637309"><ele>5.841522</ele></trkpt><trkpt lat="-27.005478" lon="-48.637308"><ele>6.048218</ele></trkpt><trkpt lat="-27.005479" lon="-48.637307"><ele>5.850281</ele></trkpt><trkpt lat="-27.005483" lon="-48.637305"><ele>5.76709</ele></trkpt><trkpt lat="-27.005483" lon="-48.637305"><ele>5.603027</ele></trkpt><trkpt lat="-27.005484" lon="-48.637306"><ele>5.284393</ele></trkpt><trkpt lat="-27.005486" lon="-48.637306"><ele>5.262238</ele></trkpt><trkpt lat="-27.005488" lon="-48.637305"><ele>5.06958</ele></trkpt><trkpt lat="-27.005489" lon="-48.637303"><ele>5.069946</ele></trkpt><trkpt lat="-27.005489" lon="-48.637302"><ele>4.938354</ele></trkpt><trkpt lat="-27.005493" lon="-48.637301"><ele>5.044037</ele></trkpt><trkpt lat="-27.005495" lon="-48.637302"><ele>5.067139</ele></trkpt><trkpt lat="-27.005498" lon="-48.637303"><ele>4.876343</ele></trkpt><trkpt lat="-27.005499" lon="-48.637302"><ele>5.08075</ele></trkpt><trkpt lat="-27.005496" lon="-48.637302"><ele>5.055389</ele></trkpt><trkpt lat="-27.005494" lon="-48.637305"><ele>5.503082</ele></trkpt><trkpt lat="-27.005495" lon="-48.637308"><ele>5.560486</ele></trkpt><trkpt lat="-27.005495" lon="-48.63731"><ele>5.848114</ele></trkpt><trkpt lat="-27.0055" lon="-48.637313"><ele>5.937286</ele></trkpt><trkpt lat="-27.005503" lon="-48.637316"><ele>5.967133</ele></trkpt><trkpt lat="-27.005503" lon="-48.637315"><ele>6.001556</ele></trkpt><trkpt lat="-27.005503" lon="-48.637317"><ele>5.914948</ele></trkpt><trkpt lat="-27.005503" lon="-48.637319"><ele>5.813843</ele></trkpt><trkpt lat="-27.005501" lon="-48.637322"><ele>5.801788</ele></trkpt><trkpt lat="-27.005493" lon="-48.637316"><ele>6.02652</ele></trkpt><trkpt lat="-27.005492" lon="-48.637312"><ele>6.296997</ele></trkpt><trkpt lat="-27.005495" lon="-48.637312"><ele>6.795044</ele></trkpt><trkpt lat="-27.005495" lon="-48.637313"><ele>6.781097</ele></trkpt><trkpt lat="-27.005495" lon="-48.637313"><ele>6.779297</ele></trkpt><trkpt lat="-27.005495" lon="-48.637313"><ele>6.779297</ele></trkpt><trkpt lat="-27.005494" lon="-48.637314"><ele>6.81665</ele></trkpt><trkpt lat="-27.005491" lon="-48.637315"><ele>6.721375</ele></trkpt><trkpt lat="-27.00549" lon="-48.637317"><ele>6.769135</ele></trkpt><trkpt lat="-27.005488" lon="-48.637318"><ele>6.788452</ele></trkpt><trkpt lat="-27.005487" lon="-48.637319"><ele>6.788422</ele></trkpt><trkpt lat="-27.005487" lon="-48.637319"><ele>6.788422</ele></trkpt><trkpt lat="-27.005485" lon="-48.63732"><ele>6.67569</ele></trkpt><trkpt lat="-27.005485" lon="-48.637322"><ele>6.487885</ele></trkpt><trkpt lat="-27.005485" lon="-48.637322"><ele>6.487885</ele></trkpt><trkpt lat="-27.005484" lon="-48.637324"><ele>6.511414</ele></trkpt><trkpt lat="-27.005484" lon="-48.637326"><ele>6.447693</ele></trkpt><trkpt lat="-27.005485" lon="-48.637326"><ele>6.429443</ele></trkpt><trkpt lat="-27.005485" lon="-48.637326"><ele>6.432678</ele></trkpt><trkpt lat="-27.005485" lon="-48.637326"><ele>6.434479</ele></trkpt><trkpt lat="-27.005484" lon="-48.637326"><ele>6.410706</ele></trkpt><trkpt lat="-27.005484" lon="-48.637325"><ele>6.568237</ele></trkpt><trkpt lat="-27.005483" lon="-48.637324"><ele>7.332489</ele></trkpt><trkpt lat="-27.005482" lon="-48.637322"><ele>7.358063</ele></trkpt><trkpt lat="-27.005481" lon="-48.637322"><ele>7.365173</ele></trkpt><trkpt lat="-27.005482" lon="-48.637322"><ele>7.753143</ele></trkpt><trkpt lat="-27.005483" lon="-48.637321"><ele>7.784332</ele></trkpt><trkpt lat="-27.005483" lon="-48.63732"><ele>8.067383</ele></trkpt><trkpt lat="-27.005482" lon="-48.637317"><ele>8.017883</ele></trkpt><trkpt lat="-27.005485" lon="-48.637312"><ele>7.960846</ele></trkpt><trkpt lat="-27.005486" lon="-48.637302"><ele>7.68811</ele></trkpt><trkpt lat="-27.005485" lon="-48.637293"><ele>7.632507</ele></trkpt><trkpt lat="-27.005485" lon="-48.63729"><ele>7.90332</ele></trkpt><trkpt lat="-27.005482" lon="-48.637289"><ele>7.815582</ele></trkpt><trkpt lat="-27.005473" lon="-48.637288"><ele>7.864014</ele></trkpt><trkpt lat="-27.005471" lon="-48.637288"><ele>7.866577</ele></trkpt><trkpt lat="-27.00547" lon="-48.637288"><ele>7.862823</ele></trkpt><trkpt lat="-27.00547" lon="-48.637288"><ele>7.864502</ele></trkpt><trkpt lat="-27.005468" lon="-48.637287"><ele>8.107208</ele></trkpt><trkpt lat="-27.005461" lon="-48.637289"><ele>7.388245</ele></trkpt><trkpt lat="-27.005461" lon="-48.637291"><ele>7.418976</ele></trkpt><trkpt lat="-27.00546" lon="-48.637291"><ele>7.337738</ele></trkpt><trkpt lat="-27.005462" lon="-48.63729"><ele>7.319672</ele></trkpt><trkpt lat="-27.005462" lon="-48.63729"><ele>7.318726</ele></trkpt><trkpt lat="-27.005462" lon="-48.63729"><ele>7.319214</ele></trkpt><trkpt lat="-27.005462" lon="-48.63729"><ele>7.319031</ele></trkpt><trkpt lat="-27.005462" lon="-48.63729"><ele>7.318207</ele></trkpt><trkpt lat="-27.005462" lon="-48.63729"><ele>7.315979</ele></trkpt><trkpt lat="-27.005462" lon="-48.63729"><ele>7.316772</ele></trkpt><trkpt lat="-27.005463" lon="-48.637291"><ele>7.390656</ele></trkpt><trkpt lat="-27.005463" lon="-48.637291"><ele>7.394684</ele></trkpt><trkpt lat="-27.005463" lon="-48.637291"><ele>7.396088</ele></trkpt><trkpt lat="-27.005463" lon="-48.637291"><ele>7.393524</ele></trkpt><trkpt lat="-27.005463" lon="-48.637291"><ele>7.394379</ele></trkpt><trkpt lat="-27.005463" lon="-48.637291"><ele>7.393829</ele></trkpt><trkpt lat="-27.005463" lon="-48.637291"><ele>7.393951</ele></trkpt><trkpt lat="-27.005463" lon="-48.637291"><ele>7.394287</ele></trkpt><trkpt lat="-27.005463" lon="-48.637291"><ele>7.397308</ele></trkpt><trkpt lat="-27.005464" lon="-48.637291"><ele>7.398987</ele></trkpt><trkpt lat="-27.005461" lon="-48.63729"><ele>7.31778</ele></trkpt><trkpt lat="-27.005461" lon="-48.637292"><ele>7.250793</ele></trkpt><trkpt lat="-27.005461" lon="-48.637292"><ele>7.250366</ele></trkpt><trkpt lat="-27.005461" lon="-48.637293"><ele>7.247955</ele></trkpt><trkpt lat="-27.005459" lon="-48.637292"><ele>7.020233</ele></trkpt><trkpt lat="-27.005458" lon="-48.637291"><ele>6.653412</ele></trkpt><trkpt lat="-27.005456" lon="-48.63729"><ele>6.933868</ele></trkpt><trkpt lat="-27.005453" lon="-48.637291"><ele>7.147888</ele></trkpt><trkpt lat="-27.005455" lon="-48.637285"><ele>6.870941</ele></trkpt><trkpt lat="-27.005453" lon="-48.637277"><ele>7.113678</ele></trkpt><trkpt lat="-27.005442" lon="-48.637267"><ele>7.214294</ele></trkpt><trkpt lat="-27.005429" lon="-48.637254"><ele>7.073486</ele></trkpt><trkpt lat="-27.005418" lon="-48.637241"><ele>7.122742</ele></trkpt><trkpt lat="-27.005407" lon="-48.637224"><ele>7.226776</ele></trkpt><trkpt lat="-27.005398" lon="-48.637204"><ele>7.255859</ele></trkpt><trkpt lat="-27.00539" lon="-48.637184"><ele>7.452423</ele></trkpt><trkpt lat="-27.005382" lon="-48.637168"><ele>7.333313</ele></trkpt><trkpt lat="-27.005375" lon="-48.637155"><ele>7.31369</ele></trkpt><trkpt lat="-27.005367" lon="-48.63714"><ele>7.462982</ele></trkpt><trkpt lat="-27.005358" lon="-48.637123"><ele>7.918671</ele></trkpt><trkpt lat="-27.005346" lon="-48.637108"><ele>7.891113</ele></trkpt><trkpt lat="-27.00533" lon="-48.637095"><ele>8.113068</ele></trkpt><trkpt lat="-27.005316" lon="-48.637084"><ele>8.13147</ele></trkpt><trkpt lat="-27.005304" lon="-48.637075"><ele>8.99295</ele></trkpt><trkpt lat="-27.005292" lon="-48.637071"><ele>9.028595</ele></trkpt><trkpt lat="-27.005287" lon="-48.63707"><ele>9.071167</ele></trkpt><trkpt lat="-27.005286" lon="-48.637069"><ele>9.87854</ele></trkpt><trkpt lat="-27.005286" lon="-48.637066"><ele>9.317261</ele></trkpt><trkpt lat="-27.005286" lon="-48.637066"><ele>9.331818</ele></trkpt><trkpt lat="-27.005286" lon="-48.637066"><ele>9.33316</ele></trkpt><trkpt lat="-27.005286" lon="-48.637066"><ele>9.359985</ele></trkpt><trkpt lat="-27.005286" lon="-48.637066"><ele>9.362549</ele></trkpt><trkpt lat="-27.005286" lon="-48.637066"><ele>9.362946</ele></trkpt><trkpt lat="-27.005286" lon="-48.637066"><ele>9.368164</ele></trkpt><trkpt lat="-27.005286" lon="-48.637066"><ele>9.372955</ele></trkpt><trkpt lat="-27.005286" lon="-48.637066"><ele>9.376617</ele></trkpt><trkpt lat="-27.005286" lon="-48.637067"><ele>9.384247</ele></trkpt><trkpt lat="-27.005286" lon="-48.637067"><ele>9.389679</ele></trkpt><trkpt lat="-27.005286" lon="-48.637067"><ele>9.392487</ele></trkpt><trkpt lat="-27.005286" lon="-48.637067"><ele>9.396851</ele></trkpt><trkpt lat="-27.005286" lon="-48.637067"><ele>9.399719</ele></trkpt><trkpt lat="-27.005286" lon="-48.637067"><ele>9.407135</ele></trkpt><trkpt lat="-27.005285" lon="-48.637068"><ele>9.632782</ele></trkpt><trkpt lat="-27.005284" lon="-48.637071"><ele>9.800385</ele></trkpt><trkpt lat="-27.005283" lon="-48.637074"><ele>9.930115</ele></trkpt><trkpt lat="-27.005281" lon="-48.637079"><ele>10.277374</ele></trkpt><trkpt lat="-27.005279" lon="-48.637084"><ele>10.283142</ele></trkpt><trkpt lat="-27.005278" lon="-48.637085"><ele>10.28476</ele></trkpt><trkpt lat="-27.005278" lon="-48.637086"><ele>10.28717</ele></trkpt><trkpt lat="-27.005278" lon="-48.637086"><ele>10.288727</ele></trkpt><trkpt lat="-27.005278" lon="-48.637086"><ele>10.287811</ele></trkpt><trkpt lat="-27.005278" lon="-48.637087"><ele>10.15213</ele></trkpt><trkpt lat="-27.005277" lon="-48.637087"><ele>10.158966</ele></trkpt><trkpt lat="-27.005277" lon="-48.637087"><ele>10.156494</ele></trkpt><trkpt lat="-27.005277" lon="-48.637087"><ele>10.162933</ele></trkpt><trkpt lat="-27.005277" lon="-48.637087"><ele>10.161926</ele></trkpt><trkpt lat="-27.005277" lon="-48.637086"><ele>10.431915</ele></trkpt><trkpt lat="-27.005277" lon="-48.637086"><ele>10.50119</ele></trkpt><trkpt lat="-27.005277" lon="-48.637086"><ele>10.503662</ele></trkpt><trkpt lat="-27.005277" lon="-48.637086"><ele>10.507019</ele></trkpt><trkpt lat="-27.005277" lon="-48.637086"><ele>10.513214</ele></trkpt><trkpt lat="-27.005277" lon="-48.637086"><ele>10.518677</ele></trkpt><trkpt lat="-27.005277" lon="-48.637086"><ele>10.520172</ele></trkpt><trkpt lat="-27.005279" lon="-48.637083"><ele>9.986328</ele></trkpt><trkpt lat="-27.00528" lon="-48.637081"><ele>10.013214</ele></trkpt><trkpt lat="-27.005282" lon="-48.637074"><ele>10.092438</ele></trkpt><trkpt lat="-27.005283" lon="-48.637075"><ele>10.148163</ele></trkpt><trkpt lat="-27.005283" lon="-48.637075"><ele>10.149048</ele></trkpt><trkpt lat="-27.005283" lon="-48.637076"><ele>10.149597</ele></trkpt><trkpt lat="-27.005283" lon="-48.637077"><ele>10.061493</ele></trkpt><trkpt lat="-27.005284" lon="-48.637077"><ele>10.195496</ele></trkpt><trkpt lat="-27.005286" lon="-48.637077"><ele>10.185699</ele></trkpt><trkpt lat="-27.005286" lon="-48.637078"><ele>10.18869</ele></trkpt><trkpt lat="-27.005286" lon="-48.637078"><ele>10.187744</ele></trkpt><trkpt lat="-27.005286" lon="-48.637078"><ele>10.188507</ele></trkpt><trkpt lat="-27.005286" lon="-48.637078"><ele>10.190247</ele></trkpt><trkpt lat="-27.005286" lon="-48.637078"><ele>10.190643</ele></trkpt><trkpt lat="-27.005286" lon="-48.637078"><ele>10.191284</ele></trkpt><trkpt lat="-27.005286" lon="-48.637078"><ele>10.19342</ele></trkpt><trkpt lat="-27.005286" lon="-48.637078"><ele>10.192261</ele></trkpt><trkpt lat="-27.005286" lon="-48.637078"><ele>10.19516</ele></trkpt><trkpt lat="-27.005286" lon="-48.637078"><ele>10.193542</ele></trkpt><trkpt lat="-27.005286" lon="-48.637078"><ele>10.195435</ele></trkpt><trkpt lat="-27.005286" lon="-48.637078"><ele>10.197388</ele></trkpt><trkpt lat="-27.005286" lon="-48.637078"><ele>10.196686</ele></trkpt><trkpt lat="-27.005285" lon="-48.637078"><ele>10.243011</ele></trkpt><trkpt lat="-27.005285" lon="-48.637078"><ele>10.285858</ele></trkpt><trkpt lat="-27.005285" lon="-48.637078"><ele>10.285004</ele></trkpt><trkpt lat="-27.005285" lon="-48.637078"><ele>10.288757</ele></trkpt><trkpt lat="-27.005285" lon="-48.637078"><ele>10.288391</ele></trkpt><trkpt lat="-27.005285" lon="-48.637078"><ele>10.335693</ele></trkpt><trkpt lat="-27.005287" lon="-48.637078"><ele>10.209961</ele></trkpt><trkpt lat="-27.00529" lon="-48.637076"><ele>10.192505</ele></trkpt><trkpt lat="-27.005291" lon="-48.637077"><ele>10.404846</ele></trkpt><trkpt lat="-27.005292" lon="-48.637078"><ele>10.439331</ele></trkpt><trkpt lat="-27.005294" lon="-48.637078"><ele>10.876495</ele></trkpt><trkpt lat="-27.005295" lon="-48.637079"><ele>10.816406</ele></trkpt><trkpt lat="-27.005296" lon="-48.637079"><ele>10.746887</ele></trkpt><trkpt lat="-27.005295" lon="-48.63708"><ele>11.050049</ele></trkpt><trkpt lat="-27.005294" lon="-48.637082"><ele>10.57486</ele></trkpt><trkpt lat="-27.005292" lon="-48.637084"><ele>11.094482</ele></trkpt><trkpt lat="-27.00529" lon="-48.637088"><ele>11.240021</ele></trkpt><trkpt lat="-27.005288" lon="-48.637092"><ele>11.237335</ele></trkpt><trkpt lat="-27.005288" lon="-48.637095"><ele>11.302032</ele></trkpt><trkpt lat="-27.005289" lon="-48.637099"><ele>11.433228</ele></trkpt><trkpt lat="-27.005286" lon="-48.637104"><ele>12.121399</ele></trkpt><trkpt lat="-27.005275" lon="-48.637097"><ele>11.933167</ele></trkpt><trkpt lat="-27.005265" lon="-48.637085"><ele>11.957275</ele></trkpt><trkpt lat="-27.005253" lon="-48.63707"><ele>12.238342</ele></trkpt><trkpt lat="-27.005242" lon="-48.637053"><ele>12.670471</ele></trkpt><trkpt lat="-27.005231" lon="-48.637035"><ele>12.966003</ele></trkpt><trkpt lat="-27.00522" lon="-48.637017"><ele>13.210205</ele></trkpt><trkpt lat="-27.005209" lon="-48.636998"><ele>13.11377</ele></trkpt><trkpt lat="-27.005196" lon="-48.636979"><ele>13.615784</ele></trkpt><trkpt lat="-27.005182" lon="-48.63696"><ele>13.646545</ele></trkpt><trkpt lat="-27.005167" lon="-48.63694"><ele>14.298706</ele></trkpt><trkpt lat="-27.005153" lon="-48.636919"><ele>14.239502</ele></trkpt><trkpt lat="-27.005143" lon="-48.636896"><ele>13.359375</ele></trkpt><trkpt lat="-27.005132" lon="-48.63687"><ele>13.170593</ele></trkpt><trkpt lat="-27.005119" lon="-48.636846"><ele>13.309021</ele></trkpt><trkpt lat="-27.005108" lon="-48.63682"><ele>12.947571</ele></trkpt><trkpt lat="-27.005099" lon="-48.636793"><ele>12.896729</ele></trkpt><trkpt lat="-27.005091" lon="-48.636766"><ele>13.19281</ele></trkpt><trkpt lat="-27.005087" lon="-48.636739"><ele>13.32666</ele></trkpt><trkpt lat="-27.005086" lon="-48.636713"><ele>13.17749</ele></trkpt><trkpt lat="-27.005087" lon="-48.636689"><ele>13.051392</ele></trkpt><trkpt lat="-27.005087" lon="-48.636668"><ele>13.018738</ele></trkpt><trkpt lat="-27.005086" lon="-48.636649"><ele>12.957031</ele></trkpt><trkpt lat="-27.005085" lon="-48.636631"><ele>12.28064</ele></trkpt><trkpt lat="-27.005083" lon="-48.636623"><ele>12.294312</ele></trkpt><trkpt lat="-27.005081" lon="-48.636621"><ele>12.302002</ele></trkpt><trkpt lat="-27.005079" lon="-48.636621"><ele>12.491638</ele></trkpt><trkpt lat="-27.005073" lon="-48.636612"><ele>12.976746</ele></trkpt><trkpt lat="-27.005071" lon="-48.63661"><ele>13.131165</ele></trkpt><trkpt lat="-27.005064" lon="-48.636608"><ele>12.872314</ele></trkpt><trkpt lat="-27.005057" lon="-48.636605"><ele>12.826904</ele></trkpt><trkpt lat="-27.005055" lon="-48.636604"><ele>12.818665</ele></trkpt><trkpt lat="-27.005055" lon="-48.636604"><ele>12.817993</ele></trkpt><trkpt lat="-27.005055" lon="-48.636604"><ele>12.814819</ele></trkpt><trkpt lat="-27.005055" lon="-48.636604"><ele>12.815186</ele></trkpt><trkpt lat="-27.005055" lon="-48.636604"><ele>12.815186</ele></trkpt><trkpt lat="-27.005055" lon="-48.636604"><ele>12.813354</ele></trkpt><trkpt lat="-27.005055" lon="-48.636604"><ele>13.331726</ele></trkpt><trkpt lat="-27.005056" lon="-48.636604"><ele>12.882874</ele></trkpt><trkpt lat="-27.005057" lon="-48.636604"><ele>12.562378</ele></trkpt><trkpt lat="-27.005057" lon="-48.636604"><ele>12.562378</ele></trkpt><trkpt lat="-27.005059" lon="-48.636605"><ele>12.032349</ele></trkpt><trkpt lat="-27.005061" lon="-48.636606"><ele>11.764465</ele></trkpt><trkpt lat="-27.005062" lon="-48.636606"><ele>11.699219</ele></trkpt><trkpt lat="-27.005062" lon="-48.636606"><ele>11.698059</ele></trkpt><trkpt lat="-27.005062" lon="-48.636606"><ele>11.697052</ele></trkpt><trkpt lat="-27.005062" lon="-48.636606"><ele>11.693237</ele></trkpt><trkpt lat="-27.005062" lon="-48.636606"><ele>11.690674</ele></trkpt><trkpt lat="-27.005062" lon="-48.636606"><ele>11.54599</ele></trkpt><trkpt lat="-27.005062" lon="-48.636606"><ele>10.76004</ele></trkpt><trkpt lat="-27.005062" lon="-48.636605"><ele>10.760681</ele></trkpt><trkpt lat="-27.005064" lon="-48.636605"><ele>10.747742</ele></trkpt><trkpt lat="-27.005065" lon="-48.636605"><ele>10.743835</ele></trkpt><trkpt lat="-27.005065" lon="-48.636604"><ele>10.741364</ele></trkpt><trkpt lat="-27.005065" lon="-48.636604"><ele>10.742371</ele></trkpt><trkpt lat="-27.005065" lon="-48.636604"><ele>10.740509</ele></trkpt><trkpt lat="-27.005065" lon="-48.636604"><ele>10.739136</ele></trkpt><trkpt lat="-27.005065" lon="-48.636604"><ele>10.736511</ele></trkpt><trkpt lat="-27.005065" lon="-48.636604"><ele>10.742157</ele></trkpt><trkpt lat="-27.005066" lon="-48.636605"><ele>10.98877</ele></trkpt><trkpt lat="-27.005068" lon="-48.636604"><ele>11.068939</ele></trkpt><trkpt lat="-27.005067" lon="-48.636604"><ele>11.315857</ele></trkpt><trkpt lat="-27.005067" lon="-48.636604"><ele>11.315643</ele></trkpt><trkpt lat="-27.005067" lon="-48.636604"><ele>11.315857</ele></trkpt><trkpt lat="-27.005067" lon="-48.636604"><ele>11.315369</ele></trkpt><trkpt lat="-27.005067" lon="-48.636604"><ele>11.313843</ele></trkpt><trkpt lat="-27.005067" lon="-48.636604"><ele>11.313843</ele></trkpt><trkpt lat="-27.005067" lon="-48.636604"><ele>11.312347</ele></trkpt><trkpt lat="-27.005066" lon="-48.636612"><ele>11.07193</ele></trkpt><trkpt lat="-27.005064" lon="-48.636619"><ele>11.089081</ele></trkpt><trkpt lat="-27.005066" lon="-48.636622"><ele>10.91095</ele></trkpt><trkpt lat="-27.005068" lon="-48.636612"><ele>11.190704</ele></trkpt><trkpt lat="-27.005065" lon="-48.636599"><ele>11.140839</ele></trkpt><trkpt lat="-27.005058" lon="-48.636585"><ele>10.866882</ele></trkpt><trkpt lat="-27.005052" lon="-48.636571"><ele>10.748199</ele></trkpt><trkpt lat="-27.005044" lon="-48.636558"><ele>10.705872</ele></trkpt><trkpt lat="-27.005035" lon="-48.636547"><ele>10.510956</ele></trkpt><trkpt lat="-27.005028" lon="-48.636537"><ele>10.472626</ele></trkpt><trkpt lat="-27.005023" lon="-48.636528"><ele>10.242798</ele></trkpt><trkpt lat="-27.00502" lon="-48.636523"><ele>10.253754</ele></trkpt><trkpt lat="-27.005015" lon="-48.636519"><ele>10.162842</ele></trkpt><trkpt lat="-27.005007" lon="-48.636518"><ele>10.628815</ele></trkpt><trkpt lat="-27.005002" lon="-48.636522"><ele>11.006561</ele></trkpt><trkpt lat="-27.005002" lon="-48.636526"><ele>11.00769</ele></trkpt><trkpt lat="-27.005002" lon="-48.636527"><ele>11.010223</ele></trkpt><trkpt lat="-27.005001" lon="-48.636529"><ele>10.939972</ele></trkpt><trkpt lat="-27.005001" lon="-48.636531"><ele>11.07663</ele></trkpt><trkpt lat="-27.005" lon="-48.636535"><ele>11.073853</ele></trkpt><trkpt lat="-27.005" lon="-48.636536"><ele>11.073792</ele></trkpt><trkpt lat="-27.004997" lon="-48.636536"><ele>10.897522</ele></trkpt><trkpt lat="-27.004996" lon="-48.636536"><ele>10.888885</ele></trkpt><trkpt lat="-27.004996" lon="-48.636536"><ele>11.730286</ele></trkpt><trkpt lat="-27.004996" lon="-48.636536"><ele>11.689178</ele></trkpt><trkpt lat="-27.004997" lon="-48.636536"><ele>11.671295</ele></trkpt><trkpt lat="-27.004997" lon="-48.636536"><ele>11.658997</ele></trkpt><trkpt lat="-27.004997" lon="-48.636536"><ele>11.648041</ele></trkpt><trkpt lat="-27.004997" lon="-48.636536"><ele>11.637695</ele></trkpt><trkpt lat="-27.004997" lon="-48.636536"><ele>10.825928</ele></trkpt><trkpt lat="-27.004993" lon="-48.636535"><ele>10.9617</ele></trkpt><trkpt lat="-27.004991" lon="-48.636532"><ele>10.85437</ele></trkpt><trkpt lat="-27.004989" lon="-48.636523"><ele>10.841858</ele></trkpt><trkpt lat="-27.004987" lon="-48.636509"><ele>10.760773</ele></trkpt><trkpt lat="-27.004984" lon="-48.636495"><ele>10.343475</ele></trkpt><trkpt lat="-27.004975" lon="-48.636482"><ele>10.222382</ele></trkpt><trkpt lat="-27.004962" lon="-48.636469"><ele>9.155365</ele></trkpt><trkpt lat="-27.004951" lon="-48.636458"><ele>9.121857</ele></trkpt><trkpt lat="-27.004939" lon="-48.636457"><ele>8.99176</ele></trkpt><trkpt lat="-27.004934" lon="-48.636459"><ele>8.854095</ele></trkpt><trkpt lat="-27.004934" lon="-48.636459"><ele>9.248932</ele></trkpt><trkpt lat="-27.004936" lon="-48.636459"><ele>9.268768</ele></trkpt><trkpt lat="-27.004935" lon="-48.63646"><ele>9.088226</ele></trkpt><trkpt lat="-27.004938" lon="-48.636458"><ele>9.560547</ele></trkpt><trkpt lat="-27.004937" lon="-48.636444"><ele>9.457123</ele></trkpt><trkpt lat="-27.004935" lon="-48.636429"><ele>9.055695</ele></trkpt><trkpt lat="-27.004935" lon="-48.636413"><ele>9.128906</ele></trkpt><trkpt lat="-27.004936" lon="-48.636395"><ele>9.206085</ele></trkpt><trkpt lat="-27.004936" lon="-48.636379"><ele>9.398987</ele></trkpt><trkpt lat="-27.004936" lon="-48.636363"><ele>8.539215</ele></trkpt><trkpt lat="-27.004937" lon="-48.636346"><ele>9.047791</ele></trkpt><trkpt lat="-27.004938" lon="-48.63633"><ele>9.288696</ele></trkpt><trkpt lat="-27.004938" lon="-48.636313"><ele>9.151733</ele></trkpt><trkpt lat="-27.004937" lon="-48.636295"><ele>9.204712</ele></trkpt><trkpt lat="-27.004937" lon="-48.636278"><ele>9.03775</ele></trkpt><trkpt lat="-27.004939" lon="-48.63626"><ele>9.064575</ele></trkpt><trkpt lat="-27.004943" lon="-48.636244"><ele>8.886475</ele></trkpt><trkpt lat="-27.004947" lon="-48.63623"><ele>9.019623</ele></trkpt><trkpt lat="-27.00495" lon="-48.636213"><ele>8.92453</ele></trkpt><trkpt lat="-27.004951" lon="-48.6362"><ele>8.89743</ele></trkpt><trkpt lat="-27.004949" lon="-48.636189"><ele>8.981537</ele></trkpt><trkpt lat="-27.004946" lon="-48.636184"><ele>9.14389</ele></trkpt><trkpt lat="-27.004944" lon="-48.636181"><ele>9.328705</ele></trkpt><trkpt lat="-27.004945" lon="-48.636175"><ele>9.357056</ele></trkpt><trkpt lat="-27.004947" lon="-48.63617"><ele>9.391357</ele></trkpt><trkpt lat="-27.00495" lon="-48.636169"><ele>9.334503</ele></trkpt><trkpt lat="-27.004951" lon="-48.636169"><ele>9.87735</ele></trkpt><trkpt lat="-27.004949" lon="-48.63617"><ele>9.890533</ele></trkpt><trkpt lat="-27.004949" lon="-48.636169"><ele>9.983459</ele></trkpt><trkpt lat="-27.00495" lon="-48.63617"><ele>8.637543</ele></trkpt><trkpt lat="-27.004949" lon="-48.636168"><ele>9.357422</ele></trkpt><trkpt lat="-27.00495" lon="-48.636169"><ele>9.29834</ele></trkpt><trkpt lat="-27.004949" lon="-48.636169"><ele>9.368866</ele></trkpt><trkpt lat="-27.004947" lon="-48.636172"><ele>8.870697</ele></trkpt><trkpt lat="-27.004947" lon="-48.636171"><ele>9.12561</ele></trkpt><trkpt lat="-27.004948" lon="-48.636171"><ele>8.320801</ele></trkpt><trkpt lat="-27.00495" lon="-48.636171"><ele>9.274231</ele></trkpt><trkpt lat="-27.004951" lon="-48.636171"><ele>9.615723</ele></trkpt><trkpt lat="-27.004949" lon="-48.636174"><ele>9.580414</ele></trkpt><trkpt lat="-27.004948" lon="-48.636176"><ele>9.243195</ele></trkpt><trkpt lat="-27.004946" lon="-48.636173"><ele>8.72464</ele></trkpt><trkpt lat="-27.004945" lon="-48.636173"><ele>8.666138</ele></trkpt><trkpt lat="-27.004944" lon="-48.636174"><ele>8.65741</ele></trkpt><trkpt lat="-27.004944" lon="-48.636175"><ele>8.621063</ele></trkpt><trkpt lat="-27.004943" lon="-48.636176"><ele>8.620728</ele></trkpt><trkpt lat="-27.004943" lon="-48.636177"><ele>7.952667</ele></trkpt><trkpt lat="-27.004943" lon="-48.636177"><ele>7.980927</ele></trkpt><trkpt lat="-27.004943" lon="-48.636177"><ele>7.980042</ele></trkpt><trkpt lat="-27.004943" lon="-48.636177"><ele>7.984009</ele></trkpt><trkpt lat="-27.004943" lon="-48.636177"><ele>7.984985</ele></trkpt><trkpt lat="-27.004943" lon="-48.636177"><ele>7.985199</ele></trkpt><trkpt lat="-27.004943" lon="-48.636177"><ele>7.987366</ele></trkpt><trkpt lat="-27.004944" lon="-48.636175"><ele>8.106842</ele></trkpt><trkpt lat="-27.004944" lon="-48.636175"><ele>8.106384</ele></trkpt><trkpt lat="-27.004944" lon="-48.636175"><ele>8.1091</ele></trkpt><trkpt lat="-27.004944" lon="-48.636175"><ele>8.111176</ele></trkpt><trkpt lat="-27.004944" lon="-48.636175"><ele>8.115479</ele></trkpt><trkpt lat="-27.004944" lon="-48.636175"><ele>8.117706</ele></trkpt><trkpt lat="-27.004944" lon="-48.636174"><ele>8.117096</ele></trkpt><trkpt lat="-27.004944" lon="-48.636174"><ele>8.122101</ele></trkpt><trkpt lat="-27.004943" lon="-48.636175"><ele>8.266632</ele></trkpt><trkpt lat="-27.004943" lon="-48.636175"><ele>8.266632</ele></trkpt><trkpt lat="-27.004942" lon="-48.636176"><ele>8.612976</ele></trkpt><trkpt lat="-27.004942" lon="-48.636176"><ele>8.635925</ele></trkpt><trkpt lat="-27.004942" lon="-48.636176"><ele>8.635803</ele></trkpt><trkpt lat="-27.004942" lon="-48.636177"><ele>8.747864</ele></trkpt><trkpt lat="-27.004942" lon="-48.636178"><ele>8.408844</ele></trkpt><trkpt lat="-27.00494" lon="-48.63618"><ele>8.414825</ele></trkpt><trkpt lat="-27.004939" lon="-48.63618"><ele>8.415863</ele></trkpt><trkpt lat="-27.004939" lon="-48.63618"><ele>8.417816</ele></trkpt><trkpt lat="-27.004941" lon="-48.636179"><ele>8.281586</ele></trkpt><trkpt lat="-27.004943" lon="-48.636177"><ele>8.193756</ele></trkpt><trkpt lat="-27.004944" lon="-48.636175"><ele>8.193817</ele></trkpt><trkpt lat="-27.004944" lon="-48.636175"><ele>8.195953</ele></trkpt><trkpt lat="-27.004945" lon="-48.636174"><ele>8.198425</ele></trkpt><trkpt lat="-27.004945" lon="-48.636174"><ele>8.200745</ele></trkpt><trkpt lat="-27.004945" lon="-48.636174"><ele>8.198456</ele></trkpt><trkpt lat="-27.004944" lon="-48.636174"><ele>8.357117</ele></trkpt><trkpt lat="-27.004943" lon="-48.636173"><ele>8.36087</ele></trkpt><trkpt lat="-27.004943" lon="-48.636173"><ele>8.369812</ele></trkpt><trkpt lat="-27.004943" lon="-48.636173"><ele>8.371735</ele></trkpt><trkpt lat="-27.004943" lon="-48.636175"><ele>8.405334</ele></trkpt><trkpt lat="-27.004943" lon="-48.636175"><ele>8.60788</ele></trkpt><trkpt lat="-27.004943" lon="-48.636175"><ele>8.60788</ele></trkpt><trkpt lat="-27.004943" lon="-48.636175"><ele>8.604218</ele></trkpt><trkpt lat="-27.004943" lon="-48.636175"><ele>8.601746</ele></trkpt><trkpt lat="-27.004943" lon="-48.636175"><ele>8.700653</ele></trkpt><trkpt lat="-27.004944" lon="-48.636174"><ele>8.711029</ele></trkpt><trkpt lat="-27.004944" lon="-48.636174"><ele>8.717896</ele></trkpt><trkpt lat="-27.004944" lon="-48.636174"><ele>8.717438</ele></trkpt><trkpt lat="-27.004944" lon="-48.636176"><ele>8.783051</ele></trkpt><trkpt lat="-27.004944" lon="-48.636176"><ele>8.783203</ele></trkpt><trkpt lat="-27.004944" lon="-48.636176"><ele>8.787781</ele></trkpt><trkpt lat="-27.004944" lon="-48.636176"><ele>8.789032</ele></trkpt><trkpt lat="-27.004944" lon="-48.636177"><ele>9.026367</ele></trkpt><trkpt lat="-27.004943" lon="-48.636178"><ele>9.032898</ele></trkpt><trkpt lat="-27.004943" lon="-48.636178"><ele>9.034149</ele></trkpt><trkpt lat="-27.004943" lon="-48.636178"><ele>9.028839</ele></trkpt><trkpt lat="-27.004943" lon="-48.636178"><ele>9.030212</ele></trkpt><trkpt lat="-27.004943" lon="-48.636178"><ele>9.030457</ele></trkpt><trkpt lat="-27.004943" lon="-48.636178"><ele>9.030151</ele></trkpt><trkpt lat="-27.004943" lon="-48.636178"><ele>9.030151</ele></trkpt><trkpt lat="-27.004943" lon="-48.636178"><ele>9.031494</ele></trkpt><trkpt lat="-27.004943" lon="-48.636178"><ele>9.031342</ele></trkpt><trkpt lat="-27.004943" lon="-48.636178"><ele>9.031281</ele></trkpt><trkpt lat="-27.004943" lon="-48.636178"><ele>9.030212</ele></trkpt><trkpt lat="-27.004943" lon="-48.636178"><ele>9.03299</ele></trkpt><trkpt lat="-27.004943" lon="-48.636178"><ele>9.03299</ele></trkpt><trkpt lat="-27.004942" lon="-48.63618"><ele>8.92691</ele></trkpt><trkpt lat="-27.004941" lon="-48.636181"><ele>8.915833</ele></trkpt><trkpt lat="-27.004941" lon="-48.636181"><ele>8.917389</ele></trkpt><trkpt lat="-27.004941" lon="-48.636181"><ele>8.915039</ele></trkpt><trkpt lat="-27.00494" lon="-48.636181"><ele>8.687622</ele></trkpt><trkpt lat="-27.00494" lon="-48.636181"><ele>8.664978</ele></trkpt><trkpt lat="-27.00494" lon="-48.636181"><ele>8.661438</ele></trkpt><trkpt lat="-27.00494" lon="-48.636183"><ele>8.435242</ele></trkpt><trkpt lat="-27.004938" lon="-48.636183"><ele>8.355896</ele></trkpt><trkpt lat="-27.004938" lon="-48.636183"><ele>8.354492</ele></trkpt><trkpt lat="-27.004938" lon="-48.636183"><ele>8.3526</ele></trkpt><trkpt lat="-27.004938" lon="-48.636183"><ele>8.354797</ele></trkpt><trkpt lat="-27.004938" lon="-48.636183"><ele>8.358856</ele></trkpt><trkpt lat="-27.004938" lon="-48.636183"><ele>8.361938</ele></trkpt><trkpt lat="-27.004938" lon="-48.636184"><ele>8.578674</ele></trkpt><trkpt lat="-27.004939" lon="-48.636184"><ele>8.597595</ele></trkpt><trkpt lat="-27.004938" lon="-48.636184"><ele>8.610779</ele></trkpt><trkpt lat="-27.004938" lon="-48.636184"><ele>8.626831</ele></trkpt><trkpt lat="-27.004938" lon="-48.636184"><ele>8.645264</ele></trkpt><trkpt lat="-27.004938" lon="-48.636184"><ele>9.386475</ele></trkpt><trkpt lat="-27.004938" lon="-48.636184"><ele>9.404907</ele></trkpt><trkpt lat="-27.004938" lon="-48.636184"><ele>9.42157</ele></trkpt><trkpt lat="-27.004938" lon="-48.636184"><ele>9.431671</ele></trkpt><trkpt lat="-27.004938" lon="-48.636184"><ele>9.431671</ele></trkpt><trkpt lat="-27.004938" lon="-48.636184"><ele>9.435638</ele></trkpt><trkpt lat="-27.004938" lon="-48.636184"><ele>9.434082</ele></trkpt><trkpt lat="-27.004938" lon="-48.636184"><ele>9.432648</ele></trkpt><trkpt lat="-27.004938" lon="-48.636184"><ele>10.092163</ele></trkpt><trkpt lat="-27.004938" lon="-48.636185"><ele>9.976166</ele></trkpt><trkpt lat="-27.004939" lon="-48.636184"><ele>9.996033</ele></trkpt><trkpt lat="-27.004939" lon="-48.636179"><ele>9.665192</ele></trkpt><trkpt lat="-27.004938" lon="-48.636176"><ele>9.748749</ele></trkpt><trkpt lat="-27.004938" lon="-48.636176"><ele>9.748749</ele></trkpt><trkpt lat="-27.004938" lon="-48.636175"><ele>9.752777</ele></trkpt><trkpt lat="-27.004937" lon="-48.636174"><ele>9.788879</ele></trkpt><trkpt lat="-27.004937" lon="-48.636174"><ele>9.799744</ele></trkpt><trkpt lat="-27.004937" lon="-48.636174"><ele>9.803284</ele></trkpt><trkpt lat="-27.004937" lon="-48.636174"><ele>9.807343</ele></trkpt><trkpt lat="-27.004937" lon="-48.636174"><ele>9.811737</ele></trkpt><trkpt lat="-27.004937" lon="-48.636174"><ele>9.818726</ele></trkpt><trkpt lat="-27.004937" lon="-48.636174"><ele>9.822327</ele></trkpt><trkpt lat="-27.004937" lon="-48.636174"><ele>9.826508</ele></trkpt><trkpt lat="-27.004937" lon="-48.636174"><ele>9.831421</ele></trkpt><trkpt lat="-27.004937" lon="-48.636174"><ele>9.834045</ele></trkpt><trkpt lat="-27.004937" lon="-48.636174"><ele>9.835327</ele></trkpt><trkpt lat="-27.004937" lon="-48.636174"><ele>9.839081</ele></trkpt><trkpt lat="-27.004937" lon="-48.636174"><ele>9.841614</ele></trkpt><trkpt lat="-27.004937" lon="-48.636174"><ele>9.841797</ele></trkpt><trkpt lat="-27.004937" lon="-48.636174"><ele>9.846161</ele></trkpt><trkpt lat="-27.004937" lon="-48.636174"><ele>9.851563</ele></trkpt><trkpt lat="-27.004937" lon="-48.636174"><ele>9.872437</ele></trkpt><trkpt lat="-27.004938" lon="-48.636176"><ele>10.040344</ele></trkpt><trkpt lat="-27.004938" lon="-48.636178"><ele>9.648346</ele></trkpt><trkpt lat="-27.004938" lon="-48.636178"><ele>9.648346</ele></trkpt><trkpt lat="-27.004938" lon="-48.636178"><ele>9.666962</ele></trkpt><trkpt lat="-27.004937" lon="-48.636178"><ele>10.016174</ele></trkpt><trkpt lat="-27.004936" lon="-48.636177"><ele>10.067719</ele></trkpt><trkpt lat="-27.004935" lon="-48.636177"><ele>10.087646</ele></trkpt><trkpt lat="-27.004935" lon="-48.636177"><ele>10.10675</ele></trkpt><trkpt lat="-27.004935" lon="-48.636177"><ele>10.126587</ele></trkpt><trkpt lat="-27.004935" lon="-48.636177"><ele>10.15036</ele></trkpt><trkpt lat="-27.004935" lon="-48.636177"><ele>10.16684</ele></trkpt><trkpt lat="-27.004935" lon="-48.636177"><ele>10.183838</ele></trkpt><trkpt lat="-27.004935" lon="-48.636177"><ele>10.185883</ele></trkpt><trkpt lat="-27.004935" lon="-48.636177"><ele>10.191742</ele></trkpt><trkpt lat="-27.004935" lon="-48.636177"><ele>10.211304</ele></trkpt><trkpt lat="-27.004935" lon="-48.636178"><ele>10.232056</ele></trkpt><trkpt lat="-27.004934" lon="-48.636178"><ele>10.247742</ele></trkpt><trkpt lat="-27.004934" lon="-48.636178"><ele>10.264679</ele></trkpt><trkpt lat="-27.004934" lon="-48.636178"><ele>10.268524</ele></trkpt><trkpt lat="-27.004934" lon="-48.636178"><ele>10.289032</ele></trkpt><trkpt lat="-27.004934" lon="-48.636178"><ele>10.309418</ele></trkpt><trkpt lat="-27.004934" lon="-48.636178"><ele>10.333832</ele></trkpt><trkpt lat="-27.004934" lon="-48.636178"><ele>10.587067</ele></trkpt><trkpt lat="-27.004933" lon="-48.636179"><ele>10.942993</ele></trkpt><trkpt lat="-27.004933" lon="-48.636181"><ele>10.976196</ele></trkpt><trkpt lat="-27.004933" lon="-48.636182"><ele>11.234955</ele></trkpt><trkpt lat="-27.004933" lon="-48.636184"><ele>11.355377</ele></trkpt><trkpt lat="-27.004933" lon="-48.636187"><ele>11.36264</ele></trkpt><trkpt lat="-27.004933" lon="-48.636187"><ele>11.788544</ele></trkpt><trkpt lat="-27.004933" lon="-48.636187"><ele>10.460266</ele></trkpt><trkpt lat="-27.004935" lon="-48.636189"><ele>10.379639</ele></trkpt><trkpt lat="-27.004936" lon="-48.63619"><ele>10.367493</ele></trkpt><trkpt lat="-27.004936" lon="-48.636191"><ele>11.648773</ele></trkpt><trkpt lat="-27.004936" lon="-48.636192"><ele>11.62381</ele></trkpt><trkpt lat="-27.004936" lon="-48.636193"><ele>11.641754</ele></trkpt><trkpt lat="-27.004936" lon="-48.636193"><ele>11.663544</ele></trkpt><trkpt lat="-27.004936" lon="-48.636193"><ele>11.682251</ele></trkpt><trkpt lat="-27.004936" lon="-48.636193"><ele>11.684967</ele></trkpt><trkpt lat="-27.004936" lon="-48.636193"><ele>11.705658</ele></trkpt><trkpt lat="-27.004936" lon="-48.636193"><ele>11.709259</ele></trkpt><trkpt lat="-27.004936" lon="-48.636193"><ele>11.711212</ele></trkpt><trkpt lat="-27.004936" lon="-48.636193"><ele>11.711212</ele></trkpt><trkpt lat="-27.004936" lon="-48.636197"><ele>11.621063</ele></trkpt><trkpt lat="-27.004937" lon="-48.6362"><ele>11.623505</ele></trkpt><trkpt lat="-27.004937" lon="-48.636201"><ele>11.626404</ele></trkpt><trkpt lat="-27.004937" lon="-48.636201"><ele>11.627472</ele></trkpt><trkpt lat="-27.004937" lon="-48.636201"><ele>11.648651</ele></trkpt><trkpt lat="-27.004937" lon="-48.636201"><ele>11.672394</ele></trkpt><trkpt lat="-27.004936" lon="-48.636201"><ele>11.693054</ele></trkpt><trkpt lat="-27.004936" lon="-48.636202"><ele>11.51059</ele></trkpt><trkpt lat="-27.004936" lon="-48.636199"><ele>11.723724</ele></trkpt><trkpt lat="-27.004937" lon="-48.636196"><ele>11.709045</ele></trkpt><trkpt lat="-27.004938" lon="-48.636194"><ele>11.736389</ele></trkpt><trkpt lat="-27.004938" lon="-48.636194"><ele>11.753143</ele></trkpt><trkpt lat="-27.004938" lon="-48.636194"><ele>11.766632</ele></trkpt><trkpt lat="-27.004938" lon="-48.636194"><ele>11.778381</ele></trkpt><trkpt lat="-27.004938" lon="-48.636194"><ele>11.787628</ele></trkpt><trkpt lat="-27.004938" lon="-48.636194"><ele>11.784119</ele></trkpt><trkpt lat="-27.004937" lon="-48.636192"><ele>10.461884</ele></trkpt><trkpt lat="-27.004936" lon="-48.636191"><ele>10.504852</ele></trkpt><trkpt lat="-27.004936" lon="-48.63619"><ele>10.249664</ele></trkpt><trkpt lat="-27.004936" lon="-48.636189"><ele>10.25293</ele></trkpt><trkpt lat="-27.004936" lon="-48.636189"><ele>10.251892</ele></trkpt><trkpt lat="-27.004936" lon="-48.636189"><ele>10.250092</ele></trkpt><trkpt lat="-27.004936" lon="-48.636189"><ele>10.263367</ele></trkpt><trkpt lat="-27.004936" lon="-48.636189"><ele>10.28299</ele></trkpt><trkpt lat="-27.004936" lon="-48.636189"><ele>10.301331</ele></trkpt><trkpt lat="-27.004936" lon="-48.636189"><ele>10.322418</ele></trkpt><trkpt lat="-27.004936" lon="-48.636189"><ele>10.322418</ele></trkpt><trkpt lat="-27.004936" lon="-48.636189"><ele>10.273499</ele></trkpt><trkpt lat="-27.004936" lon="-48.636189"><ele>10.22934</ele></trkpt><trkpt lat="-27.004935" lon="-48.636189"><ele>10.349518</ele></trkpt><trkpt lat="-27.004935" lon="-48.63619"><ele>10.362061</ele></trkpt><trkpt lat="-27.004935" lon="-48.63619"><ele>10.375702</ele></trkpt><trkpt lat="-27.004935" lon="-48.63619"><ele>10.39093</ele></trkpt><trkpt lat="-27.004935" lon="-48.63619"><ele>10.391663</ele></trkpt><trkpt lat="-27.004935" lon="-48.63619"><ele>10.406708</ele></trkpt><trkpt lat="-27.004935" lon="-48.63619"><ele>10.420807</ele></trkpt><trkpt lat="-27.004935" lon="-48.63619"><ele>10.434143</ele></trkpt><trkpt lat="-27.004935" lon="-48.63619"><ele>10.445129</ele></trkpt><trkpt lat="-27.004936" lon="-48.636192"><ele>10.146637</ele></trkpt><trkpt lat="-27.004936" lon="-48.636194"><ele>10.145996</ele></trkpt><trkpt lat="-27.004935" lon="-48.636194"><ele>10.159454</ele></trkpt><trkpt lat="-27.004935" lon="-48.636194"><ele>10.159729</ele></trkpt><trkpt lat="-27.004935" lon="-48.636195"><ele>10.171112</ele></trkpt><trkpt lat="-27.004935" lon="-48.636195"><ele>10.181305</ele></trkpt><trkpt lat="-27.004935" lon="-48.636195"><ele>10.194794</ele></trkpt><trkpt lat="-27.004935" lon="-48.636195"><ele>10.203186</ele></trkpt><trkpt lat="-27.004935" lon="-48.636195"><ele>10.210388</ele></trkpt><trkpt lat="-27.004935" lon="-48.636195"><ele>10.218811</ele></trkpt><trkpt lat="-27.004935" lon="-48.636193"><ele>10.178497</ele></trkpt><trkpt lat="-27.004936" lon="-48.636193"><ele>10.175293</ele></trkpt><trkpt lat="-27.004936" lon="-48.636193"><ele>10.520264</ele></trkpt><trkpt lat="-27.004936" lon="-48.636194"><ele>10.592438</ele></trkpt><trkpt lat="-27.004937" lon="-48.636197"><ele>10.585724</ele></trkpt><trkpt lat="-27.004935" lon="-48.636196"><ele>10.55545</ele></trkpt><trkpt lat="-27.004931" lon="-48.636196"><ele>10.572479</ele></trkpt><trkpt lat="-27.004931" lon="-48.636196"><ele>10.445679</ele></trkpt><trkpt lat="-27.004932" lon="-48.636197"><ele>10.422791</ele></trkpt><trkpt lat="-27.004933" lon="-48.636198"><ele>10.421448</ele></trkpt><trkpt lat="-27.004933" lon="-48.636198"><ele>10.425476</ele></trkpt><trkpt lat="-27.004931" lon="-48.636198"><ele>10.592224</ele></trkpt><trkpt lat="-27.004929" lon="-48.636198"><ele>10.625214</ele></trkpt><trkpt lat="-27.004929" lon="-48.636198"><ele>10.626221</ele></trkpt><trkpt lat="-27.004929" lon="-48.636198"><ele>10.639557</ele></trkpt><trkpt lat="-27.004929" lon="-48.636198"><ele>10.655212</ele></trkpt><trkpt lat="-27.004929" lon="-48.636198"><ele>10.672119</ele></trkpt><trkpt lat="-27.004928" lon="-48.636198"><ele>10.690125</ele></trkpt><trkpt lat="-27.004928" lon="-48.636199"><ele>10.706818</ele></trkpt><trkpt lat="-27.004928" lon="-48.636199"><ele>10.723328</ele></trkpt><trkpt lat="-27.004929" lon="-48.636197"><ele>10.705933</ele></trkpt><trkpt lat="-27.004931" lon="-48.636197"><ele>10.683075</ele></trkpt><trkpt lat="-27.004931" lon="-48.636197"><ele>10.690369</ele></trkpt><trkpt lat="-27.004931" lon="-48.636197"><ele>10.699585</ele></trkpt><trkpt lat="-27.004931" lon="-48.636197"><ele>10.707275</ele></trkpt><trkpt lat="-27.004931" lon="-48.636197"><ele>10.721008</ele></trkpt><trkpt lat="-27.004933" lon="-48.636198"><ele>10.437683</ele></trkpt><trkpt lat="-27.004935" lon="-48.6362"><ele>9.840881</ele></trkpt><trkpt lat="-27.004934" lon="-48.636201"><ele>10.087555</ele></trkpt><trkpt lat="-27.004935" lon="-48.636201"><ele>9.989258</ele></trkpt><trkpt lat="-27.004937" lon="-48.636201"><ele>9.919403</ele></trkpt><trkpt lat="-27.004939" lon="-48.636202"><ele>10.078644</ele></trkpt><trkpt lat="-27.004938" lon="-48.636202"><ele>11.681763</ele></trkpt><trkpt lat="-27.004937" lon="-48.636199"><ele>11.545258</ele></trkpt><trkpt lat="-27.004936" lon="-48.636196"><ele>11.636017</ele></trkpt><trkpt lat="-27.004936" lon="-48.636195"><ele>11.671722</ele></trkpt><trkpt lat="-27.004936" lon="-48.636195"><ele>11.81012</ele></trkpt><trkpt lat="-27.004936" lon="-48.636195"><ele>11.806183</ele></trkpt><trkpt lat="-27.004936" lon="-48.636195"><ele>11.80304</ele></trkpt><trkpt lat="-27.004936" lon="-48.636195"><ele>11.799011</ele></trkpt><trkpt lat="-27.004936" lon="-48.636196"><ele>11.942688</ele></trkpt><trkpt lat="-27.004935" lon="-48.636197"><ele>12.008667</ele></trkpt><trkpt lat="-27.004935" lon="-48.636197"><ele>12.008667</ele></trkpt><trkpt lat="-27.004935" lon="-48.636197"><ele>12.00824</ele></trkpt><trkpt lat="-27.004935" lon="-48.636197"><ele>12.013611</ele></trkpt><trkpt lat="-27.004935" lon="-48.636197"><ele>12.010925</ele></trkpt><trkpt lat="-27.004935" lon="-48.636197"><ele>12.015625</ele></trkpt><trkpt lat="-27.004935" lon="-48.636197"><ele>12.017395</ele></trkpt><trkpt lat="-27.004935" lon="-48.636197"><ele>12.024109</ele></trkpt><trkpt lat="-27.004935" lon="-48.636199"><ele>11.961578</ele></trkpt><trkpt lat="-27.004936" lon="-48.636201"><ele>12.088745</ele></trkpt><trkpt lat="-27.004935" lon="-48.636204"><ele>11.944366</ele></trkpt><trkpt lat="-27.004935" lon="-48.636206"><ele>12.144104</ele></trkpt><trkpt lat="-27.004934" lon="-48.636206"><ele>12.190369</ele></trkpt><trkpt lat="-27.004934" lon="-48.636211"><ele>12.527832</ele></trkpt><trkpt lat="-27.004934" lon="-48.636215"><ele>12.387939</ele></trkpt><trkpt lat="-27.004935" lon="-48.636214"><ele>12.06311</ele></trkpt><trkpt lat="-27.004937" lon="-48.63621"><ele>12.068848</ele></trkpt><trkpt lat="-27.004937" lon="-48.636209"><ele>12.06897</ele></trkpt><trkpt lat="-27.004937" lon="-48.636209"><ele>12.070496</ele></trkpt><trkpt lat="-27.004937" lon="-48.636208"><ele>10.903748</ele></trkpt><trkpt lat="-27.004935" lon="-48.636209"><ele>10.951691</ele></trkpt><trkpt lat="-27.004936" lon="-48.636209"><ele>10.491608</ele></trkpt><trkpt lat="-27.004937" lon="-48.636208"><ele>13.368408</ele></trkpt><trkpt lat="-27.004938" lon="-48.636211"><ele>13.348694</ele></trkpt><trkpt lat="-27.004939" lon="-48.636213"><ele>13.333984</ele></trkpt><trkpt lat="-27.004939" lon="-48.636215"><ele>7.310547</ele></trkpt><trkpt lat="-27.004939" lon="-48.636215"><ele>7.310547</ele></trkpt><trkpt lat="-27.004939" lon="-48.636215"><ele>7.239502</ele></trkpt><trkpt lat="-27.004938" lon="-48.636213"><ele>7.043762</ele></trkpt><trkpt lat="-27.004938" lon="-48.636211"><ele>7.014374</ele></trkpt><trkpt lat="-27.004939" lon="-48.636212"><ele>9.527771</ele></trkpt><trkpt lat="-27.004939" lon="-48.636214"><ele>9.649811</ele></trkpt><trkpt lat="-27.004939" lon="-48.636214"><ele>9.67688</ele></trkpt><trkpt lat="-27.004939" lon="-48.636214"><ele>9.677734</ele></trkpt><trkpt lat="-27.004939" lon="-48.636214"><ele>9.678986</ele></trkpt><trkpt lat="-27.00494" lon="-48.636213"><ele>9.736145</ele></trkpt><trkpt lat="-27.00494" lon="-48.636213"><ele>9.706421</ele></trkpt><trkpt lat="-27.00494" lon="-48.636213"><ele>9.704041</ele></trkpt><trkpt lat="-27.00494" lon="-48.636213"><ele>7.352875</ele></trkpt><trkpt lat="-27.00494" lon="-48.636213"><ele>7.362274</ele></trkpt><trkpt lat="-27.004939" lon="-48.636212"><ele>7.255035</ele></trkpt><trkpt lat="-27.004939" lon="-48.636212"><ele>7.237885</ele></trkpt><trkpt lat="-27.004939" lon="-48.636211"><ele>7.224945</ele></trkpt><trkpt lat="-27.00494" lon="-48.636211"><ele>7.108612</ele></trkpt><trkpt lat="-27.00494" lon="-48.636211"><ele>7.103577</ele></trkpt></trkseg></trk></gpx>