<?xml version="1.0" encoding="UTF-8"?>
<gpx xmlns="http://www.topografix.com/GPX/1/1" version="1.1" creator="@dwayneparton/geojson-to-gpx"><wpt lat="-27.003373333333336" lon="-48.63045333333333"><ele>11.2</ele><name>2 faixas</name></wpt><wpt lat="-27.003711666666664" lon="-48.63043166666667"><ele>6</ele><name>3 faixas</name></wpt><wpt lat="-27.003463333333336" lon="-48.630403333333334"><ele>12</ele><name>10</name></wpt><wpt lat="-27.004025000000002" lon="-48.63050666666666"><ele>8.4</ele><name>20</name></wpt><wpt lat="-27.004033333333336" lon="-48.63051666666667"><ele>9.3</ele><name>250</name></wpt><wpt lat="-27.003711666666664" lon="-48.63037666666667"><ele>4.300000000000001</ele><name>1900</name></wpt><wpt lat="-27.00413" lon="-48.630526666666675"><ele>6.199999999999999</ele><name>A ciclo é completamente reta.</name></wpt><wpt lat="-27.00413" lon="-48.630526666666675"><ele>6.199999999999999</ele><name>A pintura é falha em VÁRIOS pontos</name></wpt><wpt lat="-27.004028333333334" lon="-48.63050666666666"><ele>8.6</ele><name>Área de amortecimento da ciclo (cm)</name></wpt><wpt lat="-27.004033333333336" lon="-48.63051666666667"><ele>9.3</ele><name>Área transitável da ciclo (cm)</name></wpt><wpt lat="-27.003373333333336" lon="-48.63045333333333"><ele>11.2</ele><name>Asfalto</name></wpt><wpt lat="-27.003365" lon="-48.63045999999999"><ele>12.1</ele><name>Bidirecional</name></wpt><wpt lat="-27.00413" lon="-48.630526666666675"><ele>6.199999999999999</ele><name>Bom estado</name></wpt><wpt lat="-27.003356666666665" lon="-48.63045999999999"><ele>12</ele><name>Calçada compartilhada</name></wpt><wpt lat="-27.003373333333336" lon="-48.63045333333333"><ele>11.2</ele><name>Estacionamento proibido na via</name></wpt><wpt lat="-27.003368333333334" lon="-48.63044166666667"><ele>9.9</ele><name>Foto</name></wpt><wpt lat="-27.003445000000003" lon="-48.63036833333334"><ele>12.799999999999999</ele><name>Foto</name></wpt><wpt lat="-27.00333333333333" lon="-48.63043"><ele>11.7</ele><name>Foto</name></wpt><wpt lat="-27.003401666666665" lon="-48.6305"><ele>10.4</ele><name>Foto</name></wpt><wpt lat="-27.003426666666662" lon="-48.630399999999995"><ele>11.6</ele><name>Foto</name></wpt><wpt lat="-27.003463333333336" lon="-48.630403333333334"><ele>12</ele><name>Foto</name></wpt><wpt lat="-27.003615" lon="-48.63040833333333"><ele>8.3</ele><name>Foto</name></wpt><wpt lat="-27.003713333333334" lon="-48.63042833333334"><ele>5.5</ele><name>Foto</name></wpt><wpt lat="-27.003635" lon="-48.630436666666675"><ele>6.9</ele><name>Foto</name></wpt><wpt lat="-27.003901666666668" lon="-48.63054333333333"><ele>10.299999999999999</ele><name>Foto</name></wpt><wpt lat="-27.004031666666666" lon="-48.63056166666667"><ele>8.1</ele><name>Foto</name></wpt><wpt lat="-27.00419833333334" lon="-48.63060833333334"><ele>8.6</ele><name>Foto</name></wpt><wpt lat="-27.00413" lon="-48.630526666666675"><ele>6.199999999999999</ele><name>Iluminação geral dos dois lados da via</name></wpt><wpt lat="-27.003373333333336" lon="-48.63045333333333"><ele>11.2</ele><name>Mão Inglesa</name></wpt><wpt lat="-27.00413" lon="-48.630526666666675"><ele>6.199999999999999</ele><name>Não há árvores nem mudas</name></wpt><wpt lat="-27.003356666666665" lon="-48.63043"><ele>10.299999999999999</ele><name>Nenhum elemento de controle de velocidade na via</name></wpt><wpt lat="-27.003375" lon="-48.630455"><ele>11.5</ele><name>No canteiro central</name></wpt><wpt lat="-27.003373333333336" lon="-48.63045333333333"><ele>11.2</ele><name>Guias</name></wpt><wpt lat="-27.003356666666665" lon="-48.63043"><ele>10.299999999999999</ele><name>Em cruzamento BOA condição</name></wpt><wpt lat="-27.003356666666665" lon="-48.63043"><ele>10.299999999999999</ele><name>Em cruzamento MÁ condição</name></wpt><wpt lat="-27.004176666666662" lon="-48.63052833333333"><ele>9.2</ele><name>Em cruzamento MÁ condição</name></wpt><wpt lat="-27.003373333333336" lon="-48.63045333333333"><ele>11.2</ele><name>Pista dupla</name></wpt><wpt lat="-27.003463333333336" lon="-48.630403333333334"><ele>12</ele><name>Quantidade de vagas</name></wpt><wpt lat="-27.00413" lon="-48.630526666666675"><ele>6.199999999999999</ele><name>R3m0v3r Avaliação de Segregadores 🗑️</name></wpt><wpt lat="-27.004126666666668" lon="-48.630536666666664"><ele>5</ele><name>SE CICLOVIA: segregação impede completamente a invasão de automóvel e não há trechos desprotegidos</name></wpt><wpt lat="-27.00413" lon="-48.630526666666675"><ele>6.199999999999999</ele><name>Segregadores IMPEDEM o acesso de ciclistas</name></wpt><wpt lat="-27.003356666666665" lon="-48.63043"><ele>10.299999999999999</ele><name>SEM pintura no cruzamento</name></wpt><wpt lat="-27.004205000000002" lon="-48.63055166666666"><ele>7.699999999999999</ele><name>SEM pintura no cruzamento</name></wpt><wpt lat="-27.003373333333336" lon="-48.63045333333333"><ele>11.2</ele><name>SEM Semáforo exclusivo</name></wpt><wpt lat="-27.003449999999997" lon="-48.63036666666667"><ele>12.6</ele><name>SEM Semáforo exclusivo</name></wpt><wpt lat="-27.004196666666665" lon="-48.63054833333334"><ele>6.4</ele><name>SEM Semáforo exclusivo</name></wpt><wpt lat="-27.003449999999997" lon="-48.63036833333334"><ele>13.1</ele><name>Semáforo para pedestres</name></wpt><wpt lat="-27.00340833333333" lon="-48.630480000000006"><ele>9.2</ele><name>Semáforo para pedestres</name></wpt><wpt lat="-27.004196666666665" lon="-48.63054833333334"><ele>6.6</ele><name>Semáforo para pedestres</name></wpt><wpt lat="-27.003373333333336" lon="-48.63045333333333"><ele>11.2</ele><name>Toda área de circulação pintada de vermelho</name></wpt><wpt lat="-27.00372333333333" lon="-48.630390000000006"><ele>4.1</ele><name>Total da via (incluindo a ciclo) (cm)</name></wpt><wpt lat="-27.003463333333336" lon="-48.630403333333334"><ele>12</ele><name>U invertido</name></wpt><wpt lat="-27.003356666666665" lon="-48.63043"><ele>10.299999999999999</ele><name>Via transversal COM acesso à ciclovia</name></wpt><wpt lat="-27.003465" lon="-48.630437"><name>Semáforo para motorizado</name></wpt><wpt lat="-27.00419" lon="-48.630512"><name>Semáforo para motorizado</name></wpt><wpt lat="-27.003485" lon="-48.630421"><name>Bidirecional</name></wpt><trk><name>Compart. Pass. Viaduto BR 101 - 1 (R. 3100) - BC</name><trkseg><trkpt lat="-27.003388333333337" lon="-48.63052833333333"><ele>13.7</ele></trkpt><trkpt lat="-27.003371666666666" lon="-48.63043833333333"><ele>14</ele></trkpt><trkpt lat="-27.00343" lon="-48.63042"><ele>14</ele></trkpt><trkpt lat="-27.003413333333334" lon="-48.63044166666667"><ele>14</ele></trkpt><trkpt lat="-27.00338" lon="-48.630475"><ele>13.299999999999999</ele></trkpt><trkpt lat="-27.003385" lon="-48.630468333333326"><ele>12.7</ele></trkpt><trkpt lat="-27.003385" lon="-48.63045666666667"><ele>12.5</ele></trkpt><trkpt lat="-27.003386666666664" lon="-48.630455"><ele>11.799999999999999</ele></trkpt><trkpt lat="-27.00338" lon="-48.63045666666667"><ele>11.6</ele></trkpt><trkpt lat="-27.003375" lon="-48.63045833333334"><ele>11.6</ele></trkpt><trkpt lat="-27.003368333333334" lon="-48.63045833333334"><ele>11.7</ele></trkpt><trkpt lat="-27.003368333333334" lon="-48.63045333333333"><ele>11.799999999999999</ele></trkpt><trkpt lat="-27.003366666666672" lon="-48.63045666666667"><ele>12.7</ele></trkpt><trkpt lat="-27.003365" lon="-48.63045833333334"><ele>12.799999999999999</ele></trkpt><trkpt lat="-27.00336333333333" lon="-48.63045999999999"><ele>12.799999999999999</ele></trkpt><trkpt lat="-27.00336333333333" lon="-48.63045999999999"><ele>12.799999999999999</ele></trkpt><trkpt lat="-27.00336333333333" lon="-48.63046166666666"><ele>12.7</ele></trkpt><trkpt lat="-27.00336333333333" lon="-48.63046166666666"><ele>13.1</ele></trkpt><trkpt lat="-27.003361666666667" lon="-48.63046166666666"><ele>12.9</ele></trkpt><trkpt lat="-27.003359999999997" lon="-48.63045999999999"><ele>12.9</ele></trkpt><trkpt lat="-27.003356666666665" lon="-48.63046333333333"><ele>12.4</ele></trkpt><trkpt lat="-27.003353333333333" lon="-48.63046333333333"><ele>12.2</ele></trkpt><trkpt lat="-27.003355000000003" lon="-48.63046333333333"><ele>12.1</ele></trkpt><trkpt lat="-27.003356666666665" lon="-48.63046166666666"><ele>12.1</ele></trkpt><trkpt lat="-27.003356666666665" lon="-48.63045999999999"><ele>12</ele></trkpt><trkpt lat="-27.003356666666665" lon="-48.63045999999999"><ele>12</ele></trkpt><trkpt lat="-27.003358333333335" lon="-48.63045833333334"><ele>12.1</ele></trkpt><trkpt lat="-27.003358333333335" lon="-48.63045999999999"><ele>12.1</ele></trkpt><trkpt lat="-27.00336333333333" lon="-48.63046166666666"><ele>12</ele></trkpt><trkpt lat="-27.003365" lon="-48.63045999999999"><ele>12.1</ele></trkpt><trkpt lat="-27.003365" lon="-48.63045999999999"><ele>12.1</ele></trkpt><trkpt lat="-27.003370000000004" lon="-48.63045833333334"><ele>12.2</ele></trkpt><trkpt lat="-27.003371666666666" lon="-48.63045833333334"><ele>12.2</ele></trkpt><trkpt lat="-27.003373333333336" lon="-48.63045999999999"><ele>12</ele></trkpt><trkpt lat="-27.003375" lon="-48.63045833333334"><ele>11.799999999999999</ele></trkpt><trkpt lat="-27.003375" lon="-48.630455"><ele>11.5</ele></trkpt><trkpt lat="-27.003375" lon="-48.630455"><ele>11.5</ele></trkpt><trkpt lat="-27.003376666666668" lon="-48.63045333333333"><ele>11.4</ele></trkpt><trkpt lat="-27.003373333333336" lon="-48.63045333333333"><ele>11.2</ele></trkpt><trkpt lat="-27.003373333333336" lon="-48.63045333333333"><ele>11.2</ele></trkpt><trkpt lat="-27.003373333333336" lon="-48.63045333333333"><ele>11.2</ele></trkpt><trkpt lat="-27.003373333333336" lon="-48.63045333333333"><ele>11.2</ele></trkpt><trkpt lat="-27.003373333333336" lon="-48.63045333333333"><ele>11.2</ele></trkpt><trkpt lat="-27.003373333333336" lon="-48.63045333333333"><ele>11.2</ele></trkpt><trkpt lat="-27.003373333333336" lon="-48.63045333333333"><ele>11.2</ele></trkpt><trkpt lat="-27.003373333333336" lon="-48.63045333333333"><ele>11.2</ele></trkpt><trkpt lat="-27.003373333333336" lon="-48.63045333333333"><ele>11.2</ele></trkpt><trkpt lat="-27.003373333333336" lon="-48.63045333333333"><ele>11.2</ele></trkpt><trkpt lat="-27.003373333333336" lon="-48.63045333333333"><ele>11.2</ele></trkpt><trkpt lat="-27.003373333333336" lon="-48.63045333333333"><ele>11.2</ele></trkpt><trkpt lat="-27.003373333333336" lon="-48.63045333333333"><ele>11.2</ele></trkpt><trkpt lat="-27.003373333333336" lon="-48.63045333333333"><ele>11.2</ele></trkpt><trkpt lat="-27.003373333333336" lon="-48.63045333333333"><ele>11.2</ele></trkpt><trkpt lat="-27.003373333333336" lon="-48.63045333333333"><ele>11.2</ele></trkpt><trkpt lat="-27.003373333333336" lon="-48.63045333333333"><ele>11.2</ele></trkpt><trkpt lat="-27.003373333333336" lon="-48.63045333333333"><ele>11.2</ele></trkpt><trkpt lat="-27.003373333333336" lon="-48.63045333333333"><ele>11.2</ele></trkpt><trkpt lat="-27.003373333333336" lon="-48.63045333333333"><ele>11.2</ele></trkpt><trkpt lat="-27.003373333333336" lon="-48.63045333333333"><ele>11.2</ele></trkpt><trkpt lat="-27.003373333333336" lon="-48.63045333333333"><ele>11.2</ele></trkpt><trkpt lat="-27.003373333333336" lon="-48.63045333333333"><ele>11.2</ele></trkpt><trkpt lat="-27.003373333333336" lon="-48.63045333333333"><ele>11.2</ele></trkpt><trkpt lat="-27.003373333333336" lon="-48.63045333333333"><ele>11.2</ele></trkpt><trkpt lat="-27.003373333333336" lon="-48.63045333333333"><ele>11.2</ele></trkpt><trkpt lat="-27.003373333333336" lon="-48.63045333333333"><ele>11.2</ele></trkpt><trkpt lat="-27.003373333333336" lon="-48.63045333333333"><ele>11.2</ele></trkpt><trkpt lat="-27.003373333333336" lon="-48.63045333333333"><ele>11.2</ele></trkpt><trkpt lat="-27.003373333333336" lon="-48.63045333333333"><ele>11.2</ele></trkpt><trkpt lat="-27.003373333333336" lon="-48.63045333333333"><ele>11.2</ele></trkpt><trkpt lat="-27.003373333333336" lon="-48.63045333333333"><ele>11.2</ele></trkpt><trkpt lat="-27.003373333333336" lon="-48.63045333333333"><ele>11.2</ele></trkpt><trkpt lat="-27.003373333333336" lon="-48.63045333333333"><ele>11.2</ele></trkpt><trkpt lat="-27.003373333333336" lon="-48.63045333333333"><ele>11.2</ele></trkpt><trkpt lat="-27.003373333333336" lon="-48.63045333333333"><ele>11.2</ele></trkpt><trkpt lat="-27.003373333333336" lon="-48.63045333333333"><ele>11.2</ele></trkpt><trkpt lat="-27.003373333333336" lon="-48.63045333333333"><ele>11.2</ele></trkpt><trkpt lat="-27.003373333333336" lon="-48.63045333333333"><ele>11.2</ele></trkpt><trkpt lat="-27.003373333333336" lon="-48.63045333333333"><ele>11.2</ele></trkpt><trkpt lat="-27.003373333333336" lon="-48.63045333333333"><ele>11.2</ele></trkpt><trkpt lat="-27.003373333333336" lon="-48.63045333333333"><ele>11.2</ele></trkpt><trkpt lat="-27.003373333333336" lon="-48.63045333333333"><ele>11.2</ele></trkpt><trkpt lat="-27.003373333333336" lon="-48.63045333333333"><ele>11.2</ele></trkpt><trkpt lat="-27.003373333333336" lon="-48.63045333333333"><ele>11.2</ele></trkpt><trkpt lat="-27.003373333333336" lon="-48.63045333333333"><ele>11.2</ele></trkpt><trkpt lat="-27.003373333333336" lon="-48.63045333333333"><ele>11.2</ele></trkpt><trkpt lat="-27.003373333333336" lon="-48.63045333333333"><ele>11.2</ele></trkpt><trkpt lat="-27.003373333333336" lon="-48.63045333333333"><ele>11.2</ele></trkpt><trkpt lat="-27.003373333333336" lon="-48.63045333333333"><ele>11.2</ele></trkpt><trkpt lat="-27.003373333333336" lon="-48.63045333333333"><ele>11.2</ele></trkpt><trkpt lat="-27.003373333333336" lon="-48.63045333333333"><ele>11.2</ele></trkpt><trkpt lat="-27.003373333333336" lon="-48.63045333333333"><ele>11.2</ele></trkpt><trkpt lat="-27.003373333333336" lon="-48.63045333333333"><ele>11.2</ele></trkpt><trkpt lat="-27.003373333333336" lon="-48.63045333333333"><ele>11.2</ele></trkpt><trkpt lat="-27.003373333333336" lon="-48.63045333333333"><ele>11.2</ele></trkpt><trkpt lat="-27.003373333333336" lon="-48.63045333333333"><ele>11.2</ele></trkpt><trkpt lat="-27.003373333333336" lon="-48.63045333333333"><ele>11.2</ele></trkpt><trkpt lat="-27.003373333333336" lon="-48.63045333333333"><ele>11.2</ele></trkpt><trkpt lat="-27.003373333333336" lon="-48.63045333333333"><ele>11.2</ele></trkpt><trkpt lat="-27.003373333333336" lon="-48.63045333333333"><ele>11.2</ele></trkpt><trkpt lat="-27.003373333333336" lon="-48.63045333333333"><ele>11.2</ele></trkpt><trkpt lat="-27.003373333333336" lon="-48.63045333333333"><ele>11.2</ele></trkpt><trkpt lat="-27.003373333333336" lon="-48.63045333333333"><ele>11.2</ele></trkpt><trkpt lat="-27.003373333333336" lon="-48.63045333333333"><ele>11.2</ele></trkpt><trkpt lat="-27.003373333333336" lon="-48.63045333333333"><ele>11.2</ele></trkpt><trkpt lat="-27.003373333333336" lon="-48.63045333333333"><ele>11.2</ele></trkpt><trkpt lat="-27.003373333333336" lon="-48.63045333333333"><ele>11.2</ele></trkpt><trkpt lat="-27.003373333333336" lon="-48.63045333333333"><ele>11.2</ele></trkpt><trkpt lat="-27.003373333333336" lon="-48.63045333333333"><ele>11.2</ele></trkpt><trkpt lat="-27.003373333333336" lon="-48.63045333333333"><ele>11.2</ele></trkpt><trkpt lat="-27.003373333333336" lon="-48.63045333333333"><ele>11.2</ele></trkpt><trkpt lat="-27.003373333333336" lon="-48.63045333333333"><ele>11.2</ele></trkpt><trkpt lat="-27.003373333333336" lon="-48.63045333333333"><ele>11.2</ele></trkpt><trkpt lat="-27.003373333333336" lon="-48.63045333333333"><ele>11.2</ele></trkpt><trkpt lat="-27.003373333333336" lon="-48.63045333333333"><ele>11.2</ele></trkpt><trkpt lat="-27.003373333333336" lon="-48.63045333333333"><ele>11.2</ele></trkpt><trkpt lat="-27.003373333333336" lon="-48.63045333333333"><ele>11.2</ele></trkpt><trkpt lat="-27.003373333333336" lon="-48.63045333333333"><ele>11.2</ele></trkpt><trkpt lat="-27.003373333333336" lon="-48.63045333333333"><ele>11.2</ele></trkpt><trkpt lat="-27.003373333333336" lon="-48.63045333333333"><ele>11.2</ele></trkpt><trkpt lat="-27.003373333333336" lon="-48.63045333333333"><ele>11.2</ele></trkpt><trkpt lat="-27.003373333333336" lon="-48.63045333333333"><ele>11.2</ele></trkpt><trkpt lat="-27.003373333333336" lon="-48.63045333333333"><ele>11.2</ele></trkpt><trkpt lat="-27.003373333333336" lon="-48.63045333333333"><ele>11.2</ele></trkpt><trkpt lat="-27.003373333333336" lon="-48.63045333333333"><ele>11.2</ele></trkpt><trkpt lat="-27.003373333333336" lon="-48.63045333333333"><ele>11.2</ele></trkpt><trkpt lat="-27.003373333333336" lon="-48.63045333333333"><ele>11.2</ele></trkpt><trkpt lat="-27.003373333333336" lon="-48.63045333333333"><ele>11.2</ele></trkpt><trkpt lat="-27.003373333333336" lon="-48.63045333333333"><ele>11.2</ele></trkpt><trkpt lat="-27.003373333333336" lon="-48.63045333333333"><ele>11.2</ele></trkpt><trkpt lat="-27.003373333333336" lon="-48.63045333333333"><ele>11.2</ele></trkpt><trkpt lat="-27.003373333333336" lon="-48.63045333333333"><ele>11.2</ele></trkpt><trkpt lat="-27.003373333333336" lon="-48.63045333333333"><ele>11.2</ele></trkpt><trkpt lat="-27.003373333333336" lon="-48.63045333333333"><ele>11.2</ele></trkpt><trkpt lat="-27.003373333333336" lon="-48.63045333333333"><ele>11.2</ele></trkpt><trkpt lat="-27.003373333333336" lon="-48.63045333333333"><ele>11.2</ele></trkpt><trkpt lat="-27.003373333333336" lon="-48.63045333333333"><ele>11.2</ele></trkpt><trkpt lat="-27.003373333333336" lon="-48.63045333333333"><ele>11.2</ele></trkpt><trkpt lat="-27.003373333333336" lon="-48.63045333333333"><ele>11.2</ele></trkpt><trkpt lat="-27.003373333333336" lon="-48.63045333333333"><ele>11.2</ele></trkpt><trkpt lat="-27.003373333333336" lon="-48.63045333333333"><ele>11.2</ele></trkpt><trkpt lat="-27.003373333333336" lon="-48.63045333333333"><ele>11.2</ele></trkpt><trkpt lat="-27.003373333333336" lon="-48.63045333333333"><ele>11.2</ele></trkpt><trkpt lat="-27.003373333333336" lon="-48.63045333333333"><ele>11.2</ele></trkpt><trkpt lat="-27.003373333333336" lon="-48.63045333333333"><ele>11.2</ele></trkpt><trkpt lat="-27.003373333333336" lon="-48.63045333333333"><ele>11.2</ele></trkpt><trkpt lat="-27.003373333333336" lon="-48.63045333333333"><ele>11.2</ele></trkpt><trkpt lat="-27.003373333333336" lon="-48.63045333333333"><ele>11.2</ele></trkpt><trkpt lat="-27.003373333333336" lon="-48.63045333333333"><ele>11.2</ele></trkpt><trkpt lat="-27.003373333333336" lon="-48.63045333333333"><ele>11.2</ele></trkpt><trkpt lat="-27.003373333333336" lon="-48.63045333333333"><ele>11.2</ele></trkpt><trkpt lat="-27.003373333333336" lon="-48.63045333333333"><ele>11.2</ele></trkpt><trkpt lat="-27.003373333333336" lon="-48.63045333333333"><ele>11.2</ele></trkpt><trkpt lat="-27.003373333333336" lon="-48.63045333333333"><ele>11.2</ele></trkpt><trkpt lat="-27.003373333333336" lon="-48.63045333333333"><ele>11.2</ele></trkpt><trkpt lat="-27.003373333333336" lon="-48.63045333333333"><ele>11.2</ele></trkpt><trkpt lat="-27.003373333333336" lon="-48.63045333333333"><ele>11.2</ele></trkpt><trkpt lat="-27.003373333333336" lon="-48.63045333333333"><ele>11.2</ele></trkpt><trkpt lat="-27.003373333333336" lon="-48.63045333333333"><ele>11.2</ele></trkpt><trkpt lat="-27.003373333333336" lon="-48.63045333333333"><ele>11.2</ele></trkpt><trkpt lat="-27.003373333333336" lon="-48.63045333333333"><ele>11.2</ele></trkpt><trkpt lat="-27.003373333333336" lon="-48.63045333333333"><ele>11.2</ele></trkpt><trkpt lat="-27.003373333333336" lon="-48.63045333333333"><ele>11.2</ele></trkpt><trkpt lat="-27.003373333333336" lon="-48.63045333333333"><ele>11.2</ele></trkpt><trkpt lat="-27.003373333333336" lon="-48.63045333333333"><ele>11.2</ele></trkpt><trkpt lat="-27.003373333333336" lon="-48.63045333333333"><ele>11.2</ele></trkpt><trkpt lat="-27.003373333333336" lon="-48.63045333333333"><ele>11.2</ele></trkpt><trkpt lat="-27.003373333333336" lon="-48.63045333333333"><ele>11.2</ele></trkpt><trkpt lat="-27.003373333333336" lon="-48.63045333333333"><ele>11.2</ele></trkpt><trkpt lat="-27.003373333333336" lon="-48.63045333333333"><ele>11.2</ele></trkpt><trkpt lat="-27.003373333333336" lon="-48.63045333333333"><ele>11.2</ele></trkpt><trkpt lat="-27.003373333333336" lon="-48.63045333333333"><ele>11.2</ele></trkpt><trkpt lat="-27.003373333333336" lon="-48.63045333333333"><ele>11.2</ele></trkpt><trkpt lat="-27.003373333333336" lon="-48.63045333333333"><ele>11.2</ele></trkpt><trkpt lat="-27.003373333333336" lon="-48.63045333333333"><ele>11.2</ele></trkpt><trkpt lat="-27.003373333333336" lon="-48.63045333333333"><ele>11.2</ele></trkpt><trkpt lat="-27.003373333333336" lon="-48.63045333333333"><ele>11.2</ele></trkpt><trkpt lat="-27.003373333333336" lon="-48.63045333333333"><ele>11.2</ele></trkpt><trkpt lat="-27.003373333333336" lon="-48.63045333333333"><ele>11.2</ele></trkpt><trkpt lat="-27.003368333333334" lon="-48.63044166666667"><ele>9.1</ele></trkpt><trkpt lat="-27.003366666666672" lon="-48.63043833333333"><ele>9.3</ele></trkpt><trkpt lat="-27.003365" lon="-48.63043833333333"><ele>9.5</ele></trkpt><trkpt lat="-27.003365" lon="-48.630446666666664"><ele>9.799999999999999</ele></trkpt><trkpt lat="-27.003368333333334" lon="-48.63044166666667"><ele>9.9</ele></trkpt><trkpt lat="-27.003368333333334" lon="-48.63044166666667"><ele>9.9</ele></trkpt><trkpt lat="-27.003368333333334" lon="-48.63044166666667"><ele>9.9</ele></trkpt><trkpt lat="-27.003368333333334" lon="-48.63044166666667"><ele>9.9</ele></trkpt><trkpt lat="-27.003368333333334" lon="-48.63044166666667"><ele>9.9</ele></trkpt><trkpt lat="-27.003368333333334" lon="-48.63044166666667"><ele>9.9</ele></trkpt><trkpt lat="-27.003368333333334" lon="-48.63044166666667"><ele>9.9</ele></trkpt><trkpt lat="-27.003368333333334" lon="-48.63044166666667"><ele>9.9</ele></trkpt><trkpt lat="-27.00337833333333" lon="-48.630446666666664"><ele>9</ele></trkpt><trkpt lat="-27.003383333333332" lon="-48.63044166666667"><ele>9.1</ele></trkpt><trkpt lat="-27.003395" lon="-48.63044333333334"><ele>9.4</ele></trkpt><trkpt lat="-27.003404999999997" lon="-48.63044333333334"><ele>9.4</ele></trkpt><trkpt lat="-27.00341166666666" lon="-48.63044333333334"><ele>9.5</ele></trkpt><trkpt lat="-27.003418333333336" lon="-48.630435000000006"><ele>9.7</ele></trkpt><trkpt lat="-27.003426666666662" lon="-48.630424999999995"><ele>10</ele></trkpt><trkpt lat="-27.003433333333337" lon="-48.63041"><ele>10.5</ele></trkpt><trkpt lat="-27.00343833333333" lon="-48.63039333333333"><ele>10.799999999999999</ele></trkpt><trkpt lat="-27.003443333333333" lon="-48.63038166666667"><ele>11.1</ele></trkpt><trkpt lat="-27.003445000000003" lon="-48.63037333333333"><ele>11.2</ele></trkpt><trkpt lat="-27.003448333333335" lon="-48.63036833333334"><ele>12</ele></trkpt><trkpt lat="-27.003449999999997" lon="-48.63036666666667"><ele>12.6</ele></trkpt><trkpt lat="-27.003449999999997" lon="-48.63036666666667"><ele>12.6</ele></trkpt><trkpt lat="-27.003449999999997" lon="-48.63036666666667"><ele>13.1</ele></trkpt><trkpt lat="-27.003449999999997" lon="-48.63036833333334"><ele>13.1</ele></trkpt><trkpt lat="-27.003449999999997" lon="-48.63036833333334"><ele>13.1</ele></trkpt><trkpt lat="-27.003449999999997" lon="-48.63036833333334"><ele>13.2</ele></trkpt><trkpt lat="-27.003448333333335" lon="-48.63036666666667"><ele>13.2</ele></trkpt><trkpt lat="-27.003448333333335" lon="-48.63036666666667"><ele>13.2</ele></trkpt><trkpt lat="-27.003445000000003" lon="-48.63036833333334"><ele>12.9</ele></trkpt><trkpt lat="-27.003445000000003" lon="-48.63036833333334"><ele>12.799999999999999</ele></trkpt><trkpt lat="-27.003445000000003" lon="-48.63036833333334"><ele>12.799999999999999</ele></trkpt><trkpt lat="-27.003445000000003" lon="-48.63036833333334"><ele>12.799999999999999</ele></trkpt><trkpt lat="-27.003445000000003" lon="-48.63036833333334"><ele>12.799999999999999</ele></trkpt><trkpt lat="-27.003445000000003" lon="-48.63036833333334"><ele>12.799999999999999</ele></trkpt><trkpt lat="-27.003445000000003" lon="-48.63036833333334"><ele>12.799999999999999</ele></trkpt><trkpt lat="-27.003445000000003" lon="-48.63036833333334"><ele>12.799999999999999</ele></trkpt><trkpt lat="-27.003445000000003" lon="-48.63036833333334"><ele>12.799999999999999</ele></trkpt><trkpt lat="-27.003449999999997" lon="-48.63041166666667"><ele>10.2</ele></trkpt><trkpt lat="-27.003443333333333" lon="-48.63042666666667"><ele>9.9</ele></trkpt><trkpt lat="-27.00343666666667" lon="-48.630448333333334"><ele>9.799999999999999</ele></trkpt><trkpt lat="-27.00343" lon="-48.630465"><ele>9.9</ele></trkpt><trkpt lat="-27.003421666666668" lon="-48.630478333333336"><ele>9.799999999999999</ele></trkpt><trkpt lat="-27.003415000000004" lon="-48.630481666666675"><ele>9.4</ele></trkpt><trkpt lat="-27.00341" lon="-48.630481666666675"><ele>9.5</ele></trkpt><trkpt lat="-27.00340833333333" lon="-48.630480000000006"><ele>9.2</ele></trkpt><trkpt lat="-27.00340833333333" lon="-48.630480000000006"><ele>9.2</ele></trkpt><trkpt lat="-27.003404999999997" lon="-48.630478333333336"><ele>9.2</ele></trkpt><trkpt lat="-27.003401666666665" lon="-48.630475"><ele>9.2</ele></trkpt><trkpt lat="-27.003396666666664" lon="-48.63047166666667"><ele>9.3</ele></trkpt><trkpt lat="-27.00339166666667" lon="-48.630469999999995"><ele>9.4</ele></trkpt><trkpt lat="-27.00339" lon="-48.630468333333326"><ele>9.3</ele></trkpt><trkpt lat="-27.00339166666667" lon="-48.63046333333333"><ele>9.2</ele></trkpt><trkpt lat="-27.00339333333333" lon="-48.63045999999999"><ele>9.2</ele></trkpt><trkpt lat="-27.00339333333333" lon="-48.63045833333334"><ele>9.5</ele></trkpt><trkpt lat="-27.00339333333333" lon="-48.63045833333334"><ele>9.5</ele></trkpt><trkpt lat="-27.00339333333333" lon="-48.63045833333334"><ele>9.5</ele></trkpt><trkpt lat="-27.00339333333333" lon="-48.63045833333334"><ele>9.5</ele></trkpt><trkpt lat="-27.00339333333333" lon="-48.63045833333334"><ele>9.5</ele></trkpt><trkpt lat="-27.00339333333333" lon="-48.63045833333334"><ele>9.5</ele></trkpt><trkpt lat="-27.00339333333333" lon="-48.63045833333334"><ele>9.5</ele></trkpt><trkpt lat="-27.003366666666672" lon="-48.630448333333334"><ele>9.5</ele></trkpt><trkpt lat="-27.003361666666667" lon="-48.63044333333334"><ele>9.7</ele></trkpt><trkpt lat="-27.003355000000003" lon="-48.63044166666667"><ele>10.1</ele></trkpt><trkpt lat="-27.00334833333333" lon="-48.63044"><ele>10.4</ele></trkpt><trkpt lat="-27.003345" lon="-48.63044"><ele>10.7</ele></trkpt><trkpt lat="-27.003345" lon="-48.63044"><ele>10.9</ele></trkpt><trkpt lat="-27.00334666666667" lon="-48.63044"><ele>11.1</ele></trkpt><trkpt lat="-27.00334833333333" lon="-48.630436666666675"><ele>11</ele></trkpt><trkpt lat="-27.00334833333333" lon="-48.630435000000006"><ele>10.799999999999999</ele></trkpt><trkpt lat="-27.00335" lon="-48.630433333333336"><ele>10.7</ele></trkpt><trkpt lat="-27.00335166666667" lon="-48.63043"><ele>10.5</ele></trkpt><trkpt lat="-27.00335166666667" lon="-48.63042833333334"><ele>10.4</ele></trkpt><trkpt lat="-27.003356666666665" lon="-48.63043"><ele>10.299999999999999</ele></trkpt><trkpt lat="-27.003356666666665" lon="-48.63043"><ele>10.299999999999999</ele></trkpt><trkpt lat="-27.003356666666665" lon="-48.63043"><ele>10.299999999999999</ele></trkpt><trkpt lat="-27.003356666666665" lon="-48.63043"><ele>10.299999999999999</ele></trkpt><trkpt lat="-27.003356666666665" lon="-48.63043"><ele>10.299999999999999</ele></trkpt><trkpt lat="-27.003356666666665" lon="-48.63043"><ele>10.299999999999999</ele></trkpt><trkpt lat="-27.003356666666665" lon="-48.63043"><ele>10.299999999999999</ele></trkpt><trkpt lat="-27.003356666666665" lon="-48.63043"><ele>10.299999999999999</ele></trkpt><trkpt lat="-27.003356666666665" lon="-48.63043"><ele>10.299999999999999</ele></trkpt><trkpt lat="-27.003356666666665" lon="-48.63043"><ele>10.299999999999999</ele></trkpt><trkpt lat="-27.003356666666665" lon="-48.63043"><ele>10.299999999999999</ele></trkpt><trkpt lat="-27.003356666666665" lon="-48.63043"><ele>10.299999999999999</ele></trkpt><trkpt lat="-27.003356666666665" lon="-48.63043"><ele>10.299999999999999</ele></trkpt><trkpt lat="-27.003356666666665" lon="-48.63043"><ele>10.299999999999999</ele></trkpt><trkpt lat="-27.003356666666665" lon="-48.63043"><ele>10.299999999999999</ele></trkpt><trkpt lat="-27.003356666666665" lon="-48.63043"><ele>10.299999999999999</ele></trkpt><trkpt lat="-27.003356666666665" lon="-48.63043"><ele>10.299999999999999</ele></trkpt><trkpt lat="-27.003356666666665" lon="-48.63043"><ele>10.299999999999999</ele></trkpt><trkpt lat="-27.003356666666665" lon="-48.63043"><ele>10.299999999999999</ele></trkpt><trkpt lat="-27.003356666666665" lon="-48.63043"><ele>10.299999999999999</ele></trkpt><trkpt lat="-27.003356666666665" lon="-48.63043"><ele>10.299999999999999</ele></trkpt><trkpt lat="-27.003356666666665" lon="-48.63043"><ele>10.299999999999999</ele></trkpt><trkpt lat="-27.003356666666665" lon="-48.63043"><ele>10.299999999999999</ele></trkpt><trkpt lat="-27.003356666666665" lon="-48.63043"><ele>10.299999999999999</ele></trkpt><trkpt lat="-27.003356666666665" lon="-48.63043"><ele>10.299999999999999</ele></trkpt><trkpt lat="-27.003356666666665" lon="-48.63043"><ele>10.299999999999999</ele></trkpt><trkpt lat="-27.003356666666665" lon="-48.63043"><ele>10.299999999999999</ele></trkpt><trkpt lat="-27.003356666666665" lon="-48.63043"><ele>10.299999999999999</ele></trkpt><trkpt lat="-27.003356666666665" lon="-48.63043"><ele>10.299999999999999</ele></trkpt><trkpt lat="-27.003356666666665" lon="-48.63043"><ele>10.299999999999999</ele></trkpt><trkpt lat="-27.003356666666665" lon="-48.63043"><ele>10.299999999999999</ele></trkpt><trkpt lat="-27.003356666666665" lon="-48.63043"><ele>10.299999999999999</ele></trkpt><trkpt lat="-27.003356666666665" lon="-48.63043"><ele>10.299999999999999</ele></trkpt><trkpt lat="-27.003356666666665" lon="-48.63043"><ele>10.299999999999999</ele></trkpt><trkpt lat="-27.003356666666665" lon="-48.63043"><ele>10.299999999999999</ele></trkpt><trkpt lat="-27.003356666666665" lon="-48.63043"><ele>10.299999999999999</ele></trkpt><trkpt lat="-27.003356666666665" lon="-48.63043"><ele>10.299999999999999</ele></trkpt><trkpt lat="-27.003356666666665" lon="-48.63043"><ele>10.299999999999999</ele></trkpt><trkpt lat="-27.003356666666665" lon="-48.63043"><ele>10.299999999999999</ele></trkpt><trkpt lat="-27.003356666666665" lon="-48.63043"><ele>10.299999999999999</ele></trkpt><trkpt lat="-27.003356666666665" lon="-48.63043"><ele>10.299999999999999</ele></trkpt><trkpt lat="-27.003356666666665" lon="-48.63043"><ele>10.299999999999999</ele></trkpt><trkpt lat="-27.003356666666665" lon="-48.63043"><ele>10.299999999999999</ele></trkpt><trkpt lat="-27.003356666666665" lon="-48.63043"><ele>10.299999999999999</ele></trkpt><trkpt lat="-27.003356666666665" lon="-48.63043"><ele>10.299999999999999</ele></trkpt><trkpt lat="-27.003356666666665" lon="-48.63043"><ele>10.299999999999999</ele></trkpt><trkpt lat="-27.003356666666665" lon="-48.63043"><ele>10.299999999999999</ele></trkpt><trkpt lat="-27.003356666666665" lon="-48.63043"><ele>10.299999999999999</ele></trkpt><trkpt lat="-27.003356666666665" lon="-48.63043"><ele>10.299999999999999</ele></trkpt><trkpt lat="-27.003356666666665" lon="-48.63043"><ele>10.299999999999999</ele></trkpt><trkpt lat="-27.003356666666665" lon="-48.63043"><ele>10.299999999999999</ele></trkpt><trkpt lat="-27.003356666666665" lon="-48.63043"><ele>10.299999999999999</ele></trkpt><trkpt lat="-27.003356666666665" lon="-48.63043"><ele>10.299999999999999</ele></trkpt><trkpt lat="-27.003356666666665" lon="-48.63043"><ele>10.299999999999999</ele></trkpt><trkpt lat="-27.003356666666665" lon="-48.63043"><ele>10.299999999999999</ele></trkpt><trkpt lat="-27.003356666666665" lon="-48.63043"><ele>10.299999999999999</ele></trkpt><trkpt lat="-27.003356666666665" lon="-48.63043"><ele>10.299999999999999</ele></trkpt><trkpt lat="-27.003356666666665" lon="-48.63043"><ele>10.299999999999999</ele></trkpt><trkpt lat="-27.003356666666665" lon="-48.63043"><ele>10.299999999999999</ele></trkpt><trkpt lat="-27.003356666666665" lon="-48.63043"><ele>10.299999999999999</ele></trkpt><trkpt lat="-27.003356666666665" lon="-48.63043"><ele>10.299999999999999</ele></trkpt><trkpt lat="-27.003356666666665" lon="-48.63043"><ele>10.299999999999999</ele></trkpt><trkpt lat="-27.003356666666665" lon="-48.63043"><ele>10.299999999999999</ele></trkpt><trkpt lat="-27.003356666666665" lon="-48.63043"><ele>10.299999999999999</ele></trkpt><trkpt lat="-27.003356666666665" lon="-48.63043"><ele>10.299999999999999</ele></trkpt><trkpt lat="-27.003356666666665" lon="-48.63043"><ele>10.299999999999999</ele></trkpt><trkpt lat="-27.003356666666665" lon="-48.63043"><ele>10.299999999999999</ele></trkpt><trkpt lat="-27.003356666666665" lon="-48.63043"><ele>10.299999999999999</ele></trkpt><trkpt lat="-27.003356666666665" lon="-48.63043"><ele>10.299999999999999</ele></trkpt><trkpt lat="-27.003356666666665" lon="-48.63043"><ele>10.299999999999999</ele></trkpt><trkpt lat="-27.003356666666665" lon="-48.63043"><ele>10.299999999999999</ele></trkpt><trkpt lat="-27.003356666666665" lon="-48.63043"><ele>10.299999999999999</ele></trkpt><trkpt lat="-27.003356666666665" lon="-48.63043"><ele>10.299999999999999</ele></trkpt><trkpt lat="-27.003356666666665" lon="-48.63043"><ele>10.299999999999999</ele></trkpt><trkpt lat="-27.003356666666665" lon="-48.63043"><ele>10.299999999999999</ele></trkpt><trkpt lat="-27.003356666666665" lon="-48.63043"><ele>10.299999999999999</ele></trkpt><trkpt lat="-27.003356666666665" lon="-48.63043"><ele>10.299999999999999</ele></trkpt><trkpt lat="-27.003356666666665" lon="-48.63043"><ele>10.299999999999999</ele></trkpt><trkpt lat="-27.003356666666665" lon="-48.63043"><ele>10.299999999999999</ele></trkpt><trkpt lat="-27.003356666666665" lon="-48.63043"><ele>10.299999999999999</ele></trkpt><trkpt lat="-27.003356666666665" lon="-48.63043"><ele>10.299999999999999</ele></trkpt><trkpt lat="-27.003356666666665" lon="-48.63043"><ele>10.299999999999999</ele></trkpt><trkpt lat="-27.003356666666665" lon="-48.63043"><ele>10.299999999999999</ele></trkpt><trkpt lat="-27.003365" lon="-48.63041"><ele>13.7</ele></trkpt><trkpt lat="-27.003359999999997" lon="-48.63041"><ele>13.1</ele></trkpt><trkpt lat="-27.003355000000003" lon="-48.63041166666667"><ele>12.7</ele></trkpt><trkpt lat="-27.00334833333333" lon="-48.63041166666667"><ele>12.4</ele></trkpt><trkpt lat="-27.003345" lon="-48.63041"><ele>12.1</ele></trkpt><trkpt lat="-27.00334" lon="-48.63041333333334"><ele>11.9</ele></trkpt><trkpt lat="-27.003335" lon="-48.63041666666666"><ele>11.799999999999999</ele></trkpt><trkpt lat="-27.003335" lon="-48.630423333333326"><ele>11.799999999999999</ele></trkpt><trkpt lat="-27.00333333333333" lon="-48.63043"><ele>11.7</ele></trkpt><trkpt lat="-27.00333333333333" lon="-48.63043"><ele>11.7</ele></trkpt><trkpt lat="-27.00334" lon="-48.630436666666675"><ele>11.9</ele></trkpt><trkpt lat="-27.003345" lon="-48.63044333333334"><ele>11.6</ele></trkpt><trkpt lat="-27.00335166666667" lon="-48.63045"><ele>11.5</ele></trkpt><trkpt lat="-27.003361666666667" lon="-48.63045999999999"><ele>11.799999999999999</ele></trkpt><trkpt lat="-27.00336333333333" lon="-48.63045999999999"><ele>11.2</ele></trkpt><trkpt lat="-27.003370000000004" lon="-48.63046333333333"><ele>10.799999999999999</ele></trkpt><trkpt lat="-27.00337833333333" lon="-48.630469999999995"><ele>10.5</ele></trkpt><trkpt lat="-27.003385" lon="-48.63047666666667"><ele>10</ele></trkpt><trkpt lat="-27.00339" lon="-48.63048333333333"><ele>9.7</ele></trkpt><trkpt lat="-27.003396666666664" lon="-48.63048833333334"><ele>9.7</ele></trkpt><trkpt lat="-27.003400000000003" lon="-48.630489999999995"><ele>9.5</ele></trkpt><trkpt lat="-27.003398333333333" lon="-48.630493333333334"><ele>10.1</ele></trkpt><trkpt lat="-27.003401666666665" lon="-48.630495"><ele>10.4</ele></trkpt><trkpt lat="-27.003400000000003" lon="-48.63049666666667"><ele>10.4</ele></trkpt><trkpt lat="-27.003400000000003" lon="-48.63049833333333"><ele>10.5</ele></trkpt><trkpt lat="-27.003401666666665" lon="-48.6305"><ele>10.4</ele></trkpt><trkpt lat="-27.003401666666665" lon="-48.6305"><ele>10.4</ele></trkpt><trkpt lat="-27.003401666666665" lon="-48.6305"><ele>10.299999999999999</ele></trkpt><trkpt lat="-27.00339166666667" lon="-48.630489999999995"><ele>10.2</ele></trkpt><trkpt lat="-27.00339" lon="-48.63047666666667"><ele>10.1</ele></trkpt><trkpt lat="-27.003383333333332" lon="-48.63046166666666"><ele>10.2</ele></trkpt><trkpt lat="-27.003376666666668" lon="-48.63045333333333"><ele>10.6</ele></trkpt><trkpt lat="-27.003373333333336" lon="-48.630446666666664"><ele>10.9</ele></trkpt><trkpt lat="-27.003371666666666" lon="-48.630446666666664"><ele>10.799999999999999</ele></trkpt><trkpt lat="-27.003371666666666" lon="-48.63045"><ele>10.5</ele></trkpt><trkpt lat="-27.003375" lon="-48.63045166666667"><ele>10.4</ele></trkpt><trkpt lat="-27.00338" lon="-48.63045666666667"><ele>10.4</ele></trkpt><trkpt lat="-27.003388333333337" lon="-48.63046166666666"><ele>10.2</ele></trkpt><trkpt lat="-27.003396666666664" lon="-48.63046666666667"><ele>9.9</ele></trkpt><trkpt lat="-27.00340833333333" lon="-48.63046666666667"><ele>9.5</ele></trkpt><trkpt lat="-27.003421666666668" lon="-48.630465"><ele>9.5</ele></trkpt><trkpt lat="-27.003433333333337" lon="-48.63045999999999"><ele>9.4</ele></trkpt><trkpt lat="-27.00344" lon="-48.63045166666667"><ele>9.4</ele></trkpt><trkpt lat="-27.003443333333333" lon="-48.63044166666667"><ele>9.2</ele></trkpt><trkpt lat="-27.003446666666665" lon="-48.63042833333334"><ele>9.1</ele></trkpt><trkpt lat="-27.003448333333335" lon="-48.63041666666666"><ele>9.4</ele></trkpt><trkpt lat="-27.003446666666665" lon="-48.63040833333333"><ele>9.6</ele></trkpt><trkpt lat="-27.003445000000003" lon="-48.630399999999995"><ele>9.9</ele></trkpt><trkpt lat="-27.003441666666664" lon="-48.630395"><ele>10.1</ele></trkpt><trkpt lat="-27.00343833333333" lon="-48.630391666666675"><ele>10.6</ele></trkpt><trkpt lat="-27.00343833333333" lon="-48.630391666666675"><ele>11.2</ele></trkpt><trkpt lat="-27.00344" lon="-48.630391666666675"><ele>11.5</ele></trkpt><trkpt lat="-27.003441666666664" lon="-48.63039333333333"><ele>11.9</ele></trkpt><trkpt lat="-27.00344" lon="-48.630391666666675"><ele>11.9</ele></trkpt><trkpt lat="-27.00343833333333" lon="-48.630391666666675"><ele>11.6</ele></trkpt><trkpt lat="-27.003435" lon="-48.630391666666675"><ele>11.4</ele></trkpt><trkpt lat="-27.00343" lon="-48.63039666666667"><ele>11.6</ele></trkpt><trkpt lat="-27.003426666666662" lon="-48.630399999999995"><ele>11.6</ele></trkpt><trkpt lat="-27.003426666666662" lon="-48.630399999999995"><ele>11.6</ele></trkpt><trkpt lat="-27.003426666666662" lon="-48.630399999999995"><ele>11.6</ele></trkpt><trkpt lat="-27.003426666666662" lon="-48.630399999999995"><ele>11.6</ele></trkpt><trkpt lat="-27.003426666666662" lon="-48.630399999999995"><ele>11.6</ele></trkpt><trkpt lat="-27.003426666666662" lon="-48.630399999999995"><ele>11.6</ele></trkpt><trkpt lat="-27.003455" lon="-48.63039833333334"><ele>11.799999999999999</ele></trkpt><trkpt lat="-27.003460000000004" lon="-48.63039833333334"><ele>12.1</ele></trkpt><trkpt lat="-27.003461666666666" lon="-48.630403333333334"><ele>12</ele></trkpt><trkpt lat="-27.003463333333336" lon="-48.630403333333334"><ele>12</ele></trkpt><trkpt lat="-27.003463333333336" lon="-48.630403333333334"><ele>12</ele></trkpt><trkpt lat="-27.003463333333336" lon="-48.630403333333334"><ele>12</ele></trkpt><trkpt lat="-27.003463333333336" lon="-48.630403333333334"><ele>12</ele></trkpt><trkpt lat="-27.003463333333336" lon="-48.630403333333334"><ele>12</ele></trkpt><trkpt lat="-27.003463333333336" lon="-48.630403333333334"><ele>12</ele></trkpt><trkpt lat="-27.003463333333336" lon="-48.630403333333334"><ele>12</ele></trkpt><trkpt lat="-27.003463333333336" lon="-48.630403333333334"><ele>12</ele></trkpt><trkpt lat="-27.003463333333336" lon="-48.630403333333334"><ele>12</ele></trkpt><trkpt lat="-27.003463333333336" lon="-48.630403333333334"><ele>12</ele></trkpt><trkpt lat="-27.003463333333336" lon="-48.630403333333334"><ele>12</ele></trkpt><trkpt lat="-27.003463333333336" lon="-48.630403333333334"><ele>12</ele></trkpt><trkpt lat="-27.003463333333336" lon="-48.630403333333334"><ele>12</ele></trkpt><trkpt lat="-27.003463333333336" lon="-48.630403333333334"><ele>12</ele></trkpt><trkpt lat="-27.003463333333336" lon="-48.630403333333334"><ele>12</ele></trkpt><trkpt lat="-27.003463333333336" lon="-48.630403333333334"><ele>12</ele></trkpt><trkpt lat="-27.003463333333336" lon="-48.630403333333334"><ele>12</ele></trkpt><trkpt lat="-27.003463333333336" lon="-48.630403333333334"><ele>12</ele></trkpt><trkpt lat="-27.003463333333336" lon="-48.630403333333334"><ele>12</ele></trkpt><trkpt lat="-27.003463333333336" lon="-48.630403333333334"><ele>12</ele></trkpt><trkpt lat="-27.003463333333336" lon="-48.630403333333334"><ele>12</ele></trkpt><trkpt lat="-27.003463333333336" lon="-48.630403333333334"><ele>12</ele></trkpt><trkpt lat="-27.003463333333336" lon="-48.630403333333334"><ele>12</ele></trkpt><trkpt lat="-27.003463333333336" lon="-48.630403333333334"><ele>12</ele></trkpt><trkpt lat="-27.003463333333336" lon="-48.630403333333334"><ele>12</ele></trkpt><trkpt lat="-27.003463333333336" lon="-48.630403333333334"><ele>12</ele></trkpt><trkpt lat="-27.003463333333336" lon="-48.630403333333334"><ele>12</ele></trkpt><trkpt lat="-27.003463333333336" lon="-48.630403333333334"><ele>12</ele></trkpt><trkpt lat="-27.003463333333336" lon="-48.630403333333334"><ele>12</ele></trkpt><trkpt lat="-27.003463333333336" lon="-48.630403333333334"><ele>12</ele></trkpt><trkpt lat="-27.003463333333336" lon="-48.630403333333334"><ele>12</ele></trkpt><trkpt lat="-27.003463333333336" lon="-48.630403333333334"><ele>12</ele></trkpt><trkpt lat="-27.003463333333336" lon="-48.630403333333334"><ele>12</ele></trkpt><trkpt lat="-27.003463333333336" lon="-48.630403333333334"><ele>12</ele></trkpt><trkpt lat="-27.003463333333336" lon="-48.630403333333334"><ele>12</ele></trkpt><trkpt lat="-27.00346833333333" lon="-48.630405"><ele>10.6</ele></trkpt><trkpt lat="-27.00348" lon="-48.63041333333334"><ele>10.9</ele></trkpt><trkpt lat="-27.003493333333335" lon="-48.630423333333326"><ele>11.6</ele></trkpt><trkpt lat="-27.003505000000004" lon="-48.63043166666667"><ele>12.4</ele></trkpt><trkpt lat="-27.003523333333337" lon="-48.630435000000006"><ele>12.799999999999999</ele></trkpt><trkpt lat="-27.003538333333335" lon="-48.63043"><ele>12.5</ele></trkpt><trkpt lat="-27.003551666666667" lon="-48.63042"><ele>11.799999999999999</ele></trkpt><trkpt lat="-27.003566666666664" lon="-48.63041166666667"><ele>11.2</ele></trkpt><trkpt lat="-27.003578333333333" lon="-48.63041"><ele>10.6</ele></trkpt><trkpt lat="-27.00359" lon="-48.63040833333333"><ele>9.6</ele></trkpt><trkpt lat="-27.00360166666667" lon="-48.630405"><ele>9.3</ele></trkpt><trkpt lat="-27.003610000000002" lon="-48.630405"><ele>8.8</ele></trkpt><trkpt lat="-27.003613333333337" lon="-48.630405"><ele>8.7</ele></trkpt><trkpt lat="-27.003613333333337" lon="-48.63040666666667"><ele>8.5</ele></trkpt><trkpt lat="-27.003615" lon="-48.63040833333333"><ele>8.3</ele></trkpt><trkpt lat="-27.003615" lon="-48.63040833333333"><ele>8.3</ele></trkpt><trkpt lat="-27.003618333333332" lon="-48.63040833333333"><ele>7.9</ele></trkpt><trkpt lat="-27.00362" lon="-48.63041"><ele>7.4</ele></trkpt><trkpt lat="-27.003618333333332" lon="-48.63041166666667"><ele>7.199999999999999</ele></trkpt><trkpt lat="-27.003623333333334" lon="-48.63041333333334"><ele>7.4</ele></trkpt><trkpt lat="-27.003623333333334" lon="-48.63041166666667"><ele>7.5</ele></trkpt><trkpt lat="-27.003625000000003" lon="-48.63041499999999"><ele>8.1</ele></trkpt><trkpt lat="-27.003625000000003" lon="-48.63041499999999"><ele>8.1</ele></trkpt><trkpt lat="-27.003638333333335" lon="-48.63041499999999"><ele>8.7</ele></trkpt><trkpt lat="-27.00364833333333" lon="-48.63041499999999"><ele>8.8</ele></trkpt><trkpt lat="-27.003665" lon="-48.63042"><ele>8.8</ele></trkpt><trkpt lat="-27.003674999999998" lon="-48.63042666666667"><ele>8.8</ele></trkpt><trkpt lat="-27.003686666666667" lon="-48.630424999999995"><ele>9.4</ele></trkpt><trkpt lat="-27.003695" lon="-48.63042166666667"><ele>9.7</ele></trkpt><trkpt lat="-27.003703333333338" lon="-48.63041833333333"><ele>10</ele></trkpt><trkpt lat="-27.003703333333338" lon="-48.63041499999999"><ele>10.299999999999999</ele></trkpt><trkpt lat="-27.003701666666664" lon="-48.63041499999999"><ele>10.299999999999999</ele></trkpt><trkpt lat="-27.003701666666664" lon="-48.63041333333334"><ele>10.1</ele></trkpt><trkpt lat="-27.003695" lon="-48.63041666666666"><ele>10.1</ele></trkpt><trkpt lat="-27.00369166666667" lon="-48.63041833333333"><ele>10.299999999999999</ele></trkpt><trkpt lat="-27.00369" lon="-48.63042"><ele>10.5</ele></trkpt><trkpt lat="-27.003685000000004" lon="-48.63042166666667"><ele>10.799999999999999</ele></trkpt><trkpt lat="-27.003683333333335" lon="-48.630424999999995"><ele>10.799999999999999</ele></trkpt><trkpt lat="-27.00368166666666" lon="-48.63042833333334"><ele>10.5</ele></trkpt><trkpt lat="-27.00368166666666" lon="-48.63042833333334"><ele>10.5</ele></trkpt><trkpt lat="-27.00368166666666" lon="-48.63042833333334"><ele>10.5</ele></trkpt><trkpt lat="-27.00368166666666" lon="-48.63042833333334"><ele>10.5</ele></trkpt><trkpt lat="-27.00368166666666" lon="-48.63042833333334"><ele>10.5</ele></trkpt><trkpt lat="-27.00368166666666" lon="-48.63042833333334"><ele>10.5</ele></trkpt><trkpt lat="-27.00368166666666" lon="-48.63042833333334"><ele>10.5</ele></trkpt><trkpt lat="-27.00368166666666" lon="-48.63042833333334"><ele>10.5</ele></trkpt><trkpt lat="-27.00368166666666" lon="-48.63042833333334"><ele>10.5</ele></trkpt><trkpt lat="-27.00368166666666" lon="-48.63042833333334"><ele>10.5</ele></trkpt><trkpt lat="-27.00368166666666" lon="-48.63042833333334"><ele>10.5</ele></trkpt><trkpt lat="-27.00368166666666" lon="-48.63042833333334"><ele>10.5</ele></trkpt><trkpt lat="-27.003670000000003" lon="-48.63045166666667"><ele>6.9</ele></trkpt><trkpt lat="-27.00367833333333" lon="-48.63045333333333"><ele>6.6</ele></trkpt><trkpt lat="-27.003685000000004" lon="-48.63045"><ele>6.5</ele></trkpt><trkpt lat="-27.00369333333333" lon="-48.630446666666664"><ele>6.4</ele></trkpt><trkpt lat="-27.003700000000002" lon="-48.63044166666667"><ele>6.300000000000001</ele></trkpt><trkpt lat="-27.003705" lon="-48.63043833333333"><ele>6.4</ele></trkpt><trkpt lat="-27.003708333333332" lon="-48.630436666666675"><ele>6.4</ele></trkpt><trkpt lat="-27.00371" lon="-48.630433333333336"><ele>6.199999999999999</ele></trkpt><trkpt lat="-27.003711666666664" lon="-48.63043166666667"><ele>6</ele></trkpt><trkpt lat="-27.003711666666664" lon="-48.63043166666667"><ele>6</ele></trkpt><trkpt lat="-27.003713333333334" lon="-48.63043166666667"><ele>5.800000000000001</ele></trkpt><trkpt lat="-27.003713333333334" lon="-48.63043"><ele>5.699999999999999</ele></trkpt><trkpt lat="-27.003713333333334" lon="-48.63042833333334"><ele>5.5</ele></trkpt><trkpt lat="-27.003713333333334" lon="-48.63042833333334"><ele>5.5</ele></trkpt><trkpt lat="-27.003713333333334" lon="-48.63042833333334"><ele>5.5</ele></trkpt><trkpt lat="-27.003713333333334" lon="-48.63042833333334"><ele>5.5</ele></trkpt><trkpt lat="-27.003713333333334" lon="-48.63042833333334"><ele>5.5</ele></trkpt><trkpt lat="-27.003713333333334" lon="-48.63042833333334"><ele>5.5</ele></trkpt><trkpt lat="-27.003713333333334" lon="-48.63042833333334"><ele>5.5</ele></trkpt><trkpt lat="-27.003713333333334" lon="-48.63042833333334"><ele>5.5</ele></trkpt><trkpt lat="-27.003716666666666" lon="-48.630424999999995"><ele>5.2</ele></trkpt><trkpt lat="-27.003705" lon="-48.63042166666667"><ele>5.300000000000001</ele></trkpt><trkpt lat="-27.003696666666663" lon="-48.63042"><ele>5.2</ele></trkpt><trkpt lat="-27.00369166666667" lon="-48.63041499999999"><ele>5.2</ele></trkpt><trkpt lat="-27.00369166666667" lon="-48.63041"><ele>5.300000000000001</ele></trkpt><trkpt lat="-27.003696666666663" lon="-48.630401666666664"><ele>5.4</ele></trkpt><trkpt lat="-27.00369333333333" lon="-48.630399999999995"><ele>5.6</ele></trkpt><trkpt lat="-27.003695" lon="-48.630399999999995"><ele>5.5</ele></trkpt><trkpt lat="-27.00369333333333" lon="-48.63039833333334"><ele>5.699999999999999</ele></trkpt><trkpt lat="-27.00369166666667" lon="-48.63039666666667"><ele>5.6</ele></trkpt><trkpt lat="-27.003695" lon="-48.63039333333333"><ele>5.800000000000001</ele></trkpt><trkpt lat="-27.003698333333332" lon="-48.63039333333333"><ele>5.699999999999999</ele></trkpt><trkpt lat="-27.003701666666664" lon="-48.630388333333336"><ele>5.5</ele></trkpt><trkpt lat="-27.003708333333332" lon="-48.630386666666666"><ele>5.5</ele></trkpt><trkpt lat="-27.003716666666666" lon="-48.63038333333334"><ele>5.5</ele></trkpt><trkpt lat="-27.00372666666666" lon="-48.63038333333334"><ele>5.5</ele></trkpt><trkpt lat="-27.003735" lon="-48.63038333333334"><ele>5.5</ele></trkpt><trkpt lat="-27.00374" lon="-48.63038333333334"><ele>5.699999999999999</ele></trkpt><trkpt lat="-27.003746666666665" lon="-48.630385"><ele>5.699999999999999</ele></trkpt><trkpt lat="-27.00375" lon="-48.630385"><ele>5.5</ele></trkpt><trkpt lat="-27.003755" lon="-48.630386666666666"><ele>5.5</ele></trkpt><trkpt lat="-27.003761666666666" lon="-48.630386666666666"><ele>5.4</ele></trkpt><trkpt lat="-27.00376833333333" lon="-48.630386666666666"><ele>5.300000000000001</ele></trkpt><trkpt lat="-27.003771666666662" lon="-48.630388333333336"><ele>5.300000000000001</ele></trkpt><trkpt lat="-27.003773333333335" lon="-48.630388333333336"><ele>5.300000000000001</ele></trkpt><trkpt lat="-27.00378333333333" lon="-48.630390000000006"><ele>5.4</ele></trkpt><trkpt lat="-27.003788333333333" lon="-48.630391666666675"><ele>5.5</ele></trkpt><trkpt lat="-27.003795" lon="-48.630395"><ele>5.6</ele></trkpt><trkpt lat="-27.003806666666666" lon="-48.630395"><ele>5.800000000000001</ele></trkpt><trkpt lat="-27.003809999999998" lon="-48.630391666666675"><ele>5.6</ele></trkpt><trkpt lat="-27.003806666666666" lon="-48.63039333333333"><ele>5.699999999999999</ele></trkpt><trkpt lat="-27.003806666666666" lon="-48.630395"><ele>5.6</ele></trkpt><trkpt lat="-27.003805000000003" lon="-48.630395"><ele>5.5</ele></trkpt><trkpt lat="-27.003803333333334" lon="-48.63039666666667"><ele>5.4</ele></trkpt><trkpt lat="-27.003803333333334" lon="-48.63039833333334"><ele>5.300000000000001</ele></trkpt><trkpt lat="-27.003805000000003" lon="-48.630401666666664"><ele>5.4</ele></trkpt><trkpt lat="-27.003805000000003" lon="-48.630401666666664"><ele>5.300000000000001</ele></trkpt><trkpt lat="-27.003803333333334" lon="-48.630401666666664"><ele>5.2</ele></trkpt><trkpt lat="-27.003806666666666" lon="-48.63040666666667"><ele>5.6</ele></trkpt><trkpt lat="-27.003806666666666" lon="-48.630405"><ele>5.800000000000001</ele></trkpt><trkpt lat="-27.00381333333333" lon="-48.63040833333333"><ele>5.9</ele></trkpt><trkpt lat="-27.00381333333333" lon="-48.63040833333333"><ele>5.9</ele></trkpt><trkpt lat="-27.00381333333333" lon="-48.63040833333333"><ele>5.9</ele></trkpt><trkpt lat="-27.00381333333333" lon="-48.63040833333333"><ele>5.9</ele></trkpt><trkpt lat="-27.00381333333333" lon="-48.63040833333333"><ele>5.9</ele></trkpt><trkpt lat="-27.00381333333333" lon="-48.63040833333333"><ele>5.9</ele></trkpt><trkpt lat="-27.00381333333333" lon="-48.63040833333333"><ele>5.9</ele></trkpt><trkpt lat="-27.00381333333333" lon="-48.63040833333333"><ele>5.9</ele></trkpt><trkpt lat="-27.00381333333333" lon="-48.63040833333333"><ele>5.9</ele></trkpt><trkpt lat="-27.00381333333333" lon="-48.63040833333333"><ele>5.9</ele></trkpt><trkpt lat="-27.00381333333333" lon="-48.63040833333333"><ele>5.9</ele></trkpt><trkpt lat="-27.00381333333333" lon="-48.63040833333333"><ele>5.9</ele></trkpt><trkpt lat="-27.00381333333333" lon="-48.63040833333333"><ele>5.9</ele></trkpt><trkpt lat="-27.003785" lon="-48.63042166666667"><ele>5.4</ele></trkpt><trkpt lat="-27.003771666666662" lon="-48.63041666666666"><ele>5.2</ele></trkpt><trkpt lat="-27.003761666666666" lon="-48.63041333333334"><ele>5</ele></trkpt><trkpt lat="-27.003753333333332" lon="-48.63041"><ele>5</ele></trkpt><trkpt lat="-27.00374" lon="-48.63039833333334"><ele>4.5</ele></trkpt><trkpt lat="-27.003731666666667" lon="-48.63039333333333"><ele>4.4</ele></trkpt><trkpt lat="-27.00372333333333" lon="-48.630390000000006"><ele>4.1</ele></trkpt><trkpt lat="-27.00372333333333" lon="-48.630390000000006"><ele>4.1</ele></trkpt><trkpt lat="-27.003711666666664" lon="-48.63037666666667"><ele>4.300000000000001</ele></trkpt><trkpt lat="-27.003711666666664" lon="-48.63037666666667"><ele>4.300000000000001</ele></trkpt><trkpt lat="-27.003705" lon="-48.63036833333334"><ele>4.9</ele></trkpt><trkpt lat="-27.003695" lon="-48.630365"><ele>5.5</ele></trkpt><trkpt lat="-27.00369166666667" lon="-48.63036333333333"><ele>5.699999999999999</ele></trkpt><trkpt lat="-27.003688333333336" lon="-48.63036666666667"><ele>6</ele></trkpt><trkpt lat="-27.003683333333335" lon="-48.63036833333334"><ele>6.199999999999999</ele></trkpt><trkpt lat="-27.00369" lon="-48.630378333333326"><ele>6.4</ele></trkpt><trkpt lat="-27.00369166666667" lon="-48.63038166666667"><ele>6.5</ele></trkpt><trkpt lat="-27.003698333333332" lon="-48.630385"><ele>6.800000000000001</ele></trkpt><trkpt lat="-27.003700000000002" lon="-48.630385"><ele>6.9</ele></trkpt><trkpt lat="-27.003703333333338" lon="-48.630385"><ele>7.1</ele></trkpt><trkpt lat="-27.003703333333338" lon="-48.630385"><ele>7.699999999999999</ele></trkpt><trkpt lat="-27.003708333333332" lon="-48.630386666666666"><ele>7.800000000000001</ele></trkpt><trkpt lat="-27.00371" lon="-48.630388333333336"><ele>7.800000000000001</ele></trkpt><trkpt lat="-27.00371" lon="-48.630388333333336"><ele>7.800000000000001</ele></trkpt><trkpt lat="-27.00371" lon="-48.630388333333336"><ele>7.800000000000001</ele></trkpt><trkpt lat="-27.00371" lon="-48.630388333333336"><ele>7.800000000000001</ele></trkpt><trkpt lat="-27.00371" lon="-48.630388333333336"><ele>7.800000000000001</ele></trkpt><trkpt lat="-27.00371" lon="-48.630388333333336"><ele>7.800000000000001</ele></trkpt><trkpt lat="-27.00371" lon="-48.630388333333336"><ele>7.800000000000001</ele></trkpt><trkpt lat="-27.00371" lon="-48.630388333333336"><ele>7.800000000000001</ele></trkpt><trkpt lat="-27.00371" lon="-48.630388333333336"><ele>7.800000000000001</ele></trkpt><trkpt lat="-27.00372333333333" lon="-48.63042666666667"><ele>7.699999999999999</ele></trkpt><trkpt lat="-27.003728333333335" lon="-48.63042833333334"><ele>7.699999999999999</ele></trkpt><trkpt lat="-27.003731666666667" lon="-48.63042833333334"><ele>7.6</ele></trkpt><trkpt lat="-27.00373666666667" lon="-48.63043"><ele>7.300000000000001</ele></trkpt><trkpt lat="-27.00373833333333" lon="-48.63043166666667"><ele>7</ele></trkpt><trkpt lat="-27.00373833333333" lon="-48.63043166666667"><ele>7</ele></trkpt><trkpt lat="-27.00373833333333" lon="-48.63043166666667"><ele>7</ele></trkpt><trkpt lat="-27.00373833333333" lon="-48.63043166666667"><ele>7</ele></trkpt><trkpt lat="-27.00373833333333" lon="-48.63043166666667"><ele>7</ele></trkpt><trkpt lat="-27.00373833333333" lon="-48.63043166666667"><ele>7</ele></trkpt><trkpt lat="-27.00373833333333" lon="-48.63043166666667"><ele>7</ele></trkpt><trkpt lat="-27.00373833333333" lon="-48.63043166666667"><ele>7</ele></trkpt><trkpt lat="-27.00373833333333" lon="-48.63043166666667"><ele>7</ele></trkpt><trkpt lat="-27.00373833333333" lon="-48.63043166666667"><ele>7</ele></trkpt><trkpt lat="-27.00373833333333" lon="-48.63043166666667"><ele>7</ele></trkpt><trkpt lat="-27.00373833333333" lon="-48.63043166666667"><ele>7</ele></trkpt><trkpt lat="-27.00373833333333" lon="-48.63043166666667"><ele>7</ele></trkpt><trkpt lat="-27.00373833333333" lon="-48.63043166666667"><ele>7</ele></trkpt><trkpt lat="-27.00373833333333" lon="-48.63043166666667"><ele>7</ele></trkpt><trkpt lat="-27.003731666666667" lon="-48.630436666666675"><ele>5.6</ele></trkpt><trkpt lat="-27.00372333333333" lon="-48.630435000000006"><ele>5.5</ele></trkpt><trkpt lat="-27.003716666666666" lon="-48.63043166666667"><ele>5.4</ele></trkpt><trkpt lat="-27.003715000000003" lon="-48.63043"><ele>5.4</ele></trkpt><trkpt lat="-27.003711666666664" lon="-48.63043"><ele>5.5</ele></trkpt><trkpt lat="-27.00371" lon="-48.63043166666667"><ele>5.4</ele></trkpt><trkpt lat="-27.003703333333338" lon="-48.630435000000006"><ele>5.300000000000001</ele></trkpt><trkpt lat="-27.003695" lon="-48.630436666666675"><ele>5.4</ele></trkpt><trkpt lat="-27.00369166666667" lon="-48.630436666666675"><ele>5.5</ele></trkpt><trkpt lat="-27.003685000000004" lon="-48.630436666666675"><ele>5.4</ele></trkpt><trkpt lat="-27.00368" lon="-48.63043166666667"><ele>5.4</ele></trkpt><trkpt lat="-27.00368" lon="-48.63042833333334"><ele>5.300000000000001</ele></trkpt><trkpt lat="-27.00367833333333" lon="-48.630423333333326"><ele>5.300000000000001</ele></trkpt><trkpt lat="-27.00367833333333" lon="-48.630423333333326"><ele>5.300000000000001</ele></trkpt><trkpt lat="-27.00367833333333" lon="-48.630423333333326"><ele>5.300000000000001</ele></trkpt><trkpt lat="-27.00367833333333" lon="-48.630423333333326"><ele>5.300000000000001</ele></trkpt><trkpt lat="-27.00367833333333" lon="-48.630423333333326"><ele>5.300000000000001</ele></trkpt><trkpt lat="-27.00369" lon="-48.630433333333336"><ele>4.9</ele></trkpt><trkpt lat="-27.003695" lon="-48.63044"><ele>4.7</ele></trkpt><trkpt lat="-27.00370666666667" lon="-48.63044333333334"><ele>4.7</ele></trkpt><trkpt lat="-27.003715000000003" lon="-48.630444999999995"><ele>4.6</ele></trkpt><trkpt lat="-27.003725" lon="-48.630448333333334"><ele>4.7</ele></trkpt><trkpt lat="-27.00373833333333" lon="-48.63045166666667"><ele>4.7</ele></trkpt><trkpt lat="-27.00375" lon="-48.63045333333333"><ele>4.800000000000001</ele></trkpt><trkpt lat="-27.003761666666666" lon="-48.630455"><ele>4.9</ele></trkpt><trkpt lat="-27.00377" lon="-48.630455"><ele>5.2</ele></trkpt><trkpt lat="-27.003775000000005" lon="-48.63045333333333"><ele>5.4</ele></trkpt><trkpt lat="-27.00378166666667" lon="-48.630455"><ele>5.5</ele></trkpt><trkpt lat="-27.003790000000002" lon="-48.630455"><ele>5.4</ele></trkpt><trkpt lat="-27.003803333333334" lon="-48.63045999999999"><ele>5.699999999999999</ele></trkpt><trkpt lat="-27.003815" lon="-48.63046166666666"><ele>5.800000000000001</ele></trkpt><trkpt lat="-27.00382833333333" lon="-48.63046333333333"><ele>5.800000000000001</ele></trkpt><trkpt lat="-27.00384" lon="-48.630468333333326"><ele>5.5</ele></trkpt><trkpt lat="-27.003856666666668" lon="-48.630468333333326"><ele>5.300000000000001</ele></trkpt><trkpt lat="-27.00387166666667" lon="-48.630475"><ele>5.300000000000001</ele></trkpt><trkpt lat="-27.003890000000002" lon="-48.630481666666675"><ele>4.9</ele></trkpt><trkpt lat="-27.003908333333335" lon="-48.63048666666667"><ele>4.9</ele></trkpt><trkpt lat="-27.00393" lon="-48.630489999999995"><ele>4.800000000000001</ele></trkpt><trkpt lat="-27.003958333333337" lon="-48.630489999999995"><ele>4.9</ele></trkpt><trkpt lat="-27.003980000000002" lon="-48.63048833333334"><ele>5.2</ele></trkpt><trkpt lat="-27.003996666666662" lon="-48.630489999999995"><ele>5.1</ele></trkpt><trkpt lat="-27.004013333333333" lon="-48.630493333333334"><ele>4.800000000000001</ele></trkpt><trkpt lat="-27.004023333333333" lon="-48.63049833333333"><ele>4.5</ele></trkpt><trkpt lat="-27.004025000000002" lon="-48.63049666666667"><ele>4.4</ele></trkpt><trkpt lat="-27.004025000000002" lon="-48.63049666666667"><ele>4.2</ele></trkpt><trkpt lat="-27.00402166666667" lon="-48.63049833333333"><ele>4.1</ele></trkpt><trkpt lat="-27.004013333333333" lon="-48.63049666666667"><ele>3.8000000000000003</ele></trkpt><trkpt lat="-27.004001666666667" lon="-48.630493333333334"><ele>3.7</ele></trkpt><trkpt lat="-27.003989999999998" lon="-48.630489999999995"><ele>3.7</ele></trkpt><trkpt lat="-27.003978333333333" lon="-48.63048666666667"><ele>3.9</ele></trkpt><trkpt lat="-27.003966666666663" lon="-48.630485"><ele>4.1</ele></trkpt><trkpt lat="-27.003954999999998" lon="-48.63048666666667"><ele>4.2</ele></trkpt><trkpt lat="-27.003941666666666" lon="-48.63048333333333"><ele>4.300000000000001</ele></trkpt><trkpt lat="-27.00393166666667" lon="-48.63048666666667"><ele>4.300000000000001</ele></trkpt><trkpt lat="-27.003924999999995" lon="-48.63048833333334"><ele>4.300000000000001</ele></trkpt><trkpt lat="-27.00391833333333" lon="-48.630485"><ele>4.4</ele></trkpt><trkpt lat="-27.003909999999998" lon="-48.63048333333333"><ele>4.5</ele></trkpt><trkpt lat="-27.003901666666668" lon="-48.630478333333336"><ele>4.6</ele></trkpt><trkpt lat="-27.003909999999998" lon="-48.630480000000006"><ele>4.9</ele></trkpt><trkpt lat="-27.00392" lon="-48.630485"><ele>5.699999999999999</ele></trkpt><trkpt lat="-27.003938333333334" lon="-48.63048833333334"><ele>6.4</ele></trkpt><trkpt lat="-27.00394833333333" lon="-48.630491666666664"><ele>6.699999999999999</ele></trkpt><trkpt lat="-27.00396" lon="-48.63048666666667"><ele>7</ele></trkpt><trkpt lat="-27.003975" lon="-48.63048666666667"><ele>7.4</ele></trkpt><trkpt lat="-27.003989999999998" lon="-48.63048833333334"><ele>7.800000000000001</ele></trkpt><trkpt lat="-27.004001666666667" lon="-48.63048833333334"><ele>7.9</ele></trkpt><trkpt lat="-27.004011666666663" lon="-48.630491666666664"><ele>8</ele></trkpt><trkpt lat="-27.004016666666665" lon="-48.6305"><ele>8.1</ele></trkpt><trkpt lat="-27.004016666666665" lon="-48.63049666666667"><ele>8.4</ele></trkpt><trkpt lat="-27.00402" lon="-48.63049666666667"><ele>8.6</ele></trkpt><trkpt lat="-27.00402166666667" lon="-48.63049833333333"><ele>8.8</ele></trkpt><trkpt lat="-27.004025000000002" lon="-48.63049833333333"><ele>8.9</ele></trkpt><trkpt lat="-27.004028333333334" lon="-48.6305"><ele>9.2</ele></trkpt><trkpt lat="-27.004029999999997" lon="-48.63050833333333"><ele>9.3</ele></trkpt><trkpt lat="-27.004031666666666" lon="-48.63052"><ele>9.3</ele></trkpt><trkpt lat="-27.004031666666666" lon="-48.63053"><ele>9.5</ele></trkpt><trkpt lat="-27.004029999999997" lon="-48.630534999999995"><ele>9.4</ele></trkpt><trkpt lat="-27.004031666666666" lon="-48.630536666666664"><ele>9.4</ele></trkpt><trkpt lat="-27.004033333333336" lon="-48.63053333333334"><ele>9.5</ele></trkpt><trkpt lat="-27.004035" lon="-48.630526666666675"><ele>9.4</ele></trkpt><trkpt lat="-27.004035" lon="-48.63052166666667"><ele>9.4</ele></trkpt><trkpt lat="-27.004033333333336" lon="-48.63051666666667"><ele>9.3</ele></trkpt><trkpt lat="-27.004033333333336" lon="-48.63051666666667"><ele>9.3</ele></trkpt><trkpt lat="-27.004033333333336" lon="-48.63051666666667"><ele>9.3</ele></trkpt><trkpt lat="-27.004033333333336" lon="-48.630513333333326"><ele>9.1</ele></trkpt><trkpt lat="-27.004033333333336" lon="-48.63051"><ele>8.9</ele></trkpt><trkpt lat="-27.004031666666666" lon="-48.63050666666666"><ele>8.8</ele></trkpt><trkpt lat="-27.004028333333334" lon="-48.63050666666666"><ele>8.6</ele></trkpt><trkpt lat="-27.004028333333334" lon="-48.63050666666666"><ele>8.6</ele></trkpt><trkpt lat="-27.004025000000002" lon="-48.63050666666666"><ele>8.4</ele></trkpt><trkpt lat="-27.004025000000002" lon="-48.63050666666666"><ele>8.4</ele></trkpt><trkpt lat="-27.00402" lon="-48.63050499999999"><ele>8.3</ele></trkpt><trkpt lat="-27.00402" lon="-48.63050499999999"><ele>8.3</ele></trkpt><trkpt lat="-27.00402" lon="-48.63050499999999"><ele>8.3</ele></trkpt><trkpt lat="-27.00402" lon="-48.63050499999999"><ele>8.3</ele></trkpt><trkpt lat="-27.00402" lon="-48.63050499999999"><ele>8.3</ele></trkpt><trkpt lat="-27.00402" lon="-48.63050499999999"><ele>8.3</ele></trkpt><trkpt lat="-27.00402" lon="-48.63050499999999"><ele>8.3</ele></trkpt><trkpt lat="-27.00402" lon="-48.63050499999999"><ele>8.3</ele></trkpt><trkpt lat="-27.00402" lon="-48.63050499999999"><ele>8.3</ele></trkpt><trkpt lat="-27.00402" lon="-48.63050499999999"><ele>8.3</ele></trkpt><trkpt lat="-27.00402" lon="-48.63050499999999"><ele>8.3</ele></trkpt><trkpt lat="-27.00402" lon="-48.63050499999999"><ele>8.3</ele></trkpt><trkpt lat="-27.00402" lon="-48.63050499999999"><ele>8.3</ele></trkpt><trkpt lat="-27.00402" lon="-48.63050499999999"><ele>8.3</ele></trkpt><trkpt lat="-27.00402" lon="-48.63050499999999"><ele>8.3</ele></trkpt><trkpt lat="-27.00402" lon="-48.63050499999999"><ele>8.3</ele></trkpt><trkpt lat="-27.00400666666667" lon="-48.630495"><ele>8</ele></trkpt><trkpt lat="-27.004005" lon="-48.630495"><ele>8.2</ele></trkpt><trkpt lat="-27.004005" lon="-48.6305"><ele>8.2</ele></trkpt><trkpt lat="-27.004005" lon="-48.63050166666667"><ele>8.3</ele></trkpt><trkpt lat="-27.004005" lon="-48.63050166666667"><ele>8.3</ele></trkpt><trkpt lat="-27.004005" lon="-48.63050166666667"><ele>8.3</ele></trkpt><trkpt lat="-27.004005" lon="-48.63050166666667"><ele>8.3</ele></trkpt><trkpt lat="-27.004005" lon="-48.63050166666667"><ele>8.3</ele></trkpt><trkpt lat="-27.003989999999998" lon="-48.63050333333334"><ele>8.3</ele></trkpt><trkpt lat="-27.003980000000002" lon="-48.63050333333334"><ele>8.8</ele></trkpt><trkpt lat="-27.003975" lon="-48.63050166666667"><ele>8.9</ele></trkpt><trkpt lat="-27.003971666666665" lon="-48.6305"><ele>9</ele></trkpt><trkpt lat="-27.003968333333333" lon="-48.6305"><ele>9.1</ele></trkpt><trkpt lat="-27.003968333333333" lon="-48.6305"><ele>9.2</ele></trkpt><trkpt lat="-27.003969999999995" lon="-48.63050166666667"><ele>9.6</ele></trkpt><trkpt lat="-27.003971666666665" lon="-48.6305"><ele>9.799999999999999</ele></trkpt><trkpt lat="-27.003971666666665" lon="-48.630495"><ele>10</ele></trkpt><trkpt lat="-27.003968333333333" lon="-48.630495"><ele>10</ele></trkpt><trkpt lat="-27.003968333333333" lon="-48.630493333333334"><ele>10</ele></trkpt><trkpt lat="-27.003968333333333" lon="-48.630495"><ele>10</ele></trkpt><trkpt lat="-27.003971666666665" lon="-48.63049666666667"><ele>10.1</ele></trkpt><trkpt lat="-27.003975" lon="-48.63049666666667"><ele>10.2</ele></trkpt><trkpt lat="-27.003984999999997" lon="-48.63049833333333"><ele>10.2</ele></trkpt><trkpt lat="-27.003995" lon="-48.63050166666667"><ele>10.5</ele></trkpt><trkpt lat="-27.004005" lon="-48.63050499999999"><ele>10.5</ele></trkpt><trkpt lat="-27.004013333333333" lon="-48.63050833333333"><ele>10.5</ele></trkpt><trkpt lat="-27.00402166666667" lon="-48.63051"><ele>10.4</ele></trkpt><trkpt lat="-27.004031666666666" lon="-48.63050666666666"><ele>10.5</ele></trkpt><trkpt lat="-27.004041666666662" lon="-48.63050499999999"><ele>10.4</ele></trkpt><trkpt lat="-27.004046666666667" lon="-48.63050333333334"><ele>10.1</ele></trkpt><trkpt lat="-27.004048333333337" lon="-48.63050166666667"><ele>9.799999999999999</ele></trkpt><trkpt lat="-27.00405" lon="-48.63050333333334"><ele>9.7</ele></trkpt><trkpt lat="-27.004048333333337" lon="-48.63050499999999"><ele>9.6</ele></trkpt><trkpt lat="-27.00405" lon="-48.63050499999999"><ele>9.4</ele></trkpt><trkpt lat="-27.00405" lon="-48.63050666666666"><ele>9.3</ele></trkpt><trkpt lat="-27.004044999999998" lon="-48.630513333333326"><ele>9.2</ele></trkpt><trkpt lat="-27.004031666666666" lon="-48.63052"><ele>8.8</ele></trkpt><trkpt lat="-27.004013333333333" lon="-48.630514999999995"><ele>8.6</ele></trkpt><trkpt lat="-27.003995" lon="-48.63051"><ele>8.5</ele></trkpt><trkpt lat="-27.00397666666667" lon="-48.63050333333334"><ele>7.9</ele></trkpt><trkpt lat="-27.003956666666667" lon="-48.630495"><ele>7.699999999999999</ele></trkpt><trkpt lat="-27.003941666666666" lon="-48.63048666666667"><ele>7.6</ele></trkpt><trkpt lat="-27.003926666666665" lon="-48.630478333333336"><ele>7.6</ele></trkpt><trkpt lat="-27.00391833333333" lon="-48.63047333333334"><ele>7.5</ele></trkpt><trkpt lat="-27.003915" lon="-48.63047166666667"><ele>8.1</ele></trkpt><trkpt lat="-27.003898333333336" lon="-48.63046166666666"><ele>8.1</ele></trkpt><trkpt lat="-27.003883333333338" lon="-48.63045166666667"><ele>8.3</ele></trkpt><trkpt lat="-27.003851666666666" lon="-48.63041666666666"><ele>10.5</ele></trkpt><trkpt lat="-27.00382666666667" lon="-48.630403333333334"><ele>9.799999999999999</ele></trkpt><trkpt lat="-27.003801666666664" lon="-48.63039666666667"><ele>9.4</ele></trkpt><trkpt lat="-27.003773333333335" lon="-48.630403333333334"><ele>9</ele></trkpt><trkpt lat="-27.003728333333335" lon="-48.63041"><ele>9.799999999999999</ele></trkpt><trkpt lat="-27.00369166666667" lon="-48.63040666666667"><ele>9.2</ele></trkpt><trkpt lat="-27.003668333333334" lon="-48.630405"><ele>9.2</ele></trkpt><trkpt lat="-27.003645" lon="-48.63040666666667"><ele>9.4</ele></trkpt><trkpt lat="-27.003618333333332" lon="-48.630401666666664"><ele>9.799999999999999</ele></trkpt><trkpt lat="-27.003596666666667" lon="-48.630399999999995"><ele>9.2</ele></trkpt><trkpt lat="-27.003584999999998" lon="-48.630405"><ele>8.9</ele></trkpt><trkpt lat="-27.003576666666664" lon="-48.63041"><ele>8.7</ele></trkpt><trkpt lat="-27.003581666666665" lon="-48.63041833333333"><ele>8.4</ele></trkpt><trkpt lat="-27.00359" lon="-48.630423333333326"><ele>7.9</ele></trkpt><trkpt lat="-27.003598333333336" lon="-48.63042666666667"><ele>7.6</ele></trkpt><trkpt lat="-27.003611666666664" lon="-48.63043166666667"><ele>7.300000000000001</ele></trkpt><trkpt lat="-27.003621666666664" lon="-48.630435000000006"><ele>7.300000000000001</ele></trkpt><trkpt lat="-27.003635" lon="-48.630436666666675"><ele>6.9</ele></trkpt><trkpt lat="-27.003635" lon="-48.630436666666675"><ele>6.9</ele></trkpt><trkpt lat="-27.003651666666663" lon="-48.630444999999995"><ele>7.1</ele></trkpt><trkpt lat="-27.003671666666666" lon="-48.63044333333334"><ele>6.6</ele></trkpt><trkpt lat="-27.00369" lon="-48.63044166666667"><ele>6.699999999999999</ele></trkpt><trkpt lat="-27.003708333333332" lon="-48.63044333333334"><ele>6.6</ele></trkpt><trkpt lat="-27.00372333333333" lon="-48.63045"><ele>6.5</ele></trkpt><trkpt lat="-27.003731666666667" lon="-48.630455"><ele>6.800000000000001</ele></trkpt><trkpt lat="-27.003741666666663" lon="-48.63045999999999"><ele>7.300000000000001</ele></trkpt><trkpt lat="-27.003753333333332" lon="-48.63046666666667"><ele>8.3</ele></trkpt><trkpt lat="-27.003764999999998" lon="-48.630475"><ele>8.9</ele></trkpt><trkpt lat="-27.003778333333337" lon="-48.630485"><ele>9.4</ele></trkpt><trkpt lat="-27.003803333333334" lon="-48.63050166666667"><ele>9.7</ele></trkpt><trkpt lat="-27.003833333333333" lon="-48.630513333333326"><ele>9.4</ele></trkpt><trkpt lat="-27.003854999999998" lon="-48.63051833333334"><ele>9.799999999999999</ele></trkpt><trkpt lat="-27.003878333333333" lon="-48.63052833333333"><ele>10.2</ele></trkpt><trkpt lat="-27.003901666666668" lon="-48.63054333333333"><ele>10.299999999999999</ele></trkpt><trkpt lat="-27.003901666666668" lon="-48.63054333333333"><ele>10.299999999999999</ele></trkpt><trkpt lat="-27.003924999999995" lon="-48.63055166666666"><ele>10.4</ele></trkpt><trkpt lat="-27.00394833333333" lon="-48.63055666666667"><ele>9.7</ele></trkpt><trkpt lat="-27.003958333333337" lon="-48.630559999999996"><ele>7.9</ele></trkpt><trkpt lat="-27.00397666666667" lon="-48.63055666666667"><ele>7.9</ele></trkpt><trkpt lat="-27.004005" lon="-48.630558333333326"><ele>7.800000000000001</ele></trkpt><trkpt lat="-27.004031666666666" lon="-48.63056166666667"><ele>8.1</ele></trkpt><trkpt lat="-27.004031666666666" lon="-48.63056166666667"><ele>8.1</ele></trkpt><trkpt lat="-27.004055" lon="-48.63056333333334"><ele>7.800000000000001</ele></trkpt><trkpt lat="-27.004078333333336" lon="-48.63056666666667"><ele>7.5</ele></trkpt><trkpt lat="-27.00409833333333" lon="-48.63056666666667"><ele>7.4</ele></trkpt><trkpt lat="-27.004119999999997" lon="-48.630571666666675"><ele>7.300000000000001</ele></trkpt><trkpt lat="-27.004138333333337" lon="-48.630583333333334"><ele>7.5</ele></trkpt><trkpt lat="-27.004151666666665" lon="-48.63059"><ele>7.9</ele></trkpt><trkpt lat="-27.004168333333336" lon="-48.63059666666666"><ele>8</ele></trkpt><trkpt lat="-27.004179999999998" lon="-48.630603333333326"><ele>8.2</ele></trkpt><trkpt lat="-27.00418833333333" lon="-48.63061"><ele>8.6</ele></trkpt><trkpt lat="-27.0042" lon="-48.630615000000006"><ele>7.699999999999999</ele></trkpt><trkpt lat="-27.004203333333333" lon="-48.63061833333333"><ele>7.5</ele></trkpt><trkpt lat="-27.0042" lon="-48.630615000000006"><ele>7.699999999999999</ele></trkpt><trkpt lat="-27.00420166666667" lon="-48.630616666666675"><ele>8.1</ele></trkpt><trkpt lat="-27.00420166666667" lon="-48.630615000000006"><ele>8.6</ele></trkpt><trkpt lat="-27.0042" lon="-48.630613333333336"><ele>8.6</ele></trkpt><trkpt lat="-27.00419833333334" lon="-48.63060833333334"><ele>8.6</ele></trkpt><trkpt lat="-27.00419833333334" lon="-48.63060833333334"><ele>8.6</ele></trkpt><trkpt lat="-27.00420166666667" lon="-48.630604999999996"><ele>9.1</ele></trkpt><trkpt lat="-27.004203333333333" lon="-48.63060166666667"><ele>9.3</ele></trkpt><trkpt lat="-27.004205000000002" lon="-48.63060166666667"><ele>9.799999999999999</ele></trkpt><trkpt lat="-27.004205000000002" lon="-48.63060166666667"><ele>10.4</ele></trkpt><trkpt lat="-27.004205000000002" lon="-48.63060166666667"><ele>10.4</ele></trkpt><trkpt lat="-27.004211666666667" lon="-48.63059"><ele>10.9</ele></trkpt><trkpt lat="-27.004213333333336" lon="-48.63057666666667"><ele>11.5</ele></trkpt><trkpt lat="-27.004209999999997" lon="-48.630575"><ele>11.799999999999999</ele></trkpt><trkpt lat="-27.0042" lon="-48.63057333333333"><ele>12.299999999999999</ele></trkpt><trkpt lat="-27.004179999999998" lon="-48.630571666666675"><ele>12.6</ele></trkpt><trkpt lat="-27.00415666666667" lon="-48.630565"><ele>12.299999999999999</ele></trkpt><trkpt lat="-27.004138333333337" lon="-48.63054833333334"><ele>11.9</ele></trkpt><trkpt lat="-27.004121666666666" lon="-48.630534999999995"><ele>11.5</ele></trkpt><trkpt lat="-27.00411" lon="-48.630526666666675"><ele>11.6</ele></trkpt><trkpt lat="-27.004103333333333" lon="-48.63051833333334"><ele>11.299999999999999</ele></trkpt><trkpt lat="-27.00410833333334" lon="-48.63051833333334"><ele>11.299999999999999</ele></trkpt><trkpt lat="-27.00411" lon="-48.63052"><ele>11.299999999999999</ele></trkpt><trkpt lat="-27.00411" lon="-48.63052166666667"><ele>11.1</ele></trkpt><trkpt lat="-27.00411" lon="-48.630526666666675"><ele>11.4</ele></trkpt><trkpt lat="-27.00410833333334" lon="-48.63053"><ele>11.6</ele></trkpt><trkpt lat="-27.00410833333334" lon="-48.630538333333334"><ele>11.6</ele></trkpt><trkpt lat="-27.00411" lon="-48.63054333333333"><ele>11.5</ele></trkpt><trkpt lat="-27.004116666666665" lon="-48.63054166666667"><ele>11.4</ele></trkpt><trkpt lat="-27.004121666666666" lon="-48.630536666666664"><ele>11.299999999999999</ele></trkpt><trkpt lat="-27.00412833333333" lon="-48.63053333333334"><ele>11.299999999999999</ele></trkpt><trkpt lat="-27.004136666666668" lon="-48.63053"><ele>11</ele></trkpt><trkpt lat="-27.00414333333333" lon="-48.63052833333333"><ele>10.6</ele></trkpt><trkpt lat="-27.004149999999996" lon="-48.630525000000006"><ele>10.4</ele></trkpt><trkpt lat="-27.00415333333334" lon="-48.630525000000006"><ele>9.9</ele></trkpt><trkpt lat="-27.004155" lon="-48.630523333333336"><ele>9.6</ele></trkpt><trkpt lat="-27.00415666666667" lon="-48.63052"><ele>9.3</ele></trkpt><trkpt lat="-27.004155" lon="-48.63051666666667"><ele>9.1</ele></trkpt><trkpt lat="-27.00415333333334" lon="-48.630514999999995"><ele>9.1</ele></trkpt><trkpt lat="-27.00415666666667" lon="-48.63051666666667"><ele>9.2</ele></trkpt><trkpt lat="-27.004163333333334" lon="-48.63052166666667"><ele>9.2</ele></trkpt><trkpt lat="-27.004168333333336" lon="-48.630525000000006"><ele>9</ele></trkpt><trkpt lat="-27.00417333333333" lon="-48.630526666666675"><ele>9</ele></trkpt><trkpt lat="-27.004176666666662" lon="-48.630526666666675"><ele>9.1</ele></trkpt><trkpt lat="-27.004176666666662" lon="-48.63052833333333"><ele>9.2</ele></trkpt><trkpt lat="-27.004176666666662" lon="-48.63052833333333"><ele>9.2</ele></trkpt><trkpt lat="-27.004176666666662" lon="-48.63052833333333"><ele>9.2</ele></trkpt><trkpt lat="-27.004176666666662" lon="-48.63052833333333"><ele>9.2</ele></trkpt><trkpt lat="-27.004176666666662" lon="-48.63052833333333"><ele>9.2</ele></trkpt><trkpt lat="-27.004176666666662" lon="-48.63052833333333"><ele>9.2</ele></trkpt><trkpt lat="-27.004176666666662" lon="-48.63052833333333"><ele>9.2</ele></trkpt><trkpt lat="-27.004176666666662" lon="-48.63052833333333"><ele>9.2</ele></trkpt><trkpt lat="-27.004176666666662" lon="-48.63052833333333"><ele>9.2</ele></trkpt><trkpt lat="-27.004176666666662" lon="-48.63052833333333"><ele>9.2</ele></trkpt><trkpt lat="-27.004176666666662" lon="-48.63052833333333"><ele>9.2</ele></trkpt><trkpt lat="-27.004176666666662" lon="-48.63052833333333"><ele>9.2</ele></trkpt><trkpt lat="-27.004176666666662" lon="-48.63052833333333"><ele>9.2</ele></trkpt><trkpt lat="-27.004176666666662" lon="-48.63052833333333"><ele>9.2</ele></trkpt><trkpt lat="-27.004176666666662" lon="-48.63052833333333"><ele>9.2</ele></trkpt><trkpt lat="-27.004176666666662" lon="-48.63052833333333"><ele>9.2</ele></trkpt><trkpt lat="-27.004176666666662" lon="-48.63052833333333"><ele>9.2</ele></trkpt><trkpt lat="-27.00418666666667" lon="-48.630538333333334"><ele>8</ele></trkpt><trkpt lat="-27.004191666666664" lon="-48.630545"><ele>7.9</ele></trkpt><trkpt lat="-27.00419833333334" lon="-48.63054833333334"><ele>8.1</ele></trkpt><trkpt lat="-27.00420166666667" lon="-48.63054999999999"><ele>8</ele></trkpt><trkpt lat="-27.004205000000002" lon="-48.63055166666666"><ele>7.699999999999999</ele></trkpt><trkpt lat="-27.004205000000002" lon="-48.63055166666666"><ele>7.699999999999999</ele></trkpt><trkpt lat="-27.004208333333334" lon="-48.63055166666666"><ele>7.699999999999999</ele></trkpt><trkpt lat="-27.004209999999997" lon="-48.63055166666666"><ele>7.699999999999999</ele></trkpt><trkpt lat="-27.004208333333334" lon="-48.63054833333334"><ele>7.6</ele></trkpt><trkpt lat="-27.004206666666665" lon="-48.63054333333333"><ele>7.4</ele></trkpt><trkpt lat="-27.004203333333333" lon="-48.63054166666667"><ele>7</ele></trkpt><trkpt lat="-27.0042" lon="-48.63054333333333"><ele>6.6</ele></trkpt><trkpt lat="-27.004196666666665" lon="-48.63054833333334"><ele>6.5</ele></trkpt><trkpt lat="-27.004196666666665" lon="-48.63054833333334"><ele>6.4</ele></trkpt><trkpt lat="-27.004196666666665" lon="-48.63054833333334"><ele>6.4</ele></trkpt><trkpt lat="-27.004196666666665" lon="-48.63054833333334"><ele>6.6</ele></trkpt><trkpt lat="-27.004196666666665" lon="-48.63054833333334"><ele>6.6</ele></trkpt><trkpt lat="-27.004196666666665" lon="-48.63054833333334"><ele>6.6</ele></trkpt><trkpt lat="-27.004196666666665" lon="-48.63054833333334"><ele>6.6</ele></trkpt><trkpt lat="-27.004196666666665" lon="-48.63054833333334"><ele>6.6</ele></trkpt><trkpt lat="-27.004196666666665" lon="-48.63054833333334"><ele>6.6</ele></trkpt><trkpt lat="-27.004196666666665" lon="-48.63054833333334"><ele>6.6</ele></trkpt><trkpt lat="-27.004185" lon="-48.63054333333333"><ele>6.699999999999999</ele></trkpt><trkpt lat="-27.004175" lon="-48.63054333333333"><ele>6.6</ele></trkpt><trkpt lat="-27.004168333333336" lon="-48.63054166666667"><ele>6.4</ele></trkpt><trkpt lat="-27.004158333333333" lon="-48.63054166666667"><ele>6.199999999999999</ele></trkpt><trkpt lat="-27.004148333333333" lon="-48.63054"><ele>5.800000000000001</ele></trkpt><trkpt lat="-27.00414166666667" lon="-48.63054"><ele>5.4</ele></trkpt><trkpt lat="-27.004131666666662" lon="-48.630536666666664"><ele>5.300000000000001</ele></trkpt><trkpt lat="-27.004126666666668" lon="-48.630536666666664"><ele>5</ele></trkpt><trkpt lat="-27.004126666666668" lon="-48.630536666666664"><ele>5</ele></trkpt><trkpt lat="-27.004121666666666" lon="-48.63053333333334"><ele>4.800000000000001</ele></trkpt><trkpt lat="-27.004123333333336" lon="-48.63053333333334"><ele>4.9</ele></trkpt><trkpt lat="-27.004126666666668" lon="-48.63053333333334"><ele>5.2</ele></trkpt><trkpt lat="-27.00412833333333" lon="-48.63053166666667"><ele>5.4</ele></trkpt><trkpt lat="-27.00413" lon="-48.63052833333333"><ele>5.5</ele></trkpt><trkpt lat="-27.00413" lon="-48.63052833333333"><ele>5.699999999999999</ele></trkpt><trkpt lat="-27.00413" lon="-48.63052833333333"><ele>5.9</ele></trkpt><trkpt lat="-27.004131666666662" lon="-48.630526666666675"><ele>6.1</ele></trkpt><trkpt lat="-27.00413" lon="-48.630526666666675"><ele>6.199999999999999</ele></trkpt><trkpt lat="-27.00413" lon="-48.630526666666675"><ele>6.199999999999999</ele></trkpt><trkpt lat="-27.00413" lon="-48.630526666666675"><ele>6.199999999999999</ele></trkpt><trkpt lat="-27.00413" lon="-48.630526666666675"><ele>6.199999999999999</ele></trkpt><trkpt lat="-27.00413" lon="-48.630526666666675"><ele>6.199999999999999</ele></trkpt><trkpt lat="-27.00413" lon="-48.630526666666675"><ele>6.199999999999999</ele></trkpt><trkpt lat="-27.00413" lon="-48.630526666666675"><ele>6.199999999999999</ele></trkpt><trkpt lat="-27.00413" lon="-48.630526666666675"><ele>6.199999999999999</ele></trkpt><trkpt lat="-27.00413" lon="-48.630526666666675"><ele>6.199999999999999</ele></trkpt><trkpt lat="-27.00413" lon="-48.630526666666675"><ele>6.199999999999999</ele></trkpt><trkpt lat="-27.00413" lon="-48.630526666666675"><ele>6.199999999999999</ele></trkpt><trkpt lat="-27.00413" lon="-48.630526666666675"><ele>6.199999999999999</ele></trkpt><trkpt lat="-27.00413" lon="-48.630526666666675"><ele>6.199999999999999</ele></trkpt><trkpt lat="-27.00413" lon="-48.630526666666675"><ele>6.199999999999999</ele></trkpt><trkpt lat="-27.00413" lon="-48.630526666666675"><ele>6.199999999999999</ele></trkpt><trkpt lat="-27.00413" lon="-48.630526666666675"><ele>6.199999999999999</ele></trkpt><trkpt lat="-27.00413" lon="-48.630526666666675"><ele>6.199999999999999</ele></trkpt><trkpt lat="-27.00413" lon="-48.630526666666675"><ele>6.199999999999999</ele></trkpt><trkpt lat="-27.00413" lon="-48.630526666666675"><ele>6.199999999999999</ele></trkpt><trkpt lat="-27.00413" lon="-48.630526666666675"><ele>6.199999999999999</ele></trkpt><trkpt lat="-27.00413" lon="-48.630526666666675"><ele>6.199999999999999</ele></trkpt><trkpt lat="-27.00413" lon="-48.630526666666675"><ele>6.199999999999999</ele></trkpt><trkpt lat="-27.00413" lon="-48.630526666666675"><ele>6.199999999999999</ele></trkpt><trkpt lat="-27.00413" lon="-48.630526666666675"><ele>6.199999999999999</ele></trkpt><trkpt lat="-27.00413" lon="-48.630526666666675"><ele>6.199999999999999</ele></trkpt><trkpt lat="-27.00413" lon="-48.630526666666675"><ele>6.199999999999999</ele></trkpt><trkpt lat="-27.00413" lon="-48.630526666666675"><ele>6.199999999999999</ele></trkpt><trkpt lat="-27.00413" lon="-48.630526666666675"><ele>6.199999999999999</ele></trkpt><trkpt lat="-27.00413" lon="-48.630526666666675"><ele>6.199999999999999</ele></trkpt><trkpt lat="-27.00413" lon="-48.630526666666675"><ele>6.199999999999999</ele></trkpt><trkpt lat="-27.00413" lon="-48.630526666666675"><ele>6.199999999999999</ele></trkpt><trkpt lat="-27.00413" lon="-48.630526666666675"><ele>6.199999999999999</ele></trkpt><trkpt lat="-27.00413" lon="-48.630526666666675"><ele>6.199999999999999</ele></trkpt><trkpt lat="-27.00413" lon="-48.630526666666675"><ele>6.199999999999999</ele></trkpt><trkpt lat="-27.00413" lon="-48.630526666666675"><ele>6.199999999999999</ele></trkpt><trkpt lat="-27.00413" lon="-48.630526666666675"><ele>6.199999999999999</ele></trkpt><trkpt lat="-27.00413" lon="-48.630526666666675"><ele>6.199999999999999</ele></trkpt><trkpt lat="-27.00413" lon="-48.630526666666675"><ele>6.199999999999999</ele></trkpt><trkpt lat="-27.00413" lon="-48.630526666666675"><ele>6.199999999999999</ele></trkpt><trkpt lat="-27.00413" lon="-48.630526666666675"><ele>6.199999999999999</ele></trkpt><trkpt lat="-27.00413" lon="-48.630526666666675"><ele>6.199999999999999</ele></trkpt><trkpt lat="-27.00413" lon="-48.630526666666675"><ele>6.199999999999999</ele></trkpt><trkpt lat="-27.00413" lon="-48.630526666666675"><ele>6.199999999999999</ele></trkpt><trkpt lat="-27.00413" lon="-48.630526666666675"><ele>6.199999999999999</ele></trkpt><trkpt lat="-27.00413" lon="-48.630526666666675"><ele>6.199999999999999</ele></trkpt></trkseg></trk></gpx>