<?xml version="1.0" encoding="UTF-8"?>
<gpx xmlns="http://www.topografix.com/GPX/1/1" version="1.1" creator="@dwayneparton/geojson-to-gpx"><wpt lat="-27.036595000000002" lon="-48.675081666666664"><ele>18.200000000000003</ele><name>2 faixas</name></wpt><wpt lat="-27.03649833333333" lon="-48.67523500000001"><ele>12.5</ele><name>23</name></wpt><wpt lat="-27.0365" lon="-48.675228333333344"><ele>11</ele><name>190</name></wpt><wpt lat="-27.0365" lon="-48.675228333333344"><ele>11</ele><name>560</name></wpt><wpt lat="-27.0365" lon="-48.675228333333344"><ele>11</ele><name>1570</name></wpt><wpt lat="-27.03627333333333" lon="-48.67794166666666"><ele>15.1</ele><name>A ciclo é completamente reta.</name></wpt><wpt lat="-27.03627333333333" lon="-48.67794166666666"><ele>15.1</ele><name>A pintura é MUITO falha, mostrando muito asfalto</name></wpt><wpt lat="-27.036595000000002" lon="-48.675081666666664"><ele>18.200000000000003</ele><name>Apenas faixas vermelhas nas bordas, com travessias pintadas nos cruzamentos</name></wpt><wpt lat="-27.0365" lon="-48.67524333333334"><ele>12.9</ele><name>Área de amortecimento da ciclo (cm)</name></wpt><wpt lat="-27.0365" lon="-48.675228333333344"><ele>11</ele><name>Área transitável da ciclo (cm)</name></wpt><wpt lat="-27.036595000000002" lon="-48.675081666666664"><ele>18.200000000000003</ele><name>Asfalto</name></wpt><wpt lat="-27.036581666666667" lon="-48.67505166666667"><ele>18.1</ele><name>Bidirecional</name></wpt><wpt lat="-27.03627333333333" lon="-48.67794166666666"><ele>15.1</ele><name>Bom estado</name></wpt><wpt lat="-27.036576666666665" lon="-48.67504999999999"><ele>17.8</ele><name>Ciclofaixa</name></wpt><wpt lat="-27.036596666666664" lon="-48.675065"><ele>18</ele><name>Em bordo de Via de Mão Dupla</name></wpt><wpt lat="-27.03626" lon="-48.677554"><name>Estacionamento dedicado de um lado, segregado da circulação</name></wpt><wpt lat="-27.0365" lon="-48.675228333333344"><ele>11</ele><name>Faixa de carros logo ao lado da ciclo (cm)</name></wpt><wpt lat="-27.03659" lon="-48.67505333333334"><ele>15.1</ele><name>Foto</name></wpt><wpt lat="-27.03654166666667" lon="-48.675169999999994"><ele>16.400000000000002</ele><name>Foto</name></wpt><wpt lat="-27.036481666666667" lon="-48.67546666666667"><ele>9.4</ele><name>Foto</name></wpt><wpt lat="-27.03651166666667" lon="-48.67548"><ele>12.2</ele><name>Foto</name></wpt><wpt lat="-27.03645333333333" lon="-48.675776666666664"><ele>15</ele><name>Foto</name></wpt><wpt lat="-27.03645" lon="-48.67599833333334"><ele>11.1</ele><name>Foto</name></wpt><wpt lat="-27.036361666666668" lon="-48.67638333333333"><ele>6</ele><name>Foto</name></wpt><wpt lat="-27.03638" lon="-48.67650333333333"><ele>11.7</ele><name>Foto</name></wpt><wpt lat="-27.036366666666662" lon="-48.67661"><ele>13.4</ele><name>Foto</name></wpt><wpt lat="-27.036325" lon="-48.676938333333325"><ele>10.2</ele><name>Foto</name></wpt><wpt lat="-27.036293333333333" lon="-48.677233333333334"><ele>12.6</ele><name>Foto</name></wpt><wpt lat="-27.036313333333336" lon="-48.67726"><ele>11.7</ele><name>Foto</name></wpt><wpt lat="-27.036310000000004" lon="-48.677261666666666"><ele>11.4</ele><name>Foto</name></wpt><wpt lat="-27.036278333333332" lon="-48.67731666666667"><ele>10.799999999999999</ele><name>Foto</name></wpt><wpt lat="-27.036251666666665" lon="-48.67768833333333"><ele>15</ele><name>Foto</name></wpt><wpt lat="-27.036248333333333" lon="-48.67771833333333"><ele>16.2</ele><name>Foto</name></wpt><wpt lat="-27.03624166666667" lon="-48.67784333333334"><ele>17.8</ele><name>Foto</name></wpt><wpt lat="-27.03627333333333" lon="-48.67794166666666"><ele>15.1</ele><name>Iluminação geral dos dois lados da via</name></wpt><wpt lat="-27.03627333333333" lon="-48.67794166666666"><ele>15.1</ele><name>Não há árvores nem mudas</name></wpt><wpt lat="-27.036365" lon="-48.67649500000001"><ele>9.1</ele><name>Outro obstáculo</name></wpt><wpt lat="-27.036310000000004" lon="-48.677261666666666"><ele>11.4</ele><name>Outro obstáculo</name></wpt><wpt lat="-27.036550000000002" lon="-48.67511666666666"><ele>19.900000000000002</ele><name>Pictograma MÁ condição</name></wpt><wpt lat="-27.036451666666668" lon="-48.67576666666667"><ele>16.5</ele><name>Pictograma MÁ condição</name></wpt><wpt lat="-27.03637666666667" lon="-48.676361666666665"><ele>7.300000000000001</ele><name>Pictograma MÁ condição</name></wpt><wpt lat="-27.036296666666665" lon="-48.67723833333333"><ele>13.4</ele><name>Pictograma MÁ condição</name></wpt><wpt lat="-27.036250000000003" lon="-48.677685000000004"><ele>12.6</ele><name>Pictograma MÁ condição</name></wpt><wpt lat="-27.036603333333332" lon="-48.675068333333336"><ele>18</ele><name>Pista dupla</name></wpt><wpt lat="-27.036365" lon="-48.676496666666665"><ele>9.1</ele><name>rampa </name></wpt><wpt lat="-27.036310000000004" lon="-48.677261666666666"><ele>11.4</ele><name>rampa </name></wpt><wpt lat="-27.03627333333333" lon="-48.67794166666666"><ele>15.1</ele><name>SE CICLOFAIXA: para invadir a ciclo parte do automóvel passa obrigatoriamente por cima de segregadores</name></wpt><wpt lat="-27.036506666666664" lon="-48.67547833333333"><ele>11.9</ele><name>SEM pintura no cruzamento</name></wpt><wpt lat="-27.03624166666667" lon="-48.677683333333334"><ele>14.2</ele><name>SEM pintura no cruzamento</name></wpt><wpt lat="-27.036595000000002" lon="-48.675081666666664"><ele>18.200000000000003</ele><name>Tachões</name></wpt><wpt lat="-27.0365" lon="-48.675228333333344"><ele>11</ele><name>Total da via (incluindo a ciclo) (cm)</name></wpt><trk><name>Ciclofaixa Av. Áustria - Cb</name><trkseg><trkpt lat="-27.03658833333333" lon="-48.67504333333333"><ele>17.700000000000003</ele></trkpt><trkpt lat="-27.03658833333333" lon="-48.67504333333333"><ele>17.700000000000003</ele></trkpt><trkpt lat="-27.03659" lon="-48.67504333333333"><ele>17.700000000000003</ele></trkpt><trkpt lat="-27.03658666666667" lon="-48.67504833333334"><ele>17.700000000000003</ele></trkpt><trkpt lat="-27.036585" lon="-48.67505666666666"><ele>17.700000000000003</ele></trkpt><trkpt lat="-27.036581666666667" lon="-48.67505500000001"><ele>17.5</ele></trkpt><trkpt lat="-27.036576666666665" lon="-48.67504999999999"><ele>17.8</ele></trkpt><trkpt lat="-27.036576666666665" lon="-48.67504999999999"><ele>17.8</ele></trkpt><trkpt lat="-27.036576666666665" lon="-48.67504666666667"><ele>18.1</ele></trkpt><trkpt lat="-27.036581666666667" lon="-48.67505166666667"><ele>18.1</ele></trkpt><trkpt lat="-27.036581666666667" lon="-48.67505166666667"><ele>18.1</ele></trkpt><trkpt lat="-27.036583333333336" lon="-48.67505166666667"><ele>18.200000000000003</ele></trkpt><trkpt lat="-27.036585" lon="-48.67505500000001"><ele>18.200000000000003</ele></trkpt><trkpt lat="-27.036585" lon="-48.67505833333333"><ele>18.200000000000003</ele></trkpt><trkpt lat="-27.03658833333333" lon="-48.67506"><ele>18.1</ele></trkpt><trkpt lat="-27.036591666666663" lon="-48.67506333333334"><ele>18.1</ele></trkpt><trkpt lat="-27.036595000000002" lon="-48.67506333333334"><ele>18</ele></trkpt><trkpt lat="-27.036596666666664" lon="-48.675065"><ele>18</ele></trkpt><trkpt lat="-27.036596666666664" lon="-48.675065"><ele>18</ele></trkpt><trkpt lat="-27.0366" lon="-48.675068333333336"><ele>17.900000000000002</ele></trkpt><trkpt lat="-27.0366" lon="-48.675066666666666"><ele>18</ele></trkpt><trkpt lat="-27.036603333333332" lon="-48.675070000000005"><ele>18</ele></trkpt><trkpt lat="-27.036605" lon="-48.675070000000005"><ele>18</ele></trkpt><trkpt lat="-27.036606666666664" lon="-48.675070000000005"><ele>17.900000000000002</ele></trkpt><trkpt lat="-27.036606666666664" lon="-48.675070000000005"><ele>17.900000000000002</ele></trkpt><trkpt lat="-27.036605" lon="-48.675068333333336"><ele>17.900000000000002</ele></trkpt><trkpt lat="-27.036603333333332" lon="-48.675068333333336"><ele>18</ele></trkpt><trkpt lat="-27.036603333333332" lon="-48.675068333333336"><ele>18</ele></trkpt><trkpt lat="-27.03660166666667" lon="-48.675068333333336"><ele>18</ele></trkpt><trkpt lat="-27.036598333333338" lon="-48.675068333333336"><ele>17.900000000000002</ele></trkpt><trkpt lat="-27.036596666666664" lon="-48.67507166666666"><ele>17.900000000000002</ele></trkpt><trkpt lat="-27.036595000000002" lon="-48.675075"><ele>17.900000000000002</ele></trkpt><trkpt lat="-27.036595000000002" lon="-48.67507833333334"><ele>17.900000000000002</ele></trkpt><trkpt lat="-27.036595000000002" lon="-48.675079999999994"><ele>17.900000000000002</ele></trkpt><trkpt lat="-27.036595000000002" lon="-48.675081666666664"><ele>17.900000000000002</ele></trkpt><trkpt lat="-27.036596666666664" lon="-48.675081666666664"><ele>17.900000000000002</ele></trkpt><trkpt lat="-27.036598333333338" lon="-48.67508333333333"><ele>17.900000000000002</ele></trkpt><trkpt lat="-27.036598333333338" lon="-48.67508333333333"><ele>17.900000000000002</ele></trkpt><trkpt lat="-27.036598333333338" lon="-48.675079999999994"><ele>18</ele></trkpt><trkpt lat="-27.036598333333338" lon="-48.675079999999994"><ele>18</ele></trkpt><trkpt lat="-27.0366" lon="-48.675081666666664"><ele>18.1</ele></trkpt><trkpt lat="-27.0366" lon="-48.675081666666664"><ele>18.200000000000003</ele></trkpt><trkpt lat="-27.036598333333338" lon="-48.675079999999994"><ele>18.200000000000003</ele></trkpt><trkpt lat="-27.036595000000002" lon="-48.675081666666664"><ele>18.200000000000003</ele></trkpt><trkpt lat="-27.036595000000002" lon="-48.675081666666664"><ele>18.200000000000003</ele></trkpt><trkpt lat="-27.036595000000002" lon="-48.675081666666664"><ele>18.200000000000003</ele></trkpt><trkpt lat="-27.036595000000002" lon="-48.675081666666664"><ele>18.200000000000003</ele></trkpt><trkpt lat="-27.036595000000002" lon="-48.675081666666664"><ele>18.200000000000003</ele></trkpt><trkpt lat="-27.036595000000002" lon="-48.675081666666664"><ele>18.200000000000003</ele></trkpt><trkpt lat="-27.036595000000002" lon="-48.675081666666664"><ele>18.200000000000003</ele></trkpt><trkpt lat="-27.036595000000002" lon="-48.675081666666664"><ele>18.200000000000003</ele></trkpt><trkpt lat="-27.036595000000002" lon="-48.675081666666664"><ele>18.200000000000003</ele></trkpt><trkpt lat="-27.036595000000002" lon="-48.675081666666664"><ele>18.200000000000003</ele></trkpt><trkpt lat="-27.036595000000002" lon="-48.675081666666664"><ele>18.200000000000003</ele></trkpt><trkpt lat="-27.036595000000002" lon="-48.675081666666664"><ele>18.200000000000003</ele></trkpt><trkpt lat="-27.036595000000002" lon="-48.675081666666664"><ele>18.200000000000003</ele></trkpt><trkpt lat="-27.036595000000002" lon="-48.675081666666664"><ele>18.200000000000003</ele></trkpt><trkpt lat="-27.036595000000002" lon="-48.675081666666664"><ele>18.200000000000003</ele></trkpt><trkpt lat="-27.036595000000002" lon="-48.675081666666664"><ele>18.200000000000003</ele></trkpt><trkpt lat="-27.036595000000002" lon="-48.675081666666664"><ele>18.200000000000003</ele></trkpt><trkpt lat="-27.036595000000002" lon="-48.675081666666664"><ele>18.200000000000003</ele></trkpt><trkpt lat="-27.036595000000002" lon="-48.675081666666664"><ele>18.200000000000003</ele></trkpt><trkpt lat="-27.036595000000002" lon="-48.675081666666664"><ele>18.200000000000003</ele></trkpt><trkpt lat="-27.036595000000002" lon="-48.675081666666664"><ele>18.200000000000003</ele></trkpt><trkpt lat="-27.036595000000002" lon="-48.675081666666664"><ele>18.200000000000003</ele></trkpt><trkpt lat="-27.036595000000002" lon="-48.675081666666664"><ele>18.200000000000003</ele></trkpt><trkpt lat="-27.036595000000002" lon="-48.675081666666664"><ele>18.200000000000003</ele></trkpt><trkpt lat="-27.036595000000002" lon="-48.675081666666664"><ele>18.200000000000003</ele></trkpt><trkpt lat="-27.036595000000002" lon="-48.675081666666664"><ele>18.200000000000003</ele></trkpt><trkpt lat="-27.036595000000002" lon="-48.675081666666664"><ele>18.200000000000003</ele></trkpt><trkpt lat="-27.036595000000002" lon="-48.675081666666664"><ele>18.200000000000003</ele></trkpt><trkpt lat="-27.036595000000002" lon="-48.675081666666664"><ele>18.200000000000003</ele></trkpt><trkpt lat="-27.036595000000002" lon="-48.675081666666664"><ele>18.200000000000003</ele></trkpt><trkpt lat="-27.036595000000002" lon="-48.675081666666664"><ele>18.200000000000003</ele></trkpt><trkpt lat="-27.036595000000002" lon="-48.675081666666664"><ele>18.200000000000003</ele></trkpt><trkpt lat="-27.036595000000002" lon="-48.675081666666664"><ele>18.200000000000003</ele></trkpt><trkpt lat="-27.036595000000002" lon="-48.675081666666664"><ele>18.200000000000003</ele></trkpt><trkpt lat="-27.036595000000002" lon="-48.675081666666664"><ele>18.200000000000003</ele></trkpt><trkpt lat="-27.036595000000002" lon="-48.675081666666664"><ele>18.200000000000003</ele></trkpt><trkpt lat="-27.036595000000002" lon="-48.675081666666664"><ele>18.200000000000003</ele></trkpt><trkpt lat="-27.036595000000002" lon="-48.675081666666664"><ele>18.200000000000003</ele></trkpt><trkpt lat="-27.036595000000002" lon="-48.675081666666664"><ele>18.200000000000003</ele></trkpt><trkpt lat="-27.036595000000002" lon="-48.675081666666664"><ele>18.200000000000003</ele></trkpt><trkpt lat="-27.036595000000002" lon="-48.675081666666664"><ele>18.200000000000003</ele></trkpt><trkpt lat="-27.036595000000002" lon="-48.675081666666664"><ele>18.200000000000003</ele></trkpt><trkpt lat="-27.036595000000002" lon="-48.675081666666664"><ele>18.200000000000003</ele></trkpt><trkpt lat="-27.036595000000002" lon="-48.675081666666664"><ele>18.200000000000003</ele></trkpt><trkpt lat="-27.036595000000002" lon="-48.675081666666664"><ele>18.200000000000003</ele></trkpt><trkpt lat="-27.036595000000002" lon="-48.675081666666664"><ele>18.200000000000003</ele></trkpt><trkpt lat="-27.036595000000002" lon="-48.675081666666664"><ele>18.200000000000003</ele></trkpt><trkpt lat="-27.036595000000002" lon="-48.675081666666664"><ele>18.200000000000003</ele></trkpt><trkpt lat="-27.036595000000002" lon="-48.675081666666664"><ele>18.200000000000003</ele></trkpt><trkpt lat="-27.036595000000002" lon="-48.675081666666664"><ele>18.200000000000003</ele></trkpt><trkpt lat="-27.036595000000002" lon="-48.675081666666664"><ele>18.200000000000003</ele></trkpt><trkpt lat="-27.036595000000002" lon="-48.675081666666664"><ele>18.200000000000003</ele></trkpt><trkpt lat="-27.036595000000002" lon="-48.675081666666664"><ele>18.200000000000003</ele></trkpt><trkpt lat="-27.036595000000002" lon="-48.675081666666664"><ele>18.200000000000003</ele></trkpt><trkpt lat="-27.036595000000002" lon="-48.675081666666664"><ele>18.200000000000003</ele></trkpt><trkpt lat="-27.036595000000002" lon="-48.675081666666664"><ele>18.200000000000003</ele></trkpt><trkpt lat="-27.036595000000002" lon="-48.675081666666664"><ele>18.200000000000003</ele></trkpt><trkpt lat="-27.036595000000002" lon="-48.675081666666664"><ele>18.200000000000003</ele></trkpt><trkpt lat="-27.036595000000002" lon="-48.675081666666664"><ele>18.200000000000003</ele></trkpt><trkpt lat="-27.036595000000002" lon="-48.675081666666664"><ele>18.200000000000003</ele></trkpt><trkpt lat="-27.036595000000002" lon="-48.675081666666664"><ele>18.200000000000003</ele></trkpt><trkpt lat="-27.036595000000002" lon="-48.675081666666664"><ele>18.200000000000003</ele></trkpt><trkpt lat="-27.036595000000002" lon="-48.675081666666664"><ele>18.200000000000003</ele></trkpt><trkpt lat="-27.036595000000002" lon="-48.675081666666664"><ele>18.200000000000003</ele></trkpt><trkpt lat="-27.036595000000002" lon="-48.675081666666664"><ele>18.200000000000003</ele></trkpt><trkpt lat="-27.036596666666664" lon="-48.67509666666667"><ele>17.3</ele></trkpt><trkpt lat="-27.036598333333338" lon="-48.67508833333333"><ele>17</ele></trkpt><trkpt lat="-27.036603333333332" lon="-48.67507833333334"><ele>16.8</ele></trkpt><trkpt lat="-27.036606666666664" lon="-48.67507166666666"><ele>16.7</ele></trkpt><trkpt lat="-27.036610000000003" lon="-48.675070000000005"><ele>16.400000000000002</ele></trkpt><trkpt lat="-27.036613333333335" lon="-48.675066666666666"><ele>16.2</ele></trkpt><trkpt lat="-27.036620000000003" lon="-48.675065"><ele>16.1</ele></trkpt><trkpt lat="-27.036628333333336" lon="-48.675065"><ele>16.1</ele></trkpt><trkpt lat="-27.03663333333333" lon="-48.67506333333334"><ele>16</ele></trkpt><trkpt lat="-27.036636666666663" lon="-48.67506"><ele>15.799999999999999</ele></trkpt><trkpt lat="-27.036638333333332" lon="-48.67506166666667"><ele>15.6</ele></trkpt><trkpt lat="-27.036641666666664" lon="-48.67506166666667"><ele>15.299999999999999</ele></trkpt><trkpt lat="-27.036643333333338" lon="-48.675065"><ele>15.4</ele></trkpt><trkpt lat="-27.03664666666667" lon="-48.675065"><ele>15.299999999999999</ele></trkpt><trkpt lat="-27.03665" lon="-48.675066666666666"><ele>15.299999999999999</ele></trkpt><trkpt lat="-27.036655000000003" lon="-48.675068333333336"><ele>15.2</ele></trkpt><trkpt lat="-27.036661666666667" lon="-48.675068333333336"><ele>15.1</ele></trkpt><trkpt lat="-27.036668333333335" lon="-48.675070000000005"><ele>15</ele></trkpt><trkpt lat="-27.036671666666667" lon="-48.67507166666666"><ele>15</ele></trkpt><trkpt lat="-27.036675" lon="-48.67507333333333"><ele>15.1</ele></trkpt><trkpt lat="-27.036671666666667" lon="-48.67507333333333"><ele>14.9</ele></trkpt><trkpt lat="-27.036671666666667" lon="-48.67507333333333"><ele>14.9</ele></trkpt><trkpt lat="-27.036671666666667" lon="-48.67507333333333"><ele>14.9</ele></trkpt><trkpt lat="-27.036671666666667" lon="-48.67507333333333"><ele>14.9</ele></trkpt><trkpt lat="-27.03665" lon="-48.67506333333334"><ele>15.4</ele></trkpt><trkpt lat="-27.036638333333332" lon="-48.67505666666666"><ele>15.2</ele></trkpt><trkpt lat="-27.036628333333336" lon="-48.67505166666667"><ele>15.1</ele></trkpt><trkpt lat="-27.036620000000003" lon="-48.67504833333334"><ele>15.2</ele></trkpt><trkpt lat="-27.036613333333335" lon="-48.675045"><ele>15.299999999999999</ele></trkpt><trkpt lat="-27.036605" lon="-48.67504333333333"><ele>15.299999999999999</ele></trkpt><trkpt lat="-27.036598333333338" lon="-48.67504333333333"><ele>15.4</ele></trkpt><trkpt lat="-27.036593333333332" lon="-48.675045"><ele>15.5</ele></trkpt><trkpt lat="-27.036593333333332" lon="-48.67504666666667"><ele>15.4</ele></trkpt><trkpt lat="-27.03658833333333" lon="-48.67504833333334"><ele>15.5</ele></trkpt><trkpt lat="-27.03658666666667" lon="-48.67504833333334"><ele>15.4</ele></trkpt><trkpt lat="-27.036583333333336" lon="-48.67504666666667"><ele>15.4</ele></trkpt><trkpt lat="-27.036576666666665" lon="-48.67504666666667"><ele>15.299999999999999</ele></trkpt><trkpt lat="-27.036571666666667" lon="-48.67504666666667"><ele>15.299999999999999</ele></trkpt><trkpt lat="-27.036569999999998" lon="-48.67504833333334"><ele>15.2</ele></trkpt><trkpt lat="-27.036568333333335" lon="-48.67504833333334"><ele>15.2</ele></trkpt><trkpt lat="-27.036563333333334" lon="-48.67504666666667"><ele>15.299999999999999</ele></trkpt><trkpt lat="-27.03655666666667" lon="-48.67504666666667"><ele>15.4</ele></trkpt><trkpt lat="-27.036550000000002" lon="-48.67504833333334"><ele>15.5</ele></trkpt><trkpt lat="-27.036545" lon="-48.67504833333334"><ele>15.5</ele></trkpt><trkpt lat="-27.03654166666667" lon="-48.67504999999999"><ele>15.4</ele></trkpt><trkpt lat="-27.036538333333336" lon="-48.67504999999999"><ele>15.5</ele></trkpt><trkpt lat="-27.036536666666667" lon="-48.67505166666667"><ele>15.299999999999999</ele></trkpt><trkpt lat="-27.036531666666665" lon="-48.67505333333334"><ele>15.4</ele></trkpt><trkpt lat="-27.03652833333333" lon="-48.67505166666667"><ele>15.6</ele></trkpt><trkpt lat="-27.036526666666667" lon="-48.67505333333334"><ele>15.7</ele></trkpt><trkpt lat="-27.036526666666667" lon="-48.67505333333334"><ele>15.799999999999999</ele></trkpt><trkpt lat="-27.036530000000003" lon="-48.67505500000001"><ele>15.9</ele></trkpt><trkpt lat="-27.036533333333335" lon="-48.67505500000001"><ele>15.9</ele></trkpt><trkpt lat="-27.036538333333336" lon="-48.67505666666666"><ele>16.1</ele></trkpt><trkpt lat="-27.03654333333333" lon="-48.67505833333333"><ele>16.2</ele></trkpt><trkpt lat="-27.036550000000002" lon="-48.67506"><ele>16.400000000000002</ele></trkpt><trkpt lat="-27.03655666666667" lon="-48.67505833333333"><ele>16.5</ele></trkpt><trkpt lat="-27.036561666666664" lon="-48.67505666666666"><ele>16.6</ele></trkpt><trkpt lat="-27.036565000000003" lon="-48.67505833333333"><ele>16.7</ele></trkpt><trkpt lat="-27.036569999999998" lon="-48.67506166666667"><ele>16.6</ele></trkpt><trkpt lat="-27.036576666666665" lon="-48.67506333333334"><ele>16.400000000000002</ele></trkpt><trkpt lat="-27.036583333333336" lon="-48.67506166666667"><ele>16.3</ele></trkpt><trkpt lat="-27.03658833333333" lon="-48.67506166666667"><ele>16.2</ele></trkpt><trkpt lat="-27.036591666666663" lon="-48.67506166666667"><ele>16.2</ele></trkpt><trkpt lat="-27.036593333333332" lon="-48.67506166666667"><ele>16.1</ele></trkpt><trkpt lat="-27.036593333333332" lon="-48.67506"><ele>15.9</ele></trkpt><trkpt lat="-27.036593333333332" lon="-48.67505666666666"><ele>15.6</ele></trkpt><trkpt lat="-27.036593333333332" lon="-48.67505500000001"><ele>15.5</ele></trkpt><trkpt lat="-27.03659" lon="-48.67505500000001"><ele>15.299999999999999</ele></trkpt><trkpt lat="-27.03659" lon="-48.67505333333334"><ele>15.1</ele></trkpt><trkpt lat="-27.03659" lon="-48.67505333333334"><ele>15.1</ele></trkpt><trkpt lat="-27.03659" lon="-48.67505333333334"><ele>15.1</ele></trkpt><trkpt lat="-27.03659" lon="-48.67505333333334"><ele>15.1</ele></trkpt><trkpt lat="-27.03659" lon="-48.67505333333334"><ele>15.1</ele></trkpt><trkpt lat="-27.03659" lon="-48.67505333333334"><ele>15.1</ele></trkpt><trkpt lat="-27.03659" lon="-48.67505333333334"><ele>15.1</ele></trkpt><trkpt lat="-27.03659" lon="-48.67505333333334"><ele>15.1</ele></trkpt><trkpt lat="-27.03659" lon="-48.67505333333334"><ele>15.1</ele></trkpt><trkpt lat="-27.03659" lon="-48.67505333333334"><ele>15.1</ele></trkpt><trkpt lat="-27.036628333333336" lon="-48.67504"><ele>16.5</ele></trkpt><trkpt lat="-27.036641666666664" lon="-48.67504333333333"><ele>17.1</ele></trkpt><trkpt lat="-27.036651666666664" lon="-48.675045"><ele>18</ele></trkpt><trkpt lat="-27.036659999999998" lon="-48.67505166666667"><ele>19</ele></trkpt><trkpt lat="-27.036661666666667" lon="-48.67506"><ele>19.900000000000002</ele></trkpt><trkpt lat="-27.036656666666666" lon="-48.675065"><ele>20.700000000000003</ele></trkpt><trkpt lat="-27.036656666666666" lon="-48.675065"><ele>20.700000000000003</ele></trkpt><trkpt lat="-27.036626666666667" lon="-48.675075"><ele>21</ele></trkpt><trkpt lat="-27.036614999999998" lon="-48.675079999999994"><ele>20.900000000000002</ele></trkpt><trkpt lat="-27.0366" lon="-48.675081666666664"><ele>21</ele></trkpt><trkpt lat="-27.03658666666667" lon="-48.67508666666666"><ele>20.8</ele></trkpt><trkpt lat="-27.036571666666667" lon="-48.67509166666667"><ele>21.1</ele></trkpt><trkpt lat="-27.036561666666664" lon="-48.67510333333333"><ele>20.900000000000002</ele></trkpt><trkpt lat="-27.036550000000002" lon="-48.67511666666666"><ele>19.900000000000002</ele></trkpt><trkpt lat="-27.036550000000002" lon="-48.67511666666666"><ele>19.900000000000002</ele></trkpt><trkpt lat="-27.03654333333333" lon="-48.67512833333333"><ele>18.700000000000003</ele></trkpt><trkpt lat="-27.03654" lon="-48.67513999999999"><ele>17.900000000000002</ele></trkpt><trkpt lat="-27.03654" lon="-48.67514833333333"><ele>17.5</ele></trkpt><trkpt lat="-27.03654" lon="-48.67515333333334"><ele>16.900000000000002</ele></trkpt><trkpt lat="-27.03654" lon="-48.67516166666666"><ele>16.5</ele></trkpt><trkpt lat="-27.03654166666667" lon="-48.675169999999994"><ele>16.400000000000002</ele></trkpt><trkpt lat="-27.03654166666667" lon="-48.675169999999994"><ele>16.400000000000002</ele></trkpt><trkpt lat="-27.03654166666667" lon="-48.67518166666667"><ele>16</ele></trkpt><trkpt lat="-27.03654" lon="-48.67519333333333"><ele>15.9</ele></trkpt><trkpt lat="-27.036538333333336" lon="-48.67520666666666"><ele>15.9</ele></trkpt><trkpt lat="-27.036536666666667" lon="-48.67522333333333"><ele>16.3</ele></trkpt><trkpt lat="-27.036535000000004" lon="-48.67523500000001"><ele>16.3</ele></trkpt><trkpt lat="-27.03652833333333" lon="-48.675246666666666"><ele>16.2</ele></trkpt><trkpt lat="-27.036523333333335" lon="-48.675246666666666"><ele>15.7</ele></trkpt><trkpt lat="-27.036516666666664" lon="-48.675245"><ele>15</ele></trkpt><trkpt lat="-27.036513333333332" lon="-48.675250000000005"><ele>14.7</ele></trkpt><trkpt lat="-27.03651" lon="-48.675246666666666"><ele>14.299999999999999</ele></trkpt><trkpt lat="-27.036505000000002" lon="-48.675246666666666"><ele>13.7</ele></trkpt><trkpt lat="-27.0365" lon="-48.67524333333334"><ele>12.9</ele></trkpt><trkpt lat="-27.0365" lon="-48.67524333333334"><ele>12.9</ele></trkpt><trkpt lat="-27.03649833333333" lon="-48.67523500000001"><ele>12.5</ele></trkpt><trkpt lat="-27.03649833333333" lon="-48.67523500000001"><ele>12.5</ele></trkpt><trkpt lat="-27.036495" lon="-48.67522999999999"><ele>12.2</ele></trkpt><trkpt lat="-27.0365" lon="-48.675228333333344"><ele>11.799999999999999</ele></trkpt><trkpt lat="-27.03649833333333" lon="-48.675228333333344"><ele>11.4</ele></trkpt><trkpt lat="-27.0365" lon="-48.675228333333344"><ele>11</ele></trkpt><trkpt lat="-27.0365" lon="-48.675228333333344"><ele>11</ele></trkpt><trkpt lat="-27.0365" lon="-48.675228333333344"><ele>11</ele></trkpt><trkpt lat="-27.0365" lon="-48.675228333333344"><ele>11</ele></trkpt><trkpt lat="-27.0365" lon="-48.675228333333344"><ele>11</ele></trkpt><trkpt lat="-27.0365" lon="-48.675228333333344"><ele>11</ele></trkpt><trkpt lat="-27.0365" lon="-48.675228333333344"><ele>11</ele></trkpt><trkpt lat="-27.0365" lon="-48.675228333333344"><ele>11</ele></trkpt><trkpt lat="-27.0365" lon="-48.675228333333344"><ele>11</ele></trkpt><trkpt lat="-27.0365" lon="-48.675228333333344"><ele>11</ele></trkpt><trkpt lat="-27.0365" lon="-48.675228333333344"><ele>11</ele></trkpt><trkpt lat="-27.0365" lon="-48.675228333333344"><ele>11</ele></trkpt><trkpt lat="-27.0365" lon="-48.675228333333344"><ele>11</ele></trkpt><trkpt lat="-27.0365" lon="-48.675228333333344"><ele>11</ele></trkpt><trkpt lat="-27.0365" lon="-48.675228333333344"><ele>11</ele></trkpt><trkpt lat="-27.0365" lon="-48.675228333333344"><ele>11</ele></trkpt><trkpt lat="-27.0365" lon="-48.675228333333344"><ele>11</ele></trkpt><trkpt lat="-27.0365" lon="-48.675228333333344"><ele>11</ele></trkpt><trkpt lat="-27.0365" lon="-48.675228333333344"><ele>11</ele></trkpt><trkpt lat="-27.0365" lon="-48.675228333333344"><ele>11</ele></trkpt><trkpt lat="-27.0365" lon="-48.675228333333344"><ele>11</ele></trkpt><trkpt lat="-27.0365" lon="-48.675228333333344"><ele>11</ele></trkpt><trkpt lat="-27.0365" lon="-48.675228333333344"><ele>11</ele></trkpt><trkpt lat="-27.0365" lon="-48.675228333333344"><ele>11</ele></trkpt><trkpt lat="-27.0365" lon="-48.675228333333344"><ele>11</ele></trkpt><trkpt lat="-27.0365" lon="-48.675228333333344"><ele>11</ele></trkpt><trkpt lat="-27.0365" lon="-48.675228333333344"><ele>11</ele></trkpt><trkpt lat="-27.0365" lon="-48.675228333333344"><ele>11</ele></trkpt><trkpt lat="-27.0365" lon="-48.675228333333344"><ele>11</ele></trkpt><trkpt lat="-27.0365" lon="-48.675228333333344"><ele>11</ele></trkpt><trkpt lat="-27.0365" lon="-48.675228333333344"><ele>11</ele></trkpt><trkpt lat="-27.0365" lon="-48.675228333333344"><ele>11</ele></trkpt><trkpt lat="-27.0365" lon="-48.675228333333344"><ele>11</ele></trkpt><trkpt lat="-27.0365" lon="-48.675228333333344"><ele>11</ele></trkpt><trkpt lat="-27.0365" lon="-48.675228333333344"><ele>11</ele></trkpt><trkpt lat="-27.0365" lon="-48.675228333333344"><ele>11</ele></trkpt><trkpt lat="-27.0365" lon="-48.675228333333344"><ele>11</ele></trkpt><trkpt lat="-27.0365" lon="-48.675228333333344"><ele>11</ele></trkpt><trkpt lat="-27.0365" lon="-48.675228333333344"><ele>11</ele></trkpt><trkpt lat="-27.0365" lon="-48.675228333333344"><ele>11</ele></trkpt><trkpt lat="-27.0365" lon="-48.675228333333344"><ele>11</ele></trkpt><trkpt lat="-27.0365" lon="-48.675228333333344"><ele>11</ele></trkpt><trkpt lat="-27.0365" lon="-48.675228333333344"><ele>11</ele></trkpt><trkpt lat="-27.0365" lon="-48.675228333333344"><ele>11</ele></trkpt><trkpt lat="-27.0365" lon="-48.675228333333344"><ele>11</ele></trkpt><trkpt lat="-27.0365" lon="-48.675228333333344"><ele>11</ele></trkpt><trkpt lat="-27.0365" lon="-48.675228333333344"><ele>11</ele></trkpt><trkpt lat="-27.0365" lon="-48.675228333333344"><ele>11</ele></trkpt><trkpt lat="-27.0365" lon="-48.675228333333344"><ele>11</ele></trkpt><trkpt lat="-27.0365" lon="-48.675228333333344"><ele>11</ele></trkpt><trkpt lat="-27.0365" lon="-48.675228333333344"><ele>11</ele></trkpt><trkpt lat="-27.0365" lon="-48.675228333333344"><ele>11</ele></trkpt><trkpt lat="-27.0365" lon="-48.675228333333344"><ele>11</ele></trkpt><trkpt lat="-27.0365" lon="-48.675228333333344"><ele>11</ele></trkpt><trkpt lat="-27.0365" lon="-48.675228333333344"><ele>11</ele></trkpt><trkpt lat="-27.0365" lon="-48.675228333333344"><ele>11</ele></trkpt><trkpt lat="-27.0365" lon="-48.675228333333344"><ele>11</ele></trkpt><trkpt lat="-27.0365" lon="-48.675228333333344"><ele>11</ele></trkpt><trkpt lat="-27.0365" lon="-48.675228333333344"><ele>11</ele></trkpt><trkpt lat="-27.0365" lon="-48.675228333333344"><ele>11</ele></trkpt><trkpt lat="-27.0365" lon="-48.675228333333344"><ele>11</ele></trkpt><trkpt lat="-27.0365" lon="-48.675228333333344"><ele>11</ele></trkpt><trkpt lat="-27.0365" lon="-48.675228333333344"><ele>11</ele></trkpt><trkpt lat="-27.0365" lon="-48.675228333333344"><ele>11</ele></trkpt><trkpt lat="-27.0365" lon="-48.675228333333344"><ele>11</ele></trkpt><trkpt lat="-27.0365" lon="-48.675228333333344"><ele>11</ele></trkpt><trkpt lat="-27.0365" lon="-48.675228333333344"><ele>11</ele></trkpt><trkpt lat="-27.0365" lon="-48.675228333333344"><ele>11</ele></trkpt><trkpt lat="-27.0365" lon="-48.675228333333344"><ele>11</ele></trkpt><trkpt lat="-27.0365" lon="-48.675228333333344"><ele>11</ele></trkpt><trkpt lat="-27.0365" lon="-48.675228333333344"><ele>11</ele></trkpt><trkpt lat="-27.0365" lon="-48.675228333333344"><ele>11</ele></trkpt><trkpt lat="-27.0365" lon="-48.675228333333344"><ele>11</ele></trkpt><trkpt lat="-27.0365" lon="-48.675228333333344"><ele>11</ele></trkpt><trkpt lat="-27.0365" lon="-48.675228333333344"><ele>11</ele></trkpt><trkpt lat="-27.0365" lon="-48.675228333333344"><ele>11</ele></trkpt><trkpt lat="-27.0365" lon="-48.675228333333344"><ele>11</ele></trkpt><trkpt lat="-27.0365" lon="-48.675228333333344"><ele>11</ele></trkpt><trkpt lat="-27.0365" lon="-48.675228333333344"><ele>11</ele></trkpt><trkpt lat="-27.0365" lon="-48.675228333333344"><ele>11</ele></trkpt><trkpt lat="-27.0365" lon="-48.675228333333344"><ele>11</ele></trkpt><trkpt lat="-27.0365" lon="-48.675228333333344"><ele>11</ele></trkpt><trkpt lat="-27.0365" lon="-48.675228333333344"><ele>11</ele></trkpt><trkpt lat="-27.0365" lon="-48.675228333333344"><ele>11</ele></trkpt><trkpt lat="-27.0365" lon="-48.675228333333344"><ele>11</ele></trkpt><trkpt lat="-27.0365" lon="-48.675228333333344"><ele>11</ele></trkpt><trkpt lat="-27.0365" lon="-48.675228333333344"><ele>11</ele></trkpt><trkpt lat="-27.0365" lon="-48.675228333333344"><ele>11</ele></trkpt><trkpt lat="-27.0365" lon="-48.675228333333344"><ele>11</ele></trkpt><trkpt lat="-27.0365" lon="-48.675228333333344"><ele>11</ele></trkpt><trkpt lat="-27.0365" lon="-48.675228333333344"><ele>11</ele></trkpt><trkpt lat="-27.0365" lon="-48.675228333333344"><ele>11</ele></trkpt><trkpt lat="-27.0365" lon="-48.675228333333344"><ele>11</ele></trkpt><trkpt lat="-27.0365" lon="-48.675228333333344"><ele>11</ele></trkpt><trkpt lat="-27.0365" lon="-48.675228333333344"><ele>11</ele></trkpt><trkpt lat="-27.0365" lon="-48.675228333333344"><ele>11</ele></trkpt><trkpt lat="-27.0365" lon="-48.675228333333344"><ele>11</ele></trkpt><trkpt lat="-27.0365" lon="-48.675228333333344"><ele>11</ele></trkpt><trkpt lat="-27.0365" lon="-48.675228333333344"><ele>11</ele></trkpt><trkpt lat="-27.0365" lon="-48.675228333333344"><ele>11</ele></trkpt><trkpt lat="-27.0365" lon="-48.675228333333344"><ele>11</ele></trkpt><trkpt lat="-27.0365" lon="-48.675228333333344"><ele>11</ele></trkpt><trkpt lat="-27.0365" lon="-48.675228333333344"><ele>11</ele></trkpt><trkpt lat="-27.0365" lon="-48.675228333333344"><ele>11</ele></trkpt><trkpt lat="-27.0365" lon="-48.675228333333344"><ele>11</ele></trkpt><trkpt lat="-27.0365" lon="-48.675228333333344"><ele>11</ele></trkpt><trkpt lat="-27.0365" lon="-48.675228333333344"><ele>11</ele></trkpt><trkpt lat="-27.0365" lon="-48.675228333333344"><ele>11</ele></trkpt><trkpt lat="-27.0365" lon="-48.675228333333344"><ele>11</ele></trkpt><trkpt lat="-27.0365" lon="-48.675228333333344"><ele>11</ele></trkpt><trkpt lat="-27.0365" lon="-48.675228333333344"><ele>11</ele></trkpt><trkpt lat="-27.0365" lon="-48.675228333333344"><ele>11</ele></trkpt><trkpt lat="-27.0365" lon="-48.675228333333344"><ele>11</ele></trkpt><trkpt lat="-27.0365" lon="-48.675228333333344"><ele>11</ele></trkpt><trkpt lat="-27.0365" lon="-48.675228333333344"><ele>11</ele></trkpt><trkpt lat="-27.0365" lon="-48.675228333333344"><ele>11</ele></trkpt><trkpt lat="-27.0365" lon="-48.675228333333344"><ele>11</ele></trkpt><trkpt lat="-27.0365" lon="-48.675228333333344"><ele>11</ele></trkpt><trkpt lat="-27.0365" lon="-48.675228333333344"><ele>11</ele></trkpt><trkpt lat="-27.0365" lon="-48.675228333333344"><ele>11</ele></trkpt><trkpt lat="-27.0365" lon="-48.675228333333344"><ele>11</ele></trkpt><trkpt lat="-27.0365" lon="-48.675228333333344"><ele>11</ele></trkpt><trkpt lat="-27.0365" lon="-48.675228333333344"><ele>11</ele></trkpt><trkpt lat="-27.0365" lon="-48.675228333333344"><ele>11</ele></trkpt><trkpt lat="-27.0365" lon="-48.675228333333344"><ele>11</ele></trkpt><trkpt lat="-27.0365" lon="-48.675228333333344"><ele>11</ele></trkpt><trkpt lat="-27.0365" lon="-48.675228333333344"><ele>11</ele></trkpt><trkpt lat="-27.0365" lon="-48.675228333333344"><ele>11</ele></trkpt><trkpt lat="-27.0365" lon="-48.675228333333344"><ele>11</ele></trkpt><trkpt lat="-27.0365" lon="-48.675228333333344"><ele>11</ele></trkpt><trkpt lat="-27.0365" lon="-48.675228333333344"><ele>11</ele></trkpt><trkpt lat="-27.0365" lon="-48.675228333333344"><ele>11</ele></trkpt><trkpt lat="-27.0365" lon="-48.675228333333344"><ele>11</ele></trkpt><trkpt lat="-27.0365" lon="-48.675228333333344"><ele>11</ele></trkpt><trkpt lat="-27.0365" lon="-48.675228333333344"><ele>11</ele></trkpt><trkpt lat="-27.0365" lon="-48.675228333333344"><ele>11</ele></trkpt><trkpt lat="-27.0365" lon="-48.675228333333344"><ele>11</ele></trkpt><trkpt lat="-27.0365" lon="-48.675228333333344"><ele>11</ele></trkpt><trkpt lat="-27.0365" lon="-48.675228333333344"><ele>11</ele></trkpt><trkpt lat="-27.0365" lon="-48.675228333333344"><ele>11</ele></trkpt><trkpt lat="-27.0365" lon="-48.675228333333344"><ele>11</ele></trkpt><trkpt lat="-27.0365" lon="-48.675228333333344"><ele>11</ele></trkpt><trkpt lat="-27.0365" lon="-48.675228333333344"><ele>11</ele></trkpt><trkpt lat="-27.0365" lon="-48.675228333333344"><ele>11</ele></trkpt><trkpt lat="-27.0365" lon="-48.675228333333344"><ele>11</ele></trkpt><trkpt lat="-27.0365" lon="-48.675228333333344"><ele>11</ele></trkpt><trkpt lat="-27.0365" lon="-48.675228333333344"><ele>11</ele></trkpt><trkpt lat="-27.0365" lon="-48.675228333333344"><ele>11</ele></trkpt><trkpt lat="-27.0365" lon="-48.675228333333344"><ele>11</ele></trkpt><trkpt lat="-27.0365" lon="-48.675228333333344"><ele>11</ele></trkpt><trkpt lat="-27.0365" lon="-48.675228333333344"><ele>11</ele></trkpt><trkpt lat="-27.0365" lon="-48.675228333333344"><ele>11</ele></trkpt><trkpt lat="-27.0365" lon="-48.675228333333344"><ele>11</ele></trkpt><trkpt lat="-27.0365" lon="-48.675228333333344"><ele>11</ele></trkpt><trkpt lat="-27.0365" lon="-48.675228333333344"><ele>11</ele></trkpt><trkpt lat="-27.0365" lon="-48.675228333333344"><ele>11</ele></trkpt><trkpt lat="-27.0365" lon="-48.675228333333344"><ele>11</ele></trkpt><trkpt lat="-27.0365" lon="-48.675228333333344"><ele>11</ele></trkpt><trkpt lat="-27.0365" lon="-48.675228333333344"><ele>11</ele></trkpt><trkpt lat="-27.0365" lon="-48.675228333333344"><ele>11</ele></trkpt><trkpt lat="-27.0365" lon="-48.675228333333344"><ele>11</ele></trkpt><trkpt lat="-27.0365" lon="-48.675228333333344"><ele>11</ele></trkpt><trkpt lat="-27.0365" lon="-48.675228333333344"><ele>11</ele></trkpt><trkpt lat="-27.0365" lon="-48.675228333333344"><ele>11</ele></trkpt><trkpt lat="-27.0365" lon="-48.675228333333344"><ele>11</ele></trkpt><trkpt lat="-27.0365" lon="-48.675228333333344"><ele>11</ele></trkpt><trkpt lat="-27.0365" lon="-48.675228333333344"><ele>11</ele></trkpt><trkpt lat="-27.0365" lon="-48.675228333333344"><ele>11</ele></trkpt><trkpt lat="-27.0365" lon="-48.675228333333344"><ele>11</ele></trkpt><trkpt lat="-27.0365" lon="-48.675228333333344"><ele>11</ele></trkpt><trkpt lat="-27.0365" lon="-48.675228333333344"><ele>11</ele></trkpt><trkpt lat="-27.0365" lon="-48.675228333333344"><ele>11</ele></trkpt><trkpt lat="-27.0365" lon="-48.675228333333344"><ele>11</ele></trkpt><trkpt lat="-27.0365" lon="-48.675228333333344"><ele>11</ele></trkpt><trkpt lat="-27.0365" lon="-48.675228333333344"><ele>11</ele></trkpt><trkpt lat="-27.0365" lon="-48.675228333333344"><ele>11</ele></trkpt><trkpt lat="-27.0365" lon="-48.675228333333344"><ele>11</ele></trkpt><trkpt lat="-27.0365" lon="-48.675228333333344"><ele>11</ele></trkpt><trkpt lat="-27.0365" lon="-48.675228333333344"><ele>11</ele></trkpt><trkpt lat="-27.0365" lon="-48.675228333333344"><ele>11</ele></trkpt><trkpt lat="-27.0365" lon="-48.675228333333344"><ele>11</ele></trkpt><trkpt lat="-27.0365" lon="-48.675228333333344"><ele>11</ele></trkpt><trkpt lat="-27.0365" lon="-48.675228333333344"><ele>11</ele></trkpt><trkpt lat="-27.0365" lon="-48.675228333333344"><ele>11</ele></trkpt><trkpt lat="-27.0365" lon="-48.675228333333344"><ele>11</ele></trkpt><trkpt lat="-27.0365" lon="-48.675228333333344"><ele>11</ele></trkpt><trkpt lat="-27.0365" lon="-48.675228333333344"><ele>11</ele></trkpt><trkpt lat="-27.0365" lon="-48.675228333333344"><ele>11</ele></trkpt><trkpt lat="-27.0365" lon="-48.675228333333344"><ele>11</ele></trkpt><trkpt lat="-27.036518333333333" lon="-48.67525833333334"><ele>9.3</ele></trkpt><trkpt lat="-27.036516666666664" lon="-48.67527666666667"><ele>9.2</ele></trkpt><trkpt lat="-27.036515" lon="-48.67529666666666"><ele>9.3</ele></trkpt><trkpt lat="-27.036513333333332" lon="-48.675318333333344"><ele>9.4</ele></trkpt><trkpt lat="-27.036508333333337" lon="-48.67534333333333"><ele>9</ele></trkpt><trkpt lat="-27.036503333333332" lon="-48.675363333333344"><ele>9.1</ele></trkpt><trkpt lat="-27.036495" lon="-48.67538"><ele>9.6</ele></trkpt><trkpt lat="-27.036488333333335" lon="-48.675396666666664"><ele>9.6</ele></trkpt><trkpt lat="-27.03648333333333" lon="-48.67542"><ele>9.5</ele></trkpt><trkpt lat="-27.036478333333335" lon="-48.675441666666664"><ele>9.3</ele></trkpt><trkpt lat="-27.036473333333333" lon="-48.67545833333334"><ele>9.2</ele></trkpt><trkpt lat="-27.036478333333335" lon="-48.67546000000001"><ele>9.3</ele></trkpt><trkpt lat="-27.036479999999997" lon="-48.67546333333333"><ele>9.2</ele></trkpt><trkpt lat="-27.036481666666667" lon="-48.67546666666667"><ele>9.4</ele></trkpt><trkpt lat="-27.036481666666667" lon="-48.67546666666667"><ele>9.4</ele></trkpt><trkpt lat="-27.036485000000003" lon="-48.67546833333334"><ele>9.7</ele></trkpt><trkpt lat="-27.036491666666667" lon="-48.67547166666667"><ele>10.2</ele></trkpt><trkpt lat="-27.036495" lon="-48.67547166666667"><ele>10.4</ele></trkpt><trkpt lat="-27.036496666666668" lon="-48.675473333333336"><ele>10.799999999999999</ele></trkpt><trkpt lat="-27.03649833333333" lon="-48.675473333333336"><ele>11</ele></trkpt><trkpt lat="-27.036503333333332" lon="-48.675475000000006"><ele>11.5</ele></trkpt><trkpt lat="-27.036506666666664" lon="-48.67547833333333"><ele>11.9</ele></trkpt><trkpt lat="-27.036506666666664" lon="-48.67547833333333"><ele>11.9</ele></trkpt><trkpt lat="-27.03651166666667" lon="-48.67548"><ele>12.2</ele></trkpt><trkpt lat="-27.03651166666667" lon="-48.67548"><ele>12.2</ele></trkpt><trkpt lat="-27.03651166666667" lon="-48.67548"><ele>12.2</ele></trkpt><trkpt lat="-27.03651166666667" lon="-48.67548"><ele>12.2</ele></trkpt><trkpt lat="-27.03651166666667" lon="-48.67548"><ele>12.2</ele></trkpt><trkpt lat="-27.03651166666667" lon="-48.67548"><ele>12.2</ele></trkpt><trkpt lat="-27.03651166666667" lon="-48.67548"><ele>12.2</ele></trkpt><trkpt lat="-27.03651166666667" lon="-48.67548"><ele>12.2</ele></trkpt><trkpt lat="-27.03651166666667" lon="-48.67548"><ele>12.2</ele></trkpt><trkpt lat="-27.036520000000003" lon="-48.67550500000001"><ele>12.5</ele></trkpt><trkpt lat="-27.036518333333333" lon="-48.675518333333336"><ele>12.6</ele></trkpt><trkpt lat="-27.036513333333332" lon="-48.67554"><ele>12.7</ele></trkpt><trkpt lat="-27.03651166666667" lon="-48.67556"><ele>12.4</ele></trkpt><trkpt lat="-27.03651" lon="-48.67558166666666"><ele>12.2</ele></trkpt><trkpt lat="-27.036503333333332" lon="-48.67560333333333"><ele>11.6</ele></trkpt><trkpt lat="-27.036493333333336" lon="-48.675623333333334"><ele>12.1</ele></trkpt><trkpt lat="-27.03648333333333" lon="-48.675645"><ele>12.6</ele></trkpt><trkpt lat="-27.036476666666665" lon="-48.67565833333333"><ele>13</ele></trkpt><trkpt lat="-27.036475000000003" lon="-48.675670000000004"><ele>14</ele></trkpt><trkpt lat="-27.03646666666667" lon="-48.67568333333334"><ele>14.9</ele></trkpt><trkpt lat="-27.036458333333332" lon="-48.67570166666666"><ele>15.6</ele></trkpt><trkpt lat="-27.036455" lon="-48.67572666666667"><ele>15.7</ele></trkpt><trkpt lat="-27.036451666666668" lon="-48.675745000000006"><ele>15.7</ele></trkpt><trkpt lat="-27.03645" lon="-48.675753333333326"><ele>15.799999999999999</ele></trkpt><trkpt lat="-27.03645" lon="-48.67576166666666"><ele>16.2</ele></trkpt><trkpt lat="-27.036451666666668" lon="-48.67576666666667"><ele>16.5</ele></trkpt><trkpt lat="-27.036451666666668" lon="-48.67576666666667"><ele>16.5</ele></trkpt><trkpt lat="-27.03645" lon="-48.67576999999999"><ele>16.5</ele></trkpt><trkpt lat="-27.036448333333336" lon="-48.67577333333334"><ele>16.2</ele></trkpt><trkpt lat="-27.036448333333336" lon="-48.67577500000001"><ele>16</ele></trkpt><trkpt lat="-27.03645" lon="-48.67577500000001"><ele>15.5</ele></trkpt><trkpt lat="-27.03645" lon="-48.675776666666664"><ele>15.1</ele></trkpt><trkpt lat="-27.03645333333333" lon="-48.675776666666664"><ele>15</ele></trkpt><trkpt lat="-27.03645333333333" lon="-48.675776666666664"><ele>15</ele></trkpt><trkpt lat="-27.036451666666668" lon="-48.675778333333334"><ele>14.6</ele></trkpt><trkpt lat="-27.036451666666668" lon="-48.675785"><ele>14.4</ele></trkpt><trkpt lat="-27.036455" lon="-48.67579666666667"><ele>14.2</ele></trkpt><trkpt lat="-27.03646" lon="-48.67581"><ele>14</ele></trkpt><trkpt lat="-27.03646" lon="-48.67583166666667"><ele>13.299999999999999</ele></trkpt><trkpt lat="-27.036455" lon="-48.675855"><ele>12.799999999999999</ele></trkpt><trkpt lat="-27.03645333333333" lon="-48.67587666666667"><ele>12.299999999999999</ele></trkpt><trkpt lat="-27.036456666666663" lon="-48.67590499999999"><ele>12.2</ele></trkpt><trkpt lat="-27.036456666666663" lon="-48.675938333333335"><ele>12</ele></trkpt><trkpt lat="-27.036456666666663" lon="-48.67596666666667"><ele>11.7</ele></trkpt><trkpt lat="-27.03645" lon="-48.67599833333334"><ele>11.1</ele></trkpt><trkpt lat="-27.03645" lon="-48.67599833333334"><ele>11.1</ele></trkpt><trkpt lat="-27.036448333333336" lon="-48.67603166666666"><ele>11.299999999999999</ele></trkpt><trkpt lat="-27.036445000000004" lon="-48.67606333333333"><ele>11.799999999999999</ele></trkpt><trkpt lat="-27.036441666666665" lon="-48.676095000000004"><ele>11.9</ele></trkpt><trkpt lat="-27.036430000000003" lon="-48.67613166666667"><ele>12.6</ele></trkpt><trkpt lat="-27.036425" lon="-48.676173333333324"><ele>12.6</ele></trkpt><trkpt lat="-27.03642" lon="-48.6762"><ele>12.6</ele></trkpt><trkpt lat="-27.03641" lon="-48.67623833333334"><ele>11.4</ele></trkpt><trkpt lat="-27.036403333333336" lon="-48.676275000000004"><ele>11</ele></trkpt><trkpt lat="-27.036398333333334" lon="-48.676305"><ele>10.799999999999999</ele></trkpt><trkpt lat="-27.036396666666665" lon="-48.67632333333333"><ele>11</ele></trkpt><trkpt lat="-27.036386666666665" lon="-48.676341666666666"><ele>10.7</ele></trkpt><trkpt lat="-27.036381666666664" lon="-48.676354999999994"><ele>9.6</ele></trkpt><trkpt lat="-27.03637666666667" lon="-48.676365000000004"><ele>8.4</ele></trkpt><trkpt lat="-27.03637666666667" lon="-48.676365000000004"><ele>7.9</ele></trkpt><trkpt lat="-27.03637666666667" lon="-48.676361666666665"><ele>7.300000000000001</ele></trkpt><trkpt lat="-27.03637666666667" lon="-48.676361666666665"><ele>7.300000000000001</ele></trkpt><trkpt lat="-27.03637666666667" lon="-48.67636000000001"><ele>6.6</ele></trkpt><trkpt lat="-27.036375" lon="-48.67635833333334"><ele>6.199999999999999</ele></trkpt><trkpt lat="-27.036368333333332" lon="-48.676365000000004"><ele>5.9</ele></trkpt><trkpt lat="-27.036368333333332" lon="-48.67637166666667"><ele>6</ele></trkpt><trkpt lat="-27.036361666666668" lon="-48.67638333333333"><ele>6</ele></trkpt><trkpt lat="-27.036361666666668" lon="-48.67638333333333"><ele>6</ele></trkpt><trkpt lat="-27.036365" lon="-48.67639166666666"><ele>5.9</ele></trkpt><trkpt lat="-27.036365" lon="-48.676399999999994"><ele>5.6</ele></trkpt><trkpt lat="-27.036368333333332" lon="-48.676411666666674"><ele>5.6</ele></trkpt><trkpt lat="-27.036371666666664" lon="-48.67642833333333"><ele>5.800000000000001</ele></trkpt><trkpt lat="-27.036373333333337" lon="-48.67644833333334"><ele>6.5</ele></trkpt><trkpt lat="-27.036368333333332" lon="-48.67646666666666"><ele>7.5</ele></trkpt><trkpt lat="-27.036366666666662" lon="-48.67648166666666"><ele>8.1</ele></trkpt><trkpt lat="-27.03636333333333" lon="-48.67648666666667"><ele>9.1</ele></trkpt><trkpt lat="-27.036361666666668" lon="-48.676488333333324"><ele>9.2</ele></trkpt><trkpt lat="-27.03636" lon="-48.676489999999994"><ele>9</ele></trkpt><trkpt lat="-27.036361666666668" lon="-48.67649333333334"><ele>9.1</ele></trkpt><trkpt lat="-27.036365" lon="-48.67649500000001"><ele>9.1</ele></trkpt><trkpt lat="-27.036365" lon="-48.67649500000001"><ele>9.1</ele></trkpt><trkpt lat="-27.036365" lon="-48.676496666666665"><ele>9.1</ele></trkpt><trkpt lat="-27.036365" lon="-48.676496666666665"><ele>9.1</ele></trkpt><trkpt lat="-27.03636333333333" lon="-48.676498333333335"><ele>9.2</ele></trkpt><trkpt lat="-27.03636333333333" lon="-48.676496666666665"><ele>9.4</ele></trkpt><trkpt lat="-27.036361666666668" lon="-48.676496666666665"><ele>9.6</ele></trkpt><trkpt lat="-27.036361666666668" lon="-48.676496666666665"><ele>9.799999999999999</ele></trkpt><trkpt lat="-27.036361666666668" lon="-48.67649500000001"><ele>10.1</ele></trkpt><trkpt lat="-27.036361666666668" lon="-48.67649500000001"><ele>10.1</ele></trkpt><trkpt lat="-27.036361666666668" lon="-48.67649500000001"><ele>10.1</ele></trkpt><trkpt lat="-27.036361666666668" lon="-48.67649500000001"><ele>10.1</ele></trkpt><trkpt lat="-27.036361666666668" lon="-48.67649500000001"><ele>10.1</ele></trkpt><trkpt lat="-27.036361666666668" lon="-48.67649500000001"><ele>10.1</ele></trkpt><trkpt lat="-27.036361666666668" lon="-48.67649500000001"><ele>10.1</ele></trkpt><trkpt lat="-27.036361666666668" lon="-48.67649500000001"><ele>10.1</ele></trkpt><trkpt lat="-27.03638" lon="-48.67650333333333"><ele>11.7</ele></trkpt><trkpt lat="-27.03638" lon="-48.67650333333333"><ele>11.7</ele></trkpt><trkpt lat="-27.03638" lon="-48.67651000000001"><ele>12</ele></trkpt><trkpt lat="-27.03637833333333" lon="-48.67652"><ele>12.299999999999999</ele></trkpt><trkpt lat="-27.03637833333333" lon="-48.67653833333334"><ele>12.6</ele></trkpt><trkpt lat="-27.03637666666667" lon="-48.67656166666667"><ele>13.1</ele></trkpt><trkpt lat="-27.036371666666664" lon="-48.676584999999996"><ele>13.2</ele></trkpt><trkpt lat="-27.036366666666662" lon="-48.67661"><ele>13.4</ele></trkpt><trkpt lat="-27.036366666666662" lon="-48.67661"><ele>13.4</ele></trkpt><trkpt lat="-27.036361666666668" lon="-48.676636666666674"><ele>13</ele></trkpt><trkpt lat="-27.03636" lon="-48.676658333333336"><ele>12.5</ele></trkpt><trkpt lat="-27.036358333333336" lon="-48.676685"><ele>12</ele></trkpt><trkpt lat="-27.036361666666668" lon="-48.67670833333333"><ele>11.9</ele></trkpt><trkpt lat="-27.036356666666666" lon="-48.67673"><ele>12.1</ele></trkpt><trkpt lat="-27.036350000000002" lon="-48.676746666666666"><ele>11.7</ele></trkpt><trkpt lat="-27.036344999999997" lon="-48.676759999999994"><ele>11.7</ele></trkpt><trkpt lat="-27.036338333333333" lon="-48.67677666666667"><ele>11.6</ele></trkpt><trkpt lat="-27.03633333333333" lon="-48.676793333333336"><ele>11.2</ele></trkpt><trkpt lat="-27.03633166666667" lon="-48.676809999999996"><ele>10.2</ele></trkpt><trkpt lat="-27.03633" lon="-48.67683166666667"><ele>9.799999999999999</ele></trkpt><trkpt lat="-27.03633" lon="-48.676849999999995"><ele>10</ele></trkpt><trkpt lat="-27.03633" lon="-48.676869999999994"><ele>10.2</ele></trkpt><trkpt lat="-27.036328333333337" lon="-48.676893333333325"><ele>10</ele></trkpt><trkpt lat="-27.036325" lon="-48.67691666666666"><ele>10</ele></trkpt><trkpt lat="-27.036325" lon="-48.676938333333325"><ele>10.2</ele></trkpt><trkpt lat="-27.036325" lon="-48.676938333333325"><ele>10.2</ele></trkpt><trkpt lat="-27.036325" lon="-48.676959999999994"><ele>10.4</ele></trkpt><trkpt lat="-27.036326666666664" lon="-48.67698166666667"><ele>10.6</ele></trkpt><trkpt lat="-27.036328333333337" lon="-48.676996666666675"><ele>10.9</ele></trkpt><trkpt lat="-27.036328333333337" lon="-48.67701333333333"><ele>11.5</ele></trkpt><trkpt lat="-27.03633" lon="-48.677038333333336"><ele>12.299999999999999</ele></trkpt><trkpt lat="-27.03633166666667" lon="-48.67706166666667"><ele>12.7</ele></trkpt><trkpt lat="-27.03633" lon="-48.67708"><ele>12.799999999999999</ele></trkpt><trkpt lat="-27.036325" lon="-48.67709833333333"><ele>12.9</ele></trkpt><trkpt lat="-27.03632" lon="-48.67711666666667"><ele>13.2</ele></trkpt><trkpt lat="-27.036316666666668" lon="-48.677135"><ele>12.5</ele></trkpt><trkpt lat="-27.036310000000004" lon="-48.67715499999999"><ele>12.1</ele></trkpt><trkpt lat="-27.036305000000002" lon="-48.67718"><ele>12.4</ele></trkpt><trkpt lat="-27.036299999999997" lon="-48.67720166666666"><ele>12.1</ele></trkpt><trkpt lat="-27.036295000000003" lon="-48.677221666666675"><ele>11.799999999999999</ele></trkpt><trkpt lat="-27.036295000000003" lon="-48.677233333333334"><ele>12</ele></trkpt><trkpt lat="-27.036293333333333" lon="-48.67723666666667"><ele>12.2</ele></trkpt><trkpt lat="-27.036295000000003" lon="-48.677235"><ele>12.1</ele></trkpt><trkpt lat="-27.036293333333333" lon="-48.677235"><ele>12.299999999999999</ele></trkpt><trkpt lat="-27.036293333333333" lon="-48.677233333333334"><ele>12.6</ele></trkpt><trkpt lat="-27.036293333333333" lon="-48.677233333333334"><ele>12.6</ele></trkpt><trkpt lat="-27.036295000000003" lon="-48.677231666666664"><ele>12.7</ele></trkpt><trkpt lat="-27.036299999999997" lon="-48.677229999999994"><ele>13.5</ele></trkpt><trkpt lat="-27.036299999999997" lon="-48.677231666666664"><ele>14.2</ele></trkpt><trkpt lat="-27.036296666666665" lon="-48.677233333333334"><ele>13.799999999999999</ele></trkpt><trkpt lat="-27.036296666666665" lon="-48.677235"><ele>13.6</ele></trkpt><trkpt lat="-27.036296666666665" lon="-48.67723833333333"><ele>13.4</ele></trkpt><trkpt lat="-27.036296666666665" lon="-48.67723833333333"><ele>13.4</ele></trkpt><trkpt lat="-27.036296666666665" lon="-48.67723833333333"><ele>13.4</ele></trkpt><trkpt lat="-27.036296666666665" lon="-48.67723833333333"><ele>13.4</ele></trkpt><trkpt lat="-27.036296666666665" lon="-48.67723833333333"><ele>13.4</ele></trkpt><trkpt lat="-27.036296666666665" lon="-48.67723833333333"><ele>13.4</ele></trkpt><trkpt lat="-27.036296666666665" lon="-48.67723833333333"><ele>13.4</ele></trkpt><trkpt lat="-27.036296666666665" lon="-48.67723833333333"><ele>13.4</ele></trkpt><trkpt lat="-27.036296666666665" lon="-48.67723833333333"><ele>13.4</ele></trkpt><trkpt lat="-27.036296666666665" lon="-48.67723833333333"><ele>13.4</ele></trkpt><trkpt lat="-27.036296666666665" lon="-48.67723833333333"><ele>13.4</ele></trkpt><trkpt lat="-27.036308333333334" lon="-48.677254999999995"><ele>12.1</ele></trkpt><trkpt lat="-27.036310000000004" lon="-48.67725666666667"><ele>11.9</ele></trkpt><trkpt lat="-27.036313333333336" lon="-48.67726"><ele>11.7</ele></trkpt><trkpt lat="-27.036313333333336" lon="-48.67726"><ele>11.7</ele></trkpt><trkpt lat="-27.036310000000004" lon="-48.677261666666666"><ele>11.4</ele></trkpt><trkpt lat="-27.036310000000004" lon="-48.677261666666666"><ele>11.4</ele></trkpt><trkpt lat="-27.036310000000004" lon="-48.677261666666666"><ele>11.4</ele></trkpt><trkpt lat="-27.036310000000004" lon="-48.677261666666666"><ele>11.4</ele></trkpt><trkpt lat="-27.036310000000004" lon="-48.677261666666666"><ele>11.4</ele></trkpt><trkpt lat="-27.036310000000004" lon="-48.677261666666666"><ele>11.4</ele></trkpt><trkpt lat="-27.036310000000004" lon="-48.677261666666666"><ele>11.4</ele></trkpt><trkpt lat="-27.036310000000004" lon="-48.677261666666666"><ele>11.4</ele></trkpt><trkpt lat="-27.036310000000004" lon="-48.677261666666666"><ele>11.4</ele></trkpt><trkpt lat="-27.036310000000004" lon="-48.677261666666666"><ele>11.4</ele></trkpt><trkpt lat="-27.036310000000004" lon="-48.677261666666666"><ele>11.4</ele></trkpt><trkpt lat="-27.036310000000004" lon="-48.677261666666666"><ele>11.4</ele></trkpt><trkpt lat="-27.036310000000004" lon="-48.677261666666666"><ele>11.4</ele></trkpt><trkpt lat="-27.036310000000004" lon="-48.677261666666666"><ele>11.4</ele></trkpt><trkpt lat="-27.036310000000004" lon="-48.677261666666666"><ele>11.4</ele></trkpt><trkpt lat="-27.036310000000004" lon="-48.677261666666666"><ele>11.4</ele></trkpt><trkpt lat="-27.036310000000004" lon="-48.677261666666666"><ele>11.4</ele></trkpt><trkpt lat="-27.036310000000004" lon="-48.677261666666666"><ele>11.4</ele></trkpt><trkpt lat="-27.036310000000004" lon="-48.677261666666666"><ele>11.4</ele></trkpt><trkpt lat="-27.036310000000004" lon="-48.677261666666666"><ele>11.4</ele></trkpt><trkpt lat="-27.036310000000004" lon="-48.677261666666666"><ele>11.4</ele></trkpt><trkpt lat="-27.036310000000004" lon="-48.677261666666666"><ele>11.4</ele></trkpt><trkpt lat="-27.036285" lon="-48.67728"><ele>10.799999999999999</ele></trkpt><trkpt lat="-27.036283333333337" lon="-48.67728666666667"><ele>10.6</ele></trkpt><trkpt lat="-27.03628" lon="-48.677298333333326"><ele>10.6</ele></trkpt><trkpt lat="-27.036276666666662" lon="-48.67730333333334"><ele>10.5</ele></trkpt><trkpt lat="-27.036275" lon="-48.677311666666675"><ele>10.299999999999999</ele></trkpt><trkpt lat="-27.036275" lon="-48.67731666666667"><ele>10</ele></trkpt><trkpt lat="-27.036275" lon="-48.677323333333334"><ele>10</ele></trkpt><trkpt lat="-27.036278333333332" lon="-48.677325"><ele>10.1</ele></trkpt><trkpt lat="-27.03628" lon="-48.67732666666667"><ele>10.2</ele></trkpt><trkpt lat="-27.036278333333332" lon="-48.67732666666667"><ele>10.299999999999999</ele></trkpt><trkpt lat="-27.03628" lon="-48.677321666666664"><ele>10.4</ele></trkpt><trkpt lat="-27.03628" lon="-48.67731833333334"><ele>10.6</ele></trkpt><trkpt lat="-27.036278333333332" lon="-48.67731666666667"><ele>10.799999999999999</ele></trkpt><trkpt lat="-27.036278333333332" lon="-48.67731666666667"><ele>10.799999999999999</ele></trkpt><trkpt lat="-27.036278333333332" lon="-48.67731666666667"><ele>11</ele></trkpt><trkpt lat="-27.036278333333332" lon="-48.67731666666667"><ele>11</ele></trkpt><trkpt lat="-27.03627333333333" lon="-48.677321666666664"><ele>11.5</ele></trkpt><trkpt lat="-27.036276666666662" lon="-48.67733333333334"><ele>11.6</ele></trkpt><trkpt lat="-27.036276666666662" lon="-48.67735166666667"><ele>12.2</ele></trkpt><trkpt lat="-27.03628" lon="-48.67737166666667"><ele>12.6</ele></trkpt><trkpt lat="-27.036276666666662" lon="-48.67739666666667"><ele>12.6</ele></trkpt><trkpt lat="-27.036271666666668" lon="-48.67742833333333"><ele>12.7</ele></trkpt><trkpt lat="-27.036268333333336" lon="-48.67745166666667"><ele>12.2</ele></trkpt><trkpt lat="-27.036265000000004" lon="-48.677479999999996"><ele>11.4</ele></trkpt><trkpt lat="-27.036261666666665" lon="-48.677505000000004"><ele>10.799999999999999</ele></trkpt><trkpt lat="-27.036253333333335" lon="-48.67753"><ele>10.2</ele></trkpt><trkpt lat="-27.036253333333335" lon="-48.67755333333333"><ele>10.1</ele></trkpt><trkpt lat="-27.036251666666665" lon="-48.67757833333334"><ele>10.1</ele></trkpt><trkpt lat="-27.036248333333333" lon="-48.67760166666667"><ele>10.1</ele></trkpt><trkpt lat="-27.036246666666663" lon="-48.67763"><ele>9.9</ele></trkpt><trkpt lat="-27.03624333333333" lon="-48.677655"><ele>9.799999999999999</ele></trkpt><trkpt lat="-27.036246666666663" lon="-48.677670000000006"><ele>9.4</ele></trkpt><trkpt lat="-27.036253333333335" lon="-48.677681666666665"><ele>10.2</ele></trkpt><trkpt lat="-27.036254999999997" lon="-48.67769166666667"><ele>10.799999999999999</ele></trkpt><trkpt lat="-27.036253333333335" lon="-48.67768833333333"><ele>12</ele></trkpt><trkpt lat="-27.036250000000003" lon="-48.677685000000004"><ele>12.6</ele></trkpt><trkpt lat="-27.036250000000003" lon="-48.677685000000004"><ele>12.6</ele></trkpt><trkpt lat="-27.036246666666663" lon="-48.677681666666665"><ele>13</ele></trkpt><trkpt lat="-27.036245" lon="-48.677681666666665"><ele>13.7</ele></trkpt><trkpt lat="-27.03624166666667" lon="-48.677683333333334"><ele>14.2</ele></trkpt><trkpt lat="-27.03624166666667" lon="-48.677683333333334"><ele>14.2</ele></trkpt><trkpt lat="-27.03624166666667" lon="-48.677685000000004"><ele>14.2</ele></trkpt><trkpt lat="-27.03624333333333" lon="-48.67768666666666"><ele>14.4</ele></trkpt><trkpt lat="-27.036245" lon="-48.67768666666666"><ele>14.9</ele></trkpt><trkpt lat="-27.036248333333333" lon="-48.67768833333333"><ele>15</ele></trkpt><trkpt lat="-27.036251666666665" lon="-48.67768833333333"><ele>15</ele></trkpt><trkpt lat="-27.036251666666665" lon="-48.67768833333333"><ele>15</ele></trkpt><trkpt lat="-27.036251666666665" lon="-48.67768833333333"><ele>15</ele></trkpt><trkpt lat="-27.036251666666665" lon="-48.67768833333333"><ele>15</ele></trkpt><trkpt lat="-27.036251666666665" lon="-48.67768833333333"><ele>15</ele></trkpt><trkpt lat="-27.036251666666665" lon="-48.67768833333333"><ele>15</ele></trkpt><trkpt lat="-27.036251666666665" lon="-48.67769666666666"><ele>15.799999999999999</ele></trkpt><trkpt lat="-27.036248333333333" lon="-48.677703333333326"><ele>16.1</ele></trkpt><trkpt lat="-27.036248333333333" lon="-48.67771833333333"><ele>16.2</ele></trkpt><trkpt lat="-27.036248333333333" lon="-48.67771833333333"><ele>16.2</ele></trkpt><trkpt lat="-27.036246666666663" lon="-48.67773999999999"><ele>16.7</ele></trkpt><trkpt lat="-27.03624" lon="-48.677755"><ele>17</ele></trkpt><trkpt lat="-27.036238333333337" lon="-48.677773333333334"><ele>17.3</ele></trkpt><trkpt lat="-27.036238333333337" lon="-48.67779"><ele>17.3</ele></trkpt><trkpt lat="-27.036236666666664" lon="-48.67780833333333"><ele>17.400000000000002</ele></trkpt><trkpt lat="-27.03624" lon="-48.67782999999999"><ele>17.8</ele></trkpt><trkpt lat="-27.03624166666667" lon="-48.67784333333334"><ele>17.8</ele></trkpt><trkpt lat="-27.03624166666667" lon="-48.67784333333334"><ele>17.8</ele></trkpt><trkpt lat="-27.036238333333337" lon="-48.67785833333334"><ele>17</ele></trkpt><trkpt lat="-27.03622833333333" lon="-48.67787499999999"><ele>16.900000000000002</ele></trkpt><trkpt lat="-27.036221666666666" lon="-48.67789500000001"><ele>16.400000000000002</ele></trkpt><trkpt lat="-27.036215000000002" lon="-48.67791166666666"><ele>16.1</ele></trkpt><trkpt lat="-27.036208333333335" lon="-48.67792833333333"><ele>16</ele></trkpt><trkpt lat="-27.036201666666663" lon="-48.67794833333334"><ele>16</ele></trkpt><trkpt lat="-27.036203333333333" lon="-48.67797833333334"><ele>16.1</ele></trkpt><trkpt lat="-27.036215000000002" lon="-48.67800333333333"><ele>15.9</ele></trkpt><trkpt lat="-27.03623" lon="-48.67800666666667"><ele>15.2</ele></trkpt><trkpt lat="-27.036253333333335" lon="-48.67799166666667"><ele>14.1</ele></trkpt><trkpt lat="-27.036271666666668" lon="-48.67797166666666"><ele>13.7</ele></trkpt><trkpt lat="-27.03628" lon="-48.677955000000004"><ele>13.299999999999999</ele></trkpt><trkpt lat="-27.036283333333337" lon="-48.677949999999996"><ele>13.2</ele></trkpt><trkpt lat="-27.03628666666667" lon="-48.677945"><ele>13.799999999999999</ele></trkpt><trkpt lat="-27.036283333333337" lon="-48.677945"><ele>14</ele></trkpt><trkpt lat="-27.036281666666664" lon="-48.677945"><ele>14.4</ele></trkpt><trkpt lat="-27.036278333333332" lon="-48.67794333333333"><ele>14.799999999999999</ele></trkpt><trkpt lat="-27.036278333333332" lon="-48.67794333333333"><ele>14.9</ele></trkpt><trkpt lat="-27.036276666666662" lon="-48.67794000000001"><ele>14.9</ele></trkpt><trkpt lat="-27.036275" lon="-48.67794000000001"><ele>14.9</ele></trkpt><trkpt lat="-27.036275" lon="-48.67794166666666"><ele>14.799999999999999</ele></trkpt><trkpt lat="-27.036271666666668" lon="-48.67794000000001"><ele>15.1</ele></trkpt><trkpt lat="-27.03627333333333" lon="-48.67794166666666"><ele>15.1</ele></trkpt><trkpt lat="-27.03627333333333" lon="-48.67794166666666"><ele>15.1</ele></trkpt><trkpt lat="-27.03627333333333" lon="-48.67794166666666"><ele>15.1</ele></trkpt><trkpt lat="-27.03627333333333" lon="-48.67794166666666"><ele>15.1</ele></trkpt><trkpt lat="-27.03627333333333" lon="-48.67794166666666"><ele>15.1</ele></trkpt><trkpt lat="-27.03627333333333" lon="-48.67794166666666"><ele>15.1</ele></trkpt><trkpt lat="-27.03627333333333" lon="-48.67794166666666"><ele>15.1</ele></trkpt><trkpt lat="-27.03627333333333" lon="-48.67794166666666"><ele>15.1</ele></trkpt><trkpt lat="-27.03627333333333" lon="-48.67794166666666"><ele>15.1</ele></trkpt><trkpt lat="-27.03627333333333" lon="-48.67794166666666"><ele>15.1</ele></trkpt><trkpt lat="-27.03627333333333" lon="-48.67794166666666"><ele>15.1</ele></trkpt><trkpt lat="-27.03627333333333" lon="-48.67794166666666"><ele>15.1</ele></trkpt><trkpt lat="-27.03627333333333" lon="-48.67794166666666"><ele>15.1</ele></trkpt><trkpt lat="-27.03627333333333" lon="-48.67794166666666"><ele>15.1</ele></trkpt><trkpt lat="-27.03627333333333" lon="-48.67794166666666"><ele>15.1</ele></trkpt><trkpt lat="-27.03627333333333" lon="-48.67794166666666"><ele>15.1</ele></trkpt><trkpt lat="-27.03627333333333" lon="-48.67794166666666"><ele>15.1</ele></trkpt><trkpt lat="-27.03627333333333" lon="-48.67794166666666"><ele>15.1</ele></trkpt><trkpt lat="-27.03627333333333" lon="-48.67794166666666"><ele>15.1</ele></trkpt><trkpt lat="-27.03627333333333" lon="-48.67794166666666"><ele>15.1</ele></trkpt><trkpt lat="-27.03627333333333" lon="-48.67794166666666"><ele>15.1</ele></trkpt><trkpt lat="-27.03627333333333" lon="-48.67794166666666"><ele>15.1</ele></trkpt><trkpt lat="-27.03627333333333" lon="-48.67794166666666"><ele>15.1</ele></trkpt><trkpt lat="-27.03627333333333" lon="-48.67794166666666"><ele>15.1</ele></trkpt><trkpt lat="-27.03627333333333" lon="-48.67794166666666"><ele>15.1</ele></trkpt><trkpt lat="-27.03627333333333" lon="-48.67794166666666"><ele>15.1</ele></trkpt><trkpt lat="-27.03627333333333" lon="-48.67794166666666"><ele>15.1</ele></trkpt><trkpt lat="-27.03627333333333" lon="-48.67794166666666"><ele>15.1</ele></trkpt><trkpt lat="-27.03627333333333" lon="-48.67794166666666"><ele>15.1</ele></trkpt><trkpt lat="-27.03627333333333" lon="-48.67794166666666"><ele>15.1</ele></trkpt><trkpt lat="-27.03627333333333" lon="-48.67794166666666"><ele>15.1</ele></trkpt><trkpt lat="-27.03627333333333" lon="-48.67794166666666"><ele>15.1</ele></trkpt><trkpt lat="-27.03627333333333" lon="-48.67794166666666"><ele>15.1</ele></trkpt><trkpt lat="-27.03627333333333" lon="-48.67794166666666"><ele>15.1</ele></trkpt><trkpt lat="-27.03627333333333" lon="-48.67794166666666"><ele>15.1</ele></trkpt><trkpt lat="-27.03627333333333" lon="-48.67794166666666"><ele>15.1</ele></trkpt><trkpt lat="-27.036251666666665" lon="-48.67793166666667"><ele>15.7</ele></trkpt><trkpt lat="-27.036251666666665" lon="-48.67793166666667"><ele>15.799999999999999</ele></trkpt><trkpt lat="-27.036263333333334" lon="-48.67792166666666"><ele>15.799999999999999</ele></trkpt><trkpt lat="-27.036268333333336" lon="-48.67791666666667"><ele>15.6</ele></trkpt><trkpt lat="-27.036268333333336" lon="-48.67791333333333"><ele>15.4</ele></trkpt><trkpt lat="-27.036268333333336" lon="-48.677910000000004"><ele>15.2</ele></trkpt><trkpt lat="-27.03627" lon="-48.677908333333335"><ele>15</ele></trkpt><trkpt lat="-27.036271666666668" lon="-48.677906666666665"><ele>14.799999999999999</ele></trkpt><trkpt lat="-27.03627" lon="-48.677906666666665"><ele>14.799999999999999</ele></trkpt><trkpt lat="-27.036271666666668" lon="-48.677906666666665"><ele>14.9</ele></trkpt><trkpt lat="-27.03627333333333" lon="-48.677908333333335"><ele>14.799999999999999</ele></trkpt></trkseg></trk></gpx>