<?xml version="1.0" encoding="UTF-8"?>
<gpx xmlns="http://www.topografix.com/GPX/1/1" version="1.1" creator="@dwayneparton/geojson-to-gpx"><wpt lat="-27.021689999999996" lon="-48.61080666666667"><ele>0.20000000000000018</ele><name>1 faixa</name></wpt><wpt lat="-27.022805" lon="-48.61099833333333"><ele>5.4</ele><name>24</name></wpt><wpt lat="-27.02508833333333" lon="-48.61130166666667"><ele>10.299999999999999</ele><name>50km/h</name></wpt><wpt lat="-27.022823333333335" lon="-48.61101999999999"><ele>9.6</ele><name>165</name></wpt><wpt lat="-27.022814999999998" lon="-48.61095666666667"><ele>4.300000000000001</ele><name>400</name></wpt><wpt lat="-27.022805" lon="-48.61099833333333"><ele>5.4</ele><name>816</name></wpt><wpt lat="-27.027008333333335" lon="-48.611563333333336"><ele>12.5</ele><name>A ciclo é completamente reta.</name></wpt><wpt lat="-27.026998333333335" lon="-48.61158333333333"><ele>11.5</ele><name>A pintura está boa, COMPLETA e visível</name></wpt><wpt lat="-27.027008333333335" lon="-48.611563333333336"><ele>12.5</ele><name>AMBAS: Poucos trechos COM segregadores. Automóvel consegue passar POR ENTRE estes com facilidade.</name></wpt><wpt lat="-27.021686666666664" lon="-48.61080333333333"><ele>2.6</ele><name>Apenas faixas vermelhas nas bordas</name></wpt><wpt lat="-27.022805" lon="-48.61099833333333"><ele>5.4</ele><name>Área de amortecimento da ciclo (cm)</name></wpt><wpt lat="-27.022823333333335" lon="-48.61101999999999"><ele>9.6</ele><name>Área transitável da ciclo (cm)</name></wpt><wpt lat="-27.021685" lon="-48.61080833333334"><ele>0.9000000000000001</ele><name>Asfalto</name></wpt><wpt lat="-27.021751" lon="-48.610853"><name>Ausência de conexão entre ciclos.</name></wpt><wpt lat="-27.02168" lon="-48.61081333333333"><ele>2.9000000000000004</ele><name>Bidirecional</name></wpt><wpt lat="-27.026998333333335" lon="-48.61158333333333"><ele>11.5</ele><name>Bom estado</name></wpt><wpt lat="-27.022146666666664" lon="-48.61087333333333"><ele>3.7</ele><name>Bueiro</name></wpt><wpt lat="-27.02226333333333" lon="-48.61090000000001"><ele>8.9</ele><name>Bueiro</name></wpt><wpt lat="-27.023435000000003" lon="-48.611071666666675"><ele>17.900000000000002</ele><name>Buraco</name></wpt><wpt lat="-27.021688333333334" lon="-48.61081000000001"><ele>2.6</ele><name>Ciclofaixa</name></wpt><wpt lat="-27.021685" lon="-48.61080666666667"><ele>0</ele><name>Estacionamento dedicado de um lado, segregado da circulação</name></wpt><wpt lat="-27.02283" lon="-48.61100833333333"><ele>8.9</ele><name>Faixa de carros logo ao lado da ciclo (cm)</name></wpt><wpt lat="-27.021575" lon="-48.61081833333333"><ele>18.900000000000002</ele><name>Foto</name></wpt><wpt lat="-27.02163333333333" lon="-48.610846666666674"><ele>4.9</ele><name>Foto</name></wpt><wpt lat="-27.021628333333336" lon="-48.61085333333334"><ele>4.7</ele><name>Foto</name></wpt><wpt lat="-27.022015000000003" lon="-48.61085"><ele>3.4000000000000004</ele><name>Foto</name></wpt><wpt lat="-27.022146666666664" lon="-48.61087666666667"><ele>4</ele><name>Foto</name></wpt><wpt lat="-27.022265" lon="-48.610891666666674"><ele>9.4</ele><name>Foto</name></wpt><wpt lat="-27.022785" lon="-48.61098666666667"><ele>6.6</ele><name>Foto</name></wpt><wpt lat="-27.022775000000003" lon="-48.610978333333335"><ele>6.199999999999999</ele><name>Foto</name></wpt><wpt lat="-27.02343" lon="-48.611075"><ele>18.400000000000002</ele><name>Foto</name></wpt><wpt lat="-27.02343166666667" lon="-48.611058333333325"><ele>40.9</ele><name>Foto</name></wpt><wpt lat="-27.023698333333332" lon="-48.61110999999999"><ele>12.9</ele><name>Foto</name></wpt><wpt lat="-27.024493333333332" lon="-48.61123166666666"><ele>17.8</ele><name>Foto</name></wpt><wpt lat="-27.025084999999997" lon="-48.6113"><ele>10.1</ele><name>Foto</name></wpt><wpt lat="-27.025084999999997" lon="-48.6113"><ele>10.1</ele><name>Foto</name></wpt><wpt lat="-27.025753333333334" lon="-48.611394999999995"><ele>9.799999999999999</ele><name>Foto</name></wpt><wpt lat="-27.026026666666667" lon="-48.611439999999995"><ele>20.1</ele><name>Foto</name></wpt><wpt lat="-27.026405" lon="-48.61146"><ele>14.9</ele><name>Foto</name></wpt><wpt lat="-27.02686833333333" lon="-48.61161833333334"><ele>22.8</ele><name>Foto</name></wpt><wpt lat="-27.027055000000004" lon="-48.61154333333334"><ele>14.799999999999999</ele><name>Foto</name></wpt><wpt lat="-27.026998333333335" lon="-48.61158333333333"><ele>11.5</ele><name>Iluminação geral na via do outro lado da infraestrutura</name></wpt><wpt lat="-27.02199" lon="-48.610841666666666"><ele>3.2</ele><name>Lombadas físicas</name></wpt><wpt lat="-27.023694999999996" lon="-48.61113333333333"><ele>13.9</ele><name>Lombadas físicas</name></wpt><wpt lat="-27.021683333333332" lon="-48.61080666666667"><ele>3.1</ele><name>Mão Única</name></wpt><wpt lat="-27.021676666666668" lon="-48.61081166666666"><ele>3.6</ele><name>No bordo esquerdo de Via de Mão Única</name></wpt><wpt lat="-27.022796666666668" lon="-48.61098833333334"><ele>6.1</ele><name>R-34</name></wpt><wpt lat="-27.02343166666667" lon="-48.611058333333325"><ele>40.9</ele><name>R-34</name></wpt><wpt lat="-27.02604" lon="-48.611445"><ele>18.8</ele><name>R-34</name></wpt><wpt lat="-27.026998333333335" lon="-48.61158333333333"><ele>11.5</ele><name>Sombras em alguns trechos, SEM mudas novas</name></wpt><wpt lat="-27.021685" lon="-48.610805"><ele>1.4000000000000001</ele><name>Tachões</name></wpt><wpt lat="-27.022805" lon="-48.61099833333333"><ele>5.4</ele><name>Total da via (incluindo a ciclo) (cm)</name></wpt><wpt lat="-27.024501666666666" lon="-48.61124499999999"><ele>18.200000000000003</ele><name>Travessia de pedestre em nível (lombofaixa)</name></wpt><wpt lat="-27.02576" lon="-48.61137999999999"><ele>8.6</ele><name>Travessia de pedestre em nível (lombofaixa)</name></wpt><wpt lat="-27.02640666666667" lon="-48.61145666666666"><ele>14.9</ele><name>Travessia de pedestre em nível (lombofaixa)</name></wpt><trk><name>Ciclofaixa R. Edgar Linhares T2 - BC</name><trkseg><trkpt lat="-27.021683333333332" lon="-48.61080333333333"><ele>0.9000000000000001</ele></trkpt><trkpt lat="-27.021686666666664" lon="-48.610805"><ele>0.9000000000000001</ele></trkpt><trkpt lat="-27.021689999999996" lon="-48.61080666666667"><ele>0.9000000000000001</ele></trkpt><trkpt lat="-27.021691666666666" lon="-48.61080833333334"><ele>1</ele></trkpt><trkpt lat="-27.021685" lon="-48.61081000000001"><ele>1.2000000000000002</ele></trkpt><trkpt lat="-27.02168" lon="-48.61081166666666"><ele>1.7000000000000002</ele></trkpt><trkpt lat="-27.021670000000004" lon="-48.61079500000001"><ele>1.8</ele></trkpt><trkpt lat="-27.02166666666667" lon="-48.61079333333334"><ele>2</ele></trkpt><trkpt lat="-27.02166333333333" lon="-48.610791666666664"><ele>2.2</ele></trkpt><trkpt lat="-27.021665" lon="-48.61079333333334"><ele>2.4000000000000004</ele></trkpt><trkpt lat="-27.021661666666667" lon="-48.610791666666664"><ele>2.3</ele></trkpt><trkpt lat="-27.02166833333333" lon="-48.610800000000005"><ele>2.4000000000000004</ele></trkpt><trkpt lat="-27.021665" lon="-48.610805"><ele>2.5</ele></trkpt><trkpt lat="-27.021661666666667" lon="-48.61080666666667"><ele>2.7</ele></trkpt><trkpt lat="-27.021665" lon="-48.61080666666667"><ele>3.1</ele></trkpt><trkpt lat="-27.021673333333336" lon="-48.61080666666667"><ele>3.4000000000000004</ele></trkpt><trkpt lat="-27.02167833333333" lon="-48.61081166666666"><ele>3.3</ele></trkpt><trkpt lat="-27.021691666666666" lon="-48.61081666666667"><ele>3.3</ele></trkpt><trkpt lat="-27.021701666666665" lon="-48.61082"><ele>3.3</ele></trkpt><trkpt lat="-27.021689999999996" lon="-48.61080666666667"><ele>3.3</ele></trkpt><trkpt lat="-27.021688333333334" lon="-48.61081000000001"><ele>2.6</ele></trkpt><trkpt lat="-27.021688333333334" lon="-48.61081000000001"><ele>2.6</ele></trkpt><trkpt lat="-27.021683333333332" lon="-48.61081666666667"><ele>2.8</ele></trkpt><trkpt lat="-27.02168" lon="-48.61081333333333"><ele>2.9000000000000004</ele></trkpt><trkpt lat="-27.02168" lon="-48.61081333333333"><ele>2.9000000000000004</ele></trkpt><trkpt lat="-27.021675" lon="-48.61081666666667"><ele>3.1</ele></trkpt><trkpt lat="-27.021675" lon="-48.610823333333336"><ele>3.2</ele></trkpt><trkpt lat="-27.02168" lon="-48.61081000000001"><ele>3.3</ele></trkpt><trkpt lat="-27.02167833333333" lon="-48.61081000000001"><ele>3.5</ele></trkpt><trkpt lat="-27.021675" lon="-48.61081166666666"><ele>3.6</ele></trkpt><trkpt lat="-27.021676666666668" lon="-48.61081166666666"><ele>3.5</ele></trkpt><trkpt lat="-27.021676666666668" lon="-48.61081166666666"><ele>3.6</ele></trkpt><trkpt lat="-27.021676666666668" lon="-48.61081166666666"><ele>3.6</ele></trkpt><trkpt lat="-27.02167833333333" lon="-48.61081000000001"><ele>3.5</ele></trkpt><trkpt lat="-27.02168" lon="-48.61081000000001"><ele>3.4000000000000004</ele></trkpt><trkpt lat="-27.02168166666667" lon="-48.61080833333334"><ele>3.3</ele></trkpt><trkpt lat="-27.021683333333332" lon="-48.61080666666667"><ele>3.1</ele></trkpt><trkpt lat="-27.021683333333332" lon="-48.61080666666667"><ele>3.1</ele></trkpt><trkpt lat="-27.021685" lon="-48.61080666666667"><ele>3</ele></trkpt><trkpt lat="-27.021688333333334" lon="-48.610805"><ele>2.8</ele></trkpt><trkpt lat="-27.021688333333334" lon="-48.61080333333333"><ele>2.7</ele></trkpt><trkpt lat="-27.021686666666664" lon="-48.61080333333333"><ele>2.6</ele></trkpt><trkpt lat="-27.021686666666664" lon="-48.61080333333333"><ele>2.6</ele></trkpt><trkpt lat="-27.021686666666664" lon="-48.610801666666674"><ele>2.4000000000000004</ele></trkpt><trkpt lat="-27.021685" lon="-48.610801666666674"><ele>2.2</ele></trkpt><trkpt lat="-27.021685" lon="-48.610801666666674"><ele>1.9000000000000001</ele></trkpt><trkpt lat="-27.021685" lon="-48.610805"><ele>1.7000000000000002</ele></trkpt><trkpt lat="-27.021685" lon="-48.610805"><ele>1.4000000000000001</ele></trkpt><trkpt lat="-27.021685" lon="-48.610805"><ele>1.4000000000000001</ele></trkpt><trkpt lat="-27.021685" lon="-48.610805"><ele>1.2000000000000002</ele></trkpt><trkpt lat="-27.021685" lon="-48.61080833333334"><ele>0.9000000000000001</ele></trkpt><trkpt lat="-27.021685" lon="-48.61080833333334"><ele>0.9000000000000001</ele></trkpt><trkpt lat="-27.021686666666664" lon="-48.61080833333334"><ele>0.7000000000000001</ele></trkpt><trkpt lat="-27.021688333333334" lon="-48.61080666666667"><ele>0.40000000000000013</ele></trkpt><trkpt lat="-27.021689999999996" lon="-48.61080666666667"><ele>0.20000000000000018</ele></trkpt><trkpt lat="-27.021689999999996" lon="-48.61080666666667"><ele>0.20000000000000018</ele></trkpt><trkpt lat="-27.021688333333334" lon="-48.61080666666667"><ele>0</ele></trkpt><trkpt lat="-27.021688333333334" lon="-48.61080833333334"><ele>0.20000000000000018</ele></trkpt><trkpt lat="-27.021686666666664" lon="-48.61080666666667"><ele>0.10000000000000009</ele></trkpt><trkpt lat="-27.021685" lon="-48.61080666666667"><ele>0</ele></trkpt><trkpt lat="-27.021685" lon="-48.61080666666667"><ele>0</ele></trkpt><trkpt lat="-27.021685" lon="-48.61080666666667"><ele>0</ele></trkpt><trkpt lat="-27.021685" lon="-48.61080666666667"><ele>0</ele></trkpt><trkpt lat="-27.021685" lon="-48.61080666666667"><ele>0</ele></trkpt><trkpt lat="-27.021685" lon="-48.61080666666667"><ele>0</ele></trkpt><trkpt lat="-27.021685" lon="-48.61080666666667"><ele>0</ele></trkpt><trkpt lat="-27.021685" lon="-48.61080666666667"><ele>0</ele></trkpt><trkpt lat="-27.021676666666668" lon="-48.610796666666666"><ele>0.5</ele></trkpt><trkpt lat="-27.021671666666666" lon="-48.610791666666664"><ele>0.30000000000000004</ele></trkpt><trkpt lat="-27.02166666666667" lon="-48.610788333333325"><ele>0.10000000000000009</ele></trkpt><trkpt lat="-27.021658333333335" lon="-48.610791666666664"><ele>-0.09999999999999987</ele></trkpt><trkpt lat="-27.021648333333328" lon="-48.61079500000001"><ele>0.30000000000000004</ele></trkpt><trkpt lat="-27.02163333333333" lon="-48.610805"><ele>0.40000000000000013</ele></trkpt><trkpt lat="-27.021643333333333" lon="-48.61081833333333"><ele>0.6000000000000001</ele></trkpt><trkpt lat="-27.021646666666665" lon="-48.610821666666666"><ele>0.7000000000000001</ele></trkpt><trkpt lat="-27.021655000000003" lon="-48.61082"><ele>1.1</ele></trkpt><trkpt lat="-27.021575" lon="-48.61082"><ele>32.1</ele></trkpt><trkpt lat="-27.021571666666667" lon="-48.61082"><ele>28.400000000000002</ele></trkpt><trkpt lat="-27.021571666666667" lon="-48.61081833333333"><ele>24.8</ele></trkpt><trkpt lat="-27.021575" lon="-48.61081666666667"><ele>21.5</ele></trkpt><trkpt lat="-27.021575" lon="-48.61081833333333"><ele>18.900000000000002</ele></trkpt><trkpt lat="-27.021575" lon="-48.61081833333333"><ele>18.900000000000002</ele></trkpt><trkpt lat="-27.021580000000004" lon="-48.61081666666667"><ele>16.6</ele></trkpt><trkpt lat="-27.021580000000004" lon="-48.61081333333333"><ele>14.7</ele></trkpt><trkpt lat="-27.021581666666666" lon="-48.61081000000001"><ele>13.2</ele></trkpt><trkpt lat="-27.021588333333337" lon="-48.61081166666666"><ele>11.6</ele></trkpt><trkpt lat="-27.021598333333333" lon="-48.61081166666666"><ele>10</ele></trkpt><trkpt lat="-27.02160666666667" lon="-48.610815"><ele>9.2</ele></trkpt><trkpt lat="-27.021616666666667" lon="-48.61081666666667"><ele>8.3</ele></trkpt><trkpt lat="-27.021625000000004" lon="-48.61081666666667"><ele>7.6</ele></trkpt><trkpt lat="-27.021626666666666" lon="-48.61081833333333"><ele>7.1</ele></trkpt><trkpt lat="-27.02163" lon="-48.61082"><ele>6.6</ele></trkpt><trkpt lat="-27.02163333333333" lon="-48.610825000000006"><ele>6.300000000000001</ele></trkpt><trkpt lat="-27.02163333333333" lon="-48.61083"><ele>5.800000000000001</ele></trkpt><trkpt lat="-27.02163333333333" lon="-48.610836666666664"><ele>5.5</ele></trkpt><trkpt lat="-27.02163333333333" lon="-48.610843333333335"><ele>5.1</ele></trkpt><trkpt lat="-27.02163333333333" lon="-48.610846666666674"><ele>4.9</ele></trkpt><trkpt lat="-27.02163333333333" lon="-48.610846666666674"><ele>4.9</ele></trkpt><trkpt lat="-27.021631666666668" lon="-48.61085"><ele>4.7</ele></trkpt><trkpt lat="-27.021628333333336" lon="-48.61085333333334"><ele>4.7</ele></trkpt><trkpt lat="-27.021628333333336" lon="-48.61085333333334"><ele>4.7</ele></trkpt><trkpt lat="-27.021628333333336" lon="-48.61085333333334"><ele>4.7</ele></trkpt><trkpt lat="-27.021628333333336" lon="-48.61085333333334"><ele>4.7</ele></trkpt><trkpt lat="-27.021628333333336" lon="-48.61085333333334"><ele>4.7</ele></trkpt><trkpt lat="-27.021628333333336" lon="-48.61085333333334"><ele>4.7</ele></trkpt><trkpt lat="-27.021628333333336" lon="-48.61085333333334"><ele>4.7</ele></trkpt><trkpt lat="-27.021628333333336" lon="-48.61085333333334"><ele>4.7</ele></trkpt><trkpt lat="-27.021628333333336" lon="-48.61085333333334"><ele>4.7</ele></trkpt><trkpt lat="-27.021628333333336" lon="-48.61085333333334"><ele>4.7</ele></trkpt><trkpt lat="-27.021628333333336" lon="-48.61085333333334"><ele>4.7</ele></trkpt><trkpt lat="-27.021628333333336" lon="-48.61085333333334"><ele>4.7</ele></trkpt><trkpt lat="-27.021628333333336" lon="-48.61085333333334"><ele>4.7</ele></trkpt><trkpt lat="-27.021628333333336" lon="-48.61085333333334"><ele>4.7</ele></trkpt><trkpt lat="-27.021628333333336" lon="-48.61085333333334"><ele>4.7</ele></trkpt><trkpt lat="-27.021643333333333" lon="-48.610846666666674"><ele>3.8000000000000003</ele></trkpt><trkpt lat="-27.021648333333328" lon="-48.610846666666674"><ele>3.5</ele></trkpt><trkpt lat="-27.021656666666665" lon="-48.61085"><ele>3.1</ele></trkpt><trkpt lat="-27.021661666666667" lon="-48.61085"><ele>2.8</ele></trkpt><trkpt lat="-27.02166833333333" lon="-48.610846666666674"><ele>2.5</ele></trkpt><trkpt lat="-27.02168" lon="-48.610846666666674"><ele>2.5</ele></trkpt><trkpt lat="-27.021691666666666" lon="-48.61084000000001"><ele>2.8</ele></trkpt><trkpt lat="-27.021704999999997" lon="-48.61083"><ele>2.6</ele></trkpt><trkpt lat="-27.021721666666668" lon="-48.61082"><ele>2.5</ele></trkpt><trkpt lat="-27.021738333333328" lon="-48.610815"><ele>2.4000000000000004</ele></trkpt><trkpt lat="-27.021748333333335" lon="-48.61080666666667"><ele>2.5</ele></trkpt><trkpt lat="-27.02175833333333" lon="-48.610801666666674"><ele>2.3</ele></trkpt><trkpt lat="-27.02177166666667" lon="-48.61080333333333"><ele>2.2</ele></trkpt><trkpt lat="-27.021783333333328" lon="-48.61081166666666"><ele>2.3</ele></trkpt><trkpt lat="-27.021794999999997" lon="-48.61082"><ele>2.5</ele></trkpt><trkpt lat="-27.021805000000004" lon="-48.61082666666666"><ele>2.5</ele></trkpt><trkpt lat="-27.021815" lon="-48.610833333333325"><ele>2.2</ele></trkpt><trkpt lat="-27.021823333333334" lon="-48.61084000000001"><ele>2</ele></trkpt><trkpt lat="-27.02183166666667" lon="-48.610836666666664"><ele>2.1</ele></trkpt><trkpt lat="-27.021841666666667" lon="-48.610836666666664"><ele>2.3</ele></trkpt><trkpt lat="-27.02184666666667" lon="-48.61083833333334"><ele>2.3</ele></trkpt><trkpt lat="-27.021850000000004" lon="-48.610841666666666"><ele>2.2</ele></trkpt><trkpt lat="-27.021853333333336" lon="-48.610843333333335"><ele>2.2</ele></trkpt><trkpt lat="-27.02185833333333" lon="-48.610843333333335"><ele>2.2</ele></trkpt><trkpt lat="-27.02186" lon="-48.610846666666674"><ele>2.3</ele></trkpt><trkpt lat="-27.02186166666667" lon="-48.610841666666666"><ele>2.1</ele></trkpt><trkpt lat="-27.021865000000002" lon="-48.61084000000001"><ele>2.2</ele></trkpt><trkpt lat="-27.021868333333334" lon="-48.61083833333334"><ele>1.9000000000000001</ele></trkpt><trkpt lat="-27.02187333333333" lon="-48.610843333333335"><ele>2.1</ele></trkpt><trkpt lat="-27.021883333333335" lon="-48.610846666666674"><ele>2.1</ele></trkpt><trkpt lat="-27.02190333333333" lon="-48.61085333333334"><ele>2.2</ele></trkpt><trkpt lat="-27.021926666666666" lon="-48.61085333333334"><ele>2.4000000000000004</ele></trkpt><trkpt lat="-27.021943333333336" lon="-48.61084833333333"><ele>2.7</ele></trkpt><trkpt lat="-27.02196333333333" lon="-48.610846666666674"><ele>3.1</ele></trkpt><trkpt lat="-27.02198" lon="-48.610841666666666"><ele>3.1</ele></trkpt><trkpt lat="-27.02199" lon="-48.610841666666666"><ele>3.2</ele></trkpt><trkpt lat="-27.02199" lon="-48.610841666666666"><ele>3.2</ele></trkpt><trkpt lat="-27.022001666666664" lon="-48.610843333333335"><ele>3.4000000000000004</ele></trkpt><trkpt lat="-27.02201166666667" lon="-48.610843333333335"><ele>3.3</ele></trkpt><trkpt lat="-27.022015000000003" lon="-48.610846666666674"><ele>3.2</ele></trkpt><trkpt lat="-27.022016666666666" lon="-48.61084833333333"><ele>3.1</ele></trkpt><trkpt lat="-27.022016666666666" lon="-48.610846666666674"><ele>3.2</ele></trkpt><trkpt lat="-27.022015000000003" lon="-48.610846666666674"><ele>3.3</ele></trkpt><trkpt lat="-27.022015000000003" lon="-48.610845000000005"><ele>3.3</ele></trkpt><trkpt lat="-27.022015000000003" lon="-48.61085"><ele>3.4000000000000004</ele></trkpt><trkpt lat="-27.022015000000003" lon="-48.61085"><ele>3.4000000000000004</ele></trkpt><trkpt lat="-27.022018333333335" lon="-48.61085333333334"><ele>3.3</ele></trkpt><trkpt lat="-27.02202833333333" lon="-48.61085833333333"><ele>3.4000000000000004</ele></trkpt><trkpt lat="-27.02203666666667" lon="-48.61085833333333"><ele>3.4000000000000004</ele></trkpt><trkpt lat="-27.022046666666665" lon="-48.61086166666667"><ele>3.6</ele></trkpt><trkpt lat="-27.022063333333335" lon="-48.61085500000001"><ele>3.6</ele></trkpt><trkpt lat="-27.022076666666667" lon="-48.61085166666667"><ele>3.4000000000000004</ele></trkpt><trkpt lat="-27.022093333333334" lon="-48.61085500000001"><ele>3.2</ele></trkpt><trkpt lat="-27.022111666666667" lon="-48.61086"><ele>3</ele></trkpt><trkpt lat="-27.02213" lon="-48.610866666666666"><ele>2.9000000000000004</ele></trkpt><trkpt lat="-27.022145000000002" lon="-48.610870000000006"><ele>2.8</ele></trkpt><trkpt lat="-27.022153333333335" lon="-48.61087333333333"><ele>2.8</ele></trkpt><trkpt lat="-27.022151666666666" lon="-48.61087333333333"><ele>3</ele></trkpt><trkpt lat="-27.022150000000003" lon="-48.61087333333333"><ele>3.2</ele></trkpt><trkpt lat="-27.022150000000003" lon="-48.610875"><ele>3.3</ele></trkpt><trkpt lat="-27.022146666666664" lon="-48.610875"><ele>3.4000000000000004</ele></trkpt><trkpt lat="-27.022141666666666" lon="-48.61087333333333"><ele>3.5</ele></trkpt><trkpt lat="-27.022141666666666" lon="-48.61087166666666"><ele>3.6</ele></trkpt><trkpt lat="-27.022146666666664" lon="-48.61087333333333"><ele>3.7</ele></trkpt><trkpt lat="-27.022146666666664" lon="-48.61087333333333"><ele>3.7</ele></trkpt><trkpt lat="-27.022146666666664" lon="-48.61087333333333"><ele>3.8000000000000003</ele></trkpt><trkpt lat="-27.022148333333334" lon="-48.61087333333333"><ele>3.9</ele></trkpt><trkpt lat="-27.022146666666664" lon="-48.61087666666667"><ele>4</ele></trkpt><trkpt lat="-27.022146666666664" lon="-48.61087666666667"><ele>4</ele></trkpt><trkpt lat="-27.022146666666664" lon="-48.61087666666667"><ele>4</ele></trkpt><trkpt lat="-27.022146666666664" lon="-48.61087666666667"><ele>4</ele></trkpt><trkpt lat="-27.022146666666664" lon="-48.61087666666667"><ele>4</ele></trkpt><trkpt lat="-27.022146666666664" lon="-48.61087666666667"><ele>4</ele></trkpt><trkpt lat="-27.022146666666664" lon="-48.61087666666667"><ele>4</ele></trkpt><trkpt lat="-27.022146666666664" lon="-48.61087666666667"><ele>4</ele></trkpt><trkpt lat="-27.022146666666664" lon="-48.61087666666667"><ele>4</ele></trkpt><trkpt lat="-27.022146666666664" lon="-48.61087666666667"><ele>4</ele></trkpt><trkpt lat="-27.02220833333333" lon="-48.61090000000001"><ele>7.199999999999999</ele></trkpt><trkpt lat="-27.022201666666668" lon="-48.610895"><ele>7.199999999999999</ele></trkpt><trkpt lat="-27.02220333333333" lon="-48.610890000000005"><ele>6.699999999999999</ele></trkpt><trkpt lat="-27.022211666666667" lon="-48.610888333333335"><ele>6.5</ele></trkpt><trkpt lat="-27.022221666666663" lon="-48.610890000000005"><ele>6.699999999999999</ele></trkpt><trkpt lat="-27.022235000000002" lon="-48.61089333333333"><ele>7.699999999999999</ele></trkpt><trkpt lat="-27.02224833333333" lon="-48.61090000000001"><ele>8.7</ele></trkpt><trkpt lat="-27.02226333333333" lon="-48.61090000000001"><ele>8.9</ele></trkpt><trkpt lat="-27.02226333333333" lon="-48.61090000000001"><ele>8.9</ele></trkpt><trkpt lat="-27.022266666666663" lon="-48.61089833333334"><ele>9</ele></trkpt><trkpt lat="-27.022270000000002" lon="-48.610895"><ele>9.1</ele></trkpt><trkpt lat="-27.022270000000002" lon="-48.610895"><ele>9.2</ele></trkpt><trkpt lat="-27.022268333333333" lon="-48.610895"><ele>9.4</ele></trkpt><trkpt lat="-27.022266666666663" lon="-48.61089333333333"><ele>9.4</ele></trkpt><trkpt lat="-27.022265" lon="-48.610891666666674"><ele>9.4</ele></trkpt><trkpt lat="-27.022265" lon="-48.610891666666674"><ele>9.4</ele></trkpt><trkpt lat="-27.02226166666667" lon="-48.610888333333335"><ele>9.6</ele></trkpt><trkpt lat="-27.022258333333337" lon="-48.610881666666664"><ele>9.7</ele></trkpt><trkpt lat="-27.02226" lon="-48.61087666666667"><ele>9.4</ele></trkpt><trkpt lat="-27.022265" lon="-48.610875"><ele>9.2</ele></trkpt><trkpt lat="-27.022274999999997" lon="-48.610879999999995"><ele>9.2</ele></trkpt><trkpt lat="-27.022289999999998" lon="-48.610888333333335"><ele>9.1</ele></trkpt><trkpt lat="-27.02230833333333" lon="-48.610895"><ele>9</ele></trkpt><trkpt lat="-27.022334999999998" lon="-48.61089833333334"><ele>9.1</ele></trkpt><trkpt lat="-27.022363333333335" lon="-48.61089833333334"><ele>8.7</ele></trkpt><trkpt lat="-27.022395" lon="-48.61090833333333"><ele>8.4</ele></trkpt><trkpt lat="-27.022421666666666" lon="-48.610915000000006"><ele>8.3</ele></trkpt><trkpt lat="-27.022450000000003" lon="-48.61092"><ele>7.9</ele></trkpt><trkpt lat="-27.022480000000005" lon="-48.610923333333325"><ele>7.5</ele></trkpt><trkpt lat="-27.02250333333333" lon="-48.61093000000001"><ele>7.199999999999999</ele></trkpt><trkpt lat="-27.02253" lon="-48.610935000000005"><ele>7.300000000000001</ele></trkpt><trkpt lat="-27.022558333333336" lon="-48.610944999999994"><ele>6.800000000000001</ele></trkpt><trkpt lat="-27.022585000000003" lon="-48.61095333333333"><ele>6.1</ele></trkpt><trkpt lat="-27.022606666666668" lon="-48.610958333333336"><ele>6.6</ele></trkpt><trkpt lat="-27.022631666666665" lon="-48.61095999999999"><ele>7.4</ele></trkpt><trkpt lat="-27.02265333333333" lon="-48.61095999999999"><ele>8.3</ele></trkpt><trkpt lat="-27.022678333333335" lon="-48.61095999999999"><ele>9.2</ele></trkpt><trkpt lat="-27.022704999999995" lon="-48.61095999999999"><ele>8.7</ele></trkpt><trkpt lat="-27.022730000000003" lon="-48.61096166666666"><ele>8.2</ele></trkpt><trkpt lat="-27.022749999999995" lon="-48.61096333333333"><ele>7.6</ele></trkpt><trkpt lat="-27.022769999999998" lon="-48.610965"><ele>7.1</ele></trkpt><trkpt lat="-27.02278833333333" lon="-48.610971666666664"><ele>6.9</ele></trkpt><trkpt lat="-27.022796666666668" lon="-48.610968333333325"><ele>6.6</ele></trkpt><trkpt lat="-27.0228" lon="-48.610969999999995"><ele>6.5</ele></trkpt><trkpt lat="-27.02280166666667" lon="-48.610978333333335"><ele>6.199999999999999</ele></trkpt><trkpt lat="-27.022803333333332" lon="-48.610981666666675"><ele>6.199999999999999</ele></trkpt><trkpt lat="-27.022803333333332" lon="-48.610985"><ele>6.1</ele></trkpt><trkpt lat="-27.02280166666667" lon="-48.61098833333334"><ele>6.300000000000001</ele></trkpt><trkpt lat="-27.0228" lon="-48.610989999999994"><ele>6.300000000000001</ele></trkpt><trkpt lat="-27.022798333333338" lon="-48.610989999999994"><ele>6.300000000000001</ele></trkpt><trkpt lat="-27.022796666666668" lon="-48.61098833333334"><ele>6.1</ele></trkpt><trkpt lat="-27.022796666666668" lon="-48.61098833333334"><ele>6.1</ele></trkpt><trkpt lat="-27.022796666666668" lon="-48.61098666666667"><ele>6.1</ele></trkpt><trkpt lat="-27.022793333333333" lon="-48.61098666666667"><ele>6</ele></trkpt><trkpt lat="-27.02279" lon="-48.61098833333334"><ele>6.199999999999999</ele></trkpt><trkpt lat="-27.02278833333333" lon="-48.61098666666667"><ele>6.5</ele></trkpt><trkpt lat="-27.022785" lon="-48.61098666666667"><ele>6.6</ele></trkpt><trkpt lat="-27.022785" lon="-48.61098666666667"><ele>6.6</ele></trkpt><trkpt lat="-27.022785" lon="-48.61098666666667"><ele>6.6</ele></trkpt><trkpt lat="-27.022785" lon="-48.61098666666667"><ele>6.6</ele></trkpt><trkpt lat="-27.022785" lon="-48.61098666666667"><ele>6.6</ele></trkpt><trkpt lat="-27.022785" lon="-48.61098666666667"><ele>6.6</ele></trkpt><trkpt lat="-27.022771666666667" lon="-48.610980000000005"><ele>7</ele></trkpt><trkpt lat="-27.022778333333335" lon="-48.610978333333335"><ele>6.9</ele></trkpt><trkpt lat="-27.022778333333335" lon="-48.610976666666666"><ele>6.5</ele></trkpt><trkpt lat="-27.022775000000003" lon="-48.610978333333335"><ele>6.199999999999999</ele></trkpt><trkpt lat="-27.022775000000003" lon="-48.610978333333335"><ele>6.199999999999999</ele></trkpt><trkpt lat="-27.022775000000003" lon="-48.610978333333335"><ele>6.199999999999999</ele></trkpt><trkpt lat="-27.022775000000003" lon="-48.610978333333335"><ele>6.199999999999999</ele></trkpt><trkpt lat="-27.022775000000003" lon="-48.610978333333335"><ele>6.199999999999999</ele></trkpt><trkpt lat="-27.022775000000003" lon="-48.610978333333335"><ele>6.199999999999999</ele></trkpt><trkpt lat="-27.022775000000003" lon="-48.610978333333335"><ele>6.199999999999999</ele></trkpt><trkpt lat="-27.022775000000003" lon="-48.610978333333335"><ele>6.199999999999999</ele></trkpt><trkpt lat="-27.022775000000003" lon="-48.610978333333335"><ele>6.199999999999999</ele></trkpt><trkpt lat="-27.022775000000003" lon="-48.610978333333335"><ele>6.199999999999999</ele></trkpt><trkpt lat="-27.022775000000003" lon="-48.610978333333335"><ele>6.199999999999999</ele></trkpt><trkpt lat="-27.022775000000003" lon="-48.610978333333335"><ele>6.199999999999999</ele></trkpt><trkpt lat="-27.022768333333335" lon="-48.610969999999995"><ele>5</ele></trkpt><trkpt lat="-27.022771666666667" lon="-48.61097499999999"><ele>5.1</ele></trkpt><trkpt lat="-27.022776666666665" lon="-48.61097499999999"><ele>5.2</ele></trkpt><trkpt lat="-27.022779999999997" lon="-48.610976666666666"><ele>5.2</ele></trkpt><trkpt lat="-27.02278833333333" lon="-48.610980000000005"><ele>5.2</ele></trkpt><trkpt lat="-27.022798333333338" lon="-48.610985"><ele>5.300000000000001</ele></trkpt><trkpt lat="-27.022805" lon="-48.61099666666667"><ele>5.5</ele></trkpt><trkpt lat="-27.022806666666664" lon="-48.61100499999999"><ele>5.6</ele></trkpt><trkpt lat="-27.022806666666664" lon="-48.61100666666666"><ele>5.300000000000001</ele></trkpt><trkpt lat="-27.022803333333332" lon="-48.61100666666666"><ele>5.5</ele></trkpt><trkpt lat="-27.022803333333332" lon="-48.611003333333336"><ele>5.6</ele></trkpt><trkpt lat="-27.022805" lon="-48.61099833333333"><ele>5.6</ele></trkpt><trkpt lat="-27.022806666666664" lon="-48.61099166666666"><ele>5.6</ele></trkpt><trkpt lat="-27.022808333333334" lon="-48.61098666666667"><ele>5.699999999999999</ele></trkpt><trkpt lat="-27.022806666666664" lon="-48.61098666666667"><ele>5.6</ele></trkpt><trkpt lat="-27.022805" lon="-48.610989999999994"><ele>5.5</ele></trkpt><trkpt lat="-27.022805" lon="-48.61099333333333"><ele>5.5</ele></trkpt><trkpt lat="-27.022805" lon="-48.61099833333333"><ele>5.4</ele></trkpt><trkpt lat="-27.022805" lon="-48.61099833333333"><ele>5.4</ele></trkpt><trkpt lat="-27.022805" lon="-48.61099833333333"><ele>5.4</ele></trkpt><trkpt lat="-27.022805" lon="-48.61099833333333"><ele>5.4</ele></trkpt><trkpt lat="-27.022805" lon="-48.61099833333333"><ele>5.4</ele></trkpt><trkpt lat="-27.022805" lon="-48.61099833333333"><ele>5.4</ele></trkpt><trkpt lat="-27.022805" lon="-48.61099833333333"><ele>5.4</ele></trkpt><trkpt lat="-27.022805" lon="-48.61099833333333"><ele>5.4</ele></trkpt><trkpt lat="-27.022805" lon="-48.61099833333333"><ele>5.4</ele></trkpt><trkpt lat="-27.022805" lon="-48.61099833333333"><ele>5.4</ele></trkpt><trkpt lat="-27.022805" lon="-48.61099833333333"><ele>5.4</ele></trkpt><trkpt lat="-27.022805" lon="-48.61099833333333"><ele>5.4</ele></trkpt><trkpt lat="-27.022805" lon="-48.61099833333333"><ele>5.4</ele></trkpt><trkpt lat="-27.022805" lon="-48.61099833333333"><ele>5.4</ele></trkpt><trkpt lat="-27.022805" lon="-48.61099833333333"><ele>5.4</ele></trkpt><trkpt lat="-27.022805" lon="-48.61099833333333"><ele>5.4</ele></trkpt><trkpt lat="-27.022805" lon="-48.61099833333333"><ele>5.4</ele></trkpt><trkpt lat="-27.022805" lon="-48.61099833333333"><ele>5.4</ele></trkpt><trkpt lat="-27.022805" lon="-48.61099833333333"><ele>5.4</ele></trkpt><trkpt lat="-27.022805" lon="-48.61099833333333"><ele>5.4</ele></trkpt><trkpt lat="-27.022805" lon="-48.61099833333333"><ele>5.4</ele></trkpt><trkpt lat="-27.022805" lon="-48.61099833333333"><ele>5.4</ele></trkpt><trkpt lat="-27.022805" lon="-48.61099833333333"><ele>5.4</ele></trkpt><trkpt lat="-27.022805" lon="-48.61099833333333"><ele>5.4</ele></trkpt><trkpt lat="-27.022805" lon="-48.61099833333333"><ele>5.4</ele></trkpt><trkpt lat="-27.022805" lon="-48.61099833333333"><ele>5.4</ele></trkpt><trkpt lat="-27.022805" lon="-48.61099833333333"><ele>5.4</ele></trkpt><trkpt lat="-27.022805" lon="-48.61099833333333"><ele>5.4</ele></trkpt><trkpt lat="-27.022805" lon="-48.61099833333333"><ele>5.4</ele></trkpt><trkpt lat="-27.022805" lon="-48.61099833333333"><ele>5.4</ele></trkpt><trkpt lat="-27.022805" lon="-48.61099833333333"><ele>5.4</ele></trkpt><trkpt lat="-27.022805" lon="-48.61099833333333"><ele>5.4</ele></trkpt><trkpt lat="-27.022805" lon="-48.61099833333333"><ele>5.4</ele></trkpt><trkpt lat="-27.022805" lon="-48.61099833333333"><ele>5.4</ele></trkpt><trkpt lat="-27.022805" lon="-48.61099833333333"><ele>5.4</ele></trkpt><trkpt lat="-27.022805" lon="-48.61099833333333"><ele>5.4</ele></trkpt><trkpt lat="-27.022805" lon="-48.61099833333333"><ele>5.4</ele></trkpt><trkpt lat="-27.022805" lon="-48.61099833333333"><ele>5.4</ele></trkpt><trkpt lat="-27.022805" lon="-48.61099833333333"><ele>5.4</ele></trkpt><trkpt lat="-27.022805" lon="-48.61099833333333"><ele>5.4</ele></trkpt><trkpt lat="-27.022805" lon="-48.61099833333333"><ele>5.4</ele></trkpt><trkpt lat="-27.022805" lon="-48.61099833333333"><ele>5.4</ele></trkpt><trkpt lat="-27.022805" lon="-48.61099833333333"><ele>5.4</ele></trkpt><trkpt lat="-27.022805" lon="-48.61099833333333"><ele>5.4</ele></trkpt><trkpt lat="-27.022805" lon="-48.61099833333333"><ele>5.4</ele></trkpt><trkpt lat="-27.022805" lon="-48.61099833333333"><ele>5.4</ele></trkpt><trkpt lat="-27.022805" lon="-48.61099833333333"><ele>5.4</ele></trkpt><trkpt lat="-27.022805" lon="-48.61099833333333"><ele>5.4</ele></trkpt><trkpt lat="-27.022805" lon="-48.61099833333333"><ele>5.4</ele></trkpt><trkpt lat="-27.022805" lon="-48.61099833333333"><ele>5.4</ele></trkpt><trkpt lat="-27.022805" lon="-48.61099833333333"><ele>5.4</ele></trkpt><trkpt lat="-27.022805" lon="-48.61099833333333"><ele>5.4</ele></trkpt><trkpt lat="-27.022805" lon="-48.61099833333333"><ele>5.4</ele></trkpt><trkpt lat="-27.022805" lon="-48.61099833333333"><ele>5.4</ele></trkpt><trkpt lat="-27.022805" lon="-48.61099833333333"><ele>5.4</ele></trkpt><trkpt lat="-27.022805" lon="-48.61099833333333"><ele>5.4</ele></trkpt><trkpt lat="-27.022805" lon="-48.61099833333333"><ele>5.4</ele></trkpt><trkpt lat="-27.022805" lon="-48.61099833333333"><ele>5.4</ele></trkpt><trkpt lat="-27.022805" lon="-48.61099833333333"><ele>5.4</ele></trkpt><trkpt lat="-27.022805" lon="-48.61099833333333"><ele>5.4</ele></trkpt><trkpt lat="-27.022805" lon="-48.61099833333333"><ele>5.4</ele></trkpt><trkpt lat="-27.022805" lon="-48.61099833333333"><ele>5.4</ele></trkpt><trkpt lat="-27.022805" lon="-48.61099833333333"><ele>5.4</ele></trkpt><trkpt lat="-27.022805" lon="-48.61099833333333"><ele>5.4</ele></trkpt><trkpt lat="-27.022805" lon="-48.61099833333333"><ele>5.4</ele></trkpt><trkpt lat="-27.022805" lon="-48.61099833333333"><ele>5.4</ele></trkpt><trkpt lat="-27.022805" lon="-48.61099833333333"><ele>5.4</ele></trkpt><trkpt lat="-27.022805" lon="-48.61099833333333"><ele>5.4</ele></trkpt><trkpt lat="-27.022805" lon="-48.61099833333333"><ele>5.4</ele></trkpt><trkpt lat="-27.022805" lon="-48.61099833333333"><ele>5.4</ele></trkpt><trkpt lat="-27.022816666666667" lon="-48.611014999999995"><ele>7.6</ele></trkpt><trkpt lat="-27.022824999999997" lon="-48.611013333333325"><ele>8.1</ele></trkpt><trkpt lat="-27.022826666666667" lon="-48.611013333333325"><ele>8.7</ele></trkpt><trkpt lat="-27.02283" lon="-48.61100833333333"><ele>8.9</ele></trkpt><trkpt lat="-27.02283" lon="-48.61100833333333"><ele>8.9</ele></trkpt><trkpt lat="-27.022826666666667" lon="-48.61101"><ele>9</ele></trkpt><trkpt lat="-27.022824999999997" lon="-48.61101166666667"><ele>9.4</ele></trkpt><trkpt lat="-27.022823333333335" lon="-48.61101999999999"><ele>9.6</ele></trkpt><trkpt lat="-27.022823333333335" lon="-48.61101999999999"><ele>9.6</ele></trkpt><trkpt lat="-27.022823333333335" lon="-48.61101999999999"><ele>9.6</ele></trkpt><trkpt lat="-27.022823333333335" lon="-48.61101999999999"><ele>9.6</ele></trkpt><trkpt lat="-27.022823333333335" lon="-48.61101999999999"><ele>9.6</ele></trkpt><trkpt lat="-27.022823333333335" lon="-48.61101999999999"><ele>9.6</ele></trkpt><trkpt lat="-27.022823333333335" lon="-48.61101999999999"><ele>9.6</ele></trkpt><trkpt lat="-27.022823333333335" lon="-48.61101999999999"><ele>9.6</ele></trkpt><trkpt lat="-27.022823333333335" lon="-48.61101999999999"><ele>9.6</ele></trkpt><trkpt lat="-27.022823333333335" lon="-48.61101999999999"><ele>9.6</ele></trkpt><trkpt lat="-27.022823333333335" lon="-48.61101999999999"><ele>9.6</ele></trkpt><trkpt lat="-27.022809999999996" lon="-48.610989999999994"><ele>9.9</ele></trkpt><trkpt lat="-27.022805" lon="-48.610985"><ele>9.7</ele></trkpt><trkpt lat="-27.02280166666667" lon="-48.610981666666675"><ele>9.6</ele></trkpt><trkpt lat="-27.022805" lon="-48.610978333333335"><ele>9.4</ele></trkpt><trkpt lat="-27.022806666666664" lon="-48.610980000000005"><ele>9.4</ele></trkpt><trkpt lat="-27.022809999999996" lon="-48.610980000000005"><ele>9.1</ele></trkpt><trkpt lat="-27.022808333333334" lon="-48.610985"><ele>9.1</ele></trkpt><trkpt lat="-27.022806666666664" lon="-48.610989999999994"><ele>9</ele></trkpt><trkpt lat="-27.022803333333332" lon="-48.61099166666666"><ele>8.7</ele></trkpt><trkpt lat="-27.02280166666667" lon="-48.61099833333333"><ele>8.4</ele></trkpt><trkpt lat="-27.0228" lon="-48.611"><ele>8.3</ele></trkpt><trkpt lat="-27.022798333333338" lon="-48.611"><ele>8.1</ele></trkpt><trkpt lat="-27.022798333333338" lon="-48.61099833333333"><ele>7.9</ele></trkpt><trkpt lat="-27.022798333333338" lon="-48.61099833333333"><ele>7.9</ele></trkpt><trkpt lat="-27.022798333333338" lon="-48.61099833333333"><ele>7.9</ele></trkpt><trkpt lat="-27.022798333333338" lon="-48.61099833333333"><ele>7.9</ele></trkpt><trkpt lat="-27.022798333333338" lon="-48.61099833333333"><ele>7.9</ele></trkpt><trkpt lat="-27.022798333333338" lon="-48.61099833333333"><ele>7.9</ele></trkpt><trkpt lat="-27.022798333333338" lon="-48.61099833333333"><ele>7.9</ele></trkpt><trkpt lat="-27.022798333333338" lon="-48.61099833333333"><ele>7.9</ele></trkpt><trkpt lat="-27.022798333333338" lon="-48.61099833333333"><ele>7.9</ele></trkpt><trkpt lat="-27.022798333333338" lon="-48.61099833333333"><ele>7.9</ele></trkpt><trkpt lat="-27.022798333333338" lon="-48.61099833333333"><ele>7.9</ele></trkpt><trkpt lat="-27.022798333333338" lon="-48.61099833333333"><ele>7.9</ele></trkpt><trkpt lat="-27.022798333333338" lon="-48.61099833333333"><ele>7.9</ele></trkpt><trkpt lat="-27.022798333333338" lon="-48.61099833333333"><ele>7.9</ele></trkpt><trkpt lat="-27.022781666666667" lon="-48.61100166666667"><ele>5.800000000000001</ele></trkpt><trkpt lat="-27.022775000000003" lon="-48.611014999999995"><ele>5.300000000000001</ele></trkpt><trkpt lat="-27.022775000000003" lon="-48.611025000000005"><ele>5.300000000000001</ele></trkpt><trkpt lat="-27.022778333333335" lon="-48.611034999999994"><ele>5.6</ele></trkpt><trkpt lat="-27.022778333333335" lon="-48.611034999999994"><ele>5.6</ele></trkpt><trkpt lat="-27.022778333333335" lon="-48.611034999999994"><ele>5.6</ele></trkpt><trkpt lat="-27.022778333333335" lon="-48.611034999999994"><ele>5.6</ele></trkpt><trkpt lat="-27.022778333333335" lon="-48.611034999999994"><ele>5.6</ele></trkpt><trkpt lat="-27.022778333333335" lon="-48.611034999999994"><ele>5.6</ele></trkpt><trkpt lat="-27.022778333333335" lon="-48.611034999999994"><ele>5.6</ele></trkpt><trkpt lat="-27.022778333333335" lon="-48.611034999999994"><ele>5.6</ele></trkpt><trkpt lat="-27.022778333333335" lon="-48.611034999999994"><ele>5.6</ele></trkpt><trkpt lat="-27.022778333333335" lon="-48.611034999999994"><ele>5.6</ele></trkpt><trkpt lat="-27.022778333333335" lon="-48.611034999999994"><ele>5.6</ele></trkpt><trkpt lat="-27.022778333333335" lon="-48.611034999999994"><ele>5.6</ele></trkpt><trkpt lat="-27.022778333333335" lon="-48.611034999999994"><ele>5.6</ele></trkpt><trkpt lat="-27.022778333333335" lon="-48.611034999999994"><ele>5.6</ele></trkpt><trkpt lat="-27.022778333333335" lon="-48.611034999999994"><ele>5.6</ele></trkpt><trkpt lat="-27.022778333333335" lon="-48.611034999999994"><ele>5.6</ele></trkpt><trkpt lat="-27.022778333333335" lon="-48.611034999999994"><ele>5.6</ele></trkpt><trkpt lat="-27.022778333333335" lon="-48.611034999999994"><ele>5.6</ele></trkpt><trkpt lat="-27.022778333333335" lon="-48.611034999999994"><ele>5.6</ele></trkpt><trkpt lat="-27.022778333333335" lon="-48.611034999999994"><ele>5.6</ele></trkpt><trkpt lat="-27.022778333333335" lon="-48.611034999999994"><ele>5.6</ele></trkpt><trkpt lat="-27.022778333333335" lon="-48.611034999999994"><ele>5.6</ele></trkpt><trkpt lat="-27.022778333333335" lon="-48.611034999999994"><ele>5.6</ele></trkpt><trkpt lat="-27.022778333333335" lon="-48.611034999999994"><ele>5.6</ele></trkpt><trkpt lat="-27.022778333333335" lon="-48.611034999999994"><ele>5.6</ele></trkpt><trkpt lat="-27.022778333333335" lon="-48.611034999999994"><ele>5.6</ele></trkpt><trkpt lat="-27.022778333333335" lon="-48.611034999999994"><ele>5.6</ele></trkpt><trkpt lat="-27.022778333333335" lon="-48.611034999999994"><ele>5.6</ele></trkpt><trkpt lat="-27.022794999999995" lon="-48.611013333333325"><ele>8.5</ele></trkpt><trkpt lat="-27.022791666666663" lon="-48.61100166666667"><ele>8.3</ele></trkpt><trkpt lat="-27.02278833333333" lon="-48.61099833333333"><ele>7.699999999999999</ele></trkpt><trkpt lat="-27.022785" lon="-48.610995"><ele>7.300000000000001</ele></trkpt><trkpt lat="-27.022783333333336" lon="-48.61099166666666"><ele>7.1</ele></trkpt><trkpt lat="-27.022779999999997" lon="-48.61099166666666"><ele>6.6</ele></trkpt><trkpt lat="-27.022779999999997" lon="-48.611"><ele>6.5</ele></trkpt><trkpt lat="-27.022781666666667" lon="-48.61100666666666"><ele>6.1</ele></trkpt><trkpt lat="-27.022783333333336" lon="-48.611014999999995"><ele>5.800000000000001</ele></trkpt><trkpt lat="-27.02278666666667" lon="-48.611023333333335"><ele>5.4</ele></trkpt><trkpt lat="-27.022793333333333" lon="-48.61103"><ele>4.9</ele></trkpt><trkpt lat="-27.0228" lon="-48.611034999999994"><ele>4.7</ele></trkpt><trkpt lat="-27.02280166666667" lon="-48.61104166666667"><ele>4.800000000000001</ele></trkpt><trkpt lat="-27.0228" lon="-48.611045"><ele>4.6</ele></trkpt><trkpt lat="-27.0228" lon="-48.611045"><ele>4.6</ele></trkpt><trkpt lat="-27.0228" lon="-48.611045"><ele>4.6</ele></trkpt><trkpt lat="-27.0228" lon="-48.611045"><ele>4.6</ele></trkpt><trkpt lat="-27.0228" lon="-48.611045"><ele>4.6</ele></trkpt><trkpt lat="-27.0228" lon="-48.611045"><ele>4.6</ele></trkpt><trkpt lat="-27.0228" lon="-48.611045"><ele>4.6</ele></trkpt><trkpt lat="-27.0228" lon="-48.611045"><ele>4.6</ele></trkpt><trkpt lat="-27.022794999999995" lon="-48.61101"><ele>5.300000000000001</ele></trkpt><trkpt lat="-27.022794999999995" lon="-48.61101"><ele>5.300000000000001</ele></trkpt><trkpt lat="-27.022796666666668" lon="-48.611"><ele>5.300000000000001</ele></trkpt><trkpt lat="-27.022796666666668" lon="-48.61099166666666"><ele>5.1</ele></trkpt><trkpt lat="-27.022798333333338" lon="-48.610980000000005"><ele>5</ele></trkpt><trkpt lat="-27.02280166666667" lon="-48.61097333333334"><ele>4.800000000000001</ele></trkpt><trkpt lat="-27.022805" lon="-48.610965"><ele>4.5</ele></trkpt><trkpt lat="-27.022808333333334" lon="-48.610958333333336"><ele>4.5</ele></trkpt><trkpt lat="-27.022811666666666" lon="-48.610958333333336"><ele>4.4</ele></trkpt><trkpt lat="-27.022811666666666" lon="-48.610958333333336"><ele>4.4</ele></trkpt><trkpt lat="-27.022814999999998" lon="-48.61095666666667"><ele>4.300000000000001</ele></trkpt><trkpt lat="-27.022814999999998" lon="-48.61095666666667"><ele>4.300000000000001</ele></trkpt><trkpt lat="-27.022813333333335" lon="-48.61095999999999"><ele>4.300000000000001</ele></trkpt><trkpt lat="-27.022811666666666" lon="-48.61096166666666"><ele>4.5</ele></trkpt><trkpt lat="-27.022809999999996" lon="-48.61096333333333"><ele>4.7</ele></trkpt><trkpt lat="-27.022809999999996" lon="-48.61096666666667"><ele>4.9</ele></trkpt><trkpt lat="-27.022808333333334" lon="-48.610969999999995"><ele>5.5</ele></trkpt><trkpt lat="-27.022808333333334" lon="-48.61097499999999"><ele>5.5</ele></trkpt><trkpt lat="-27.022808333333334" lon="-48.61097499999999"><ele>5.5</ele></trkpt><trkpt lat="-27.022808333333334" lon="-48.61097499999999"><ele>5.5</ele></trkpt><trkpt lat="-27.022808333333334" lon="-48.61097499999999"><ele>5.5</ele></trkpt><trkpt lat="-27.022808333333334" lon="-48.61097499999999"><ele>5.5</ele></trkpt><trkpt lat="-27.022808333333334" lon="-48.61097499999999"><ele>5.5</ele></trkpt><trkpt lat="-27.022808333333334" lon="-48.61097499999999"><ele>5.5</ele></trkpt><trkpt lat="-27.022808333333334" lon="-48.61097499999999"><ele>5.5</ele></trkpt><trkpt lat="-27.022806666666664" lon="-48.610981666666675"><ele>6</ele></trkpt><trkpt lat="-27.022805" lon="-48.61098666666667"><ele>6.1</ele></trkpt><trkpt lat="-27.022803333333332" lon="-48.61098666666667"><ele>6.199999999999999</ele></trkpt><trkpt lat="-27.022805" lon="-48.610985"><ele>6.199999999999999</ele></trkpt><trkpt lat="-27.022805" lon="-48.610985"><ele>6.199999999999999</ele></trkpt><trkpt lat="-27.022805" lon="-48.610985"><ele>6.199999999999999</ele></trkpt><trkpt lat="-27.022811666666666" lon="-48.610995"><ele>6.5</ele></trkpt><trkpt lat="-27.022814999999998" lon="-48.61099833333333"><ele>6.5</ele></trkpt><trkpt lat="-27.022816666666667" lon="-48.61099666666667"><ele>6.5</ele></trkpt><trkpt lat="-27.022820000000003" lon="-48.610995"><ele>6.5</ele></trkpt><trkpt lat="-27.022821666666665" lon="-48.61099833333333"><ele>6.300000000000001</ele></trkpt><trkpt lat="-27.022821666666665" lon="-48.61099833333333"><ele>6.300000000000001</ele></trkpt><trkpt lat="-27.022821666666665" lon="-48.61099833333333"><ele>6.300000000000001</ele></trkpt><trkpt lat="-27.022821666666665" lon="-48.61099833333333"><ele>6.300000000000001</ele></trkpt><trkpt lat="-27.02283333333333" lon="-48.611014999999995"><ele>6.199999999999999</ele></trkpt><trkpt lat="-27.022843333333338" lon="-48.61101999999999"><ele>6</ele></trkpt><trkpt lat="-27.022858333333335" lon="-48.611023333333335"><ele>6</ele></trkpt><trkpt lat="-27.022875" lon="-48.611025000000005"><ele>5.800000000000001</ele></trkpt><trkpt lat="-27.022896666666664" lon="-48.611026666666675"><ele>5.4</ele></trkpt><trkpt lat="-27.02292" lon="-48.61103166666667"><ele>4.800000000000001</ele></trkpt><trkpt lat="-27.022949999999998" lon="-48.61103333333334"><ele>4.2</ele></trkpt><trkpt lat="-27.02298166666667" lon="-48.61103166666667"><ele>4.1</ele></trkpt><trkpt lat="-27.02301333333333" lon="-48.61102833333333"><ele>4.4</ele></trkpt><trkpt lat="-27.023041666666668" lon="-48.61103166666667"><ele>4.4</ele></trkpt><trkpt lat="-27.02307" lon="-48.611034999999994"><ele>4.7</ele></trkpt><trkpt lat="-27.023098333333337" lon="-48.611034999999994"><ele>4.800000000000001</ele></trkpt><trkpt lat="-27.023126666666666" lon="-48.611036666666664"><ele>4.9</ele></trkpt><trkpt lat="-27.023154999999996" lon="-48.61104333333333"><ele>6</ele></trkpt><trkpt lat="-27.023180000000004" lon="-48.611048333333336"><ele>7.699999999999999</ele></trkpt><trkpt lat="-27.02320666666667" lon="-48.61105666666667"><ele>9.1</ele></trkpt><trkpt lat="-27.02323333333333" lon="-48.611066666666666"><ele>10.799999999999999</ele></trkpt><trkpt lat="-27.023258333333334" lon="-48.611071666666675"><ele>12</ele></trkpt><trkpt lat="-27.02328333333333" lon="-48.61107666666667"><ele>13.799999999999999</ele></trkpt><trkpt lat="-27.023315000000004" lon="-48.61107833333334"><ele>15.5</ele></trkpt><trkpt lat="-27.023346666666665" lon="-48.61107833333334"><ele>17.2</ele></trkpt><trkpt lat="-27.023373333333332" lon="-48.611081666666664"><ele>19.200000000000003</ele></trkpt><trkpt lat="-27.023396666666667" lon="-48.611079999999994"><ele>19.200000000000003</ele></trkpt><trkpt lat="-27.02341333333333" lon="-48.61107666666667"><ele>18.700000000000003</ele></trkpt><trkpt lat="-27.023424999999996" lon="-48.61107333333333"><ele>17.900000000000002</ele></trkpt><trkpt lat="-27.02343166666667" lon="-48.61107333333333"><ele>17.900000000000002</ele></trkpt><trkpt lat="-27.023435000000003" lon="-48.611071666666675"><ele>17.900000000000002</ele></trkpt><trkpt lat="-27.023435000000003" lon="-48.611071666666675"><ele>17.900000000000002</ele></trkpt><trkpt lat="-27.023436666666665" lon="-48.61107333333333"><ele>18.1</ele></trkpt><trkpt lat="-27.023436666666665" lon="-48.611070000000005"><ele>17.5</ele></trkpt><trkpt lat="-27.023435000000003" lon="-48.611071666666675"><ele>17.8</ele></trkpt><trkpt lat="-27.023435000000003" lon="-48.611071666666675"><ele>17.8</ele></trkpt><trkpt lat="-27.02342833333333" lon="-48.61107333333333"><ele>17.900000000000002</ele></trkpt><trkpt lat="-27.02342666666667" lon="-48.611079999999994"><ele>18.3</ele></trkpt><trkpt lat="-27.02343" lon="-48.611075"><ele>18.400000000000002</ele></trkpt><trkpt lat="-27.02343" lon="-48.611075"><ele>18.400000000000002</ele></trkpt><trkpt lat="-27.023421666666664" lon="-48.611066666666666"><ele>37</ele></trkpt><trkpt lat="-27.02343166666667" lon="-48.611058333333325"><ele>40.9</ele></trkpt><trkpt lat="-27.02343166666667" lon="-48.611058333333325"><ele>40.9</ele></trkpt><trkpt lat="-27.02343166666667" lon="-48.611058333333325"><ele>40.9</ele></trkpt><trkpt lat="-27.02343166666667" lon="-48.611058333333325"><ele>40.9</ele></trkpt><trkpt lat="-27.02343166666667" lon="-48.611058333333325"><ele>40.9</ele></trkpt><trkpt lat="-27.02343166666667" lon="-48.611058333333325"><ele>40.9</ele></trkpt><trkpt lat="-27.02343166666667" lon="-48.611058333333325"><ele>40.9</ele></trkpt><trkpt lat="-27.02343166666667" lon="-48.611058333333325"><ele>40.9</ele></trkpt><trkpt lat="-27.02343166666667" lon="-48.611058333333325"><ele>40.9</ele></trkpt><trkpt lat="-27.02343166666667" lon="-48.611058333333325"><ele>40.9</ele></trkpt><trkpt lat="-27.02343166666667" lon="-48.611058333333325"><ele>40.9</ele></trkpt><trkpt lat="-27.02343166666667" lon="-48.611058333333325"><ele>40.9</ele></trkpt><trkpt lat="-27.02343166666667" lon="-48.611058333333325"><ele>40.9</ele></trkpt><trkpt lat="-27.02343166666667" lon="-48.611058333333325"><ele>40.9</ele></trkpt><trkpt lat="-27.02343166666667" lon="-48.611058333333325"><ele>40.9</ele></trkpt><trkpt lat="-27.02343166666667" lon="-48.611058333333325"><ele>40.9</ele></trkpt><trkpt lat="-27.02343166666667" lon="-48.611058333333325"><ele>40.9</ele></trkpt><trkpt lat="-27.023394999999997" lon="-48.611111666666666"><ele>46.9</ele></trkpt><trkpt lat="-27.023408333333336" lon="-48.611115000000005"><ele>46.4</ele></trkpt><trkpt lat="-27.023424999999996" lon="-48.611111666666666"><ele>45.300000000000004</ele></trkpt><trkpt lat="-27.023439999999997" lon="-48.61111833333333"><ele>44.4</ele></trkpt><trkpt lat="-27.02345833333333" lon="-48.61112166666667"><ele>44</ele></trkpt><trkpt lat="-27.02347166666667" lon="-48.611113333333336"><ele>43.800000000000004</ele></trkpt><trkpt lat="-27.023511666666664" lon="-48.611115000000005"><ele>40</ele></trkpt><trkpt lat="-27.023546666666668" lon="-48.61112166666667"><ele>35.9</ele></trkpt><trkpt lat="-27.02358333333333" lon="-48.611135"><ele>30.900000000000002</ele></trkpt><trkpt lat="-27.02361" lon="-48.61113833333334"><ele>27.6</ele></trkpt><trkpt lat="-27.023625" lon="-48.61114166666666"><ele>22.8</ele></trkpt><trkpt lat="-27.023645000000002" lon="-48.61113999999999"><ele>19.700000000000003</ele></trkpt><trkpt lat="-27.023664999999998" lon="-48.61114166666666"><ele>16.8</ele></trkpt><trkpt lat="-27.02367" lon="-48.61114666666667"><ele>15.7</ele></trkpt><trkpt lat="-27.02367333333333" lon="-48.61114333333333"><ele>15</ele></trkpt><trkpt lat="-27.02368" lon="-48.61114166666666"><ele>14.6</ele></trkpt><trkpt lat="-27.023690000000002" lon="-48.61113666666667"><ele>14.4</ele></trkpt><trkpt lat="-27.023694999999996" lon="-48.61113333333333"><ele>13.9</ele></trkpt><trkpt lat="-27.023694999999996" lon="-48.61113333333333"><ele>13.9</ele></trkpt><trkpt lat="-27.023698333333332" lon="-48.61112833333333"><ele>13.5</ele></trkpt><trkpt lat="-27.023703333333334" lon="-48.611124999999994"><ele>13.1</ele></trkpt><trkpt lat="-27.023701666666664" lon="-48.61112"><ele>13.1</ele></trkpt><trkpt lat="-27.0237" lon="-48.611113333333336"><ele>12.9</ele></trkpt><trkpt lat="-27.023698333333332" lon="-48.61110999999999"><ele>12.9</ele></trkpt><trkpt lat="-27.023698333333332" lon="-48.61110999999999"><ele>12.9</ele></trkpt><trkpt lat="-27.023698333333332" lon="-48.61110999999999"><ele>12.9</ele></trkpt><trkpt lat="-27.023698333333332" lon="-48.61110999999999"><ele>12.9</ele></trkpt><trkpt lat="-27.023698333333332" lon="-48.61110999999999"><ele>12.9</ele></trkpt><trkpt lat="-27.023698333333332" lon="-48.61110999999999"><ele>12.9</ele></trkpt><trkpt lat="-27.023698333333332" lon="-48.61110999999999"><ele>12.9</ele></trkpt><trkpt lat="-27.02371333333333" lon="-48.611111666666666"><ele>11.4</ele></trkpt><trkpt lat="-27.02372833333333" lon="-48.61111833333333"><ele>11.2</ele></trkpt><trkpt lat="-27.023745" lon="-48.61112"><ele>11.1</ele></trkpt><trkpt lat="-27.023766666666667" lon="-48.61112166666667"><ele>10.6</ele></trkpt><trkpt lat="-27.02378666666667" lon="-48.611126666666664"><ele>10.5</ele></trkpt><trkpt lat="-27.023811666666667" lon="-48.611124999999994"><ele>10.2</ele></trkpt><trkpt lat="-27.023840000000003" lon="-48.611126666666664"><ele>9.799999999999999</ele></trkpt><trkpt lat="-27.02386333333333" lon="-48.61112833333333"><ele>10.1</ele></trkpt><trkpt lat="-27.023888333333336" lon="-48.61113166666667"><ele>9.9</ele></trkpt><trkpt lat="-27.023915000000002" lon="-48.61113333333333"><ele>9.3</ele></trkpt><trkpt lat="-27.02393833333333" lon="-48.611145"><ele>10.2</ele></trkpt><trkpt lat="-27.023968333333332" lon="-48.611158333333336"><ele>10.9</ele></trkpt><trkpt lat="-27.023993333333337" lon="-48.611165"><ele>10.5</ele></trkpt><trkpt lat="-27.024021666666666" lon="-48.61117333333333"><ele>10.9</ele></trkpt><trkpt lat="-27.024046666666663" lon="-48.61118"><ele>11</ele></trkpt><trkpt lat="-27.024076666666662" lon="-48.61118333333334"><ele>10.799999999999999</ele></trkpt><trkpt lat="-27.024105000000002" lon="-48.611193333333325"><ele>11.299999999999999</ele></trkpt><trkpt lat="-27.02413166666667" lon="-48.611196666666665"><ele>11.5</ele></trkpt><trkpt lat="-27.024165" lon="-48.611205000000005"><ele>12.5</ele></trkpt><trkpt lat="-27.02419166666667" lon="-48.61121333333334"><ele>13.1</ele></trkpt><trkpt lat="-27.024218333333337" lon="-48.61122"><ele>13.799999999999999</ele></trkpt><trkpt lat="-27.024261666666668" lon="-48.61122666666667"><ele>14.1</ele></trkpt><trkpt lat="-27.024296666666668" lon="-48.61123333333333"><ele>14.7</ele></trkpt><trkpt lat="-27.024318333333333" lon="-48.611241666666665"><ele>15.5</ele></trkpt><trkpt lat="-27.02434" lon="-48.611246666666666"><ele>16.1</ele></trkpt><trkpt lat="-27.024364999999996" lon="-48.611250000000005"><ele>16.6</ele></trkpt><trkpt lat="-27.024391666666663" lon="-48.611248333333336"><ele>17</ele></trkpt><trkpt lat="-27.024420000000003" lon="-48.61125333333333"><ele>17.6</ele></trkpt><trkpt lat="-27.024451666666664" lon="-48.611255"><ele>17.700000000000003</ele></trkpt><trkpt lat="-27.024473333333336" lon="-48.611255"><ele>18.200000000000003</ele></trkpt><trkpt lat="-27.02449166666667" lon="-48.611250000000005"><ele>18.8</ele></trkpt><trkpt lat="-27.024495" lon="-48.611250000000005"><ele>18.8</ele></trkpt><trkpt lat="-27.024499999999996" lon="-48.611250000000005"><ele>18.8</ele></trkpt><trkpt lat="-27.024501666666666" lon="-48.61125333333333"><ele>18.6</ele></trkpt><trkpt lat="-27.024501666666666" lon="-48.611250000000005"><ele>18.400000000000002</ele></trkpt><trkpt lat="-27.024501666666666" lon="-48.61124499999999"><ele>18.200000000000003</ele></trkpt><trkpt lat="-27.024501666666666" lon="-48.61124499999999"><ele>18.200000000000003</ele></trkpt><trkpt lat="-27.024503333333335" lon="-48.611238333333326"><ele>18.1</ele></trkpt><trkpt lat="-27.024501666666666" lon="-48.61123333333333"><ele>18.1</ele></trkpt><trkpt lat="-27.024496666666664" lon="-48.61122833333334"><ele>17.900000000000002</ele></trkpt><trkpt lat="-27.024495" lon="-48.61122999999999"><ele>17.8</ele></trkpt><trkpt lat="-27.024493333333332" lon="-48.61123166666666"><ele>17.8</ele></trkpt><trkpt lat="-27.024493333333332" lon="-48.61123166666666"><ele>17.8</ele></trkpt><trkpt lat="-27.024493333333332" lon="-48.61123166666666"><ele>17.8</ele></trkpt><trkpt lat="-27.024493333333332" lon="-48.61123166666666"><ele>17.8</ele></trkpt><trkpt lat="-27.024493333333332" lon="-48.61123166666666"><ele>17.8</ele></trkpt><trkpt lat="-27.024493333333332" lon="-48.61123166666666"><ele>17.8</ele></trkpt><trkpt lat="-27.024493333333332" lon="-48.61123166666666"><ele>17.8</ele></trkpt><trkpt lat="-27.024493333333332" lon="-48.61123166666666"><ele>17.8</ele></trkpt><trkpt lat="-27.024493333333332" lon="-48.61123166666666"><ele>17.8</ele></trkpt><trkpt lat="-27.024493333333332" lon="-48.61123166666666"><ele>17.8</ele></trkpt><trkpt lat="-27.024493333333332" lon="-48.61123166666666"><ele>17.8</ele></trkpt><trkpt lat="-27.024493333333332" lon="-48.61123166666666"><ele>17.8</ele></trkpt><trkpt lat="-27.024493333333332" lon="-48.61123166666666"><ele>17.8</ele></trkpt><trkpt lat="-27.024543333333334" lon="-48.61124333333334"><ele>15.1</ele></trkpt><trkpt lat="-27.02456833333333" lon="-48.611239999999995"><ele>15</ele></trkpt><trkpt lat="-27.024601666666666" lon="-48.61124499999999"><ele>14.4</ele></trkpt><trkpt lat="-27.024633333333334" lon="-48.611248333333336"><ele>14.4</ele></trkpt><trkpt lat="-27.024668333333338" lon="-48.611251666666675"><ele>14.9</ele></trkpt><trkpt lat="-27.0247" lon="-48.61125666666667"><ele>15</ele></trkpt><trkpt lat="-27.024735000000003" lon="-48.611261666666664"><ele>14.5</ele></trkpt><trkpt lat="-27.024768333333334" lon="-48.61126333333333"><ele>14</ele></trkpt><trkpt lat="-27.024814999999997" lon="-48.611261666666664"><ele>12.6</ele></trkpt><trkpt lat="-27.02485" lon="-48.61126666666667"><ele>12</ele></trkpt><trkpt lat="-27.024885" lon="-48.61127166666667"><ele>11.5</ele></trkpt><trkpt lat="-27.024916666666666" lon="-48.61127166666667"><ele>11.5</ele></trkpt><trkpt lat="-27.024949999999997" lon="-48.61127333333334"><ele>11.799999999999999</ele></trkpt><trkpt lat="-27.024976666666664" lon="-48.61127166666667"><ele>12</ele></trkpt><trkpt lat="-27.025008333333336" lon="-48.61128166666667"><ele>12</ele></trkpt><trkpt lat="-27.025038333333335" lon="-48.611284999999995"><ele>12</ele></trkpt><trkpt lat="-27.02506166666667" lon="-48.61128999999999"><ele>12</ele></trkpt><trkpt lat="-27.025083333333335" lon="-48.61130166666667"><ele>11.7</ele></trkpt><trkpt lat="-27.025098333333336" lon="-48.611306666666664"><ele>11.9</ele></trkpt><trkpt lat="-27.025098333333336" lon="-48.611308333333334"><ele>11.4</ele></trkpt><trkpt lat="-27.025091666666672" lon="-48.61131166666667"><ele>11.4</ele></trkpt><trkpt lat="-27.02509" lon="-48.61131166666667"><ele>11.4</ele></trkpt><trkpt lat="-27.02508833333333" lon="-48.61131333333333"><ele>11.5</ele></trkpt><trkpt lat="-27.02508833333333" lon="-48.61131166666667"><ele>11.299999999999999</ele></trkpt><trkpt lat="-27.02508833333333" lon="-48.611308333333334"><ele>10.9</ele></trkpt><trkpt lat="-27.02508833333333" lon="-48.611304999999994"><ele>10.6</ele></trkpt><trkpt lat="-27.02508833333333" lon="-48.61130333333334"><ele>10.6</ele></trkpt><trkpt lat="-27.02508833333333" lon="-48.61130166666667"><ele>10.299999999999999</ele></trkpt><trkpt lat="-27.02508833333333" lon="-48.61130166666667"><ele>10.299999999999999</ele></trkpt><trkpt lat="-27.025086666666667" lon="-48.6113"><ele>10.1</ele></trkpt><trkpt lat="-27.025084999999997" lon="-48.6113"><ele>10.1</ele></trkpt><trkpt lat="-27.025084999999997" lon="-48.6113"><ele>10.1</ele></trkpt><trkpt lat="-27.025084999999997" lon="-48.6113"><ele>10.1</ele></trkpt><trkpt lat="-27.025084999999997" lon="-48.6113"><ele>10.1</ele></trkpt><trkpt lat="-27.025084999999997" lon="-48.6113"><ele>10.1</ele></trkpt><trkpt lat="-27.025084999999997" lon="-48.6113"><ele>10.1</ele></trkpt><trkpt lat="-27.025084999999997" lon="-48.6113"><ele>10.1</ele></trkpt><trkpt lat="-27.025084999999997" lon="-48.6113"><ele>10.1</ele></trkpt><trkpt lat="-27.025084999999997" lon="-48.6113"><ele>10.1</ele></trkpt><trkpt lat="-27.025084999999997" lon="-48.6113"><ele>10.1</ele></trkpt><trkpt lat="-27.025084999999997" lon="-48.6113"><ele>10.1</ele></trkpt><trkpt lat="-27.025084999999997" lon="-48.6113"><ele>10.1</ele></trkpt><trkpt lat="-27.025084999999997" lon="-48.6113"><ele>10.1</ele></trkpt><trkpt lat="-27.025084999999997" lon="-48.6113"><ele>10.1</ele></trkpt><trkpt lat="-27.025084999999997" lon="-48.6113"><ele>10.1</ele></trkpt><trkpt lat="-27.025084999999997" lon="-48.6113"><ele>10.1</ele></trkpt><trkpt lat="-27.025084999999997" lon="-48.6113"><ele>10.1</ele></trkpt><trkpt lat="-27.025084999999997" lon="-48.6113"><ele>10.1</ele></trkpt><trkpt lat="-27.025084999999997" lon="-48.6113"><ele>10.1</ele></trkpt><trkpt lat="-27.025084999999997" lon="-48.6113"><ele>10.1</ele></trkpt><trkpt lat="-27.025084999999997" lon="-48.6113"><ele>10.1</ele></trkpt><trkpt lat="-27.025078333333333" lon="-48.61128166666667"><ele>10</ele></trkpt><trkpt lat="-27.025091666666672" lon="-48.611284999999995"><ele>9.6</ele></trkpt><trkpt lat="-27.025111666666664" lon="-48.611293333333336"><ele>9.2</ele></trkpt><trkpt lat="-27.025138333333334" lon="-48.611304999999994"><ele>9.3</ele></trkpt><trkpt lat="-27.025165" lon="-48.61131333333333"><ele>9.5</ele></trkpt><trkpt lat="-27.025195" lon="-48.61131999999999"><ele>9.799999999999999</ele></trkpt><trkpt lat="-27.025230000000004" lon="-48.61132166666666"><ele>9.9</ele></trkpt><trkpt lat="-27.025260000000003" lon="-48.611328333333326"><ele>9.9</ele></trkpt><trkpt lat="-27.025291666666664" lon="-48.61132666666667"><ele>9.799999999999999</ele></trkpt><trkpt lat="-27.025323333333336" lon="-48.61132666666667"><ele>10.1</ele></trkpt><trkpt lat="-27.025353333333335" lon="-48.611328333333326"><ele>9.7</ele></trkpt><trkpt lat="-27.025378333333332" lon="-48.611331666666665"><ele>8.9</ele></trkpt><trkpt lat="-27.025401666666667" lon="-48.611336666666666"><ele>8.4</ele></trkpt><trkpt lat="-27.025429999999997" lon="-48.611340000000006"><ele>7.5</ele></trkpt><trkpt lat="-27.025458333333336" lon="-48.611341666666675"><ele>7.300000000000001</ele></trkpt><trkpt lat="-27.025488333333335" lon="-48.611345"><ele>7.5</ele></trkpt><trkpt lat="-27.025515000000002" lon="-48.61134666666667"><ele>7.4</ele></trkpt><trkpt lat="-27.02555166666667" lon="-48.61134833333334"><ele>7.199999999999999</ele></trkpt><trkpt lat="-27.025579999999998" lon="-48.61134833333334"><ele>6.5</ele></trkpt><trkpt lat="-27.025606666666665" lon="-48.61134833333334"><ele>6.1</ele></trkpt><trkpt lat="-27.025633333333335" lon="-48.611349999999995"><ele>5.699999999999999</ele></trkpt><trkpt lat="-27.02565666666667" lon="-48.611355"><ele>5.300000000000001</ele></trkpt><trkpt lat="-27.025685" lon="-48.61136833333333"><ele>6.1</ele></trkpt><trkpt lat="-27.025708333333334" lon="-48.61137833333334"><ele>6.4</ele></trkpt><trkpt lat="-27.02573" lon="-48.61137999999999"><ele>6.699999999999999</ele></trkpt><trkpt lat="-27.025744999999997" lon="-48.611376666666665"><ele>7.300000000000001</ele></trkpt><trkpt lat="-27.025755000000004" lon="-48.611376666666665"><ele>7.199999999999999</ele></trkpt><trkpt lat="-27.02576" lon="-48.61137833333334"><ele>7.6</ele></trkpt><trkpt lat="-27.02576" lon="-48.61137833333334"><ele>8.2</ele></trkpt><trkpt lat="-27.02576" lon="-48.61137999999999"><ele>8.6</ele></trkpt><trkpt lat="-27.02576" lon="-48.61137999999999"><ele>8.6</ele></trkpt><trkpt lat="-27.025761666666668" lon="-48.611383333333336"><ele>9.1</ele></trkpt><trkpt lat="-27.02576" lon="-48.611385000000006"><ele>9.5</ele></trkpt><trkpt lat="-27.025758333333336" lon="-48.611385000000006"><ele>9.4</ele></trkpt><trkpt lat="-27.025756666666666" lon="-48.611385000000006"><ele>9.5</ele></trkpt><trkpt lat="-27.025756666666666" lon="-48.611386666666675"><ele>9.7</ele></trkpt><trkpt lat="-27.025755000000004" lon="-48.61139"><ele>9.6</ele></trkpt><trkpt lat="-27.025753333333334" lon="-48.611394999999995"><ele>9.799999999999999</ele></trkpt><trkpt lat="-27.025753333333334" lon="-48.611394999999995"><ele>9.799999999999999</ele></trkpt><trkpt lat="-27.025753333333334" lon="-48.611394999999995"><ele>9.799999999999999</ele></trkpt><trkpt lat="-27.025753333333334" lon="-48.611394999999995"><ele>9.799999999999999</ele></trkpt><trkpt lat="-27.025753333333334" lon="-48.611394999999995"><ele>9.799999999999999</ele></trkpt><trkpt lat="-27.02576" lon="-48.61140166666667"><ele>9.4</ele></trkpt><trkpt lat="-27.025775" lon="-48.61140666666667"><ele>9.1</ele></trkpt><trkpt lat="-27.025798333333334" lon="-48.61141166666666"><ele>9.1</ele></trkpt><trkpt lat="-27.025818333333337" lon="-48.611415"><ele>9.5</ele></trkpt><trkpt lat="-27.025840000000002" lon="-48.611418333333326"><ele>10</ele></trkpt><trkpt lat="-27.025865" lon="-48.611419999999995"><ele>10.4</ele></trkpt><trkpt lat="-27.025896666666668" lon="-48.61142333333334"><ele>11.2</ele></trkpt><trkpt lat="-27.025923333333335" lon="-48.611421666666665"><ele>11.7</ele></trkpt><trkpt lat="-27.02594333333333" lon="-48.61142333333334"><ele>12.2</ele></trkpt><trkpt lat="-27.025968333333335" lon="-48.611419999999995"><ele>13</ele></trkpt><trkpt lat="-27.025986666666668" lon="-48.611421666666665"><ele>13.799999999999999</ele></trkpt><trkpt lat="-27.02600166666667" lon="-48.61142333333334"><ele>14.299999999999999</ele></trkpt><trkpt lat="-27.026018333333333" lon="-48.61142499999999"><ele>15.2</ele></trkpt><trkpt lat="-27.026028333333336" lon="-48.611431666666675"><ele>16.6</ele></trkpt><trkpt lat="-27.026035" lon="-48.61143666666667"><ele>17.400000000000002</ele></trkpt><trkpt lat="-27.026036666666663" lon="-48.61143833333334"><ele>17.8</ele></trkpt><trkpt lat="-27.02604" lon="-48.611441666666664"><ele>18</ele></trkpt><trkpt lat="-27.02604" lon="-48.611443333333334"><ele>18.200000000000003</ele></trkpt><trkpt lat="-27.02604" lon="-48.611445"><ele>18.8</ele></trkpt><trkpt lat="-27.02604" lon="-48.611445"><ele>18.8</ele></trkpt><trkpt lat="-27.026036666666663" lon="-48.611443333333334"><ele>19.5</ele></trkpt><trkpt lat="-27.026035" lon="-48.611443333333334"><ele>19.900000000000002</ele></trkpt><trkpt lat="-27.02603166666667" lon="-48.611441666666664"><ele>20.1</ele></trkpt><trkpt lat="-27.026028333333336" lon="-48.611439999999995"><ele>20.1</ele></trkpt><trkpt lat="-27.026026666666667" lon="-48.611439999999995"><ele>20.1</ele></trkpt><trkpt lat="-27.026026666666667" lon="-48.611439999999995"><ele>20.1</ele></trkpt><trkpt lat="-27.026026666666667" lon="-48.611439999999995"><ele>20.1</ele></trkpt><trkpt lat="-27.026026666666667" lon="-48.611439999999995"><ele>20.1</ele></trkpt><trkpt lat="-27.026026666666667" lon="-48.611439999999995"><ele>20.1</ele></trkpt><trkpt lat="-27.026028333333336" lon="-48.61145666666666"><ele>19.900000000000002</ele></trkpt><trkpt lat="-27.02604" lon="-48.611464999999995"><ele>19.8</ele></trkpt><trkpt lat="-27.026053333333333" lon="-48.61147166666667"><ele>19.8</ele></trkpt><trkpt lat="-27.026066666666665" lon="-48.611476666666675"><ele>20</ele></trkpt><trkpt lat="-27.026081666666663" lon="-48.61148"><ele>19.8</ele></trkpt><trkpt lat="-27.026101666666666" lon="-48.61148333333334"><ele>19.8</ele></trkpt><trkpt lat="-27.026125" lon="-48.61149"><ele>19.200000000000003</ele></trkpt><trkpt lat="-27.026156666666665" lon="-48.611486666666664"><ele>17.6</ele></trkpt><trkpt lat="-27.026183333333332" lon="-48.61149"><ele>17.400000000000002</ele></trkpt><trkpt lat="-27.02621" lon="-48.611486666666664"><ele>17.2</ele></trkpt><trkpt lat="-27.026239999999998" lon="-48.611488333333334"><ele>16.900000000000002</ele></trkpt><trkpt lat="-27.026268333333338" lon="-48.611488333333334"><ele>16.5</ele></trkpt><trkpt lat="-27.026293333333335" lon="-48.611486666666664"><ele>16.3</ele></trkpt><trkpt lat="-27.026318333333332" lon="-48.61148"><ele>16.1</ele></trkpt><trkpt lat="-27.02634666666667" lon="-48.61148333333334"><ele>15.7</ele></trkpt><trkpt lat="-27.026371666666666" lon="-48.61148"><ele>15.7</ele></trkpt><trkpt lat="-27.02639" lon="-48.61148333333334"><ele>15.799999999999999</ele></trkpt><trkpt lat="-27.026408333333332" lon="-48.61148333333334"><ele>15.6</ele></trkpt><trkpt lat="-27.026413333333334" lon="-48.61147833333333"><ele>15.4</ele></trkpt><trkpt lat="-27.026411666666665" lon="-48.611475000000006"><ele>15.299999999999999</ele></trkpt><trkpt lat="-27.026408333333332" lon="-48.61147166666667"><ele>14.9</ele></trkpt><trkpt lat="-27.026408333333332" lon="-48.61146833333334"><ele>14.799999999999999</ele></trkpt><trkpt lat="-27.02640666666667" lon="-48.611466666666665"><ele>14.799999999999999</ele></trkpt><trkpt lat="-27.02640666666667" lon="-48.61146166666667"><ele>14.9</ele></trkpt><trkpt lat="-27.02640666666667" lon="-48.61145666666666"><ele>14.9</ele></trkpt><trkpt lat="-27.02640666666667" lon="-48.61145666666666"><ele>14.9</ele></trkpt><trkpt lat="-27.026410000000002" lon="-48.61145666666666"><ele>14.799999999999999</ele></trkpt><trkpt lat="-27.026408333333332" lon="-48.61145833333333"><ele>14.799999999999999</ele></trkpt><trkpt lat="-27.02640666666667" lon="-48.61145833333333"><ele>14.9</ele></trkpt><trkpt lat="-27.026405" lon="-48.61146"><ele>14.9</ele></trkpt><trkpt lat="-27.026405" lon="-48.61146"><ele>14.9</ele></trkpt><trkpt lat="-27.026405" lon="-48.61146"><ele>14.9</ele></trkpt><trkpt lat="-27.026405" lon="-48.61146"><ele>14.9</ele></trkpt><trkpt lat="-27.026405" lon="-48.61146"><ele>14.9</ele></trkpt><trkpt lat="-27.026405" lon="-48.61146"><ele>14.9</ele></trkpt><trkpt lat="-27.026405" lon="-48.61146"><ele>14.9</ele></trkpt><trkpt lat="-27.026405" lon="-48.61146"><ele>14.9</ele></trkpt><trkpt lat="-27.026405" lon="-48.61146"><ele>14.9</ele></trkpt><trkpt lat="-27.026405" lon="-48.61146"><ele>14.9</ele></trkpt><trkpt lat="-27.026405" lon="-48.61146"><ele>14.9</ele></trkpt><trkpt lat="-27.026405" lon="-48.61146"><ele>14.9</ele></trkpt><trkpt lat="-27.026405" lon="-48.61146"><ele>14.9</ele></trkpt><trkpt lat="-27.026405" lon="-48.61146"><ele>14.9</ele></trkpt><trkpt lat="-27.026405" lon="-48.61151333333334"><ele>17.700000000000003</ele></trkpt><trkpt lat="-27.026419999999998" lon="-48.611520000000006"><ele>18.1</ele></trkpt><trkpt lat="-27.026441666666663" lon="-48.611529999999995"><ele>18.700000000000003</ele></trkpt><trkpt lat="-27.026470000000003" lon="-48.61154"><ele>19.6</ele></trkpt><trkpt lat="-27.02649666666667" lon="-48.61154833333333"><ele>19.900000000000002</ele></trkpt><trkpt lat="-27.026525" lon="-48.611554999999996"><ele>21.200000000000003</ele></trkpt><trkpt lat="-27.026560000000003" lon="-48.61156166666667"><ele>22.700000000000003</ele></trkpt><trkpt lat="-27.02658666666667" lon="-48.611566666666675"><ele>23</ele></trkpt><trkpt lat="-27.02661333333333" lon="-48.61157166666667"><ele>23.700000000000003</ele></trkpt><trkpt lat="-27.026650000000004" lon="-48.611576666666664"><ele>23.400000000000002</ele></trkpt><trkpt lat="-27.026680000000002" lon="-48.611578333333334"><ele>22.8</ele></trkpt><trkpt lat="-27.02670666666667" lon="-48.611585"><ele>21.700000000000003</ele></trkpt><trkpt lat="-27.02673333333333" lon="-48.61158833333334"><ele>21.5</ele></trkpt><trkpt lat="-27.026756666666664" lon="-48.61159333333333"><ele>21.1</ele></trkpt><trkpt lat="-27.02677833333333" lon="-48.611599999999996"><ele>20.8</ele></trkpt><trkpt lat="-27.02681166666667" lon="-48.611611666666676"><ele>22</ele></trkpt><trkpt lat="-27.02684" lon="-48.611619999999995"><ele>22.200000000000003</ele></trkpt><trkpt lat="-27.02685" lon="-48.611619999999995"><ele>23</ele></trkpt><trkpt lat="-27.026858333333333" lon="-48.611621666666665"><ele>23.200000000000003</ele></trkpt><trkpt lat="-27.026856666666664" lon="-48.611619999999995"><ele>22.900000000000002</ele></trkpt><trkpt lat="-27.026858333333333" lon="-48.61161833333334"><ele>22.900000000000002</ele></trkpt><trkpt lat="-27.026860000000003" lon="-48.61161833333334"><ele>23</ele></trkpt><trkpt lat="-27.02686833333333" lon="-48.61161833333334"><ele>22.8</ele></trkpt><trkpt lat="-27.02686833333333" lon="-48.61161833333334"><ele>22.8</ele></trkpt><trkpt lat="-27.02687" lon="-48.61161333333333"><ele>22.400000000000002</ele></trkpt><trkpt lat="-27.026875000000004" lon="-48.611610000000006"><ele>22.200000000000003</ele></trkpt><trkpt lat="-27.026876666666666" lon="-48.611608333333336"><ele>21.8</ele></trkpt><trkpt lat="-27.026888333333332" lon="-48.611615"><ele>21.6</ele></trkpt><trkpt lat="-27.026903333333333" lon="-48.611619999999995"><ele>21.6</ele></trkpt><trkpt lat="-27.026920000000004" lon="-48.611621666666665"><ele>21.1</ele></trkpt><trkpt lat="-27.026935" lon="-48.611621666666665"><ele>20.400000000000002</ele></trkpt><trkpt lat="-27.026946666666664" lon="-48.611625000000004"><ele>20.1</ele></trkpt><trkpt lat="-27.02695833333333" lon="-48.611623333333334"><ele>19.400000000000002</ele></trkpt><trkpt lat="-27.02697333333333" lon="-48.611623333333334"><ele>18.700000000000003</ele></trkpt><trkpt lat="-27.026983333333337" lon="-48.611621666666665"><ele>18.5</ele></trkpt><trkpt lat="-27.026985" lon="-48.61161333333333"><ele>17.8</ele></trkpt><trkpt lat="-27.026991666666664" lon="-48.61160666666667"><ele>17</ele></trkpt><trkpt lat="-27.026996666666665" lon="-48.611599999999996"><ele>16.6</ele></trkpt><trkpt lat="-27.02700333333333" lon="-48.61158999999999"><ele>15.9</ele></trkpt><trkpt lat="-27.027010000000004" lon="-48.61158666666667"><ele>15.299999999999999</ele></trkpt><trkpt lat="-27.02701666666667" lon="-48.61158166666667"><ele>15.2</ele></trkpt><trkpt lat="-27.02702" lon="-48.61158166666667"><ele>15.2</ele></trkpt><trkpt lat="-27.027025000000002" lon="-48.611578333333334"><ele>15.1</ele></trkpt><trkpt lat="-27.02703166666667" lon="-48.611576666666664"><ele>14.9</ele></trkpt><trkpt lat="-27.027038333333333" lon="-48.611565000000006"><ele>14.9</ele></trkpt><trkpt lat="-27.027044999999998" lon="-48.61155833333334"><ele>14.6</ele></trkpt><trkpt lat="-27.02704833333333" lon="-48.611554999999996"><ele>14.6</ele></trkpt><trkpt lat="-27.02705" lon="-48.61155"><ele>14.6</ele></trkpt><trkpt lat="-27.027053333333335" lon="-48.61154666666666"><ele>14.7</ele></trkpt><trkpt lat="-27.027055000000004" lon="-48.61154333333334"><ele>14.799999999999999</ele></trkpt><trkpt lat="-27.027055000000004" lon="-48.61154333333334"><ele>14.799999999999999</ele></trkpt><trkpt lat="-27.02705166666666" lon="-48.61154"><ele>14.7</ele></trkpt><trkpt lat="-27.027041666666666" lon="-48.61153833333333"><ele>15</ele></trkpt><trkpt lat="-27.02703" lon="-48.61154333333334"><ele>14.9</ele></trkpt><trkpt lat="-27.027023333333332" lon="-48.61154666666666"><ele>15</ele></trkpt><trkpt lat="-27.02701833333333" lon="-48.61154833333333"><ele>14.5</ele></trkpt><trkpt lat="-27.027013333333336" lon="-48.61155166666667"><ele>14.5</ele></trkpt><trkpt lat="-27.02700666666666" lon="-48.611553333333326"><ele>14.299999999999999</ele></trkpt><trkpt lat="-27.02700333333333" lon="-48.611553333333326"><ele>13.799999999999999</ele></trkpt><trkpt lat="-27.026999999999997" lon="-48.611556666666665"><ele>13.5</ele></trkpt><trkpt lat="-27.027001666666667" lon="-48.611556666666665"><ele>13.2</ele></trkpt><trkpt lat="-27.027005" lon="-48.61155833333334"><ele>13.1</ele></trkpt><trkpt lat="-27.02700666666666" lon="-48.61156166666667"><ele>13.2</ele></trkpt><trkpt lat="-27.02700666666666" lon="-48.611563333333336"><ele>13.1</ele></trkpt><trkpt lat="-27.02700666666666" lon="-48.611563333333336"><ele>12.9</ele></trkpt><trkpt lat="-27.027008333333335" lon="-48.61156166666667"><ele>12.7</ele></trkpt><trkpt lat="-27.027008333333335" lon="-48.611563333333336"><ele>12.5</ele></trkpt><trkpt lat="-27.027008333333335" lon="-48.611563333333336"><ele>12.5</ele></trkpt><trkpt lat="-27.027008333333335" lon="-48.611563333333336"><ele>12.5</ele></trkpt><trkpt lat="-27.027008333333335" lon="-48.611563333333336"><ele>12.5</ele></trkpt><trkpt lat="-27.027008333333335" lon="-48.611563333333336"><ele>12.5</ele></trkpt><trkpt lat="-27.027008333333335" lon="-48.611563333333336"><ele>12.5</ele></trkpt><trkpt lat="-27.027008333333335" lon="-48.611563333333336"><ele>12.5</ele></trkpt><trkpt lat="-27.027008333333335" lon="-48.611563333333336"><ele>12.5</ele></trkpt><trkpt lat="-27.027008333333335" lon="-48.611563333333336"><ele>12.5</ele></trkpt><trkpt lat="-27.027008333333335" lon="-48.611563333333336"><ele>12.5</ele></trkpt><trkpt lat="-27.027008333333335" lon="-48.611563333333336"><ele>12.5</ele></trkpt><trkpt lat="-27.027008333333335" lon="-48.611563333333336"><ele>12.5</ele></trkpt><trkpt lat="-27.026998333333335" lon="-48.61157166666667"><ele>11.299999999999999</ele></trkpt><trkpt lat="-27.026996666666665" lon="-48.61158166666667"><ele>11.2</ele></trkpt><trkpt lat="-27.026998333333335" lon="-48.61158666666667"><ele>11.1</ele></trkpt><trkpt lat="-27.026998333333335" lon="-48.611585"><ele>11.299999999999999</ele></trkpt><trkpt lat="-27.026998333333335" lon="-48.61158333333333"><ele>11.5</ele></trkpt><trkpt lat="-27.026998333333335" lon="-48.61158333333333"><ele>11.5</ele></trkpt><trkpt lat="-27.026998333333335" lon="-48.61158333333333"><ele>11.5</ele></trkpt><trkpt lat="-27.026998333333335" lon="-48.61158333333333"><ele>11.5</ele></trkpt><trkpt lat="-27.026998333333335" lon="-48.61158333333333"><ele>11.5</ele></trkpt><trkpt lat="-27.026998333333335" lon="-48.61158333333333"><ele>11.5</ele></trkpt><trkpt lat="-27.026998333333335" lon="-48.61158333333333"><ele>11.5</ele></trkpt><trkpt lat="-27.026998333333335" lon="-48.61158333333333"><ele>11.5</ele></trkpt><trkpt lat="-27.026998333333335" lon="-48.61158333333333"><ele>11.5</ele></trkpt><trkpt lat="-27.026998333333335" lon="-48.61158333333333"><ele>11.5</ele></trkpt><trkpt lat="-27.026998333333335" lon="-48.61158333333333"><ele>11.5</ele></trkpt><trkpt lat="-27.026998333333335" lon="-48.61158333333333"><ele>11.5</ele></trkpt><trkpt lat="-27.026998333333335" lon="-48.61158333333333"><ele>11.5</ele></trkpt><trkpt lat="-27.026998333333335" lon="-48.61158333333333"><ele>11.5</ele></trkpt><trkpt lat="-27.026998333333335" lon="-48.61158333333333"><ele>11.5</ele></trkpt><trkpt lat="-27.026998333333335" lon="-48.61158333333333"><ele>11.5</ele></trkpt><trkpt lat="-27.026998333333335" lon="-48.61158333333333"><ele>11.5</ele></trkpt><trkpt lat="-27.026998333333335" lon="-48.61158333333333"><ele>11.5</ele></trkpt><trkpt lat="-27.026998333333335" lon="-48.61158333333333"><ele>11.5</ele></trkpt><trkpt lat="-27.026998333333335" lon="-48.61158333333333"><ele>11.5</ele></trkpt><trkpt lat="-27.026998333333335" lon="-48.61158333333333"><ele>11.5</ele></trkpt><trkpt lat="-27.026998333333335" lon="-48.61158333333333"><ele>11.5</ele></trkpt><trkpt lat="-27.026998333333335" lon="-48.61158333333333"><ele>11.5</ele></trkpt><trkpt lat="-27.026998333333335" lon="-48.61158333333333"><ele>11.5</ele></trkpt><trkpt lat="-27.026998333333335" lon="-48.61158333333333"><ele>11.5</ele></trkpt><trkpt lat="-27.026998333333335" lon="-48.61158333333333"><ele>11.5</ele></trkpt><trkpt lat="-27.026998333333335" lon="-48.61158333333333"><ele>11.5</ele></trkpt><trkpt lat="-27.026998333333335" lon="-48.61158333333333"><ele>11.5</ele></trkpt><trkpt lat="-27.026998333333335" lon="-48.61158333333333"><ele>11.5</ele></trkpt></trkseg></trk></gpx>