<?xml version="1.0" encoding="UTF-8"?>
<gpx xmlns="http://www.topografix.com/GPX/1/1" version="1.1" creator="@dwayneparton/geojson-to-gpx">
    <wpt lat="-27.001171666666664" lon="-48.63757999999999">
        <ele>-12.4</ele>
        <name>3 faixas</name>
    </wpt>
    <wpt lat="-27.001171666666664" lon="-48.63757999999999">
        <ele>-12.4</ele>
        <name>Bidirecional</name>
    </wpt>
    <wpt lat="-27.00138666666667" lon="-48.637928333333335">
        <ele>6.9</ele>
        <name>12</name>
    </wpt>
    <wpt lat="-27.00143333333333" lon="-48.637935">
        <ele>9.3</ele>
        <name>300</name>
    </wpt>
    <wpt lat="-27.001399999999997" lon="-48.63792166666667">
        <ele>6.9</ele>
        <name>450</name>
    </wpt>
    <wpt lat="-27.00146333333333" lon="-48.63789833333333">
        <ele>12.6</ele>
        <name>1500</name>
    </wpt>
    <wpt lat="-27.001965000000002" lon="-48.638198333333335">
        <ele>7.1</ele>
        <name>A ciclo é completamente reta.</name>
    </wpt>
    <wpt lat="-27.001405" lon="-48.63798833333333">
        <ele>7.699999999999999</ele>
        <name>Área de amortecimento da ciclo (cm)</name>
    </wpt>
    <wpt lat="-27.00143333333333" lon="-48.637935">
        <ele>9.3</ele>
        <name>Área transitável da ciclo (cm)</name>
    </wpt>
    <wpt lat="-27.001171666666664" lon="-48.63757999999999">
        <ele>-12.4</ele>
        <name>Asfalto</name>
    </wpt>
    <wpt lat="-27.001159999999995" lon="-48.63755166666667">
        <ele>-12.9</ele>
        <name>Mão Inglesa</name>
    </wpt>
    <wpt lat="-27.00187" lon="-48.638110000000005">
        <ele>6.9</ele>
        <name>Buraco</name>
    </wpt>
    <wpt lat="-27.001945" lon="-48.638164999999994">
        <ele>5.800000000000001</ele>
        <name>Buraco</name>
    </wpt>
    <wpt lat="-27.001159999999995" lon="-48.63754166666666">
        <ele>-12.6</ele>
        <name>Calçada compartilhada</name>
    </wpt>
    <wpt lat="-27.001189999999998" lon="-48.63762833333333">
        <ele>0.8</ele>
        <name>Estacionamento proibido na via</name>
    </wpt>
    <wpt lat="-27.001398333333334" lon="-48.63792333333334">
        <ele>6.800000000000001</ele>
        <name>Faixa de carros logo ao lado da ciclo (cm)</name>
    </wpt>
    <wpt lat="-27.001203333333333" lon="-48.63775333333333">
        <ele>14.4</ele>
        <name>Foto</name>
    </wpt>
    <wpt lat="-27.001156666666663" lon="-48.63774">
        <ele>16.6</ele>
        <name>Foto</name>
    </wpt>
    <wpt lat="-27.001156666666663" lon="-48.637735000000006">
        <ele>16</ele>
        <name>Foto</name>
    </wpt>
    <wpt lat="-27.00128833333333" lon="-48.63784999999999">
        <ele>11.7</ele>
        <name>Foto</name>
    </wpt>
    <wpt lat="-27.00139" lon="-48.63791">
        <ele>9.4</ele>
        <name>Foto</name>
    </wpt>
    <wpt lat="-27.001459999999998" lon="-48.63794166666666">
        <ele>10.4</ele>
        <name>Foto</name>
    </wpt>
    <wpt lat="-27.00148" lon="-48.63797666666666">
        <ele>8.4</ele>
        <name>Foto</name>
    </wpt>
    <wpt lat="-27.00145" lon="-48.63792166666667">
        <ele>9.7</ele>
        <name>Foto</name>
    </wpt>
    <wpt lat="-27.001488333333334" lon="-48.63796833333334">
        <ele>11.1</ele>
        <name>Foto</name>
    </wpt>
    <wpt lat="-27.001831666666664" lon="-48.63810166666667">
        <ele>7.300000000000001</ele>
        <name>Foto</name>
    </wpt>
    <wpt lat="-27.00186666666667" lon="-48.638106666666665">
        <ele>6.1</ele>
        <name>Foto</name>
    </wpt>
    <wpt lat="-27.001939999999998" lon="-48.638173333333334">
        <ele>6.300000000000001</ele>
        <name>Foto</name>
    </wpt>
    <wpt lat="-27.001945" lon="-48.63816">
        <ele>5.9</ele>
        <name>Foto</name>
    </wpt>
    <wpt lat="-27.001171666666664" lon="-48.63757999999999">
        <ele>-12.4</ele>
        <name>Guias</name>
    </wpt>
    <wpt lat="-27.001965000000002" lon="-48.638198333333335">
        <ele>7.1</ele>
        <name>Iluminação geral dos dois lados da via</name>
    </wpt>
    <wpt lat="-27.001965000000002" lon="-48.638198333333335">
        <ele>7.1</ele>
        <name>Não há árvores nem mudas</name>
    </wpt>
    <wpt lat="-27.001189999999998" lon="-48.63762833333333">
        <ele>0.8</ele>
        <name>Nenhum elemento de controle de velocidade na via</name>
    </wpt>
    <wpt lat="-27.001174999999996" lon="-48.63756166666667">
        <ele>-12.9</ele>
        <name>No canteiro central</name>
    </wpt>
    <wpt lat="-27.001171666666664" lon="-48.63757999999999">
        <ele>-12.4</ele>
        <name>Padrão de pintura: sem pintura</name>
    </wpt>
    <wpt lat="-27.001965000000002" lon="-48.638198333333335">
        <ele>7.1</ele>
        <name>Pequenas imperfeições, como fissuras</name>
    </wpt>
    <wpt lat="-27.001965000000002" lon="-48.638198333333335">
        <ele>7.1</ele>
        <name>Pintura APAGADA ou somente rastros de tinta</name>
    </wpt>
    <wpt lat="-27.00186666666667" lon="-48.638106666666665">
        <ele>6.1</ele>
        <name>Em cruzamento MÁ condição</name>
    </wpt>
    <wpt lat="-27.001965000000002" lon="-48.638198333333335">
        <ele>7.1</ele>
        <name>SE CICLOVIA: segregação impede completamente a invasão de automóvel e não há trechos desprotegidos</name>
    </wpt>
    <wpt lat="-27.001965000000002" lon="-48.638198333333335">
        <ele>7.1</ele>
        <name>Segregadores NÃO DIFICULTAM o acesso de ciclistas</name>
    </wpt>
    <wpt lat="-27.001189999999998" lon="-48.63762833333333">
        <ele>0.8</ele>
        <name>SEM Semáforo exclusivo</name>
    </wpt>
    <wpt lat="-27.001262" lon="-48.637741">
        <name>Semáforo para motorizado</name>
    </wpt>
    <wpt lat="-27.001189999999998" lon="-48.63762833333333">
        <ele>0.8</ele>
        <name>Semáforo para pedestres</name>
    </wpt>
    <wpt lat="-27.00146333333333" lon="-48.63789833333333">
        <ele>12.6</ele>
        <name>Total da via (incluindo a ciclo) (cm)</name>
    </wpt>
    <trk>
        <name>Compart. Pass. Viaduto BR 101 - 2 (R. 2500) - BC</name>
        <trkseg>
            <trkpt lat="-27.001123333333332" lon="-48.637695">
                <ele>-22.7</ele>
            </trkpt>
            <trkpt lat="-27.00112166666667" lon="-48.63766166666666">
                <ele>-15.6</ele>
            </trkpt>
            <trkpt lat="-27.001098333333335" lon="-48.63768166666667">
                <ele>-15.6</ele>
            </trkpt>
            <trkpt lat="-27.001146666666667" lon="-48.63757833333334">
                <ele>-15.500000000000002</ele>
            </trkpt>
            <trkpt lat="-27.001156666666663" lon="-48.63753666666666">
                <ele>-15.500000000000002</ele>
            </trkpt>
            <trkpt lat="-27.001165" lon="-48.63754333333333">
                <ele>-15.200000000000001</ele>
            </trkpt>
            <trkpt lat="-27.001158333333333" lon="-48.63753333333334">
                <ele>-14.1</ele>
            </trkpt>
            <trkpt lat="-27.001158333333333" lon="-48.63753499999999">
                <ele>-13.5</ele>
            </trkpt>
            <trkpt lat="-27.001159999999995" lon="-48.63753833333333">
                <ele>-13.1</ele>
            </trkpt>
            <trkpt lat="-27.001159999999995" lon="-48.63754000000001">
                <ele>-12.8</ele>
            </trkpt>
            <trkpt lat="-27.00116166666667" lon="-48.63753833333333">
                <ele>-12.8</ele>
            </trkpt>
            <trkpt lat="-27.001163333333338" lon="-48.63754000000001">
                <ele>-12.700000000000001</ele>
            </trkpt>
            <trkpt lat="-27.001159999999995" lon="-48.63754166666666">
                <ele>-12.6</ele>
            </trkpt>
            <trkpt lat="-27.001159999999995" lon="-48.63754166666666">
                <ele>-12.6</ele>
            </trkpt>
            <trkpt lat="-27.001159999999995" lon="-48.63754166666666">
                <ele>-12.6</ele>
            </trkpt>
            <trkpt lat="-27.001159999999995" lon="-48.637555000000006">
                <ele>-12.6</ele>
            </trkpt>
            <trkpt lat="-27.001159999999995" lon="-48.63755666666666">
                <ele>-12.700000000000001</ele>
            </trkpt>
            <trkpt lat="-27.001159999999995" lon="-48.63755166666667">
                <ele>-12.9</ele>
            </trkpt>
            <trkpt lat="-27.001159999999995" lon="-48.63755166666667">
                <ele>-12.9</ele>
            </trkpt>
            <trkpt lat="-27.001159999999995" lon="-48.63754833333334">
                <ele>-13</ele>
            </trkpt>
            <trkpt lat="-27.001163333333338" lon="-48.63754833333334">
                <ele>-13.200000000000001</ele>
            </trkpt>
            <trkpt lat="-27.001168333333332" lon="-48.63755">
                <ele>-13.200000000000001</ele>
            </trkpt>
            <trkpt lat="-27.001170000000002" lon="-48.63755333333334">
                <ele>-13.200000000000001</ele>
            </trkpt>
            <trkpt lat="-27.001171666666664" lon="-48.637555000000006">
                <ele>-13.200000000000001</ele>
            </trkpt>
            <trkpt lat="-27.001173333333334" lon="-48.63755666666666">
                <ele>-13.1</ele>
            </trkpt>
            <trkpt lat="-27.001173333333334" lon="-48.63756">
                <ele>-13.1</ele>
            </trkpt>
            <trkpt lat="-27.001173333333334" lon="-48.63756166666667">
                <ele>-13</ele>
            </trkpt>
            <trkpt lat="-27.001174999999996" lon="-48.63756333333334">
                <ele>-13</ele>
            </trkpt>
            <trkpt lat="-27.001174999999996" lon="-48.63756333333334">
                <ele>-12.9</ele>
            </trkpt>
            <trkpt lat="-27.001174999999996" lon="-48.63756166666667">
                <ele>-12.9</ele>
            </trkpt>
            <trkpt lat="-27.001174999999996" lon="-48.63756166666667">
                <ele>-12.9</ele>
            </trkpt>
            <trkpt lat="-27.001174999999996" lon="-48.63756166666667">
                <ele>-12.9</ele>
            </trkpt>
            <trkpt lat="-27.001174999999996" lon="-48.63756">
                <ele>-12.9</ele>
            </trkpt>
            <trkpt lat="-27.001174999999996" lon="-48.63756">
                <ele>-12.9</ele>
            </trkpt>
            <trkpt lat="-27.001174999999996" lon="-48.63756333333334">
                <ele>-12.8</ele>
            </trkpt>
            <trkpt lat="-27.001173333333334" lon="-48.637564999999995">
                <ele>-12.8</ele>
            </trkpt>
            <trkpt lat="-27.001171666666664" lon="-48.637566666666665">
                <ele>-12.700000000000001</ele>
            </trkpt>
            <trkpt lat="-27.001168333333332" lon="-48.637568333333334">
                <ele>-12.700000000000001</ele>
            </trkpt>
            <trkpt lat="-27.001170000000002" lon="-48.63757333333333">
                <ele>-12.6</ele>
            </trkpt>
            <trkpt lat="-27.001171666666664" lon="-48.63757833333334">
                <ele>-12.5</ele>
            </trkpt>
            <trkpt lat="-27.001171666666664" lon="-48.63757999999999">
                <ele>-12.4</ele>
            </trkpt>
            <trkpt lat="-27.001171666666664" lon="-48.63757999999999">
                <ele>-12.4</ele>
            </trkpt>
            <trkpt lat="-27.001171666666664" lon="-48.63757999999999">
                <ele>-12.4</ele>
            </trkpt>
            <trkpt lat="-27.001171666666664" lon="-48.63757999999999">
                <ele>-12.4</ele>
            </trkpt>
            <trkpt lat="-27.001171666666664" lon="-48.63757999999999">
                <ele>-12.4</ele>
            </trkpt>
            <trkpt lat="-27.001171666666664" lon="-48.63757999999999">
                <ele>-12.4</ele>
            </trkpt>
            <trkpt lat="-27.001171666666664" lon="-48.63757999999999">
                <ele>-12.4</ele>
            </trkpt>
            <trkpt lat="-27.001171666666664" lon="-48.63757999999999">
                <ele>-12.4</ele>
            </trkpt>
            <trkpt lat="-27.001171666666664" lon="-48.63757999999999">
                <ele>-12.4</ele>
            </trkpt>
            <trkpt lat="-27.001171666666664" lon="-48.63757999999999">
                <ele>-12.4</ele>
            </trkpt>
            <trkpt lat="-27.001171666666664" lon="-48.63757999999999">
                <ele>-12.4</ele>
            </trkpt>
            <trkpt lat="-27.001171666666664" lon="-48.63757999999999">
                <ele>-12.4</ele>
            </trkpt>
            <trkpt lat="-27.001171666666664" lon="-48.63757999999999">
                <ele>-12.4</ele>
            </trkpt>
            <trkpt lat="-27.001171666666664" lon="-48.63757999999999">
                <ele>-12.4</ele>
            </trkpt>
            <trkpt lat="-27.001171666666664" lon="-48.63757999999999">
                <ele>-12.4</ele>
            </trkpt>
            <trkpt lat="-27.001171666666664" lon="-48.63757999999999">
                <ele>-12.4</ele>
            </trkpt>
            <trkpt lat="-27.001171666666664" lon="-48.63757999999999">
                <ele>-12.4</ele>
            </trkpt>
            <trkpt lat="-27.001171666666664" lon="-48.63757999999999">
                <ele>-12.4</ele>
            </trkpt>
            <trkpt lat="-27.001171666666664" lon="-48.63757999999999">
                <ele>-12.4</ele>
            </trkpt>
            <trkpt lat="-27.001171666666664" lon="-48.63757999999999">
                <ele>-12.4</ele>
            </trkpt>
            <trkpt lat="-27.001171666666664" lon="-48.63757999999999">
                <ele>-12.4</ele>
            </trkpt>
            <trkpt lat="-27.001171666666664" lon="-48.63757999999999">
                <ele>-12.4</ele>
            </trkpt>
            <trkpt lat="-27.001171666666664" lon="-48.63757999999999">
                <ele>-12.4</ele>
            </trkpt>
            <trkpt lat="-27.001171666666664" lon="-48.63757999999999">
                <ele>-12.4</ele>
            </trkpt>
            <trkpt lat="-27.001171666666664" lon="-48.63757999999999">
                <ele>-12.4</ele>
            </trkpt>
            <trkpt lat="-27.001171666666664" lon="-48.63757999999999">
                <ele>-12.4</ele>
            </trkpt>
            <trkpt lat="-27.001171666666664" lon="-48.63757999999999">
                <ele>-12.4</ele>
            </trkpt>
            <trkpt lat="-27.001171666666664" lon="-48.63757999999999">
                <ele>-12.4</ele>
            </trkpt>
            <trkpt lat="-27.001171666666664" lon="-48.63757999999999">
                <ele>-12.4</ele>
            </trkpt>
            <trkpt lat="-27.001171666666664" lon="-48.63757999999999">
                <ele>-12.4</ele>
            </trkpt>
            <trkpt lat="-27.001171666666664" lon="-48.63757999999999">
                <ele>-12.4</ele>
            </trkpt>
            <trkpt lat="-27.001171666666664" lon="-48.63757999999999">
                <ele>-12.4</ele>
            </trkpt>
            <trkpt lat="-27.001171666666664" lon="-48.63757999999999">
                <ele>-12.4</ele>
            </trkpt>
            <trkpt lat="-27.001171666666664" lon="-48.63757999999999">
                <ele>-12.4</ele>
            </trkpt>
            <trkpt lat="-27.001171666666664" lon="-48.63757999999999">
                <ele>-12.4</ele>
            </trkpt>
            <trkpt lat="-27.001171666666664" lon="-48.63757999999999">
                <ele>-12.4</ele>
            </trkpt>
            <trkpt lat="-27.001171666666664" lon="-48.63757999999999">
                <ele>-12.4</ele>
            </trkpt>
            <trkpt lat="-27.001171666666664" lon="-48.63757999999999">
                <ele>-12.4</ele>
            </trkpt>
            <trkpt lat="-27.001171666666664" lon="-48.63757999999999">
                <ele>-12.4</ele>
            </trkpt>
            <trkpt lat="-27.001171666666664" lon="-48.63757999999999">
                <ele>-12.4</ele>
            </trkpt>
            <trkpt lat="-27.001171666666664" lon="-48.63757999999999">
                <ele>-12.4</ele>
            </trkpt>
            <trkpt lat="-27.001171666666664" lon="-48.63757999999999">
                <ele>-12.4</ele>
            </trkpt>
            <trkpt lat="-27.001171666666664" lon="-48.63757999999999">
                <ele>-12.4</ele>
            </trkpt>
            <trkpt lat="-27.001171666666664" lon="-48.63757999999999">
                <ele>-12.4</ele>
            </trkpt>
            <trkpt lat="-27.001171666666664" lon="-48.63757999999999">
                <ele>-12.4</ele>
            </trkpt>
            <trkpt lat="-27.001171666666664" lon="-48.63757999999999">
                <ele>-12.4</ele>
            </trkpt>
            <trkpt lat="-27.001171666666664" lon="-48.63757999999999">
                <ele>-12.4</ele>
            </trkpt>
            <trkpt lat="-27.001171666666664" lon="-48.63757999999999">
                <ele>-12.4</ele>
            </trkpt>
            <trkpt lat="-27.001171666666664" lon="-48.63757999999999">
                <ele>-12.4</ele>
            </trkpt>
            <trkpt lat="-27.001171666666664" lon="-48.63757999999999">
                <ele>-12.4</ele>
            </trkpt>
            <trkpt lat="-27.001171666666664" lon="-48.63757999999999">
                <ele>-12.4</ele>
            </trkpt>
            <trkpt lat="-27.001171666666664" lon="-48.63757999999999">
                <ele>-12.4</ele>
            </trkpt>
            <trkpt lat="-27.001171666666664" lon="-48.63757999999999">
                <ele>-12.4</ele>
            </trkpt>
            <trkpt lat="-27.001171666666664" lon="-48.63757999999999">
                <ele>-12.4</ele>
            </trkpt>
            <trkpt lat="-27.001171666666664" lon="-48.63757999999999">
                <ele>-12.4</ele>
            </trkpt>
            <trkpt lat="-27.001171666666664" lon="-48.63757999999999">
                <ele>-12.4</ele>
            </trkpt>
            <trkpt lat="-27.001171666666664" lon="-48.63757999999999">
                <ele>-12.4</ele>
            </trkpt>
            <trkpt lat="-27.001171666666664" lon="-48.63757999999999">
                <ele>-12.4</ele>
            </trkpt>
            <trkpt lat="-27.001171666666664" lon="-48.63757999999999">
                <ele>-12.4</ele>
            </trkpt>
            <trkpt lat="-27.001188333333335" lon="-48.637613333333334">
                <ele>-1.1999999999999997</ele>
            </trkpt>
            <trkpt lat="-27.001189999999998" lon="-48.63761833333333">
                <ele>-0.5</ele>
            </trkpt>
            <trkpt lat="-27.001189999999998" lon="-48.63762166666667">
                <ele>0.10000000000000009</ele>
            </trkpt>
            <trkpt lat="-27.001189999999998" lon="-48.63762833333333">
                <ele>0.8</ele>
            </trkpt>
            <trkpt lat="-27.001189999999998" lon="-48.63762833333333">
                <ele>0.8</ele>
            </trkpt>
            <trkpt lat="-27.001189999999998" lon="-48.63762833333333">
                <ele>0.8</ele>
            </trkpt>
            <trkpt lat="-27.001189999999998" lon="-48.63762833333333">
                <ele>0.8</ele>
            </trkpt>
            <trkpt lat="-27.001189999999998" lon="-48.63762833333333">
                <ele>0.8</ele>
            </trkpt>
            <trkpt lat="-27.001189999999998" lon="-48.63762833333333">
                <ele>0.8</ele>
            </trkpt>
            <trkpt lat="-27.001189999999998" lon="-48.63762833333333">
                <ele>0.8</ele>
            </trkpt>
            <trkpt lat="-27.001189999999998" lon="-48.63762833333333">
                <ele>0.8</ele>
            </trkpt>
            <trkpt lat="-27.001189999999998" lon="-48.63762833333333">
                <ele>0.8</ele>
            </trkpt>
            <trkpt lat="-27.001189999999998" lon="-48.63762833333333">
                <ele>0.8</ele>
            </trkpt>
            <trkpt lat="-27.001189999999998" lon="-48.63762833333333">
                <ele>0.8</ele>
            </trkpt>
            <trkpt lat="-27.001189999999998" lon="-48.63762833333333">
                <ele>0.8</ele>
            </trkpt>
            <trkpt lat="-27.001189999999998" lon="-48.63762833333333">
                <ele>0.8</ele>
            </trkpt>
            <trkpt lat="-27.001189999999998" lon="-48.63762833333333">
                <ele>0.8</ele>
            </trkpt>
            <trkpt lat="-27.001189999999998" lon="-48.63762833333333">
                <ele>0.8</ele>
            </trkpt>
            <trkpt lat="-27.001189999999998" lon="-48.63762833333333">
                <ele>0.8</ele>
            </trkpt>
            <trkpt lat="-27.001189999999998" lon="-48.63762833333333">
                <ele>0.8</ele>
            </trkpt>
            <trkpt lat="-27.001189999999998" lon="-48.63762833333333">
                <ele>0.8</ele>
            </trkpt>
            <trkpt lat="-27.001189999999998" lon="-48.63762833333333">
                <ele>0.8</ele>
            </trkpt>
            <trkpt lat="-27.001189999999998" lon="-48.63762833333333">
                <ele>0.8</ele>
            </trkpt>
            <trkpt lat="-27.001189999999998" lon="-48.63762833333333">
                <ele>0.8</ele>
            </trkpt>
            <trkpt lat="-27.001189999999998" lon="-48.63762833333333">
                <ele>0.8</ele>
            </trkpt>
            <trkpt lat="-27.001189999999998" lon="-48.63762833333333">
                <ele>0.8</ele>
            </trkpt>
            <trkpt lat="-27.001189999999998" lon="-48.63762833333333">
                <ele>0.8</ele>
            </trkpt>
            <trkpt lat="-27.001189999999998" lon="-48.63762833333333">
                <ele>0.8</ele>
            </trkpt>
            <trkpt lat="-27.001189999999998" lon="-48.63762833333333">
                <ele>0.8</ele>
            </trkpt>
            <trkpt lat="-27.001189999999998" lon="-48.63762833333333">
                <ele>0.8</ele>
            </trkpt>
            <trkpt lat="-27.001189999999998" lon="-48.63762833333333">
                <ele>0.8</ele>
            </trkpt>
            <trkpt lat="-27.001189999999998" lon="-48.63762833333333">
                <ele>0.8</ele>
            </trkpt>
            <trkpt lat="-27.001189999999998" lon="-48.63762833333333">
                <ele>0.8</ele>
            </trkpt>
            <trkpt lat="-27.001189999999998" lon="-48.63762833333333">
                <ele>0.8</ele>
            </trkpt>
            <trkpt lat="-27.001189999999998" lon="-48.63762833333333">
                <ele>0.8</ele>
            </trkpt>
            <trkpt lat="-27.001189999999998" lon="-48.63762833333333">
                <ele>0.8</ele>
            </trkpt>
            <trkpt lat="-27.001189999999998" lon="-48.63762833333333">
                <ele>0.8</ele>
            </trkpt>
            <trkpt lat="-27.001189999999998" lon="-48.63762833333333">
                <ele>0.8</ele>
            </trkpt>
            <trkpt lat="-27.001189999999998" lon="-48.63762833333333">
                <ele>0.8</ele>
            </trkpt>
            <trkpt lat="-27.001189999999998" lon="-48.63762833333333">
                <ele>0.8</ele>
            </trkpt>
            <trkpt lat="-27.001189999999998" lon="-48.63762833333333">
                <ele>0.8</ele>
            </trkpt>
            <trkpt lat="-27.001189999999998" lon="-48.63762833333333">
                <ele>0.8</ele>
            </trkpt>
            <trkpt lat="-27.001189999999998" lon="-48.63762833333333">
                <ele>0.8</ele>
            </trkpt>
            <trkpt lat="-27.001189999999998" lon="-48.63762833333333">
                <ele>0.8</ele>
            </trkpt>
            <trkpt lat="-27.001189999999998" lon="-48.63762833333333">
                <ele>0.8</ele>
            </trkpt>
            <trkpt lat="-27.001189999999998" lon="-48.63762833333333">
                <ele>0.8</ele>
            </trkpt>
            <trkpt lat="-27.001189999999998" lon="-48.63762833333333">
                <ele>0.8</ele>
            </trkpt>
            <trkpt lat="-27.001189999999998" lon="-48.63762833333333">
                <ele>0.8</ele>
            </trkpt>
            <trkpt lat="-27.001189999999998" lon="-48.63762833333333">
                <ele>0.8</ele>
            </trkpt>
            <trkpt lat="-27.001189999999998" lon="-48.63762833333333">
                <ele>0.8</ele>
            </trkpt>
            <trkpt lat="-27.001189999999998" lon="-48.63762833333333">
                <ele>0.8</ele>
            </trkpt>
            <trkpt lat="-27.001189999999998" lon="-48.63762833333333">
                <ele>0.8</ele>
            </trkpt>
            <trkpt lat="-27.001189999999998" lon="-48.63762833333333">
                <ele>0.8</ele>
            </trkpt>
            <trkpt lat="-27.001189999999998" lon="-48.63762833333333">
                <ele>0.8</ele>
            </trkpt>
            <trkpt lat="-27.001189999999998" lon="-48.63762833333333">
                <ele>0.8</ele>
            </trkpt>
            <trkpt lat="-27.001189999999998" lon="-48.63762833333333">
                <ele>0.8</ele>
            </trkpt>
            <trkpt lat="-27.001189999999998" lon="-48.63762833333333">
                <ele>0.8</ele>
            </trkpt>
            <trkpt lat="-27.001189999999998" lon="-48.63762833333333">
                <ele>0.8</ele>
            </trkpt>
            <trkpt lat="-27.001189999999998" lon="-48.63762833333333">
                <ele>0.8</ele>
            </trkpt>
            <trkpt lat="-27.001189999999998" lon="-48.63762833333333">
                <ele>0.8</ele>
            </trkpt>
            <trkpt lat="-27.001203333333333" lon="-48.63769166666666">
                <ele>12.2</ele>
            </trkpt>
            <trkpt lat="-27.001204999999995" lon="-48.637699999999995">
                <ele>12.6</ele>
            </trkpt>
            <trkpt lat="-27.001204999999995" lon="-48.63770666666666">
                <ele>13</ele>
            </trkpt>
            <trkpt lat="-27.001203333333333" lon="-48.63772000000001">
                <ele>13.4</ele>
            </trkpt>
            <trkpt lat="-27.001208333333338" lon="-48.63773333333334">
                <ele>13.6</ele>
            </trkpt>
            <trkpt lat="-27.00121" lon="-48.637746666666665">
                <ele>13.799999999999999</ele>
            </trkpt>
            <trkpt lat="-27.001208333333338" lon="-48.63775166666666">
                <ele>14.1</ele>
            </trkpt>
            <trkpt lat="-27.001203333333333" lon="-48.63775333333333">
                <ele>14.4</ele>
            </trkpt>
            <trkpt lat="-27.001203333333333" lon="-48.63775333333333">
                <ele>14.4</ele>
            </trkpt>
            <trkpt lat="-27.0012" lon="-48.63775833333334">
                <ele>14.9</ele>
            </trkpt>
            <trkpt lat="-27.001193333333337" lon="-48.63775833333334">
                <ele>15.7</ele>
            </trkpt>
            <trkpt lat="-27.001189999999998" lon="-48.637744999999995">
                <ele>16</ele>
            </trkpt>
            <trkpt lat="-27.001189999999998" lon="-48.63773333333334">
                <ele>16.1</ele>
            </trkpt>
            <trkpt lat="-27.001183333333334" lon="-48.63773166666667">
                <ele>16.1</ele>
            </trkpt>
            <trkpt lat="-27.001173333333334" lon="-48.637725">
                <ele>16.1</ele>
            </trkpt>
            <trkpt lat="-27.00116666666667" lon="-48.63772666666667">
                <ele>16</ele>
            </trkpt>
            <trkpt lat="-27.00116166666667" lon="-48.63773">
                <ele>16.3</ele>
            </trkpt>
            <trkpt lat="-27.001158333333333" lon="-48.63773166666667">
                <ele>16.2</ele>
            </trkpt>
            <trkpt lat="-27.001158333333333" lon="-48.63773333333334">
                <ele>16.3</ele>
            </trkpt>
            <trkpt lat="-27.001158333333333" lon="-48.63773666666666">
                <ele>16.400000000000002</ele>
            </trkpt>
            <trkpt lat="-27.001156666666663" lon="-48.63774">
                <ele>16.6</ele>
            </trkpt>
            <trkpt lat="-27.001156666666663" lon="-48.63774">
                <ele>16.6</ele>
            </trkpt>
            <trkpt lat="-27.001155" lon="-48.63773833333333">
                <ele>16.3</ele>
            </trkpt>
            <trkpt lat="-27.001156666666663" lon="-48.63773666666666">
                <ele>15.9</ele>
            </trkpt>
            <trkpt lat="-27.001156666666663" lon="-48.637735000000006">
                <ele>16</ele>
            </trkpt>
            <trkpt lat="-27.001156666666663" lon="-48.637735000000006">
                <ele>16</ele>
            </trkpt>
            <trkpt lat="-27.001156666666663" lon="-48.637735000000006">
                <ele>16</ele>
            </trkpt>
            <trkpt lat="-27.001156666666663" lon="-48.637735000000006">
                <ele>16</ele>
            </trkpt>
            <trkpt lat="-27.001156666666663" lon="-48.637735000000006">
                <ele>16</ele>
            </trkpt>
            <trkpt lat="-27.001155" lon="-48.63773666666666">
                <ele>14.9</ele>
            </trkpt>
            <trkpt lat="-27.001158333333333" lon="-48.637735000000006">
                <ele>15.1</ele>
            </trkpt>
            <trkpt lat="-27.001165" lon="-48.63773166666667">
                <ele>14.9</ele>
            </trkpt>
            <trkpt lat="-27.001170000000002" lon="-48.637723333333334">
                <ele>14.7</ele>
            </trkpt>
            <trkpt lat="-27.001173333333334" lon="-48.63771333333334">
                <ele>15</ele>
            </trkpt>
            <trkpt lat="-27.001173333333334" lon="-48.637705000000004">
                <ele>14.6</ele>
            </trkpt>
            <trkpt lat="-27.001171666666664" lon="-48.637701666666665">
                <ele>14</ele>
            </trkpt>
            <trkpt lat="-27.001176666666666" lon="-48.637705000000004">
                <ele>13.7</ele>
            </trkpt>
            <trkpt lat="-27.001179999999998" lon="-48.63771166666667">
                <ele>13.1</ele>
            </trkpt>
            <trkpt lat="-27.001188333333335" lon="-48.63772166666666">
                <ele>12.299999999999999</ele>
            </trkpt>
            <trkpt lat="-27.001195" lon="-48.63773166666667">
                <ele>11.4</ele>
            </trkpt>
            <trkpt lat="-27.001203333333333" lon="-48.63774166666667">
                <ele>10.799999999999999</ele>
            </trkpt>
            <trkpt lat="-27.00121166666667" lon="-48.63775166666666">
                <ele>10.4</ele>
            </trkpt>
            <trkpt lat="-27.001221666666666" lon="-48.63776166666666">
                <ele>9.7</ele>
            </trkpt>
            <trkpt lat="-27.001230000000003" lon="-48.63777166666667">
                <ele>9.5</ele>
            </trkpt>
            <trkpt lat="-27.00124" lon="-48.63778166666666">
                <ele>9.3</ele>
            </trkpt>
            <trkpt lat="-27.001246666666663" lon="-48.63779666666666">
                <ele>9.2</ele>
            </trkpt>
            <trkpt lat="-27.001255" lon="-48.63780833333333">
                <ele>9.6</ele>
            </trkpt>
            <trkpt lat="-27.001263333333334" lon="-48.63782166666667">
                <ele>10.4</ele>
            </trkpt>
            <trkpt lat="-27.001273333333334" lon="-48.63782666666666">
                <ele>10.799999999999999</ele>
            </trkpt>
            <trkpt lat="-27.001281666666667" lon="-48.63783333333334">
                <ele>11</ele>
            </trkpt>
            <trkpt lat="-27.00128666666667" lon="-48.63784333333333">
                <ele>11.4</ele>
            </trkpt>
            <trkpt lat="-27.00128833333333" lon="-48.63784999999999">
                <ele>11.7</ele>
            </trkpt>
            <trkpt lat="-27.00128833333333" lon="-48.63784999999999">
                <ele>11.7</ele>
            </trkpt>
            <trkpt lat="-27.001298333333338" lon="-48.63785500000001">
                <ele>11.9</ele>
            </trkpt>
            <trkpt lat="-27.001308333333334" lon="-48.63786">
                <ele>11.799999999999999</ele>
            </trkpt>
            <trkpt lat="-27.001318333333334" lon="-48.63786333333334">
                <ele>11</ele>
            </trkpt>
            <trkpt lat="-27.001324999999998" lon="-48.63786666666667">
                <ele>11.7</ele>
            </trkpt>
            <trkpt lat="-27.001336666666663" lon="-48.63787333333333">
                <ele>11.299999999999999</ele>
            </trkpt>
            <trkpt lat="-27.00134666666667" lon="-48.63787333333333">
                <ele>10.799999999999999</ele>
            </trkpt>
            <trkpt lat="-27.001353333333334" lon="-48.637881666666665">
                <ele>10.7</ele>
            </trkpt>
            <trkpt lat="-27.00136166666667" lon="-48.63789166666667">
                <ele>10.299999999999999</ele>
            </trkpt>
            <trkpt lat="-27.001371666666667" lon="-48.63790000000001">
                <ele>10</ele>
            </trkpt>
            <trkpt lat="-27.00137833333333" lon="-48.63790166666666">
                <ele>9.799999999999999</ele>
            </trkpt>
            <trkpt lat="-27.001383333333333" lon="-48.637903333333334">
                <ele>9.6</ele>
            </trkpt>
            <trkpt lat="-27.00139" lon="-48.63791">
                <ele>9.4</ele>
            </trkpt>
            <trkpt lat="-27.00139" lon="-48.63791">
                <ele>9.4</ele>
            </trkpt>
            <trkpt lat="-27.001393333333333" lon="-48.63791666666666">
                <ele>9.3</ele>
            </trkpt>
            <trkpt lat="-27.001393333333333" lon="-48.637924999999996">
                <ele>9.3</ele>
            </trkpt>
            <trkpt lat="-27.001405" lon="-48.63793833333334">
                <ele>9.7</ele>
            </trkpt>
            <trkpt lat="-27.00141833333333" lon="-48.637948333333334">
                <ele>9.799999999999999</ele>
            </trkpt>
            <trkpt lat="-27.001429999999996" lon="-48.63795166666667">
                <ele>9.799999999999999</ele>
            </trkpt>
            <trkpt lat="-27.001443333333334" lon="-48.637955">
                <ele>9.4</ele>
            </trkpt>
            <trkpt lat="-27.001456666666666" lon="-48.63796000000001">
                <ele>9.5</ele>
            </trkpt>
            <trkpt lat="-27.00146666666667" lon="-48.63796333333333">
                <ele>9.4</ele>
            </trkpt>
            <trkpt lat="-27.00147666666667" lon="-48.63796666666667">
                <ele>9.5</ele>
            </trkpt>
            <trkpt lat="-27.00148166666667" lon="-48.63796833333334">
                <ele>9.5</ele>
            </trkpt>
            <trkpt lat="-27.001485000000002" lon="-48.637973333333335">
                <ele>9.799999999999999</ele>
            </trkpt>
            <trkpt lat="-27.001488333333334" lon="-48.637973333333335">
                <ele>9.7</ele>
            </trkpt>
            <trkpt lat="-27.001489999999997" lon="-48.637969999999996">
                <ele>10.299999999999999</ele>
            </trkpt>
            <trkpt lat="-27.001491666666666" lon="-48.63796333333333">
                <ele>10</ele>
            </trkpt>
            <trkpt lat="-27.001495" lon="-48.63795666666667">
                <ele>10</ele>
            </trkpt>
            <trkpt lat="-27.001485000000002" lon="-48.63794666666666">
                <ele>10.799999999999999</ele>
            </trkpt>
            <trkpt lat="-27.00147833333333" lon="-48.63793999999999">
                <ele>11.1</ele>
            </trkpt>
            <trkpt lat="-27.001471666666664" lon="-48.63793166666666">
                <ele>10.799999999999999</ele>
            </trkpt>
            <trkpt lat="-27.001473333333333" lon="-48.637928333333335">
                <ele>10.9</ele>
            </trkpt>
            <trkpt lat="-27.001471666666664" lon="-48.637924999999996">
                <ele>10.799999999999999</ele>
            </trkpt>
            <trkpt lat="-27.00147" lon="-48.63792333333334">
                <ele>10.7</ele>
            </trkpt>
            <trkpt lat="-27.00146833333333" lon="-48.63791666666666">
                <ele>10.9</ele>
            </trkpt>
            <trkpt lat="-27.00146833333333" lon="-48.63791666666666">
                <ele>10.9</ele>
            </trkpt>
            <trkpt lat="-27.00146833333333" lon="-48.63791666666666">
                <ele>10.9</ele>
            </trkpt>
            <trkpt lat="-27.00146833333333" lon="-48.63791666666666">
                <ele>10.9</ele>
            </trkpt>
            <trkpt lat="-27.00146833333333" lon="-48.63791666666666">
                <ele>10.9</ele>
            </trkpt>
            <trkpt lat="-27.00146833333333" lon="-48.63791666666666">
                <ele>10.9</ele>
            </trkpt>
            <trkpt lat="-27.00146833333333" lon="-48.63791666666666">
                <ele>10.9</ele>
            </trkpt>
            <trkpt lat="-27.001459999999998" lon="-48.63794166666666">
                <ele>10.4</ele>
            </trkpt>
            <trkpt lat="-27.001459999999998" lon="-48.63794166666666">
                <ele>10.4</ele>
            </trkpt>
            <trkpt lat="-27.001456666666666" lon="-48.637965">
                <ele>10.4</ele>
            </trkpt>
            <trkpt lat="-27.001459999999998" lon="-48.63796833333334">
                <ele>10.1</ele>
            </trkpt>
            <trkpt lat="-27.001461666666668" lon="-48.637969999999996">
                <ele>10</ele>
            </trkpt>
            <trkpt lat="-27.001459999999998" lon="-48.63798666666666">
                <ele>9.7</ele>
            </trkpt>
            <trkpt lat="-27.001456666666666" lon="-48.63798833333333">
                <ele>9.3</ele>
            </trkpt>
            <trkpt lat="-27.00146333333333" lon="-48.637993333333334">
                <ele>9</ele>
            </trkpt>
            <trkpt lat="-27.001471666666664" lon="-48.637995000000004">
                <ele>8.7</ele>
            </trkpt>
            <trkpt lat="-27.00148" lon="-48.63797666666666">
                <ele>8.4</ele>
            </trkpt>
            <trkpt lat="-27.00148" lon="-48.63797666666666">
                <ele>8.4</ele>
            </trkpt>
            <trkpt lat="-27.001486666666665" lon="-48.637955">
                <ele>8.3</ele>
            </trkpt>
            <trkpt lat="-27.00149333333333" lon="-48.637935">
                <ele>8.1</ele>
            </trkpt>
            <trkpt lat="-27.001498333333334" lon="-48.63792166666667">
                <ele>8.1</ele>
            </trkpt>
            <trkpt lat="-27.001495" lon="-48.63791666666666">
                <ele>7.9</ele>
            </trkpt>
            <trkpt lat="-27.00147833333333" lon="-48.63792333333334">
                <ele>8.4</ele>
            </trkpt>
            <trkpt lat="-27.001483333333333" lon="-48.637935">
                <ele>8.8</ele>
            </trkpt>
            <trkpt lat="-27.001498333333334" lon="-48.63793833333334">
                <ele>8.6</ele>
            </trkpt>
            <trkpt lat="-27.00150833333333" lon="-48.637948333333334">
                <ele>8.3</ele>
            </trkpt>
            <trkpt lat="-27.00150833333333" lon="-48.63795333333334">
                <ele>8.3</ele>
            </trkpt>
            <trkpt lat="-27.001500000000004" lon="-48.637955">
                <ele>8</ele>
            </trkpt>
            <trkpt lat="-27.001498333333334" lon="-48.63795333333334">
                <ele>7.9</ele>
            </trkpt>
            <trkpt lat="-27.001488333333334" lon="-48.63795166666667">
                <ele>7.800000000000001</ele>
            </trkpt>
            <trkpt lat="-27.00147666666667" lon="-48.63794500000001">
                <ele>7.9</ele>
            </trkpt>
            <trkpt lat="-27.001471666666664" lon="-48.63793166666666">
                <ele>7.9</ele>
            </trkpt>
            <trkpt lat="-27.00147" lon="-48.63791666666666">
                <ele>8.3</ele>
            </trkpt>
            <trkpt lat="-27.00146833333333" lon="-48.63790833333334">
                <ele>9</ele>
            </trkpt>
            <trkpt lat="-27.001465" lon="-48.63790833333334">
                <ele>9.799999999999999</ele>
            </trkpt>
            <trkpt lat="-27.001465" lon="-48.63790666666667">
                <ele>10</ele>
            </trkpt>
            <trkpt lat="-27.00146333333333" lon="-48.637905">
                <ele>9.9</ele>
            </trkpt>
            <trkpt lat="-27.001461666666668" lon="-48.637905">
                <ele>9.6</ele>
            </trkpt>
            <trkpt lat="-27.001459999999998" lon="-48.63791">
                <ele>9.7</ele>
            </trkpt>
            <trkpt lat="-27.001458333333336" lon="-48.63791166666667">
                <ele>9.7</ele>
            </trkpt>
            <trkpt lat="-27.001456666666666" lon="-48.63791833333333">
                <ele>9.6</ele>
            </trkpt>
            <trkpt lat="-27.001453333333334" lon="-48.63792166666667">
                <ele>9.7</ele>
            </trkpt>
            <trkpt lat="-27.00145" lon="-48.63792166666667">
                <ele>9.7</ele>
            </trkpt>
            <trkpt lat="-27.00145" lon="-48.63792166666667">
                <ele>9.7</ele>
            </trkpt>
            <trkpt lat="-27.00145" lon="-48.63792166666667">
                <ele>9.7</ele>
            </trkpt>
            <trkpt lat="-27.00145" lon="-48.63792166666667">
                <ele>9.7</ele>
            </trkpt>
            <trkpt lat="-27.00145" lon="-48.63792166666667">
                <ele>9.7</ele>
            </trkpt>
            <trkpt lat="-27.00145" lon="-48.63792166666667">
                <ele>9.7</ele>
            </trkpt>
            <trkpt lat="-27.00145" lon="-48.63792166666667">
                <ele>9.7</ele>
            </trkpt>
            <trkpt lat="-27.00145" lon="-48.63792166666667">
                <ele>9.7</ele>
            </trkpt>
            <trkpt lat="-27.00145" lon="-48.63792166666667">
                <ele>9.7</ele>
            </trkpt>
            <trkpt lat="-27.001435" lon="-48.63793999999999">
                <ele>9.2</ele>
            </trkpt>
            <trkpt lat="-27.00143166666667" lon="-48.63793999999999">
                <ele>9.2</ele>
            </trkpt>
            <trkpt lat="-27.001428333333333" lon="-48.63793999999999">
                <ele>9.2</ele>
            </trkpt>
            <trkpt lat="-27.00143333333333" lon="-48.637935">
                <ele>9.3</ele>
            </trkpt>
            <trkpt lat="-27.00143333333333" lon="-48.637935">
                <ele>9.3</ele>
            </trkpt>
            <trkpt lat="-27.00143333333333" lon="-48.637935">
                <ele>9.3</ele>
            </trkpt>
            <trkpt lat="-27.00143333333333" lon="-48.637935">
                <ele>9.3</ele>
            </trkpt>
            <trkpt lat="-27.00143333333333" lon="-48.637935">
                <ele>9.3</ele>
            </trkpt>
            <trkpt lat="-27.00143333333333" lon="-48.637935">
                <ele>9.3</ele>
            </trkpt>
            <trkpt lat="-27.00143333333333" lon="-48.637935">
                <ele>9.3</ele>
            </trkpt>
            <trkpt lat="-27.00143333333333" lon="-48.637935">
                <ele>9.3</ele>
            </trkpt>
            <trkpt lat="-27.00143333333333" lon="-48.637935">
                <ele>9.3</ele>
            </trkpt>
            <trkpt lat="-27.00143333333333" lon="-48.637935">
                <ele>9.3</ele>
            </trkpt>
            <trkpt lat="-27.00142" lon="-48.63796166666666">
                <ele>9</ele>
            </trkpt>
            <trkpt lat="-27.001413333333335" lon="-48.63796333333333">
                <ele>9.4</ele>
            </trkpt>
            <trkpt lat="-27.001414999999998" lon="-48.63796166666666">
                <ele>9.7</ele>
            </trkpt>
            <trkpt lat="-27.00141833333333" lon="-48.63796666666667">
                <ele>9.5</ele>
            </trkpt>
            <trkpt lat="-27.001416666666668" lon="-48.637973333333335">
                <ele>9.3</ele>
            </trkpt>
            <trkpt lat="-27.00141833333333" lon="-48.63797666666666">
                <ele>9.1</ele>
            </trkpt>
            <trkpt lat="-27.00141833333333" lon="-48.63798333333334">
                <ele>8.9</ele>
            </trkpt>
            <trkpt lat="-27.00142" lon="-48.63798333333334">
                <ele>8.9</ele>
            </trkpt>
            <trkpt lat="-27.001425" lon="-48.63798499999999">
                <ele>8.8</ele>
            </trkpt>
            <trkpt lat="-27.001428333333333" lon="-48.63798666666666">
                <ele>8.8</ele>
            </trkpt>
            <trkpt lat="-27.00143333333333" lon="-48.63799000000001">
                <ele>9</ele>
            </trkpt>
            <trkpt lat="-27.001428333333333" lon="-48.637995000000004">
                <ele>8.8</ele>
            </trkpt>
            <trkpt lat="-27.001426666666664" lon="-48.637995000000004">
                <ele>8.6</ele>
            </trkpt>
            <trkpt lat="-27.00142333333333" lon="-48.637995000000004">
                <ele>8.4</ele>
            </trkpt>
            <trkpt lat="-27.001413333333335" lon="-48.637995000000004">
                <ele>8</ele>
            </trkpt>
            <trkpt lat="-27.001405" lon="-48.63798833333333">
                <ele>7.699999999999999</ele>
            </trkpt>
            <trkpt lat="-27.001405" lon="-48.63798833333333">
                <ele>7.699999999999999</ele>
            </trkpt>
            <trkpt lat="-27.001405" lon="-48.63798833333333">
                <ele>7.699999999999999</ele>
            </trkpt>
            <trkpt lat="-27.001405" lon="-48.63798833333333">
                <ele>7.699999999999999</ele>
            </trkpt>
            <trkpt lat="-27.001405" lon="-48.63798833333333">
                <ele>7.699999999999999</ele>
            </trkpt>
            <trkpt lat="-27.001405" lon="-48.63798833333333">
                <ele>7.699999999999999</ele>
            </trkpt>
            <trkpt lat="-27.001405" lon="-48.63798833333333">
                <ele>7.699999999999999</ele>
            </trkpt>
            <trkpt lat="-27.001405" lon="-48.63798833333333">
                <ele>7.699999999999999</ele>
            </trkpt>
            <trkpt lat="-27.001405" lon="-48.63798833333333">
                <ele>7.699999999999999</ele>
            </trkpt>
            <trkpt lat="-27.00138666666667" lon="-48.637928333333335">
                <ele>6.9</ele>
            </trkpt>
            <trkpt lat="-27.00138666666667" lon="-48.637928333333335">
                <ele>6.9</ele>
            </trkpt>
            <trkpt lat="-27.001384999999996" lon="-48.637924999999996">
                <ele>7.1</ele>
            </trkpt>
            <trkpt lat="-27.001384999999996" lon="-48.63792166666667">
                <ele>7.199999999999999</ele>
            </trkpt>
            <trkpt lat="-27.001393333333333" lon="-48.637926666666665">
                <ele>7</ele>
            </trkpt>
            <trkpt lat="-27.001393333333333" lon="-48.637924999999996">
                <ele>6.800000000000001</ele>
            </trkpt>
            <trkpt lat="-27.001398333333334" lon="-48.63792333333334">
                <ele>6.800000000000001</ele>
            </trkpt>
            <trkpt lat="-27.001398333333334" lon="-48.63792333333334">
                <ele>6.800000000000001</ele>
            </trkpt>
            <trkpt lat="-27.001399999999997" lon="-48.63792166666667">
                <ele>6.9</ele>
            </trkpt>
            <trkpt lat="-27.001399999999997" lon="-48.63792166666667">
                <ele>6.9</ele>
            </trkpt>
            <trkpt lat="-27.001405" lon="-48.63792">
                <ele>6.9</ele>
            </trkpt>
            <trkpt lat="-27.00140666666667" lon="-48.63792">
                <ele>7.1</ele>
            </trkpt>
            <trkpt lat="-27.00140666666667" lon="-48.63791833333333">
                <ele>7.1</ele>
            </trkpt>
            <trkpt lat="-27.001401666666666" lon="-48.63791">
                <ele>7.1</ele>
            </trkpt>
            <trkpt lat="-27.001393333333333" lon="-48.637905">
                <ele>7.1</ele>
            </trkpt>
            <trkpt lat="-27.001396666666665" lon="-48.63789333333334">
                <ele>7.1</ele>
            </trkpt>
            <trkpt lat="-27.001396666666665" lon="-48.637885000000004">
                <ele>7</ele>
            </trkpt>
            <trkpt lat="-27.001396666666665" lon="-48.637885000000004">
                <ele>7</ele>
            </trkpt>
            <trkpt lat="-27.001396666666665" lon="-48.637885000000004">
                <ele>7</ele>
            </trkpt>
            <trkpt lat="-27.001396666666665" lon="-48.637885000000004">
                <ele>7</ele>
            </trkpt>
            <trkpt lat="-27.001393333333333" lon="-48.63786166666667">
                <ele>7</ele>
            </trkpt>
            <trkpt lat="-27.001393333333333" lon="-48.63786166666667">
                <ele>6.800000000000001</ele>
            </trkpt>
            <trkpt lat="-27.00139" lon="-48.637858333333334">
                <ele>6.9</ele>
            </trkpt>
            <trkpt lat="-27.001395000000002" lon="-48.637858333333334">
                <ele>6.9</ele>
            </trkpt>
            <trkpt lat="-27.001399999999997" lon="-48.63786">
                <ele>6.9</ele>
            </trkpt>
            <trkpt lat="-27.00141833333333" lon="-48.63786666666667">
                <ele>6.5</ele>
            </trkpt>
            <trkpt lat="-27.001426666666664" lon="-48.637865">
                <ele>6.300000000000001</ele>
            </trkpt>
            <trkpt lat="-27.001446666666666" lon="-48.63786833333334">
                <ele>5.5</ele>
            </trkpt>
            <trkpt lat="-27.001444999999997" lon="-48.63787166666666">
                <ele>5.5</ele>
            </trkpt>
            <trkpt lat="-27.001440000000002" lon="-48.63787333333333">
                <ele>5.300000000000001</ele>
            </trkpt>
            <trkpt lat="-27.001435" lon="-48.637875">
                <ele>5.2</ele>
            </trkpt>
            <trkpt lat="-27.00143333333333" lon="-48.63787333333333">
                <ele>5</ele>
            </trkpt>
            <trkpt lat="-27.001429999999996" lon="-48.63787333333333">
                <ele>4.800000000000001</ele>
            </trkpt>
            <trkpt lat="-27.00142166666667" lon="-48.637881666666665">
                <ele>4.2</ele>
            </trkpt>
            <trkpt lat="-27.00142166666667" lon="-48.637881666666665">
                <ele>4.2</ele>
            </trkpt>
            <trkpt lat="-27.00142166666667" lon="-48.637881666666665">
                <ele>4.2</ele>
            </trkpt>
            <trkpt lat="-27.00142166666667" lon="-48.637881666666665">
                <ele>4.2</ele>
            </trkpt>
            <trkpt lat="-27.00142166666667" lon="-48.637881666666665">
                <ele>4.2</ele>
            </trkpt>
            <trkpt lat="-27.00142166666667" lon="-48.637881666666665">
                <ele>4.2</ele>
            </trkpt>
            <trkpt lat="-27.00142166666667" lon="-48.637881666666665">
                <ele>4.2</ele>
            </trkpt>
            <trkpt lat="-27.00142166666667" lon="-48.637881666666665">
                <ele>4.2</ele>
            </trkpt>
            <trkpt lat="-27.00142166666667" lon="-48.637881666666665">
                <ele>4.2</ele>
            </trkpt>
            <trkpt lat="-27.00142166666667" lon="-48.637881666666665">
                <ele>4.2</ele>
            </trkpt>
            <trkpt lat="-27.001426666666664" lon="-48.63793833333334">
                <ele>6</ele>
            </trkpt>
            <trkpt lat="-27.001428333333333" lon="-48.637948333333334">
                <ele>5.699999999999999</ele>
            </trkpt>
            <trkpt lat="-27.00142166666667" lon="-48.63796000000001">
                <ele>5.699999999999999</ele>
            </trkpt>
            <trkpt lat="-27.00142333333333" lon="-48.63796666666667">
                <ele>5.2</ele>
            </trkpt>
            <trkpt lat="-27.001425" lon="-48.63796833333334">
                <ele>5.2</ele>
            </trkpt>
            <trkpt lat="-27.001426666666664" lon="-48.637969999999996">
                <ele>5.300000000000001</ele>
            </trkpt>
            <trkpt lat="-27.001426666666664" lon="-48.637969999999996">
                <ele>5.300000000000001</ele>
            </trkpt>
            <trkpt lat="-27.001426666666664" lon="-48.637969999999996">
                <ele>5.300000000000001</ele>
            </trkpt>
            <trkpt lat="-27.001426666666664" lon="-48.637969999999996">
                <ele>5.300000000000001</ele>
            </trkpt>
            <trkpt lat="-27.001414999999998" lon="-48.63797833333333">
                <ele>5.2</ele>
            </trkpt>
            <trkpt lat="-27.001411666666666" lon="-48.63797833333333">
                <ele>5.2</ele>
            </trkpt>
            <trkpt lat="-27.001414999999998" lon="-48.63797833333333">
                <ele>5.300000000000001</ele>
            </trkpt>
            <trkpt lat="-27.00141833333333" lon="-48.637975000000004">
                <ele>5.6</ele>
            </trkpt>
            <trkpt lat="-27.001425" lon="-48.637975000000004">
                <ele>6</ele>
            </trkpt>
            <trkpt lat="-27.00143333333333" lon="-48.63797666666666">
                <ele>6.4</ele>
            </trkpt>
            <trkpt lat="-27.00143666666667" lon="-48.637975000000004">
                <ele>6.699999999999999</ele>
            </trkpt>
            <trkpt lat="-27.001438333333333" lon="-48.637973333333335">
                <ele>7</ele>
            </trkpt>
            <trkpt lat="-27.001440000000002" lon="-48.637973333333335">
                <ele>7.199999999999999</ele>
            </trkpt>
            <trkpt lat="-27.001440000000002" lon="-48.637971666666665">
                <ele>7.699999999999999</ele>
            </trkpt>
            <trkpt lat="-27.001438333333333" lon="-48.63796333333333">
                <ele>8.3</ele>
            </trkpt>
            <trkpt lat="-27.001440000000002" lon="-48.637955">
                <ele>8.7</ele>
            </trkpt>
            <trkpt lat="-27.001435" lon="-48.63794333333333">
                <ele>9.799999999999999</ele>
            </trkpt>
            <trkpt lat="-27.001435" lon="-48.63793666666667">
                <ele>10.299999999999999</ele>
            </trkpt>
            <trkpt lat="-27.00143333333333" lon="-48.63793166666666">
                <ele>11.2</ele>
            </trkpt>
            <trkpt lat="-27.00143333333333" lon="-48.63793166666666">
                <ele>12.1</ele>
            </trkpt>
            <trkpt lat="-27.00143333333333" lon="-48.637930000000004">
                <ele>12.2</ele>
            </trkpt>
            <trkpt lat="-27.00143666666667" lon="-48.637926666666665">
                <ele>12.2</ele>
            </trkpt>
            <trkpt lat="-27.001443333333334" lon="-48.63791333333334">
                <ele>12.2</ele>
            </trkpt>
            <trkpt lat="-27.00145166666667" lon="-48.63790666666667">
                <ele>11.6</ele>
            </trkpt>
            <trkpt lat="-27.001453333333334" lon="-48.63790000000001">
                <ele>12</ele>
            </trkpt>
            <trkpt lat="-27.001458333333336" lon="-48.63789833333333">
                <ele>12.299999999999999</ele>
            </trkpt>
            <trkpt lat="-27.001461666666668" lon="-48.63789833333333">
                <ele>12.5</ele>
            </trkpt>
            <trkpt lat="-27.00146333333333" lon="-48.63789833333333">
                <ele>12.6</ele>
            </trkpt>
            <trkpt lat="-27.00146333333333" lon="-48.63789833333333">
                <ele>12.6</ele>
            </trkpt>
            <trkpt lat="-27.00146333333333" lon="-48.63789833333333">
                <ele>12.6</ele>
            </trkpt>
            <trkpt lat="-27.00146333333333" lon="-48.637903333333334">
                <ele>12.5</ele>
            </trkpt>
            <trkpt lat="-27.001461666666668" lon="-48.637905">
                <ele>12.5</ele>
            </trkpt>
            <trkpt lat="-27.001458333333336" lon="-48.63790833333334">
                <ele>12.4</ele>
            </trkpt>
            <trkpt lat="-27.001456666666666" lon="-48.63790833333334">
                <ele>12.299999999999999</ele>
            </trkpt>
            <trkpt lat="-27.001453333333334" lon="-48.63791">
                <ele>12.4</ele>
            </trkpt>
            <trkpt lat="-27.001453333333334" lon="-48.63791166666667">
                <ele>12.4</ele>
            </trkpt>
            <trkpt lat="-27.001456666666666" lon="-48.63792">
                <ele>12.2</ele>
            </trkpt>
            <trkpt lat="-27.00146333333333" lon="-48.63792">
                <ele>11.9</ele>
            </trkpt>
            <trkpt lat="-27.00147" lon="-48.63792333333334">
                <ele>11.7</ele>
            </trkpt>
            <trkpt lat="-27.001485000000002" lon="-48.637930000000004">
                <ele>11.4</ele>
            </trkpt>
            <trkpt lat="-27.001491666666666" lon="-48.63793333333333">
                <ele>11.2</ele>
            </trkpt>
            <trkpt lat="-27.00149666666667" lon="-48.63793833333334">
                <ele>11.4</ele>
            </trkpt>
            <trkpt lat="-27.001495" lon="-48.63794166666666">
                <ele>11.2</ele>
            </trkpt>
            <trkpt lat="-27.001483333333333" lon="-48.63793666666667">
                <ele>11</ele>
            </trkpt>
            <trkpt lat="-27.001473333333333" lon="-48.63795666666667">
                <ele>11</ele>
            </trkpt>
            <trkpt lat="-27.00147833333333" lon="-48.63796166666666">
                <ele>11</ele>
            </trkpt>
            <trkpt lat="-27.001488333333334" lon="-48.63796833333334">
                <ele>11.1</ele>
            </trkpt>
            <trkpt lat="-27.001488333333334" lon="-48.63796833333334">
                <ele>11.1</ele>
            </trkpt>
            <trkpt lat="-27.001498333333334" lon="-48.63796166666666">
                <ele>11.1</ele>
            </trkpt>
            <trkpt lat="-27.001506666666668" lon="-48.63795833333334">
                <ele>11.4</ele>
            </trkpt>
            <trkpt lat="-27.001518333333333" lon="-48.63796166666666">
                <ele>11.299999999999999</ele>
            </trkpt>
            <trkpt lat="-27.00152666666667" lon="-48.637969999999996">
                <ele>11.5</ele>
            </trkpt>
            <trkpt lat="-27.001545000000004" lon="-48.63798666666666">
                <ele>11.2</ele>
            </trkpt>
            <trkpt lat="-27.00156" lon="-48.63801333333334">
                <ele>11.5</ele>
            </trkpt>
            <trkpt lat="-27.00156833333333" lon="-48.63803166666666">
                <ele>11.6</ele>
            </trkpt>
            <trkpt lat="-27.001579999999997" lon="-48.63804166666667">
                <ele>11.799999999999999</ele>
            </trkpt>
            <trkpt lat="-27.00161166666667" lon="-48.63805000000001">
                <ele>11.799999999999999</ele>
            </trkpt>
            <trkpt lat="-27.001631666666672" lon="-48.638038333333334">
                <ele>11.1</ele>
            </trkpt>
            <trkpt lat="-27.00166" lon="-48.63804333333333">
                <ele>10.4</ele>
            </trkpt>
            <trkpt lat="-27.00170333333333" lon="-48.63804666666667">
                <ele>9.6</ele>
            </trkpt>
            <trkpt lat="-27.00174" lon="-48.63805333333333">
                <ele>8.7</ele>
            </trkpt>
            <trkpt lat="-27.001761666666667" lon="-48.638065000000005">
                <ele>7.300000000000001</ele>
            </trkpt>
            <trkpt lat="-27.001786666666664" lon="-48.63807">
                <ele>7.1</ele>
            </trkpt>
            <trkpt lat="-27.001803333333335" lon="-48.63808166666666">
                <ele>7.199999999999999</ele>
            </trkpt>
            <trkpt lat="-27.00182" lon="-48.63809166666667">
                <ele>7.6</ele>
            </trkpt>
            <trkpt lat="-27.001831666666664" lon="-48.63810166666667">
                <ele>7.300000000000001</ele>
            </trkpt>
            <trkpt lat="-27.001831666666664" lon="-48.63810166666667">
                <ele>7.300000000000001</ele>
            </trkpt>
            <trkpt lat="-27.001838333333332" lon="-48.638104999999996">
                <ele>7.300000000000001</ele>
            </trkpt>
            <trkpt lat="-27.001851666666667" lon="-48.638106666666665">
                <ele>7.6</ele>
            </trkpt>
            <trkpt lat="-27.001863333333336" lon="-48.638104999999996">
                <ele>8.2</ele>
            </trkpt>
            <trkpt lat="-27.00187" lon="-48.638108333333335">
                <ele>8.9</ele>
            </trkpt>
            <trkpt lat="-27.00187" lon="-48.638106666666665">
                <ele>9.5</ele>
            </trkpt>
            <trkpt lat="-27.001871666666663" lon="-48.638106666666665">
                <ele>10.1</ele>
            </trkpt>
            <trkpt lat="-27.00186833333333" lon="-48.638108333333335">
                <ele>10</ele>
            </trkpt>
            <trkpt lat="-27.00186833333333" lon="-48.638108333333335">
                <ele>9.2</ele>
            </trkpt>
            <trkpt lat="-27.001871666666663" lon="-48.638108333333335">
                <ele>8.4</ele>
            </trkpt>
            <trkpt lat="-27.00187" lon="-48.638110000000005">
                <ele>7.4</ele>
            </trkpt>
            <trkpt lat="-27.00187" lon="-48.638110000000005">
                <ele>6.9</ele>
            </trkpt>
            <trkpt lat="-27.00187" lon="-48.638110000000005">
                <ele>6.9</ele>
            </trkpt>
            <trkpt lat="-27.00186666666667" lon="-48.638106666666665">
                <ele>6.1</ele>
            </trkpt>
            <trkpt lat="-27.00186666666667" lon="-48.638106666666665">
                <ele>6.1</ele>
            </trkpt>
            <trkpt lat="-27.00186666666667" lon="-48.638106666666665">
                <ele>6.1</ele>
            </trkpt>
            <trkpt lat="-27.00186666666667" lon="-48.638106666666665">
                <ele>6.1</ele>
            </trkpt>
            <trkpt lat="-27.00186666666667" lon="-48.638106666666665">
                <ele>6.1</ele>
            </trkpt>
            <trkpt lat="-27.00186666666667" lon="-48.638106666666665">
                <ele>6.1</ele>
            </trkpt>
            <trkpt lat="-27.00186666666667" lon="-48.638106666666665">
                <ele>6.1</ele>
            </trkpt>
            <trkpt lat="-27.00186666666667" lon="-48.638106666666665">
                <ele>6.1</ele>
            </trkpt>
            <trkpt lat="-27.00186666666667" lon="-48.638106666666665">
                <ele>6.1</ele>
            </trkpt>
            <trkpt lat="-27.00186666666667" lon="-48.638106666666665">
                <ele>6.1</ele>
            </trkpt>
            <trkpt lat="-27.00186666666667" lon="-48.638106666666665">
                <ele>6.1</ele>
            </trkpt>
            <trkpt lat="-27.00186666666667" lon="-48.638106666666665">
                <ele>6.1</ele>
            </trkpt>
            <trkpt lat="-27.00186666666667" lon="-48.638106666666665">
                <ele>6.1</ele>
            </trkpt>
            <trkpt lat="-27.00186666666667" lon="-48.638106666666665">
                <ele>6.1</ele>
            </trkpt>
            <trkpt lat="-27.00186666666667" lon="-48.638106666666665">
                <ele>6.1</ele>
            </trkpt>
            <trkpt lat="-27.00186666666667" lon="-48.638106666666665">
                <ele>6.1</ele>
            </trkpt>
            <trkpt lat="-27.00186666666667" lon="-48.638106666666665">
                <ele>6.1</ele>
            </trkpt>
            <trkpt lat="-27.00186666666667" lon="-48.638106666666665">
                <ele>6.1</ele>
            </trkpt>
            <trkpt lat="-27.00186666666667" lon="-48.638106666666665">
                <ele>6.1</ele>
            </trkpt>
            <trkpt lat="-27.00186666666667" lon="-48.638106666666665">
                <ele>6.1</ele>
            </trkpt>
            <trkpt lat="-27.00186666666667" lon="-48.638106666666665">
                <ele>6.1</ele>
            </trkpt>
            <trkpt lat="-27.00186666666667" lon="-48.638106666666665">
                <ele>6.1</ele>
            </trkpt>
            <trkpt lat="-27.00186666666667" lon="-48.638106666666665">
                <ele>6.1</ele>
            </trkpt>
            <trkpt lat="-27.00186666666667" lon="-48.638106666666665">
                <ele>6.1</ele>
            </trkpt>
            <trkpt lat="-27.00186666666667" lon="-48.638106666666665">
                <ele>6.1</ele>
            </trkpt>
            <trkpt lat="-27.00186666666667" lon="-48.638106666666665">
                <ele>6.1</ele>
            </trkpt>
            <trkpt lat="-27.00186666666667" lon="-48.638106666666665">
                <ele>6.1</ele>
            </trkpt>
            <trkpt lat="-27.00186666666667" lon="-48.638106666666665">
                <ele>6.1</ele>
            </trkpt>
            <trkpt lat="-27.00186666666667" lon="-48.638106666666665">
                <ele>6.1</ele>
            </trkpt>
            <trkpt lat="-27.00186666666667" lon="-48.638106666666665">
                <ele>6.1</ele>
            </trkpt>
            <trkpt lat="-27.00186666666667" lon="-48.638106666666665">
                <ele>6.1</ele>
            </trkpt>
            <trkpt lat="-27.00186666666667" lon="-48.638106666666665">
                <ele>6.1</ele>
            </trkpt>
            <trkpt lat="-27.00186666666667" lon="-48.638106666666665">
                <ele>6.1</ele>
            </trkpt>
            <trkpt lat="-27.00186666666667" lon="-48.638106666666665">
                <ele>6.1</ele>
            </trkpt>
            <trkpt lat="-27.00186666666667" lon="-48.638106666666665">
                <ele>6.1</ele>
            </trkpt>
            <trkpt lat="-27.001871666666663" lon="-48.63811166666666">
                <ele>3.6</ele>
            </trkpt>
            <trkpt lat="-27.001879999999996" lon="-48.638118333333324">
                <ele>3.9</ele>
            </trkpt>
            <trkpt lat="-27.001890000000003" lon="-48.63812500000001">
                <ele>4</ele>
            </trkpt>
            <trkpt lat="-27.001903333333335" lon="-48.63813166666667">
                <ele>3.9</ele>
            </trkpt>
            <trkpt lat="-27.00191333333333" lon="-48.63814000000001">
                <ele>4.300000000000001</ele>
            </trkpt>
            <trkpt lat="-27.001921666666664" lon="-48.638148333333326">
                <ele>4.1</ele>
            </trkpt>
            <trkpt lat="-27.00193" lon="-48.63815833333333">
                <ele>4.1</ele>
            </trkpt>
            <trkpt lat="-27.001936666666666" lon="-48.638164999999994">
                <ele>4.6</ele>
            </trkpt>
            <trkpt lat="-27.001939999999998" lon="-48.63817000000001">
                <ele>5.300000000000001</ele>
            </trkpt>
            <trkpt lat="-27.001939999999998" lon="-48.638173333333334">
                <ele>5.800000000000001</ele>
            </trkpt>
            <trkpt lat="-27.001939999999998" lon="-48.638173333333334">
                <ele>6.300000000000001</ele>
            </trkpt>
            <trkpt lat="-27.001939999999998" lon="-48.638173333333334">
                <ele>6.300000000000001</ele>
            </trkpt>
            <trkpt lat="-27.001945" lon="-48.638173333333334">
                <ele>6.199999999999999</ele>
            </trkpt>
            <trkpt lat="-27.00194666666666" lon="-48.63817000000001">
                <ele>5.9</ele>
            </trkpt>
            <trkpt lat="-27.001945" lon="-48.638164999999994">
                <ele>5.800000000000001</ele>
            </trkpt>
            <trkpt lat="-27.001945" lon="-48.638164999999994">
                <ele>5.800000000000001</ele>
            </trkpt>
            <trkpt lat="-27.00194666666666" lon="-48.63816166666667">
                <ele>5.9</ele>
            </trkpt>
            <trkpt lat="-27.00194666666666" lon="-48.63816166666667">
                <ele>5.9</ele>
            </trkpt>
            <trkpt lat="-27.00194666666666" lon="-48.63816">
                <ele>5.9</ele>
            </trkpt>
            <trkpt lat="-27.001945" lon="-48.63816">
                <ele>5.9</ele>
            </trkpt>
            <trkpt lat="-27.001945" lon="-48.63816">
                <ele>5.9</ele>
            </trkpt>
            <trkpt lat="-27.001945" lon="-48.63816">
                <ele>5.9</ele>
            </trkpt>
            <trkpt lat="-27.001945" lon="-48.63816">
                <ele>5.9</ele>
            </trkpt>
            <trkpt lat="-27.001945" lon="-48.63816">
                <ele>5.9</ele>
            </trkpt>
            <trkpt lat="-27.001945" lon="-48.63816">
                <ele>5.9</ele>
            </trkpt>
            <trkpt lat="-27.001945" lon="-48.63816">
                <ele>5.9</ele>
            </trkpt>
            <trkpt lat="-27.001953333333336" lon="-48.638175000000004">
                <ele>6.6</ele>
            </trkpt>
            <trkpt lat="-27.00195833333333" lon="-48.63818">
                <ele>6.800000000000001</ele>
            </trkpt>
            <trkpt lat="-27.00196" lon="-48.63818500000001">
                <ele>6.699999999999999</ele>
            </trkpt>
            <trkpt lat="-27.00196" lon="-48.63818833333333">
                <ele>6.699999999999999</ele>
            </trkpt>
            <trkpt lat="-27.00196" lon="-48.63819">
                <ele>6.800000000000001</ele>
            </trkpt>
            <trkpt lat="-27.00196" lon="-48.63819166666667">
                <ele>6.9</ele>
            </trkpt>
            <trkpt lat="-27.00196" lon="-48.63819166666667">
                <ele>6.9</ele>
            </trkpt>
            <trkpt lat="-27.00196" lon="-48.63819166666667">
                <ele>6.9</ele>
            </trkpt>
            <trkpt lat="-27.001963333333332" lon="-48.638194999999996">
                <ele>6.5</ele>
            </trkpt>
            <trkpt lat="-27.001966666666664" lon="-48.638198333333335">
                <ele>6.300000000000001</ele>
            </trkpt>
            <trkpt lat="-27.001963333333332" lon="-48.638198333333335">
                <ele>6.300000000000001</ele>
            </trkpt>
            <trkpt lat="-27.001963333333332" lon="-48.638198333333335">
                <ele>6.6</ele>
            </trkpt>
            <trkpt lat="-27.001965000000002" lon="-48.638198333333335">
                <ele>7.1</ele>
            </trkpt>
            <trkpt lat="-27.001965000000002" lon="-48.638198333333335">
                <ele>7.1</ele>
            </trkpt>
            <trkpt lat="-27.001965000000002" lon="-48.638198333333335">
                <ele>7.1</ele>
            </trkpt>
            <trkpt lat="-27.001965000000002" lon="-48.638198333333335">
                <ele>7.1</ele>
            </trkpt>
            <trkpt lat="-27.001965000000002" lon="-48.638198333333335">
                <ele>7.1</ele>
            </trkpt>
            <trkpt lat="-27.001965000000002" lon="-48.638198333333335">
                <ele>7.1</ele>
            </trkpt>
            <trkpt lat="-27.001965000000002" lon="-48.638198333333335">
                <ele>7.1</ele>
            </trkpt>
            <trkpt lat="-27.001965000000002" lon="-48.638198333333335">
                <ele>7.1</ele>
            </trkpt>
            <trkpt lat="-27.001965000000002" lon="-48.638198333333335">
                <ele>7.1</ele>
            </trkpt>
            <trkpt lat="-27.001965000000002" lon="-48.638198333333335">
                <ele>7.1</ele>
            </trkpt>
            <trkpt lat="-27.001965000000002" lon="-48.638198333333335">
                <ele>7.1</ele>
            </trkpt>
            <trkpt lat="-27.001965000000002" lon="-48.638198333333335">
                <ele>7.1</ele>
            </trkpt>
            <trkpt lat="-27.001965000000002" lon="-48.638198333333335">
                <ele>7.1</ele>
            </trkpt>
            <trkpt lat="-27.001965000000002" lon="-48.638198333333335">
                <ele>7.1</ele>
            </trkpt>
            <trkpt lat="-27.001965000000002" lon="-48.638198333333335">
                <ele>7.1</ele>
            </trkpt>
            <trkpt lat="-27.001965000000002" lon="-48.638198333333335">
                <ele>7.1</ele>
            </trkpt>
            <trkpt lat="-27.001965000000002" lon="-48.638198333333335">
                <ele>7.1</ele>
            </trkpt>
            <trkpt lat="-27.001965000000002" lon="-48.638198333333335">
                <ele>7.1</ele>
            </trkpt>
            <trkpt lat="-27.001965000000002" lon="-48.638198333333335">
                <ele>7.1</ele>
            </trkpt>
            <trkpt lat="-27.001965000000002" lon="-48.638198333333335">
                <ele>7.1</ele>
            </trkpt>
            <trkpt lat="-27.001965000000002" lon="-48.638198333333335">
                <ele>7.1</ele>
            </trkpt>
            <trkpt lat="-27.001965000000002" lon="-48.638198333333335">
                <ele>7.1</ele>
            </trkpt>
            <trkpt lat="-27.001965000000002" lon="-48.638198333333335">
                <ele>7.1</ele>
            </trkpt>
            <trkpt lat="-27.001965000000002" lon="-48.638198333333335">
                <ele>7.1</ele>
            </trkpt>
            <trkpt lat="-27.001965000000002" lon="-48.638198333333335">
                <ele>7.1</ele>
            </trkpt>
            <trkpt lat="-27.001965000000002" lon="-48.638198333333335">
                <ele>7.1</ele>
            </trkpt>
            <trkpt lat="-27.001965000000002" lon="-48.638198333333335">
                <ele>7.1</ele>
            </trkpt>
            <trkpt lat="-27.001965000000002" lon="-48.638198333333335">
                <ele>7.1</ele>
            </trkpt>
            <trkpt lat="-27.001965000000002" lon="-48.638198333333335">
                <ele>7.1</ele>
            </trkpt>
            <trkpt lat="-27.001965000000002" lon="-48.638198333333335">
                <ele>7.1</ele>
            </trkpt>
            <trkpt lat="-27.001965000000002" lon="-48.638198333333335">
                <ele>7.1</ele>
            </trkpt>
            <trkpt lat="-27.001965000000002" lon="-48.638198333333335">
                <ele>7.1</ele>
            </trkpt>
            <trkpt lat="-27.001965000000002" lon="-48.638198333333335">
                <ele>7.1</ele>
            </trkpt>
            <trkpt lat="-27.001965000000002" lon="-48.638198333333335">
                <ele>7.1</ele>
            </trkpt>
            <trkpt lat="-27.001965000000002" lon="-48.638198333333335">
                <ele>7.1</ele>
            </trkpt>
            <trkpt lat="-27.001965000000002" lon="-48.638198333333335">
                <ele>7.1</ele>
            </trkpt>
            <trkpt lat="-27.001965000000002" lon="-48.638198333333335">
                <ele>7.1</ele>
            </trkpt>
            <trkpt lat="-27.001965000000002" lon="-48.638198333333335">
                <ele>7.1</ele>
            </trkpt>
            <trkpt lat="-27.001965000000002" lon="-48.638198333333335">
                <ele>7.1</ele>
            </trkpt>
            <trkpt lat="-27.001965000000002" lon="-48.638198333333335">
                <ele>7.1</ele>
            </trkpt>
            <trkpt lat="-27.001965000000002" lon="-48.638198333333335">
                <ele>7.1</ele>
            </trkpt>
            <trkpt lat="-27.001965000000002" lon="-48.638198333333335">
                <ele>7.1</ele>
            </trkpt>
            <trkpt lat="-27.001965000000002" lon="-48.638198333333335">
                <ele>7.1</ele>
            </trkpt>
            <trkpt lat="-27.001965000000002" lon="-48.638198333333335">
                <ele>7.1</ele>
            </trkpt>
            <trkpt lat="-27.001965000000002" lon="-48.638198333333335">
                <ele>7.1</ele>
            </trkpt>
            <trkpt lat="-27.001965000000002" lon="-48.638198333333335">
                <ele>7.1</ele>
            </trkpt>
            <trkpt lat="-27.001965000000002" lon="-48.638198333333335">
                <ele>7.1</ele>
            </trkpt>
            <trkpt lat="-27.001965000000002" lon="-48.638198333333335">
                <ele>7.1</ele>
            </trkpt>
            <trkpt lat="-27.001965000000002" lon="-48.638198333333335">
                <ele>7.1</ele>
            </trkpt>
            <trkpt lat="-27.001965000000002" lon="-48.638198333333335">
                <ele>7.1</ele>
            </trkpt>
            <trkpt lat="-27.001965000000002" lon="-48.638198333333335">
                <ele>7.1</ele>
            </trkpt>
            <trkpt lat="-27.001965000000002" lon="-48.638198333333335">
                <ele>7.1</ele>
            </trkpt>
            <trkpt lat="-27.001965000000002" lon="-48.638198333333335">
                <ele>7.1</ele>
            </trkpt>
            <trkpt lat="-27.001965000000002" lon="-48.638198333333335">
                <ele>7.1</ele>
            </trkpt>
            <trkpt lat="-27.001965000000002" lon="-48.638198333333335">
                <ele>7.1</ele>
            </trkpt>
            <trkpt lat="-27.001965000000002" lon="-48.638198333333335">
                <ele>7.1</ele>
            </trkpt>
            <trkpt lat="-27.001965000000002" lon="-48.638198333333335">
                <ele>7.1</ele>
            </trkpt>
            <trkpt lat="-27.001965000000002" lon="-48.638198333333335">
                <ele>7.1</ele>
            </trkpt>
            <trkpt lat="-27.001965000000002" lon="-48.638198333333335">
                <ele>7.1</ele>
            </trkpt>
            <trkpt lat="-27.001965000000002" lon="-48.638198333333335">
                <ele>7.1</ele>
            </trkpt>
            <trkpt lat="-27.001965000000002" lon="-48.638198333333335">
                <ele>7.1</ele>
            </trkpt>
            <trkpt lat="-27.001965000000002" lon="-48.638198333333335">
                <ele>7.1</ele>
            </trkpt>
            <trkpt lat="-27.001965000000002" lon="-48.638198333333335">
                <ele>7.1</ele>
            </trkpt>
            <trkpt lat="-27.001965000000002" lon="-48.638198333333335">
                <ele>7.1</ele>
            </trkpt>
            <trkpt lat="-27.001965000000002" lon="-48.638198333333335">
                <ele>7.1</ele>
            </trkpt>
        </trkseg>
    </trk>
</gpx>