<?xml version="1.0" encoding="UTF-8"?>
<gpx xmlns="http://www.topografix.com/GPX/1/1" version="1.1" creator="@dwayneparton/geojson-to-gpx"><wpt lat="-27.029418333333336" lon="-48.60559"><ele>4.1</ele><name>1 faixa</name></wpt><wpt lat="-27.029269999999997" lon="-48.60706833333334"><ele>7.6</ele><name>23</name></wpt><wpt lat="-27.029269999999997" lon="-48.60706833333334"><ele>7.6</ele><name>170</name></wpt><wpt lat="-27.029239999999998" lon="-48.607083333333335"><ele>6.4</ele><name>563</name></wpt><wpt lat="-27.029269999999997" lon="-48.60706833333334"><ele>7.6</ele><name>1000</name></wpt><wpt lat="-27.028746666666667" lon="-48.610905"><ele>4.9</ele><name>A ciclo é completamente reta.</name></wpt><wpt lat="-27.028746666666667" lon="-48.610905"><ele>4.9</ele><name>A pintura está boa, COMPLETA e visível</name></wpt><wpt lat="-27.029434999999996" lon="-48.60559333333334"><ele>2.6</ele><name>Apenas faixas vermelhas nas bordas</name></wpt><wpt lat="-27.029269999999997" lon="-48.60706833333334"><ele>7.6</ele><name>Área de amortecimento da ciclo (cm)</name></wpt><wpt lat="-27.029269999999997" lon="-48.60706833333334"><ele>7.6</ele><name>Área transitável da ciclo (cm)</name></wpt><wpt lat="-27.029425" lon="-48.605594999999994"><ele>3.9</ele><name>Asfalto</name></wpt><wpt lat="-27.028746666666667" lon="-48.610905"><ele>4.9</ele><name>Ausência de conexão entre ciclos.</name></wpt><wpt lat="-27.029401666666665" lon="-48.60552833333333"><ele>0.7000000000000001</ele><name>Bidirecional</name></wpt><wpt lat="-27.028746666666667" lon="-48.610905"><ele>4.9</ele><name>Bom estado</name></wpt><wpt lat="-27.029406666666667" lon="-48.60552166666666"><ele>0.6000000000000001</ele><name>Ciclofaixa</name></wpt><wpt lat="-27.029418333333336" lon="-48.605586666666674"><ele>4.300000000000001</ele><name>Estacionamento dedicado de um lado, segregado da circulação</name></wpt><wpt lat="-27.029239999999998" lon="-48.607083333333335"><ele>6.4</ele><name>Faixa de carros logo ao lado da ciclo (cm)</name></wpt><wpt lat="-27.02941" lon="-48.60550666666666"><ele>7.699999999999999</ele><name>Foto</name></wpt><wpt lat="-27.029333333333337" lon="-48.60552666666668"><ele>29.700000000000003</ele><name>Foto</name></wpt><wpt lat="-27.029276666666668" lon="-48.60654833333333"><ele>12.299999999999999</ele><name>Foto</name></wpt><wpt lat="-27.029196666666667" lon="-48.60742666666667"><ele>11.1</ele><name>Foto</name></wpt><wpt lat="-27.02905333333333" lon="-48.60873"><ele>10.2</ele><name>Foto</name></wpt><wpt lat="-27.028981666666663" lon="-48.60916666666667"><ele>10.1</ele><name>Foto</name></wpt><wpt lat="-27.02898" lon="-48.609168333333336"><ele>10.5</ele><name>Foto</name></wpt><wpt lat="-27.02890166666667" lon="-48.609784999999995"><ele>7.699999999999999</ele><name>Foto</name></wpt><wpt lat="-27.02875166666667" lon="-48.61090166666666"><ele>6.300000000000001</ele><name>Foto</name></wpt><wpt lat="-27.028746666666667" lon="-48.610905"><ele>4.9</ele><name>Iluminação geral na via do mesmo lado da estrutura</name></wpt><wpt lat="-27.029196666666667" lon="-48.60742666666667"><ele>11.1</ele><name>Lombadas físicas</name></wpt><wpt lat="-27.02905333333333" lon="-48.608693333333335"><ele>5.9</ele><name>Lombadas físicas</name></wpt><wpt lat="-27.028914999999998" lon="-48.609765"><ele>7.300000000000001</ele><name>Lombadas físicas</name></wpt><wpt lat="-27.029421666666668" lon="-48.605586666666674"><ele>1.7000000000000002</ele><name>Mão Única</name></wpt><wpt lat="-27.029403333333335" lon="-48.60557000000001"><ele>1.4000000000000001</ele><name>No bordo esquerdo de Via de Mão Única</name></wpt><wpt lat="-27.029055000000003" lon="-48.60870166666667"><ele>6.1</ele><name>Em cruzamento MÁ condição</name></wpt><wpt lat="-27.028746666666667" lon="-48.610905"><ele>4.9</ele><name>SE CICLOFAIXA: para invadir a ciclo parte do automóvel passa obrigatoriamente por cima de segregadores</name></wpt><wpt lat="-27.028746666666667" lon="-48.610905"><ele>4.9</ele><name>Sombras em alguns trechos, SEM mudas novas</name></wpt><wpt lat="-27.029436666666665" lon="-48.60559666666666"><ele>3.5</ele><name>Tachões</name></wpt><wpt lat="-27.029269999999997" lon="-48.60706833333334"><ele>7.6</ele><name>Total da via (incluindo a ciclo) (cm)</name></wpt><trk><name>Ciclofaixa R. Paulo Marciano Cunha - BC</name><trkseg><trkpt lat="-27.031115" lon="-48.60632666666667"><ele>-108.7</ele></trkpt><trkpt lat="-27.029895000000003" lon="-48.60624666666666"><ele>-169.8</ele></trkpt><trkpt lat="-27.029595000000004" lon="-48.60601499999999"><ele>-80.10000000000001</ele></trkpt><trkpt lat="-27.02952" lon="-48.60596666666667"><ele>-57.8</ele></trkpt><trkpt lat="-27.02942666666667" lon="-48.60548666666667"><ele>-2.1999999999999997</ele></trkpt><trkpt lat="-27.029445000000003" lon="-48.60542999999999"><ele>-4.1</ele></trkpt><trkpt lat="-27.02943" lon="-48.605485"><ele>3.4000000000000004</ele></trkpt><trkpt lat="-27.029418333333336" lon="-48.60548166666668"><ele>1.5</ele></trkpt><trkpt lat="-27.02942" lon="-48.60548000000001"><ele>1.8</ele></trkpt><trkpt lat="-27.02942" lon="-48.60548000000001"><ele>1.1</ele></trkpt><trkpt lat="-27.029415000000004" lon="-48.60550166666667"><ele>1.8</ele></trkpt><trkpt lat="-27.029411666666668" lon="-48.605515"><ele>1.1</ele></trkpt><trkpt lat="-27.029406666666667" lon="-48.60552166666666"><ele>0.6000000000000001</ele></trkpt><trkpt lat="-27.029406666666667" lon="-48.60552166666666"><ele>0.6000000000000001</ele></trkpt><trkpt lat="-27.029401666666665" lon="-48.60552833333333"><ele>0.7000000000000001</ele></trkpt><trkpt lat="-27.029401666666665" lon="-48.60552833333333"><ele>0.7000000000000001</ele></trkpt><trkpt lat="-27.029400000000003" lon="-48.605534999999996"><ele>0.6000000000000001</ele></trkpt><trkpt lat="-27.029398333333333" lon="-48.60554333333333"><ele>0.6000000000000001</ele></trkpt><trkpt lat="-27.029398333333333" lon="-48.60555333333333"><ele>0.6000000000000001</ele></trkpt><trkpt lat="-27.029400000000003" lon="-48.60556"><ele>0.9000000000000001</ele></trkpt><trkpt lat="-27.029401666666665" lon="-48.60556499999999"><ele>1</ele></trkpt><trkpt lat="-27.029403333333335" lon="-48.60557000000001"><ele>1.4000000000000001</ele></trkpt><trkpt lat="-27.029403333333335" lon="-48.60557000000001"><ele>1.4000000000000001</ele></trkpt><trkpt lat="-27.029404999999997" lon="-48.60557666666667"><ele>1.8</ele></trkpt><trkpt lat="-27.02941" lon="-48.605579999999996"><ele>1.9000000000000001</ele></trkpt><trkpt lat="-27.02941333333333" lon="-48.605583333333335"><ele>1.8</ele></trkpt><trkpt lat="-27.029416666666666" lon="-48.605585000000005"><ele>1.6</ele></trkpt><trkpt lat="-27.029421666666668" lon="-48.605586666666674"><ele>1.7000000000000002</ele></trkpt><trkpt lat="-27.029421666666668" lon="-48.605586666666674"><ele>1.7000000000000002</ele></trkpt><trkpt lat="-27.029425" lon="-48.60558833333333"><ele>1.8</ele></trkpt><trkpt lat="-27.02943" lon="-48.60559"><ele>2.1</ele></trkpt><trkpt lat="-27.029433333333333" lon="-48.60558833333333"><ele>2.3</ele></trkpt><trkpt lat="-27.029434999999996" lon="-48.60559166666667"><ele>2.4000000000000004</ele></trkpt><trkpt lat="-27.029434999999996" lon="-48.60559333333334"><ele>2.6</ele></trkpt><trkpt lat="-27.029434999999996" lon="-48.60559333333334"><ele>2.6</ele></trkpt><trkpt lat="-27.029434999999996" lon="-48.60559666666666"><ele>3</ele></trkpt><trkpt lat="-27.029438333333328" lon="-48.60559833333333"><ele>3.2</ele></trkpt><trkpt lat="-27.029436666666665" lon="-48.60559666666666"><ele>3.4000000000000004</ele></trkpt><trkpt lat="-27.029436666666665" lon="-48.60559666666666"><ele>3.5</ele></trkpt><trkpt lat="-27.029436666666665" lon="-48.60559666666666"><ele>3.5</ele></trkpt><trkpt lat="-27.029433333333333" lon="-48.60559666666666"><ele>3.8000000000000003</ele></trkpt><trkpt lat="-27.029431666666664" lon="-48.60559666666666"><ele>3.8000000000000003</ele></trkpt><trkpt lat="-27.029425" lon="-48.605594999999994"><ele>3.9</ele></trkpt><trkpt lat="-27.029425" lon="-48.605594999999994"><ele>3.9</ele></trkpt><trkpt lat="-27.029421666666668" lon="-48.60559333333334"><ele>3.9</ele></trkpt><trkpt lat="-27.029418333333336" lon="-48.60559"><ele>4.1</ele></trkpt><trkpt lat="-27.029418333333336" lon="-48.60559"><ele>4.1</ele></trkpt><trkpt lat="-27.029418333333336" lon="-48.605586666666674"><ele>4.300000000000001</ele></trkpt><trkpt lat="-27.029418333333336" lon="-48.605586666666674"><ele>4.300000000000001</ele></trkpt><trkpt lat="-27.029418333333336" lon="-48.605586666666674"><ele>4.300000000000001</ele></trkpt><trkpt lat="-27.029418333333336" lon="-48.605586666666674"><ele>4.300000000000001</ele></trkpt><trkpt lat="-27.029418333333336" lon="-48.605586666666674"><ele>4.300000000000001</ele></trkpt><trkpt lat="-27.029418333333336" lon="-48.605586666666674"><ele>4.300000000000001</ele></trkpt><trkpt lat="-27.029418333333336" lon="-48.605586666666674"><ele>4.300000000000001</ele></trkpt><trkpt lat="-27.029418333333336" lon="-48.605586666666674"><ele>4.300000000000001</ele></trkpt><trkpt lat="-27.029418333333336" lon="-48.605586666666674"><ele>4.300000000000001</ele></trkpt><trkpt lat="-27.029418333333336" lon="-48.605586666666674"><ele>4.300000000000001</ele></trkpt><trkpt lat="-27.029418333333336" lon="-48.605586666666674"><ele>4.300000000000001</ele></trkpt><trkpt lat="-27.029388333333333" lon="-48.605540000000005"><ele>5</ele></trkpt><trkpt lat="-27.029389999999996" lon="-48.60553"><ele>5.4</ele></trkpt><trkpt lat="-27.029395" lon="-48.605518333333336"><ele>5.800000000000001</ele></trkpt><trkpt lat="-27.029401666666665" lon="-48.60551"><ele>5.9</ele></trkpt><trkpt lat="-27.02941" lon="-48.605504999999994"><ele>6</ele></trkpt><trkpt lat="-27.02941333333333" lon="-48.605496666666674"><ele>6.699999999999999</ele></trkpt><trkpt lat="-27.029411666666668" lon="-48.60550166666667"><ele>7.300000000000001</ele></trkpt><trkpt lat="-27.02941" lon="-48.60550833333333"><ele>7.300000000000001</ele></trkpt><trkpt lat="-27.029406666666667" lon="-48.60550833333333"><ele>7.4</ele></trkpt><trkpt lat="-27.02941" lon="-48.60550666666666"><ele>7.6</ele></trkpt><trkpt lat="-27.02941" lon="-48.60550666666666"><ele>7.699999999999999</ele></trkpt><trkpt lat="-27.02941" lon="-48.60550666666666"><ele>7.699999999999999</ele></trkpt><trkpt lat="-27.029344999999996" lon="-48.60555666666667"><ele>31.900000000000002</ele></trkpt><trkpt lat="-27.029346666666665" lon="-48.60555166666666"><ele>33.7</ele></trkpt><trkpt lat="-27.029346666666665" lon="-48.60554833333334"><ele>33.7</ele></trkpt><trkpt lat="-27.029343333333333" lon="-48.605540000000005"><ele>33.7</ele></trkpt><trkpt lat="-27.029343333333333" lon="-48.605540000000005"><ele>33.7</ele></trkpt><trkpt lat="-27.029343333333333" lon="-48.605540000000005"><ele>33.7</ele></trkpt><trkpt lat="-27.029343333333333" lon="-48.605540000000005"><ele>33.7</ele></trkpt><trkpt lat="-27.029343333333333" lon="-48.605540000000005"><ele>33.7</ele></trkpt><trkpt lat="-27.029343333333333" lon="-48.605540000000005"><ele>33.7</ele></trkpt><trkpt lat="-27.029333333333337" lon="-48.605518333333336"><ele>31.6</ele></trkpt><trkpt lat="-27.029333333333337" lon="-48.60551999999999"><ele>30.900000000000002</ele></trkpt><trkpt lat="-27.029333333333337" lon="-48.60552666666668"><ele>29.700000000000003</ele></trkpt><trkpt lat="-27.029333333333337" lon="-48.60552666666668"><ele>29.700000000000003</ele></trkpt><trkpt lat="-27.029341666666664" lon="-48.60551999999999"><ele>28.3</ele></trkpt><trkpt lat="-27.029346666666665" lon="-48.60551333333333"><ele>27.1</ele></trkpt><trkpt lat="-27.02935166666667" lon="-48.605496666666674"><ele>25.8</ele></trkpt><trkpt lat="-27.029355000000002" lon="-48.605489999999996"><ele>24.6</ele></trkpt><trkpt lat="-27.029361666666667" lon="-48.605485"><ele>22.8</ele></trkpt><trkpt lat="-27.029366666666668" lon="-48.60548000000001"><ele>21.400000000000002</ele></trkpt><trkpt lat="-27.02936833333333" lon="-48.60547666666666"><ele>20.1</ele></trkpt><trkpt lat="-27.029374999999998" lon="-48.60547666666666"><ele>19.5</ele></trkpt><trkpt lat="-27.029378333333337" lon="-48.60547499999999"><ele>19</ele></trkpt><trkpt lat="-27.02938166666667" lon="-48.60546666666667"><ele>18.700000000000003</ele></trkpt><trkpt lat="-27.02938166666667" lon="-48.60546666666667"><ele>18.700000000000003</ele></trkpt><trkpt lat="-27.029376666666668" lon="-48.605459999999994"><ele>18.700000000000003</ele></trkpt><trkpt lat="-27.029374999999998" lon="-48.605455"><ele>18.400000000000002</ele></trkpt><trkpt lat="-27.029376666666668" lon="-48.60545833333334"><ele>18.1</ele></trkpt><trkpt lat="-27.029376666666668" lon="-48.60545666666667"><ele>17.700000000000003</ele></trkpt><trkpt lat="-27.029376666666668" lon="-48.60546333333333"><ele>17.400000000000002</ele></trkpt><trkpt lat="-27.029376666666668" lon="-48.60546333333333"><ele>17.400000000000002</ele></trkpt><trkpt lat="-27.029376666666668" lon="-48.60546333333333"><ele>17.400000000000002</ele></trkpt><trkpt lat="-27.029376666666668" lon="-48.60546333333333"><ele>17.400000000000002</ele></trkpt><trkpt lat="-27.029376666666668" lon="-48.60546333333333"><ele>17.400000000000002</ele></trkpt><trkpt lat="-27.029376666666668" lon="-48.60546333333333"><ele>17.400000000000002</ele></trkpt><trkpt lat="-27.029376666666668" lon="-48.60546333333333"><ele>17.400000000000002</ele></trkpt><trkpt lat="-27.029376666666668" lon="-48.60546333333333"><ele>17.400000000000002</ele></trkpt><trkpt lat="-27.029376666666668" lon="-48.60546333333333"><ele>17.400000000000002</ele></trkpt><trkpt lat="-27.02938333333333" lon="-48.60548166666668"><ele>14.7</ele></trkpt><trkpt lat="-27.02938166666667" lon="-48.605491666666666"><ele>14.7</ele></trkpt><trkpt lat="-27.02938" lon="-48.60550666666666"><ele>14.799999999999999</ele></trkpt><trkpt lat="-27.02938166666667" lon="-48.60551333333333"><ele>14.6</ele></trkpt><trkpt lat="-27.029376666666668" lon="-48.60551166666667"><ele>14.799999999999999</ele></trkpt><trkpt lat="-27.029374999999998" lon="-48.60550833333333"><ele>14.799999999999999</ele></trkpt><trkpt lat="-27.029376666666668" lon="-48.60551"><ele>14.7</ele></trkpt><trkpt lat="-27.02938166666667" lon="-48.605504999999994"><ele>14.4</ele></trkpt><trkpt lat="-27.02938333333333" lon="-48.6055"><ele>14.5</ele></trkpt><trkpt lat="-27.02938166666667" lon="-48.60549833333333"><ele>14.299999999999999</ele></trkpt><trkpt lat="-27.02938166666667" lon="-48.605493333333335"><ele>14.1</ele></trkpt><trkpt lat="-27.02938166666667" lon="-48.605489999999996"><ele>13.6</ele></trkpt><trkpt lat="-27.02938333333333" lon="-48.605489999999996"><ele>13.299999999999999</ele></trkpt><trkpt lat="-27.02938333333333" lon="-48.605493333333335"><ele>13.4</ele></trkpt><trkpt lat="-27.02938166666667" lon="-48.605495000000005"><ele>13.6</ele></trkpt><trkpt lat="-27.02938166666667" lon="-48.60549833333333"><ele>13.6</ele></trkpt><trkpt lat="-27.02938166666667" lon="-48.60549833333333"><ele>13.6</ele></trkpt><trkpt lat="-27.02938166666667" lon="-48.60549833333333"><ele>13.6</ele></trkpt><trkpt lat="-27.02938166666667" lon="-48.60549833333333"><ele>13.6</ele></trkpt><trkpt lat="-27.02938166666667" lon="-48.60549833333333"><ele>13.6</ele></trkpt><trkpt lat="-27.029365" lon="-48.60550333333334"><ele>13.4</ele></trkpt><trkpt lat="-27.029361666666667" lon="-48.60551166666667"><ele>13.5</ele></trkpt><trkpt lat="-27.029361666666667" lon="-48.605515"><ele>13.4</ele></trkpt><trkpt lat="-27.029361666666667" lon="-48.605515"><ele>13.299999999999999</ele></trkpt><trkpt lat="-27.029365" lon="-48.605515"><ele>13.2</ele></trkpt><trkpt lat="-27.029365" lon="-48.605515"><ele>13.2</ele></trkpt><trkpt lat="-27.029365" lon="-48.605515"><ele>13.2</ele></trkpt><trkpt lat="-27.029365" lon="-48.605515"><ele>13.2</ele></trkpt><trkpt lat="-27.029365" lon="-48.605515"><ele>13.2</ele></trkpt><trkpt lat="-27.029365" lon="-48.605515"><ele>13.2</ele></trkpt><trkpt lat="-27.029365" lon="-48.605515"><ele>13.2</ele></trkpt><trkpt lat="-27.029365" lon="-48.605515"><ele>13.2</ele></trkpt><trkpt lat="-27.029365" lon="-48.605515"><ele>13.2</ele></trkpt><trkpt lat="-27.029365" lon="-48.605515"><ele>13.2</ele></trkpt><trkpt lat="-27.029365" lon="-48.605515"><ele>13.2</ele></trkpt><trkpt lat="-27.029365" lon="-48.605515"><ele>13.2</ele></trkpt><trkpt lat="-27.029365" lon="-48.605515"><ele>13.2</ele></trkpt><trkpt lat="-27.029365" lon="-48.605515"><ele>13.2</ele></trkpt><trkpt lat="-27.029365" lon="-48.605515"><ele>13.2</ele></trkpt><trkpt lat="-27.029365" lon="-48.605515"><ele>13.2</ele></trkpt><trkpt lat="-27.029365" lon="-48.605515"><ele>13.2</ele></trkpt><trkpt lat="-27.02938166666667" lon="-48.60552833333333"><ele>10.799999999999999</ele></trkpt><trkpt lat="-27.029385" lon="-48.60553166666667"><ele>10.6</ele></trkpt><trkpt lat="-27.029389999999996" lon="-48.605540000000005"><ele>10.2</ele></trkpt><trkpt lat="-27.02939333333334" lon="-48.605545"><ele>10.1</ele></trkpt><trkpt lat="-27.02939333333334" lon="-48.60554666666667"><ele>10.299999999999999</ele></trkpt><trkpt lat="-27.02939333333334" lon="-48.60554666666667"><ele>10.299999999999999</ele></trkpt><trkpt lat="-27.02939333333334" lon="-48.60554666666667"><ele>10.299999999999999</ele></trkpt><trkpt lat="-27.02939333333334" lon="-48.60554666666667"><ele>10.299999999999999</ele></trkpt><trkpt lat="-27.02939333333334" lon="-48.60554666666667"><ele>10.299999999999999</ele></trkpt><trkpt lat="-27.02939333333334" lon="-48.60554666666667"><ele>10.299999999999999</ele></trkpt><trkpt lat="-27.02939333333334" lon="-48.60554666666667"><ele>10.299999999999999</ele></trkpt><trkpt lat="-27.029404999999997" lon="-48.60554333333333"><ele>10.7</ele></trkpt><trkpt lat="-27.029408333333336" lon="-48.60555333333333"><ele>10.7</ele></trkpt><trkpt lat="-27.02941" lon="-48.60556166666667"><ele>10.799999999999999</ele></trkpt><trkpt lat="-27.029408333333336" lon="-48.60556666666666"><ele>10.6</ele></trkpt><trkpt lat="-27.02941" lon="-48.60556833333333"><ele>10</ele></trkpt><trkpt lat="-27.029408333333336" lon="-48.60557833333334"><ele>10.2</ele></trkpt><trkpt lat="-27.029406666666667" lon="-48.60559166666667"><ele>9.9</ele></trkpt><trkpt lat="-27.029406666666667" lon="-48.60561666666668"><ele>10.299999999999999</ele></trkpt><trkpt lat="-27.029406666666667" lon="-48.60564333333333"><ele>10.6</ele></trkpt><trkpt lat="-27.02941" lon="-48.605671666666666"><ele>10.2</ele></trkpt><trkpt lat="-27.02941" lon="-48.60570500000001"><ele>11</ele></trkpt><trkpt lat="-27.029408333333336" lon="-48.60574166666667"><ele>11.9</ele></trkpt><trkpt lat="-27.029404999999997" lon="-48.605774999999994"><ele>12.1</ele></trkpt><trkpt lat="-27.029400000000003" lon="-48.6058"><ele>12.299999999999999</ele></trkpt><trkpt lat="-27.02939333333334" lon="-48.605825"><ele>12.2</ele></trkpt><trkpt lat="-27.029386666666664" lon="-48.605855000000005"><ele>12.1</ele></trkpt><trkpt lat="-27.029385" lon="-48.60589333333334"><ele>11.799999999999999</ele></trkpt><trkpt lat="-27.02938" lon="-48.605931666666656"><ele>11.1</ele></trkpt><trkpt lat="-27.029371666666666" lon="-48.60597166666666"><ele>10.9</ele></trkpt><trkpt lat="-27.029365" lon="-48.606003333333334"><ele>10.299999999999999</ele></trkpt><trkpt lat="-27.029358333333334" lon="-48.606044999999995"><ele>10.2</ele></trkpt><trkpt lat="-27.02935166666667" lon="-48.60608666666667"><ele>10.2</ele></trkpt><trkpt lat="-27.029341666666664" lon="-48.606123333333336"><ele>10.2</ele></trkpt><trkpt lat="-27.029333333333337" lon="-48.60615500000001"><ele>10.799999999999999</ele></trkpt><trkpt lat="-27.029329999999998" lon="-48.60619333333334"><ele>11.1</ele></trkpt><trkpt lat="-27.029326666666666" lon="-48.606228333333334"><ele>11.1</ele></trkpt><trkpt lat="-27.029325000000004" lon="-48.60626166666666"><ele>11.4</ele></trkpt><trkpt lat="-27.029325000000004" lon="-48.606295"><ele>11.1</ele></trkpt><trkpt lat="-27.029318333333336" lon="-48.60632999999999"><ele>11.799999999999999</ele></trkpt><trkpt lat="-27.029313333333334" lon="-48.60635833333334"><ele>11.9</ele></trkpt><trkpt lat="-27.02930333333334" lon="-48.60639"><ele>13.299999999999999</ele></trkpt><trkpt lat="-27.029301666666665" lon="-48.60641166666666"><ele>11.9</ele></trkpt><trkpt lat="-27.029301666666665" lon="-48.60643833333334"><ele>12.9</ele></trkpt><trkpt lat="-27.029298333333333" lon="-48.60646666666666"><ele>12.9</ele></trkpt><trkpt lat="-27.029286666666668" lon="-48.60649333333334"><ele>13.1</ele></trkpt><trkpt lat="-27.02927833333333" lon="-48.60652333333334"><ele>12.9</ele></trkpt><trkpt lat="-27.029276666666668" lon="-48.60654833333333"><ele>12.299999999999999</ele></trkpt><trkpt lat="-27.029276666666668" lon="-48.60654833333333"><ele>12.299999999999999</ele></trkpt><trkpt lat="-27.029273333333336" lon="-48.60657833333333"><ele>12</ele></trkpt><trkpt lat="-27.029268333333334" lon="-48.60661333333334"><ele>11.2</ele></trkpt><trkpt lat="-27.029265000000002" lon="-48.60664333333334"><ele>10.799999999999999</ele></trkpt><trkpt lat="-27.029266666666665" lon="-48.60667166666667"><ele>10.5</ele></trkpt><trkpt lat="-27.029265000000002" lon="-48.606700000000004"><ele>10.299999999999999</ele></trkpt><trkpt lat="-27.02926166666667" lon="-48.60673333333334"><ele>9.7</ele></trkpt><trkpt lat="-27.02926" lon="-48.606768333333335"><ele>9.4</ele></trkpt><trkpt lat="-27.02925833333334" lon="-48.60680166666666"><ele>8.8</ele></trkpt><trkpt lat="-27.029256666666665" lon="-48.606835000000004"><ele>8.8</ele></trkpt><trkpt lat="-27.02925" lon="-48.60687500000001"><ele>8.9</ele></trkpt><trkpt lat="-27.02924833333333" lon="-48.606905000000005"><ele>8.6</ele></trkpt><trkpt lat="-27.029239999999998" lon="-48.60693"><ele>8.5</ele></trkpt><trkpt lat="-27.029236666666666" lon="-48.60696166666666"><ele>11.5</ele></trkpt><trkpt lat="-27.029241666666667" lon="-48.60697666666667"><ele>12.799999999999999</ele></trkpt><trkpt lat="-27.029235000000003" lon="-48.606991666666666"><ele>14.6</ele></trkpt><trkpt lat="-27.029235000000003" lon="-48.60699833333333"><ele>14.6</ele></trkpt><trkpt lat="-27.02923333333333" lon="-48.607004999999994"><ele>15</ele></trkpt><trkpt lat="-27.029231666666668" lon="-48.607004999999994"><ele>14.4</ele></trkpt><trkpt lat="-27.029239999999998" lon="-48.607004999999994"><ele>13.2</ele></trkpt><trkpt lat="-27.029241666666667" lon="-48.607003333333324"><ele>12.6</ele></trkpt><trkpt lat="-27.029243333333337" lon="-48.607003333333324"><ele>12.299999999999999</ele></trkpt><trkpt lat="-27.029245" lon="-48.60700666666666"><ele>12</ele></trkpt><trkpt lat="-27.02924833333333" lon="-48.60701166666666"><ele>12</ele></trkpt><trkpt lat="-27.029251666666664" lon="-48.60702"><ele>11.9</ele></trkpt><trkpt lat="-27.02924833333333" lon="-48.60703"><ele>11.6</ele></trkpt><trkpt lat="-27.029251666666664" lon="-48.60702500000001"><ele>10.7</ele></trkpt><trkpt lat="-27.02925" lon="-48.60702500000001"><ele>10</ele></trkpt><trkpt lat="-27.02925" lon="-48.60702666666666"><ele>9.5</ele></trkpt><trkpt lat="-27.02925" lon="-48.60702666666666"><ele>9.5</ele></trkpt><trkpt lat="-27.02924666666667" lon="-48.60704333333333"><ele>9.5</ele></trkpt><trkpt lat="-27.029245" lon="-48.607049999999994"><ele>9.5</ele></trkpt><trkpt lat="-27.02924666666667" lon="-48.60705500000001"><ele>9.4</ele></trkpt><trkpt lat="-27.02924833333333" lon="-48.60705333333333"><ele>9.3</ele></trkpt><trkpt lat="-27.02925" lon="-48.60705666666666"><ele>9.2</ele></trkpt><trkpt lat="-27.02925" lon="-48.60705500000001"><ele>9</ele></trkpt><trkpt lat="-27.02924833333333" lon="-48.607058333333335"><ele>8.8</ele></trkpt><trkpt lat="-27.02924666666667" lon="-48.607060000000004"><ele>8.5</ele></trkpt><trkpt lat="-27.02924666666667" lon="-48.607061666666674"><ele>8.5</ele></trkpt><trkpt lat="-27.02924833333333" lon="-48.607061666666674"><ele>8.3</ele></trkpt><trkpt lat="-27.02924833333333" lon="-48.607058333333335"><ele>8.2</ele></trkpt><trkpt lat="-27.02925" lon="-48.607058333333335"><ele>8</ele></trkpt><trkpt lat="-27.02925" lon="-48.607058333333335"><ele>7.9</ele></trkpt><trkpt lat="-27.02925" lon="-48.607058333333335"><ele>7.9</ele></trkpt><trkpt lat="-27.029254999999996" lon="-48.60705666666666"><ele>7.6</ele></trkpt><trkpt lat="-27.029254999999996" lon="-48.60705333333333"><ele>7.6</ele></trkpt><trkpt lat="-27.02925833333334" lon="-48.60705333333333"><ele>7.199999999999999</ele></trkpt><trkpt lat="-27.02926" lon="-48.60705333333333"><ele>7.1</ele></trkpt><trkpt lat="-27.02926" lon="-48.60705333333333"><ele>7.1</ele></trkpt><trkpt lat="-27.02926" lon="-48.60705333333333"><ele>7.1</ele></trkpt><trkpt lat="-27.02926" lon="-48.60705333333333"><ele>7.1</ele></trkpt><trkpt lat="-27.02926" lon="-48.60705333333333"><ele>7.1</ele></trkpt><trkpt lat="-27.02926" lon="-48.60705333333333"><ele>7.1</ele></trkpt><trkpt lat="-27.02926" lon="-48.60705333333333"><ele>7.1</ele></trkpt><trkpt lat="-27.029263333333333" lon="-48.607049999999994"><ele>6.9</ele></trkpt><trkpt lat="-27.029268333333334" lon="-48.60705666666666"><ele>6.800000000000001</ele></trkpt><trkpt lat="-27.029263333333333" lon="-48.60706666666667"><ele>6.800000000000001</ele></trkpt><trkpt lat="-27.02926" lon="-48.60707833333333"><ele>7.1</ele></trkpt><trkpt lat="-27.029253333333333" lon="-48.60709666666666"><ele>7.300000000000001</ele></trkpt><trkpt lat="-27.02924833333333" lon="-48.60711333333334"><ele>8</ele></trkpt><trkpt lat="-27.029243333333337" lon="-48.60711833333333"><ele>8.2</ele></trkpt><trkpt lat="-27.029241666666667" lon="-48.60712"><ele>8.3</ele></trkpt><trkpt lat="-27.029238333333335" lon="-48.60711666666666"><ele>8.3</ele></trkpt><trkpt lat="-27.029235000000003" lon="-48.60710833333333"><ele>8</ele></trkpt><trkpt lat="-27.02923333333333" lon="-48.60709833333333"><ele>8</ele></trkpt><trkpt lat="-27.02923333333333" lon="-48.60708666666666"><ele>7.800000000000001</ele></trkpt><trkpt lat="-27.02923333333333" lon="-48.607079999999996"><ele>7.6</ele></trkpt><trkpt lat="-27.029235000000003" lon="-48.60707833333333"><ele>7.4</ele></trkpt><trkpt lat="-27.029239999999998" lon="-48.607075"><ele>7.300000000000001</ele></trkpt><trkpt lat="-27.029243333333337" lon="-48.60707333333333"><ele>7.1</ele></trkpt><trkpt lat="-27.02924666666667" lon="-48.60707166666666"><ele>7.1</ele></trkpt><trkpt lat="-27.029253333333333" lon="-48.60707000000001"><ele>7.199999999999999</ele></trkpt><trkpt lat="-27.02926" lon="-48.60707000000001"><ele>7.4</ele></trkpt><trkpt lat="-27.029263333333333" lon="-48.60707000000001"><ele>7.6</ele></trkpt><trkpt lat="-27.029265000000002" lon="-48.60707000000001"><ele>7.6</ele></trkpt><trkpt lat="-27.029269999999997" lon="-48.60706833333334"><ele>7.6</ele></trkpt><trkpt lat="-27.029269999999997" lon="-48.60706833333334"><ele>7.6</ele></trkpt><trkpt lat="-27.029269999999997" lon="-48.60706833333334"><ele>7.6</ele></trkpt><trkpt lat="-27.029269999999997" lon="-48.60706833333334"><ele>7.6</ele></trkpt><trkpt lat="-27.029269999999997" lon="-48.60706833333334"><ele>7.6</ele></trkpt><trkpt lat="-27.029269999999997" lon="-48.60706833333334"><ele>7.6</ele></trkpt><trkpt lat="-27.029269999999997" lon="-48.60706833333334"><ele>7.6</ele></trkpt><trkpt lat="-27.029269999999997" lon="-48.60706833333334"><ele>7.6</ele></trkpt><trkpt lat="-27.029269999999997" lon="-48.60706833333334"><ele>7.6</ele></trkpt><trkpt lat="-27.029269999999997" lon="-48.60706833333334"><ele>7.6</ele></trkpt><trkpt lat="-27.029269999999997" lon="-48.60706833333334"><ele>7.6</ele></trkpt><trkpt lat="-27.029269999999997" lon="-48.60706833333334"><ele>7.6</ele></trkpt><trkpt lat="-27.029269999999997" lon="-48.60706833333334"><ele>7.6</ele></trkpt><trkpt lat="-27.029269999999997" lon="-48.60706833333334"><ele>7.6</ele></trkpt><trkpt lat="-27.029269999999997" lon="-48.60706833333334"><ele>7.6</ele></trkpt><trkpt lat="-27.029269999999997" lon="-48.60706833333334"><ele>7.6</ele></trkpt><trkpt lat="-27.029269999999997" lon="-48.60706833333334"><ele>7.6</ele></trkpt><trkpt lat="-27.029269999999997" lon="-48.60706833333334"><ele>7.6</ele></trkpt><trkpt lat="-27.029269999999997" lon="-48.60706833333334"><ele>7.6</ele></trkpt><trkpt lat="-27.029269999999997" lon="-48.60706833333334"><ele>7.6</ele></trkpt><trkpt lat="-27.029269999999997" lon="-48.60706833333334"><ele>7.6</ele></trkpt><trkpt lat="-27.029269999999997" lon="-48.60706833333334"><ele>7.6</ele></trkpt><trkpt lat="-27.029269999999997" lon="-48.60706833333334"><ele>7.6</ele></trkpt><trkpt lat="-27.029269999999997" lon="-48.60706833333334"><ele>7.6</ele></trkpt><trkpt lat="-27.029269999999997" lon="-48.60706833333334"><ele>7.6</ele></trkpt><trkpt lat="-27.029269999999997" lon="-48.60706833333334"><ele>7.6</ele></trkpt><trkpt lat="-27.029269999999997" lon="-48.60706833333334"><ele>7.6</ele></trkpt><trkpt lat="-27.029269999999997" lon="-48.60706833333334"><ele>7.6</ele></trkpt><trkpt lat="-27.029269999999997" lon="-48.60706833333334"><ele>7.6</ele></trkpt><trkpt lat="-27.029269999999997" lon="-48.60706833333334"><ele>7.6</ele></trkpt><trkpt lat="-27.029269999999997" lon="-48.60706833333334"><ele>7.6</ele></trkpt><trkpt lat="-27.029269999999997" lon="-48.60706833333334"><ele>7.6</ele></trkpt><trkpt lat="-27.029269999999997" lon="-48.60706833333334"><ele>7.6</ele></trkpt><trkpt lat="-27.029269999999997" lon="-48.60706833333334"><ele>7.6</ele></trkpt><trkpt lat="-27.029269999999997" lon="-48.60706833333334"><ele>7.6</ele></trkpt><trkpt lat="-27.029269999999997" lon="-48.60706833333334"><ele>7.6</ele></trkpt><trkpt lat="-27.029269999999997" lon="-48.60706833333334"><ele>7.6</ele></trkpt><trkpt lat="-27.029269999999997" lon="-48.60706833333334"><ele>7.6</ele></trkpt><trkpt lat="-27.029269999999997" lon="-48.60706833333334"><ele>7.6</ele></trkpt><trkpt lat="-27.029269999999997" lon="-48.60706833333334"><ele>7.6</ele></trkpt><trkpt lat="-27.029269999999997" lon="-48.60706833333334"><ele>7.6</ele></trkpt><trkpt lat="-27.029269999999997" lon="-48.60706833333334"><ele>7.6</ele></trkpt><trkpt lat="-27.029269999999997" lon="-48.60706833333334"><ele>7.6</ele></trkpt><trkpt lat="-27.029269999999997" lon="-48.60706833333334"><ele>7.6</ele></trkpt><trkpt lat="-27.029269999999997" lon="-48.60706833333334"><ele>7.6</ele></trkpt><trkpt lat="-27.029269999999997" lon="-48.60706833333334"><ele>7.6</ele></trkpt><trkpt lat="-27.029245" lon="-48.607081666666666"><ele>7.1</ele></trkpt><trkpt lat="-27.029251666666664" lon="-48.60708833333333"><ele>7</ele></trkpt><trkpt lat="-27.029256666666665" lon="-48.60708833333333"><ele>7</ele></trkpt><trkpt lat="-27.02926166666667" lon="-48.60708833333333"><ele>7</ele></trkpt><trkpt lat="-27.02926166666667" lon="-48.60708833333333"><ele>7</ele></trkpt><trkpt lat="-27.02926166666667" lon="-48.60708833333333"><ele>7</ele></trkpt><trkpt lat="-27.02926166666667" lon="-48.60708833333333"><ele>7</ele></trkpt><trkpt lat="-27.02926166666667" lon="-48.60708833333333"><ele>7</ele></trkpt><trkpt lat="-27.02926166666667" lon="-48.60708833333333"><ele>7</ele></trkpt><trkpt lat="-27.02926166666667" lon="-48.60708833333333"><ele>7</ele></trkpt><trkpt lat="-27.02926166666667" lon="-48.60708833333333"><ele>7</ele></trkpt><trkpt lat="-27.02926166666667" lon="-48.60708833333333"><ele>7</ele></trkpt><trkpt lat="-27.02926166666667" lon="-48.60708833333333"><ele>7</ele></trkpt><trkpt lat="-27.02926166666667" lon="-48.60708833333333"><ele>7</ele></trkpt><trkpt lat="-27.02926166666667" lon="-48.60708833333333"><ele>7</ele></trkpt><trkpt lat="-27.02926166666667" lon="-48.60708833333333"><ele>7</ele></trkpt><trkpt lat="-27.02926166666667" lon="-48.60708833333333"><ele>7</ele></trkpt><trkpt lat="-27.02926166666667" lon="-48.60708833333333"><ele>7</ele></trkpt><trkpt lat="-27.02926166666667" lon="-48.60708833333333"><ele>7</ele></trkpt><trkpt lat="-27.029273333333336" lon="-48.607106666666674"><ele>7.1</ele></trkpt><trkpt lat="-27.029286666666668" lon="-48.60711166666667"><ele>8.3</ele></trkpt><trkpt lat="-27.02929166666667" lon="-48.60711500000001"><ele>8.4</ele></trkpt><trkpt lat="-27.029283333333336" lon="-48.60711"><ele>8.4</ele></trkpt><trkpt lat="-27.02927833333333" lon="-48.607105000000004"><ele>8.4</ele></trkpt><trkpt lat="-27.029266666666665" lon="-48.607103333333335"><ele>8.4</ele></trkpt><trkpt lat="-27.029254999999996" lon="-48.60709666666666"><ele>8.2</ele></trkpt><trkpt lat="-27.029245" lon="-48.60709"><ele>8</ele></trkpt><trkpt lat="-27.029238333333335" lon="-48.60708666666666"><ele>7.6</ele></trkpt><trkpt lat="-27.029235000000003" lon="-48.60709166666667"><ele>7.300000000000001</ele></trkpt><trkpt lat="-27.029236666666666" lon="-48.607093333333324"><ele>7.199999999999999</ele></trkpt><trkpt lat="-27.029239999999998" lon="-48.60709"><ele>7.300000000000001</ele></trkpt><trkpt lat="-27.029239999999998" lon="-48.60709"><ele>7.300000000000001</ele></trkpt><trkpt lat="-27.029241666666667" lon="-48.60709"><ele>7.1</ele></trkpt><trkpt lat="-27.029239999999998" lon="-48.60708666666666"><ele>6.800000000000001</ele></trkpt><trkpt lat="-27.029239999999998" lon="-48.607083333333335"><ele>6.4</ele></trkpt><trkpt lat="-27.029239999999998" lon="-48.607083333333335"><ele>6.4</ele></trkpt><trkpt lat="-27.029239999999998" lon="-48.607083333333335"><ele>6.4</ele></trkpt><trkpt lat="-27.029239999999998" lon="-48.607083333333335"><ele>6.4</ele></trkpt><trkpt lat="-27.029239999999998" lon="-48.607083333333335"><ele>6.4</ele></trkpt><trkpt lat="-27.029239999999998" lon="-48.607083333333335"><ele>6.4</ele></trkpt><trkpt lat="-27.029239999999998" lon="-48.607083333333335"><ele>6.4</ele></trkpt><trkpt lat="-27.029239999999998" lon="-48.607083333333335"><ele>6.4</ele></trkpt><trkpt lat="-27.029239999999998" lon="-48.607083333333335"><ele>6.4</ele></trkpt><trkpt lat="-27.029239999999998" lon="-48.607083333333335"><ele>6.4</ele></trkpt><trkpt lat="-27.029239999999998" lon="-48.607083333333335"><ele>6.4</ele></trkpt><trkpt lat="-27.029239999999998" lon="-48.607083333333335"><ele>6.4</ele></trkpt><trkpt lat="-27.029239999999998" lon="-48.607083333333335"><ele>6.4</ele></trkpt><trkpt lat="-27.029239999999998" lon="-48.607083333333335"><ele>6.4</ele></trkpt><trkpt lat="-27.029239999999998" lon="-48.607083333333335"><ele>6.4</ele></trkpt><trkpt lat="-27.029239999999998" lon="-48.607083333333335"><ele>6.4</ele></trkpt><trkpt lat="-27.029239999999998" lon="-48.607083333333335"><ele>6.4</ele></trkpt><trkpt lat="-27.029239999999998" lon="-48.607083333333335"><ele>6.4</ele></trkpt><trkpt lat="-27.029239999999998" lon="-48.607083333333335"><ele>6.4</ele></trkpt><trkpt lat="-27.029239999999998" lon="-48.607083333333335"><ele>6.4</ele></trkpt><trkpt lat="-27.029239999999998" lon="-48.607083333333335"><ele>6.4</ele></trkpt><trkpt lat="-27.029239999999998" lon="-48.607083333333335"><ele>6.4</ele></trkpt><trkpt lat="-27.029239999999998" lon="-48.607083333333335"><ele>6.4</ele></trkpt><trkpt lat="-27.029239999999998" lon="-48.607083333333335"><ele>6.4</ele></trkpt><trkpt lat="-27.029239999999998" lon="-48.607083333333335"><ele>6.4</ele></trkpt><trkpt lat="-27.029239999999998" lon="-48.607083333333335"><ele>6.4</ele></trkpt><trkpt lat="-27.029239999999998" lon="-48.607083333333335"><ele>6.4</ele></trkpt><trkpt lat="-27.029239999999998" lon="-48.607083333333335"><ele>6.4</ele></trkpt><trkpt lat="-27.029239999999998" lon="-48.607083333333335"><ele>6.4</ele></trkpt><trkpt lat="-27.029239999999998" lon="-48.607083333333335"><ele>6.4</ele></trkpt><trkpt lat="-27.029239999999998" lon="-48.607083333333335"><ele>6.4</ele></trkpt><trkpt lat="-27.029239999999998" lon="-48.607083333333335"><ele>6.4</ele></trkpt><trkpt lat="-27.029239999999998" lon="-48.607083333333335"><ele>6.4</ele></trkpt><trkpt lat="-27.029239999999998" lon="-48.607083333333335"><ele>6.4</ele></trkpt><trkpt lat="-27.029239999999998" lon="-48.607083333333335"><ele>6.4</ele></trkpt><trkpt lat="-27.029239999999998" lon="-48.607083333333335"><ele>6.4</ele></trkpt><trkpt lat="-27.029239999999998" lon="-48.607083333333335"><ele>6.4</ele></trkpt><trkpt lat="-27.029239999999998" lon="-48.607083333333335"><ele>6.4</ele></trkpt><trkpt lat="-27.029239999999998" lon="-48.607083333333335"><ele>6.4</ele></trkpt><trkpt lat="-27.029239999999998" lon="-48.607083333333335"><ele>6.4</ele></trkpt><trkpt lat="-27.029239999999998" lon="-48.607083333333335"><ele>6.4</ele></trkpt><trkpt lat="-27.029239999999998" lon="-48.607083333333335"><ele>6.4</ele></trkpt><trkpt lat="-27.029239999999998" lon="-48.607083333333335"><ele>6.4</ele></trkpt><trkpt lat="-27.029239999999998" lon="-48.607083333333335"><ele>6.4</ele></trkpt><trkpt lat="-27.029239999999998" lon="-48.607083333333335"><ele>6.4</ele></trkpt><trkpt lat="-27.029239999999998" lon="-48.607083333333335"><ele>6.4</ele></trkpt><trkpt lat="-27.029239999999998" lon="-48.607083333333335"><ele>6.4</ele></trkpt><trkpt lat="-27.029239999999998" lon="-48.607083333333335"><ele>6.4</ele></trkpt><trkpt lat="-27.029239999999998" lon="-48.607083333333335"><ele>6.4</ele></trkpt><trkpt lat="-27.029239999999998" lon="-48.607083333333335"><ele>6.4</ele></trkpt><trkpt lat="-27.029239999999998" lon="-48.607083333333335"><ele>6.4</ele></trkpt><trkpt lat="-27.029239999999998" lon="-48.607083333333335"><ele>6.4</ele></trkpt><trkpt lat="-27.029239999999998" lon="-48.607083333333335"><ele>6.4</ele></trkpt><trkpt lat="-27.029239999999998" lon="-48.607083333333335"><ele>6.4</ele></trkpt><trkpt lat="-27.029239999999998" lon="-48.607083333333335"><ele>6.4</ele></trkpt><trkpt lat="-27.029239999999998" lon="-48.607083333333335"><ele>6.4</ele></trkpt><trkpt lat="-27.029239999999998" lon="-48.607083333333335"><ele>6.4</ele></trkpt><trkpt lat="-27.029239999999998" lon="-48.607083333333335"><ele>6.4</ele></trkpt><trkpt lat="-27.029239999999998" lon="-48.607083333333335"><ele>6.4</ele></trkpt><trkpt lat="-27.029239999999998" lon="-48.607083333333335"><ele>6.4</ele></trkpt><trkpt lat="-27.029239999999998" lon="-48.607083333333335"><ele>6.4</ele></trkpt><trkpt lat="-27.029239999999998" lon="-48.607083333333335"><ele>6.4</ele></trkpt><trkpt lat="-27.029239999999998" lon="-48.607083333333335"><ele>6.4</ele></trkpt><trkpt lat="-27.029239999999998" lon="-48.607083333333335"><ele>6.4</ele></trkpt><trkpt lat="-27.029239999999998" lon="-48.607083333333335"><ele>6.4</ele></trkpt><trkpt lat="-27.029239999999998" lon="-48.607083333333335"><ele>6.4</ele></trkpt><trkpt lat="-27.029239999999998" lon="-48.607083333333335"><ele>6.4</ele></trkpt><trkpt lat="-27.029239999999998" lon="-48.607083333333335"><ele>6.4</ele></trkpt><trkpt lat="-27.029239999999998" lon="-48.607083333333335"><ele>6.4</ele></trkpt><trkpt lat="-27.029239999999998" lon="-48.607083333333335"><ele>6.4</ele></trkpt><trkpt lat="-27.029239999999998" lon="-48.607083333333335"><ele>6.4</ele></trkpt><trkpt lat="-27.029239999999998" lon="-48.607083333333335"><ele>6.4</ele></trkpt><trkpt lat="-27.029239999999998" lon="-48.607083333333335"><ele>6.4</ele></trkpt><trkpt lat="-27.029239999999998" lon="-48.607083333333335"><ele>6.4</ele></trkpt><trkpt lat="-27.029239999999998" lon="-48.607083333333335"><ele>6.4</ele></trkpt><trkpt lat="-27.029239999999998" lon="-48.607083333333335"><ele>6.4</ele></trkpt><trkpt lat="-27.029239999999998" lon="-48.607083333333335"><ele>6.4</ele></trkpt><trkpt lat="-27.029239999999998" lon="-48.607083333333335"><ele>6.4</ele></trkpt><trkpt lat="-27.029239999999998" lon="-48.607083333333335"><ele>6.4</ele></trkpt><trkpt lat="-27.029239999999998" lon="-48.607083333333335"><ele>6.4</ele></trkpt><trkpt lat="-27.029239999999998" lon="-48.607083333333335"><ele>6.4</ele></trkpt><trkpt lat="-27.029239999999998" lon="-48.607083333333335"><ele>6.4</ele></trkpt><trkpt lat="-27.029239999999998" lon="-48.607083333333335"><ele>6.4</ele></trkpt><trkpt lat="-27.029239999999998" lon="-48.607083333333335"><ele>6.4</ele></trkpt><trkpt lat="-27.029239999999998" lon="-48.607083333333335"><ele>6.4</ele></trkpt><trkpt lat="-27.029239999999998" lon="-48.607083333333335"><ele>6.4</ele></trkpt><trkpt lat="-27.029239999999998" lon="-48.607083333333335"><ele>6.4</ele></trkpt><trkpt lat="-27.029239999999998" lon="-48.607083333333335"><ele>6.4</ele></trkpt><trkpt lat="-27.029239999999998" lon="-48.607083333333335"><ele>6.4</ele></trkpt><trkpt lat="-27.029239999999998" lon="-48.607083333333335"><ele>6.4</ele></trkpt><trkpt lat="-27.029239999999998" lon="-48.607083333333335"><ele>6.4</ele></trkpt><trkpt lat="-27.029239999999998" lon="-48.607083333333335"><ele>6.4</ele></trkpt><trkpt lat="-27.029239999999998" lon="-48.607083333333335"><ele>6.4</ele></trkpt><trkpt lat="-27.029239999999998" lon="-48.607083333333335"><ele>6.4</ele></trkpt><trkpt lat="-27.029239999999998" lon="-48.607083333333335"><ele>6.4</ele></trkpt><trkpt lat="-27.029239999999998" lon="-48.607083333333335"><ele>6.4</ele></trkpt><trkpt lat="-27.029239999999998" lon="-48.607083333333335"><ele>6.4</ele></trkpt><trkpt lat="-27.029239999999998" lon="-48.607083333333335"><ele>6.4</ele></trkpt><trkpt lat="-27.029239999999998" lon="-48.607083333333335"><ele>6.4</ele></trkpt><trkpt lat="-27.029239999999998" lon="-48.607083333333335"><ele>6.4</ele></trkpt><trkpt lat="-27.029239999999998" lon="-48.607083333333335"><ele>6.4</ele></trkpt><trkpt lat="-27.029239999999998" lon="-48.607083333333335"><ele>6.4</ele></trkpt><trkpt lat="-27.029239999999998" lon="-48.607083333333335"><ele>6.4</ele></trkpt><trkpt lat="-27.029239999999998" lon="-48.607083333333335"><ele>6.4</ele></trkpt><trkpt lat="-27.029239999999998" lon="-48.607083333333335"><ele>6.4</ele></trkpt><trkpt lat="-27.029239999999998" lon="-48.607083333333335"><ele>6.4</ele></trkpt><trkpt lat="-27.029239999999998" lon="-48.607083333333335"><ele>6.4</ele></trkpt><trkpt lat="-27.029239999999998" lon="-48.607083333333335"><ele>6.4</ele></trkpt><trkpt lat="-27.029239999999998" lon="-48.607083333333335"><ele>6.4</ele></trkpt><trkpt lat="-27.029239999999998" lon="-48.607083333333335"><ele>6.4</ele></trkpt><trkpt lat="-27.029239999999998" lon="-48.607083333333335"><ele>6.4</ele></trkpt><trkpt lat="-27.029239999999998" lon="-48.607083333333335"><ele>6.4</ele></trkpt><trkpt lat="-27.029239999999998" lon="-48.607083333333335"><ele>6.4</ele></trkpt><trkpt lat="-27.029239999999998" lon="-48.607083333333335"><ele>6.4</ele></trkpt><trkpt lat="-27.029239999999998" lon="-48.607083333333335"><ele>6.4</ele></trkpt><trkpt lat="-27.029239999999998" lon="-48.607083333333335"><ele>6.4</ele></trkpt><trkpt lat="-27.029239999999998" lon="-48.607083333333335"><ele>6.4</ele></trkpt><trkpt lat="-27.029239999999998" lon="-48.607083333333335"><ele>6.4</ele></trkpt><trkpt lat="-27.029238333333335" lon="-48.60704166666666"><ele>5.699999999999999</ele></trkpt><trkpt lat="-27.029239999999998" lon="-48.60703333333333"><ele>5.800000000000001</ele></trkpt><trkpt lat="-27.029239999999998" lon="-48.60702500000001"><ele>5.800000000000001</ele></trkpt><trkpt lat="-27.029236666666666" lon="-48.607016666666674"><ele>5.5</ele></trkpt><trkpt lat="-27.029236666666666" lon="-48.607013333333335"><ele>4.9</ele></trkpt><trkpt lat="-27.029238333333335" lon="-48.60700833333333"><ele>4.5</ele></trkpt><trkpt lat="-27.029243333333337" lon="-48.607004999999994"><ele>4.5</ele></trkpt><trkpt lat="-27.029241666666667" lon="-48.607003333333324"><ele>4.6</ele></trkpt><trkpt lat="-27.029241666666667" lon="-48.607003333333324"><ele>5</ele></trkpt><trkpt lat="-27.029239999999998" lon="-48.607003333333324"><ele>5.4</ele></trkpt><trkpt lat="-27.029241666666667" lon="-48.60700166666667"><ele>6.1</ele></trkpt><trkpt lat="-27.029239999999998" lon="-48.607003333333324"><ele>6.5</ele></trkpt><trkpt lat="-27.029241666666667" lon="-48.607015000000004"><ele>6.9</ele></trkpt><trkpt lat="-27.029243333333337" lon="-48.60703333333333"><ele>7.199999999999999</ele></trkpt><trkpt lat="-27.029243333333337" lon="-48.60704333333333"><ele>7.6</ele></trkpt><trkpt lat="-27.02924666666667" lon="-48.60706333333333"><ele>8</ele></trkpt><trkpt lat="-27.029243333333337" lon="-48.607083333333335"><ele>8.3</ele></trkpt><trkpt lat="-27.029241666666667" lon="-48.607106666666674"><ele>8.4</ele></trkpt><trkpt lat="-27.029238333333335" lon="-48.60713333333333"><ele>8.5</ele></trkpt><trkpt lat="-27.02923" lon="-48.60716166666666"><ele>8.6</ele></trkpt><trkpt lat="-27.029226666666666" lon="-48.60718833333333"><ele>8.8</ele></trkpt><trkpt lat="-27.029221666666665" lon="-48.60721333333333"><ele>10.1</ele></trkpt><trkpt lat="-27.02921666666667" lon="-48.60724333333333"><ele>10.299999999999999</ele></trkpt><trkpt lat="-27.029211666666665" lon="-48.607273333333325"><ele>10.5</ele></trkpt><trkpt lat="-27.029206666666663" lon="-48.60730333333333"><ele>10.799999999999999</ele></trkpt><trkpt lat="-27.02920333333333" lon="-48.60733333333333"><ele>11.299999999999999</ele></trkpt><trkpt lat="-27.02920333333333" lon="-48.60736"><ele>11.1</ele></trkpt><trkpt lat="-27.02920333333333" lon="-48.60738333333334"><ele>10.2</ele></trkpt><trkpt lat="-27.02920333333333" lon="-48.607396666666666"><ele>9.6</ele></trkpt><trkpt lat="-27.0292" lon="-48.60741500000001"><ele>9.5</ele></trkpt><trkpt lat="-27.029198333333337" lon="-48.607418333333335"><ele>9.6</ele></trkpt><trkpt lat="-27.029191666666666" lon="-48.607425"><ele>9.2</ele></trkpt><trkpt lat="-27.029191666666666" lon="-48.607425"><ele>8.5</ele></trkpt><trkpt lat="-27.029191666666666" lon="-48.607421666666674"><ele>8.1</ele></trkpt><trkpt lat="-27.029190000000003" lon="-48.607420000000005"><ele>8</ele></trkpt><trkpt lat="-27.029190000000003" lon="-48.607418333333335"><ele>8</ele></trkpt><trkpt lat="-27.02918833333333" lon="-48.60741666666666"><ele>7.800000000000001</ele></trkpt><trkpt lat="-27.029186666666668" lon="-48.60741500000001"><ele>7.300000000000001</ele></trkpt><trkpt lat="-27.029185" lon="-48.60741500000001"><ele>7</ele></trkpt><trkpt lat="-27.029196666666667" lon="-48.60742666666667"><ele>11.1</ele></trkpt><trkpt lat="-27.029196666666667" lon="-48.60742666666667"><ele>11.1</ele></trkpt><trkpt lat="-27.029196666666667" lon="-48.60742666666667"><ele>11.1</ele></trkpt><trkpt lat="-27.029196666666667" lon="-48.60742666666667"><ele>11.1</ele></trkpt><trkpt lat="-27.029196666666667" lon="-48.60742666666667"><ele>11.1</ele></trkpt><trkpt lat="-27.029196666666667" lon="-48.60742666666667"><ele>11.1</ele></trkpt><trkpt lat="-27.029196666666667" lon="-48.60742666666667"><ele>11.1</ele></trkpt><trkpt lat="-27.029196666666667" lon="-48.60742666666667"><ele>11.1</ele></trkpt><trkpt lat="-27.029196666666667" lon="-48.60742666666667"><ele>11.1</ele></trkpt><trkpt lat="-27.029196666666667" lon="-48.60742666666667"><ele>11.1</ele></trkpt><trkpt lat="-27.029196666666667" lon="-48.60742666666667"><ele>11.1</ele></trkpt><trkpt lat="-27.029196666666667" lon="-48.60742666666667"><ele>11.1</ele></trkpt><trkpt lat="-27.029196666666667" lon="-48.60742666666667"><ele>11.1</ele></trkpt><trkpt lat="-27.029196666666667" lon="-48.60742666666667"><ele>11.1</ele></trkpt><trkpt lat="-27.029196666666667" lon="-48.60742666666667"><ele>11.1</ele></trkpt><trkpt lat="-27.029196666666667" lon="-48.60742666666667"><ele>11.1</ele></trkpt><trkpt lat="-27.029196666666667" lon="-48.60742666666667"><ele>11.1</ele></trkpt><trkpt lat="-27.029196666666667" lon="-48.60742666666667"><ele>11.1</ele></trkpt><trkpt lat="-27.029196666666667" lon="-48.60742666666667"><ele>11.1</ele></trkpt><trkpt lat="-27.029196666666667" lon="-48.60742666666667"><ele>11.1</ele></trkpt><trkpt lat="-27.029196666666667" lon="-48.60742666666667"><ele>11.1</ele></trkpt><trkpt lat="-27.029196666666667" lon="-48.60742666666667"><ele>11.1</ele></trkpt><trkpt lat="-27.029196666666667" lon="-48.60742666666667"><ele>11.1</ele></trkpt><trkpt lat="-27.029211666666665" lon="-48.607420000000005"><ele>9.5</ele></trkpt><trkpt lat="-27.029205" lon="-48.607454999999995"><ele>9.2</ele></trkpt><trkpt lat="-27.0292" lon="-48.60747666666666"><ele>9.5</ele></trkpt><trkpt lat="-27.029193333333335" lon="-48.607503333333334"><ele>8.6</ele></trkpt><trkpt lat="-27.029191666666666" lon="-48.607525"><ele>8.3</ele></trkpt><trkpt lat="-27.029193333333335" lon="-48.60755833333333"><ele>8.2</ele></trkpt><trkpt lat="-27.029186666666668" lon="-48.60758666666667"><ele>8</ele></trkpt><trkpt lat="-27.029185" lon="-48.60761833333333"><ele>7.5</ele></trkpt><trkpt lat="-27.029181666666666" lon="-48.60765"><ele>7</ele></trkpt><trkpt lat="-27.029179999999997" lon="-48.607681666666664"><ele>7</ele></trkpt><trkpt lat="-27.02917166666667" lon="-48.60771"><ele>6.800000000000001</ele></trkpt><trkpt lat="-27.029168333333338" lon="-48.60774"><ele>6.4</ele></trkpt><trkpt lat="-27.029164999999995" lon="-48.607773333333334"><ele>5.6</ele></trkpt><trkpt lat="-27.02915666666667" lon="-48.607813333333326"><ele>5.2</ele></trkpt><trkpt lat="-27.029149999999998" lon="-48.607859999999995"><ele>5.699999999999999</ele></trkpt><trkpt lat="-27.029149999999998" lon="-48.6079"><ele>5.300000000000001</ele></trkpt><trkpt lat="-27.029148333333335" lon="-48.60794333333333"><ele>5</ele></trkpt><trkpt lat="-27.029145000000003" lon="-48.60798666666666"><ele>5</ele></trkpt><trkpt lat="-27.029139999999998" lon="-48.60802999999999"><ele>5.2</ele></trkpt><trkpt lat="-27.029136666666666" lon="-48.608084999999996"><ele>6.199999999999999</ele></trkpt><trkpt lat="-27.029133333333334" lon="-48.608133333333335"><ele>7.300000000000001</ele></trkpt><trkpt lat="-27.029131666666665" lon="-48.60817166666667"><ele>7.6</ele></trkpt><trkpt lat="-27.029128333333333" lon="-48.60820999999999"><ele>7.699999999999999</ele></trkpt><trkpt lat="-27.029125" lon="-48.60825666666666"><ele>8.2</ele></trkpt><trkpt lat="-27.029123333333338" lon="-48.608286666666665"><ele>8.4</ele></trkpt><trkpt lat="-27.029121666666665" lon="-48.608325"><ele>8.8</ele></trkpt><trkpt lat="-27.029116666666663" lon="-48.60834833333333"><ele>8.8</ele></trkpt><trkpt lat="-27.029108333333337" lon="-48.608395"><ele>8.3</ele></trkpt><trkpt lat="-27.029103333333335" lon="-48.60843"><ele>8.5</ele></trkpt><trkpt lat="-27.02909833333333" lon="-48.60846166666667"><ele>8.4</ele></trkpt><trkpt lat="-27.029091666666666" lon="-48.608489999999996"><ele>8</ele></trkpt><trkpt lat="-27.029088333333334" lon="-48.60852166666667"><ele>8.2</ele></trkpt><trkpt lat="-27.029086666666664" lon="-48.60854833333333"><ele>8.2</ele></trkpt><trkpt lat="-27.029083333333332" lon="-48.608583333333335"><ele>8.7</ele></trkpt><trkpt lat="-27.02908166666667" lon="-48.60861333333334"><ele>8.7</ele></trkpt><trkpt lat="-27.029083333333332" lon="-48.60863833333333"><ele>8.6</ele></trkpt><trkpt lat="-27.02908166666667" lon="-48.60866333333333"><ele>8.2</ele></trkpt><trkpt lat="-27.029078333333338" lon="-48.60868333333333"><ele>8</ele></trkpt><trkpt lat="-27.029078333333338" lon="-48.60868333333333"><ele>8</ele></trkpt><trkpt lat="-27.02907" lon="-48.60870499999999"><ele>8</ele></trkpt><trkpt lat="-27.02906833333333" lon="-48.60870666666666"><ele>8.3</ele></trkpt><trkpt lat="-27.029065" lon="-48.60870666666666"><ele>7.800000000000001</ele></trkpt><trkpt lat="-27.029061666666667" lon="-48.60870333333334"><ele>8.2</ele></trkpt><trkpt lat="-27.029059999999998" lon="-48.60870833333333"><ele>7.800000000000001</ele></trkpt><trkpt lat="-27.029058333333335" lon="-48.60871"><ele>7.300000000000001</ele></trkpt><trkpt lat="-27.029056666666666" lon="-48.60870666666666"><ele>6.5</ele></trkpt><trkpt lat="-27.029055000000003" lon="-48.60870166666667"><ele>6.1</ele></trkpt><trkpt lat="-27.029055000000003" lon="-48.60870166666667"><ele>6.1</ele></trkpt><trkpt lat="-27.029055000000003" lon="-48.60869833333333"><ele>5.9</ele></trkpt><trkpt lat="-27.029055000000003" lon="-48.608695000000004"><ele>5.9</ele></trkpt><trkpt lat="-27.02905333333333" lon="-48.608693333333335"><ele>5.9</ele></trkpt><trkpt lat="-27.02905333333333" lon="-48.608693333333335"><ele>5.9</ele></trkpt><trkpt lat="-27.02905333333333" lon="-48.608693333333335"><ele>5.9</ele></trkpt><trkpt lat="-27.02905333333333" lon="-48.608693333333335"><ele>5.9</ele></trkpt><trkpt lat="-27.02905333333333" lon="-48.608693333333335"><ele>5.9</ele></trkpt><trkpt lat="-27.02905333333333" lon="-48.608693333333335"><ele>5.9</ele></trkpt><trkpt lat="-27.02905333333333" lon="-48.608693333333335"><ele>5.9</ele></trkpt><trkpt lat="-27.02905333333333" lon="-48.608693333333335"><ele>5.9</ele></trkpt><trkpt lat="-27.02905333333333" lon="-48.608693333333335"><ele>5.9</ele></trkpt><trkpt lat="-27.02905333333333" lon="-48.608693333333335"><ele>5.9</ele></trkpt><trkpt lat="-27.029046666666666" lon="-48.608691666666665"><ele>6.300000000000001</ele></trkpt><trkpt lat="-27.029044999999996" lon="-48.60870499999999"><ele>6.699999999999999</ele></trkpt><trkpt lat="-27.029046666666666" lon="-48.608715"><ele>6.9</ele></trkpt><trkpt lat="-27.029048333333336" lon="-48.60872166666666"><ele>6.9</ele></trkpt><trkpt lat="-27.029049999999998" lon="-48.60872166666666"><ele>7</ele></trkpt><trkpt lat="-27.029049999999998" lon="-48.60872333333334"><ele>7.300000000000001</ele></trkpt><trkpt lat="-27.029051666666668" lon="-48.60872333333334"><ele>7.800000000000001</ele></trkpt><trkpt lat="-27.029051666666668" lon="-48.60872500000001"><ele>8.2</ele></trkpt><trkpt lat="-27.029051666666668" lon="-48.60872833333333"><ele>8.8</ele></trkpt><trkpt lat="-27.029051666666668" lon="-48.60873"><ele>9.2</ele></trkpt><trkpt lat="-27.02905333333333" lon="-48.60873"><ele>9.799999999999999</ele></trkpt><trkpt lat="-27.02905333333333" lon="-48.60873"><ele>10.2</ele></trkpt><trkpt lat="-27.02905333333333" lon="-48.60873"><ele>10.2</ele></trkpt><trkpt lat="-27.02905333333333" lon="-48.60873"><ele>10.2</ele></trkpt><trkpt lat="-27.02905333333333" lon="-48.60873"><ele>10.2</ele></trkpt><trkpt lat="-27.029051666666668" lon="-48.608740000000004"><ele>10.1</ele></trkpt><trkpt lat="-27.029051666666668" lon="-48.60875833333333"><ele>10.1</ele></trkpt><trkpt lat="-27.029049999999998" lon="-48.608775"><ele>10</ele></trkpt><trkpt lat="-27.029044999999996" lon="-48.60880166666667"><ele>9.6</ele></trkpt><trkpt lat="-27.029040000000002" lon="-48.608826666666666"><ele>9.4</ele></trkpt><trkpt lat="-27.029031666666665" lon="-48.60885666666666"><ele>9.2</ele></trkpt><trkpt lat="-27.029028333333333" lon="-48.60888166666667"><ele>9.1</ele></trkpt><trkpt lat="-27.029028333333333" lon="-48.60891333333334"><ele>9.3</ele></trkpt><trkpt lat="-27.02902333333333" lon="-48.60893833333333"><ele>9.5</ele></trkpt><trkpt lat="-27.02902166666667" lon="-48.60896833333333"><ele>9.799999999999999</ele></trkpt><trkpt lat="-27.02902" lon="-48.609"><ele>10.2</ele></trkpt><trkpt lat="-27.029016666666667" lon="-48.60903166666667"><ele>9.799999999999999</ele></trkpt><trkpt lat="-27.029016666666667" lon="-48.60906333333334"><ele>9</ele></trkpt><trkpt lat="-27.029013333333335" lon="-48.60909333333334"><ele>8.6</ele></trkpt><trkpt lat="-27.029003333333335" lon="-48.60912666666666"><ele>8.2</ele></trkpt><trkpt lat="-27.028995000000002" lon="-48.609145000000005"><ele>7.4</ele></trkpt><trkpt lat="-27.028993333333332" lon="-48.60914666666666"><ele>6.699999999999999</ele></trkpt><trkpt lat="-27.028993333333332" lon="-48.60915"><ele>7.199999999999999</ele></trkpt><trkpt lat="-27.028988333333338" lon="-48.60915333333334"><ele>7.9</ele></trkpt><trkpt lat="-27.028984999999995" lon="-48.60915833333333"><ele>8.1</ele></trkpt><trkpt lat="-27.028981666666663" lon="-48.60916166666666"><ele>8.3</ele></trkpt><trkpt lat="-27.028981666666663" lon="-48.60916333333333"><ele>8.9</ele></trkpt><trkpt lat="-27.02898" lon="-48.60916666666667"><ele>9.3</ele></trkpt><trkpt lat="-27.02898" lon="-48.60916666666667"><ele>9.799999999999999</ele></trkpt><trkpt lat="-27.028981666666663" lon="-48.60916666666667"><ele>10.1</ele></trkpt><trkpt lat="-27.028981666666663" lon="-48.60916666666667"><ele>10.1</ele></trkpt><trkpt lat="-27.028981666666663" lon="-48.609168333333336"><ele>10.299999999999999</ele></trkpt><trkpt lat="-27.02898" lon="-48.609168333333336"><ele>10.5</ele></trkpt><trkpt lat="-27.02898" lon="-48.609168333333336"><ele>10.5</ele></trkpt><trkpt lat="-27.02898" lon="-48.609168333333336"><ele>10.5</ele></trkpt><trkpt lat="-27.02898" lon="-48.609168333333336"><ele>10.5</ele></trkpt><trkpt lat="-27.02898" lon="-48.609168333333336"><ele>10.5</ele></trkpt><trkpt lat="-27.02898" lon="-48.609168333333336"><ele>10.5</ele></trkpt><trkpt lat="-27.02898" lon="-48.609168333333336"><ele>10.5</ele></trkpt><trkpt lat="-27.02898" lon="-48.609168333333336"><ele>10.5</ele></trkpt><trkpt lat="-27.02898" lon="-48.60917333333334"><ele>10.9</ele></trkpt><trkpt lat="-27.028981666666663" lon="-48.60918"><ele>10.7</ele></trkpt><trkpt lat="-27.028984999999995" lon="-48.60919333333333"><ele>10.6</ele></trkpt><trkpt lat="-27.028983333333333" lon="-48.60921333333334"><ele>10.5</ele></trkpt><trkpt lat="-27.028983333333333" lon="-48.609231666666666"><ele>10.5</ele></trkpt><trkpt lat="-27.02898" lon="-48.60926166666666"><ele>9.799999999999999</ele></trkpt><trkpt lat="-27.02897666666667" lon="-48.60928833333334"><ele>9.4</ele></trkpt><trkpt lat="-27.028975" lon="-48.60931833333334"><ele>8.4</ele></trkpt><trkpt lat="-27.028971666666667" lon="-48.60935666666666"><ele>8.3</ele></trkpt><trkpt lat="-27.028966666666665" lon="-48.60939166666667"><ele>8.2</ele></trkpt><trkpt lat="-27.028958333333335" lon="-48.60943333333333"><ele>7.6</ele></trkpt><trkpt lat="-27.028950000000002" lon="-48.60948"><ele>8.1</ele></trkpt><trkpt lat="-27.02894666666667" lon="-48.60952166666666"><ele>8.5</ele></trkpt><trkpt lat="-27.028939999999995" lon="-48.609563333333334"><ele>8.8</ele></trkpt><trkpt lat="-27.028935" lon="-48.609606666666664"><ele>8.3</ele></trkpt><trkpt lat="-27.02893" lon="-48.60964666666667"><ele>7.6</ele></trkpt><trkpt lat="-27.028928333333337" lon="-48.609685000000006"><ele>7.5</ele></trkpt><trkpt lat="-27.028924999999997" lon="-48.60970999999999"><ele>7.5</ele></trkpt><trkpt lat="-27.028926666666667" lon="-48.60973166666666"><ele>7.5</ele></trkpt><trkpt lat="-27.028920000000003" lon="-48.60975333333334"><ele>7.800000000000001</ele></trkpt><trkpt lat="-27.028914999999998" lon="-48.609765"><ele>7.300000000000001</ele></trkpt><trkpt lat="-27.028914999999998" lon="-48.609765"><ele>7.300000000000001</ele></trkpt><trkpt lat="-27.028911666666666" lon="-48.60977"><ele>7.300000000000001</ele></trkpt><trkpt lat="-27.028909999999996" lon="-48.60977"><ele>7.199999999999999</ele></trkpt><trkpt lat="-27.028909999999996" lon="-48.60977666666666"><ele>7.300000000000001</ele></trkpt><trkpt lat="-27.028908333333334" lon="-48.60978"><ele>7.300000000000001</ele></trkpt><trkpt lat="-27.028908333333334" lon="-48.60978333333334"><ele>7.300000000000001</ele></trkpt><trkpt lat="-27.028905" lon="-48.609784999999995"><ele>7.4</ele></trkpt><trkpt lat="-27.028905" lon="-48.609784999999995"><ele>7.4</ele></trkpt><trkpt lat="-27.02890166666667" lon="-48.609784999999995"><ele>7.699999999999999</ele></trkpt><trkpt lat="-27.02890166666667" lon="-48.609784999999995"><ele>7.699999999999999</ele></trkpt><trkpt lat="-27.028898333333338" lon="-48.609788333333334"><ele>8.1</ele></trkpt><trkpt lat="-27.028895000000002" lon="-48.60979666666667"><ele>8.3</ele></trkpt><trkpt lat="-27.028898333333338" lon="-48.60980500000001"><ele>8.3</ele></trkpt><trkpt lat="-27.02890166666667" lon="-48.60982666666667"><ele>8.1</ele></trkpt><trkpt lat="-27.0289" lon="-48.609851666666664"><ele>7.699999999999999</ele></trkpt><trkpt lat="-27.028898333333338" lon="-48.60987"><ele>7.300000000000001</ele></trkpt><trkpt lat="-27.028896666666665" lon="-48.609896666666664"><ele>6.699999999999999</ele></trkpt><trkpt lat="-27.028896666666665" lon="-48.609923333333334"><ele>6.4</ele></trkpt><trkpt lat="-27.028895000000002" lon="-48.60996166666667"><ele>5.800000000000001</ele></trkpt><trkpt lat="-27.028885" lon="-48.61000000000001"><ele>4.9</ele></trkpt><trkpt lat="-27.028880000000004" lon="-48.61003833333333"><ele>4.6</ele></trkpt><trkpt lat="-27.02887333333333" lon="-48.61007500000001"><ele>4.300000000000001</ele></trkpt><trkpt lat="-27.028861666666664" lon="-48.61011166666667"><ele>4.300000000000001</ele></trkpt><trkpt lat="-27.028855" lon="-48.61015166666666"><ele>4.5</ele></trkpt><trkpt lat="-27.028851666666664" lon="-48.610195000000004"><ele>4.5</ele></trkpt><trkpt lat="-27.028846666666663" lon="-48.610238333333335"><ele>4.5</ele></trkpt><trkpt lat="-27.02884333333333" lon="-48.610275"><ele>4.5</ele></trkpt><trkpt lat="-27.028835000000004" lon="-48.61031"><ele>4.2</ele></trkpt><trkpt lat="-27.02882833333333" lon="-48.610355"><ele>4.300000000000001</ele></trkpt><trkpt lat="-27.028823333333335" lon="-48.610396666666674"><ele>4.4</ele></trkpt><trkpt lat="-27.028816666666664" lon="-48.610428333333324"><ele>3.7</ele></trkpt><trkpt lat="-27.02881166666667" lon="-48.61045833333333"><ele>3.3</ele></trkpt><trkpt lat="-27.028808333333338" lon="-48.610483333333335"><ele>2.6</ele></trkpt><trkpt lat="-27.028808333333338" lon="-48.61053833333334"><ele>1.5</ele></trkpt><trkpt lat="-27.028803333333332" lon="-48.610600000000005"><ele>2.8</ele></trkpt><trkpt lat="-27.02879666666667" lon="-48.610653333333325"><ele>4</ele></trkpt><trkpt lat="-27.028791666666667" lon="-48.610698333333325"><ele>4.2</ele></trkpt><trkpt lat="-27.028786666666665" lon="-48.61074166666667"><ele>4.1</ele></trkpt><trkpt lat="-27.028776666666666" lon="-48.610788333333325"><ele>3.8000000000000003</ele></trkpt><trkpt lat="-27.028771666666664" lon="-48.610821666666666"><ele>3.6</ele></trkpt><trkpt lat="-27.028765" lon="-48.610846666666674"><ele>3.4000000000000004</ele></trkpt><trkpt lat="-27.028763333333337" lon="-48.610866666666666"><ele>4.1</ele></trkpt><trkpt lat="-27.028760000000002" lon="-48.61087666666667"><ele>4.9</ele></trkpt><trkpt lat="-27.028758333333332" lon="-48.61088500000001"><ele>5.4</ele></trkpt><trkpt lat="-27.028756666666663" lon="-48.610891666666674"><ele>5.699999999999999</ele></trkpt><trkpt lat="-27.028755" lon="-48.61090000000001"><ele>6</ele></trkpt><trkpt lat="-27.02875166666667" lon="-48.61090166666666"><ele>6.300000000000001</ele></trkpt><trkpt lat="-27.02875166666667" lon="-48.61090166666666"><ele>6.300000000000001</ele></trkpt><trkpt lat="-27.02875166666667" lon="-48.61090166666666"><ele>6.4</ele></trkpt><trkpt lat="-27.02875" lon="-48.61090166666666"><ele>6.6</ele></trkpt><trkpt lat="-27.028756666666663" lon="-48.61090000000001"><ele>6.699999999999999</ele></trkpt><trkpt lat="-27.02875" lon="-48.61090333333333"><ele>6</ele></trkpt><trkpt lat="-27.028748333333336" lon="-48.61090333333333"><ele>5.300000000000001</ele></trkpt><trkpt lat="-27.028746666666667" lon="-48.610905"><ele>4.9</ele></trkpt><trkpt lat="-27.028746666666667" lon="-48.610905"><ele>4.9</ele></trkpt><trkpt lat="-27.028746666666667" lon="-48.610905"><ele>4.9</ele></trkpt><trkpt lat="-27.028746666666667" lon="-48.610905"><ele>4.9</ele></trkpt><trkpt lat="-27.028746666666667" lon="-48.610905"><ele>4.9</ele></trkpt><trkpt lat="-27.028746666666667" lon="-48.610905"><ele>4.9</ele></trkpt><trkpt lat="-27.028746666666667" lon="-48.610905"><ele>4.9</ele></trkpt><trkpt lat="-27.028746666666667" lon="-48.610905"><ele>4.9</ele></trkpt><trkpt lat="-27.028746666666667" lon="-48.610905"><ele>4.9</ele></trkpt><trkpt lat="-27.028746666666667" lon="-48.610905"><ele>4.9</ele></trkpt><trkpt lat="-27.028746666666667" lon="-48.610905"><ele>4.9</ele></trkpt><trkpt lat="-27.028746666666667" lon="-48.610905"><ele>4.9</ele></trkpt><trkpt lat="-27.028746666666667" lon="-48.610905"><ele>4.9</ele></trkpt><trkpt lat="-27.028746666666667" lon="-48.610905"><ele>4.9</ele></trkpt><trkpt lat="-27.028746666666667" lon="-48.610905"><ele>4.9</ele></trkpt><trkpt lat="-27.028746666666667" lon="-48.610905"><ele>4.9</ele></trkpt><trkpt lat="-27.028746666666667" lon="-48.610905"><ele>4.9</ele></trkpt><trkpt lat="-27.028746666666667" lon="-48.610905"><ele>4.9</ele></trkpt><trkpt lat="-27.028746666666667" lon="-48.610905"><ele>4.9</ele></trkpt><trkpt lat="-27.028746666666667" lon="-48.610905"><ele>4.9</ele></trkpt><trkpt lat="-27.028746666666667" lon="-48.610905"><ele>4.9</ele></trkpt><trkpt lat="-27.028746666666667" lon="-48.610905"><ele>4.9</ele></trkpt><trkpt lat="-27.028746666666667" lon="-48.610905"><ele>4.9</ele></trkpt><trkpt lat="-27.028746666666667" lon="-48.610905"><ele>4.9</ele></trkpt><trkpt lat="-27.028746666666667" lon="-48.610905"><ele>4.9</ele></trkpt><trkpt lat="-27.028746666666667" lon="-48.610905"><ele>4.9</ele></trkpt><trkpt lat="-27.028746666666667" lon="-48.610905"><ele>4.9</ele></trkpt><trkpt lat="-27.028746666666667" lon="-48.610905"><ele>4.9</ele></trkpt><trkpt lat="-27.028746666666667" lon="-48.610905"><ele>4.9</ele></trkpt><trkpt lat="-27.028746666666667" lon="-48.610905"><ele>4.9</ele></trkpt><trkpt lat="-27.028746666666667" lon="-48.610905"><ele>4.9</ele></trkpt><trkpt lat="-27.028746666666667" lon="-48.610905"><ele>4.9</ele></trkpt><trkpt lat="-27.028746666666667" lon="-48.610905"><ele>4.9</ele></trkpt><trkpt lat="-27.028746666666667" lon="-48.610905"><ele>4.9</ele></trkpt><trkpt lat="-27.028746666666667" lon="-48.610905"><ele>4.9</ele></trkpt><trkpt lat="-27.028746666666667" lon="-48.610905"><ele>4.9</ele></trkpt><trkpt lat="-27.028746666666667" lon="-48.610905"><ele>4.9</ele></trkpt><trkpt lat="-27.028746666666667" lon="-48.610905"><ele>4.9</ele></trkpt></trkseg></trk></gpx>