<?xml version="1.0" encoding="UTF-8"?>
<gpx xmlns="http://www.topografix.com/GPX/1/1" version="1.1" creator="@dwayneparton/geojson-to-gpx"><wpt lat="-27.008355" lon="-48.604353"><ele>7.7</ele><name>2 faixas</name></wpt><wpt lat="-27.008385" lon="-48.604369"><name>22</name></wpt><wpt lat="-27.008485" lon="-48.605227"><ele>3.7</ele><name>50km/h</name></wpt><wpt lat="-27.010267" lon="-48.610158"><ele>5.1</ele><name>50km/h</name></wpt><wpt lat="-27.010568" lon="-48.611448"><ele>0.9</ele><name>50km/h</name></wpt><wpt lat="-27.009442" lon="-48.607168"><ele>2.8</ele><name>88</name></wpt><wpt lat="-27.010425" lon="-48.610348"><ele>3.2</ele><name>153</name></wpt><wpt lat="-27.008548" lon="-48.605277"><ele>1.7</ele><name>166</name></wpt><wpt lat="-27.009563" lon="-48.607618"><ele>1.1</ele><name>175</name></wpt><wpt lat="-27.009567" lon="-48.60764"><ele>0</ele><name>325</name></wpt><wpt lat="-27.008555" lon="-48.60523"><ele>-1.9</ele><name>335</name></wpt><wpt lat="-27.008552" lon="-48.605277"><ele>1.9</ele><name>912</name></wpt><wpt lat="-27.009993" lon="-48.612808"><ele>3.2</ele><name>A ciclo é completamente reta.</name></wpt><wpt lat="-27.009993" lon="-48.612808"><ele>3.2</ele><name>A pintura está boa, mas FALHA em ALGUNS pontos</name></wpt><wpt lat="-27.009993" lon="-48.612808"><ele>3.2</ele><name>Ambas: Alguns trechos sem segregadores. Automóvel consegue passar por entre estes com facilidade</name></wpt><wpt lat="-27.009993" lon="-48.612808"><ele>3.2</ele><name>Ao longo da ciclofaixa, há trechos em que para estacionar o carro, o motorista passa obrigatoriamente por cima da ciclofaixa</name></wpt><wpt lat="-27.008355" lon="-48.604353"><ele>7.7</ele><name>Apenas faixas vermelhas nas bordas</name></wpt><wpt lat="-27.00838" lon="-48.604454"><name>Área de amortecimento da ciclo (cm)</name></wpt><wpt lat="-27.008548" lon="-48.605277"><ele>1.7</ele><name>Área transitável da ciclo (cm)</name></wpt><wpt lat="-27.009442" lon="-48.607168"><ele>2.8</ele><name>Área transitável da ciclo (cm)</name></wpt><wpt lat="-27.009568" lon="-48.607618"><ele>1.1</ele><name>Área transitável da ciclo (cm)</name></wpt><wpt lat="-27.010425" lon="-48.610348"><ele>3.2</ele><name>Área transitável da ciclo (cm)</name></wpt><wpt lat="-27.008355" lon="-48.604353"><ele>7.7</ele><name>Asfalto</name></wpt><wpt lat="-27.009653" lon="-48.60858"><ele>6.7</ele><name>Ausência de conexão entre ciclos.</name></wpt><wpt lat="-27.008323" lon="-48.60434"><ele>8.3</ele><name>Bidirecional</name></wpt><wpt lat="-27.009513" lon="-48.607417"><ele>7.6</ele><name>Bueiro</name></wpt><wpt lat="-27.008318" lon="-48.604348"><ele>8.4</ele><name>Ciclofaixa</name></wpt><wpt lat="-27.008355" lon="-48.604353"><ele>7.7</ele><name>Em bordo de Via de Mão Dupla</name></wpt><wpt lat="-27.00832" lon="-48.604363"><ele>-3.8</ele><name>Estacionamento dedicado de um lado, segregado da circulação</name></wpt><wpt lat="-27.009555" lon="-48.607582"><ele>2.2</ele><name>Estacionamento dedicado de um lado, segregado da circulação</name></wpt><wpt lat="-27.009295" lon="-48.606942"><ele>3.5</ele><name>Estacionamento proibido na via</name></wpt><wpt lat="-27.009993" lon="-48.612808"><ele>3.2</ele><name>Estacionamento proibido na via</name></wpt><wpt lat="-27.008555" lon="-48.60523"><ele>-1.9</ele><name>Faixa de carros logo ao lado da ciclo (cm)</name></wpt><wpt lat="-27.009567" lon="-48.60764"><ele>0</ele><name>Faixa de carros logo ao lado da ciclo (cm)</name></wpt><wpt lat="-27.008322" lon="-48.604367"><ele>-1.2</ele><name>Foto</name></wpt><wpt lat="-27.008353" lon="-48.604277"><ele>-0.2</ele><name>Foto</name></wpt><wpt lat="-27.008485" lon="-48.605227"><ele>3.7</ele><name>Foto</name></wpt><wpt lat="-27.008582" lon="-48.605338"><ele>0</ele><name>Foto</name></wpt><wpt lat="-27.008708" lon="-48.605767"><ele>-0.4</ele><name>Foto</name></wpt><wpt lat="-27.009268" lon="-48.606905"><ele>9.6</ele><name>Foto</name></wpt><wpt lat="-27.009297" lon="-48.606928"><ele>3.2</ele><name>Foto</name></wpt><wpt lat="-27.009487" lon="-48.607373"><ele>6.9</ele><name>Foto</name></wpt><wpt lat="-27.009458" lon="-48.607275"><ele>2.5</ele><name>Foto</name></wpt><wpt lat="-27.009563" lon="-48.607638"><ele>1.4</ele><name>Foto</name></wpt><wpt lat="-27.009677" lon="-48.608798"><ele>5.4</ele><name>Foto</name></wpt><wpt lat="-27.009858" lon="-48.609118"><ele>5.8</ele><name>Foto</name></wpt><wpt lat="-27.009858" lon="-48.609118"><ele>5.8</ele><name>Foto</name></wpt><wpt lat="-27.009653" lon="-48.60858"><ele>6.7</ele><name>Foto</name></wpt><wpt lat="-27.009652" lon="-48.608577"><ele>8.9</ele><name>Foto</name></wpt><wpt lat="-27.010138" lon="-48.609895"><ele>6.9</ele><name>Foto</name></wpt><wpt lat="-27.010268" lon="-48.610158"><ele>5.1</ele><name>Foto</name></wpt><wpt lat="-27.010403" lon="-48.610453"><ele>3.4</ele><name>Foto</name></wpt><wpt lat="-27.010425" lon="-48.610348"><ele>3.2</ele><name>Foto</name></wpt><wpt lat="-27.010432" lon="-48.610445"><ele>3.1</ele><name>Foto</name></wpt><wpt lat="-27.01061" lon="-48.61096"><ele>4.7</ele><name>Foto</name></wpt><wpt lat="-27.01058" lon="-48.611462"><ele>0.6</ele><name>Foto</name></wpt><wpt lat="-27.01044" lon="-48.611825"><ele>1</ele><name>Foto</name></wpt><wpt lat="-27.010232" lon="-48.61242"><ele>3.9</ele><name>Foto</name></wpt><wpt lat="-27.01001" lon="-48.612807"><ele>4.3</ele><name>Foto</name></wpt><wpt lat="-27.010058" lon="-48.612873"><ele>4.7</ele><name>Foto</name></wpt><wpt lat="-27.010058" lon="-48.612877"><ele>4.8</ele><name>Foto</name></wpt><wpt lat="-27.009993" lon="-48.612808"><ele>3.2</ele><name>Iluminação geral na via do outro lado da infraestrutura</name></wpt><wpt lat="-27.009442" lon="-48.607168"><ele>2.8</ele><name>Largura da ciclofaixa diminui no trecho da ponte</name></wpt><wpt lat="-27.008355" lon="-48.604353"><ele>7.7</ele><name>Mão Dupla</name></wpt><wpt lat="-27.009498" lon="-48.607372"><ele>5.2</ele><name>Outro obstáculo</name></wpt><wpt lat="-27.009993" lon="-48.612808"><ele>3.2</ele><name>Outro risco. EXPLIQUE.</name></wpt><wpt lat="-27.009993" lon="-48.612808"><ele>3.2</ele><name>Pequenas imperfeições, como fissuras</name></wpt><wpt lat="-27.009773" lon="-48.609113"><ele>4</ele><name>Ponto de embarque de ônibus interrompe a ciclo</name></wpt><wpt lat="-27.00835" lon="-48.604317"><ele>-1</ele><name>R-34</name></wpt><wpt lat="-27.008678" lon="-48.605747"><ele>-0.4</ele><name>R-34</name></wpt><wpt lat="-27.010135" lon="-48.609882"><ele>9.3</ele><name>R-34</name></wpt><wpt lat="-27.010607" lon="-48.610968"><ele>5.1</ele><name>R-34</name></wpt><wpt lat="-27.010213" lon="-48.612407"><ele>3.4</ele><name>R-34</name></wpt><wpt lat="-27.01058" lon="-48.610925"><ele>4.6</ele><name>R3m0v3r Controle de Velocidade 🗑️</name></wpt><wpt lat="-27.009993" lon="-48.612808"><ele>3.2</ele><name>SE CICLOFAIXA: para invadir a ciclo parte do automóvel passa obrigatoriamente por cima de segregadores</name></wpt><wpt lat="-27.009993" lon="-48.612808"><ele>3.2</ele><name>Segregadores NÃO DIFICULTAM o acesso de ciclistas</name></wpt><wpt lat="-27.009993" lon="-48.612808"><ele>3.2</ele><name>Sombras em alguns trechos, SEM mudas novas</name></wpt><wpt lat="-27.009498" lon="-48.607372"><ele>5.2</ele><name>tachinhas no centro da ciclofaixa</name></wpt><wpt lat="-27.008355" lon="-48.604353"><ele>7.7</ele><name>Tachões</name></wpt><wpt lat="-27.009758" lon="-48.609122"><ele>3.3</ele><name>Termina ciclo com ciclista na contramão</name></wpt><wpt lat="-27.008553" lon="-48.605278"><ele>2.1</ele><name>Total da via (incluindo a ciclo) (cm)</name></wpt><wpt lat="-27.008537" lon="-48.605303"><ele>1.2</ele><name>Travessia de pedestre em nível (lombofaixa)</name></wpt><wpt lat="-27.009612" lon="-48.608172"><ele>4.9</ele><name>Travessia de pedestre em nível (lombofaixa)</name></wpt><wpt lat="-27.009665" lon="-48.608782"><ele>5.9</ele><name>Travessia de pedestre em nível (lombofaixa)</name></wpt><wpt lat="-27.010395" lon="-48.610443"><ele>2.6</ele><name>Travessia de pedestre em nível (lombofaixa)</name></wpt><wpt lat="-27.01044" lon="-48.611828"><ele>-0.1</ele><name>Travessia de pedestre em nível (lombofaixa)</name></wpt><wpt lat="-27.009848" lon="-48.609416"><name>Ambas: Alguns trechos sem segregadores. Automóvel consegue passar por entre estes com facilidade</name></wpt><wpt lat="-27.009699" lon="-48.608635"><name>Ausência de conexão entre ciclos.</name></wpt><trk><name>Ciclofaixa R. Emanuel R. Santos - BC</name><trkseg><trkpt lat="-27.007888" lon="-48.60419"><ele>9.8</ele></trkpt><trkpt lat="-27.008258" lon="-48.604287"><ele>9.7</ele></trkpt><trkpt lat="-27.008313" lon="-48.604335"><ele>9</ele></trkpt><trkpt lat="-27.00832" lon="-48.60435"><ele>8.4</ele></trkpt><trkpt lat="-27.008318" lon="-48.604348"><ele>8.4</ele></trkpt><trkpt lat="-27.008323" lon="-48.60434"><ele>8.3</ele></trkpt><trkpt lat="-27.008327" lon="-48.604342"><ele>8.5</ele></trkpt><trkpt lat="-27.00834" lon="-48.604347"><ele>8</ele></trkpt><trkpt lat="-27.008347" lon="-48.604343"><ele>8</ele></trkpt><trkpt lat="-27.008353" lon="-48.604345"><ele>8.1</ele></trkpt><trkpt lat="-27.008355" lon="-48.604353"><ele>7.7</ele></trkpt><trkpt lat="-27.008355" lon="-48.604353"><ele>7.7</ele></trkpt><trkpt lat="-27.008355" lon="-48.604353"><ele>7.7</ele></trkpt><trkpt lat="-27.008355" lon="-48.604353"><ele>7.7</ele></trkpt><trkpt lat="-27.008355" lon="-48.604353"><ele>7.7</ele></trkpt><trkpt lat="-27.008355" lon="-48.604353"><ele>7.7</ele></trkpt><trkpt lat="-27.008355" lon="-48.604353"><ele>7.7</ele></trkpt><trkpt lat="-27.008355" lon="-48.604353"><ele>7.7</ele></trkpt><trkpt lat="-27.008355" lon="-48.604353"><ele>7.7</ele></trkpt><trkpt lat="-27.008355" lon="-48.604353"><ele>7.7</ele></trkpt><trkpt lat="-27.008355" lon="-48.604353"><ele>7.7</ele></trkpt><trkpt lat="-27.008355" lon="-48.604353"><ele>7.7</ele></trkpt><trkpt lat="-27.008355" lon="-48.604353"><ele>7.7</ele></trkpt><trkpt lat="-27.008355" lon="-48.604353"><ele>7.7</ele></trkpt><trkpt lat="-27.008355" lon="-48.604353"><ele>7.7</ele></trkpt><trkpt lat="-27.008355" lon="-48.604353"><ele>7.7</ele></trkpt><trkpt lat="-27.008355" lon="-48.604353"><ele>7.7</ele></trkpt><trkpt lat="-27.008355" lon="-48.604353"><ele>7.7</ele></trkpt><trkpt lat="-27.008355" lon="-48.604353"><ele>7.7</ele></trkpt><trkpt lat="-27.008355" lon="-48.604353"><ele>7.7</ele></trkpt><trkpt lat="-27.008355" lon="-48.604353"><ele>7.7</ele></trkpt><trkpt lat="-27.008355" lon="-48.604353"><ele>7.7</ele></trkpt><trkpt lat="-27.008355" lon="-48.604353"><ele>7.7</ele></trkpt><trkpt lat="-27.008355" lon="-48.604353"><ele>7.7</ele></trkpt><trkpt lat="-27.008355" lon="-48.604353"><ele>7.7</ele></trkpt><trkpt lat="-27.008355" lon="-48.604353"><ele>7.7</ele></trkpt><trkpt lat="-27.008355" lon="-48.604353"><ele>7.7</ele></trkpt><trkpt lat="-27.008355" lon="-48.604353"><ele>7.7</ele></trkpt><trkpt lat="-27.008355" lon="-48.604353"><ele>7.7</ele></trkpt><trkpt lat="-27.008355" lon="-48.604353"><ele>7.7</ele></trkpt><trkpt lat="-27.008355" lon="-48.604353"><ele>7.7</ele></trkpt><trkpt lat="-27.008355" lon="-48.604353"><ele>7.7</ele></trkpt><trkpt lat="-27.008355" lon="-48.604353"><ele>7.7</ele></trkpt><trkpt lat="-27.008355" lon="-48.604353"><ele>7.7</ele></trkpt><trkpt lat="-27.008355" lon="-48.604353"><ele>7.7</ele></trkpt><trkpt lat="-27.008355" lon="-48.604353"><ele>7.7</ele></trkpt><trkpt lat="-27.008355" lon="-48.604353"><ele>7.7</ele></trkpt><trkpt lat="-27.008355" lon="-48.604353"><ele>7.7</ele></trkpt><trkpt lat="-27.008355" lon="-48.604353"><ele>7.7</ele></trkpt><trkpt lat="-27.008355" lon="-48.604353"><ele>7.7</ele></trkpt><trkpt lat="-27.008355" lon="-48.604353"><ele>7.7</ele></trkpt><trkpt lat="-27.008263" lon="-48.604358"><ele>-2.7</ele></trkpt><trkpt lat="-27.008278" lon="-48.604355"><ele>-2.1</ele></trkpt><trkpt lat="-27.008278" lon="-48.604355"><ele>-2.1</ele></trkpt><trkpt lat="-27.008278" lon="-48.604355"><ele>-2.1</ele></trkpt><trkpt lat="-27.008278" lon="-48.604355"><ele>-2.1</ele></trkpt><trkpt lat="-27.008278" lon="-48.604355"><ele>-2.1</ele></trkpt><trkpt lat="-27.008278" lon="-48.604355"><ele>-2.1</ele></trkpt><trkpt lat="-27.008278" lon="-48.604355"><ele>-2.1</ele></trkpt><trkpt lat="-27.008327" lon="-48.604333"><ele>-1.5</ele></trkpt><trkpt lat="-27.008338" lon="-48.604318"><ele>-1.7</ele></trkpt><trkpt lat="-27.008343" lon="-48.604348"><ele>-1.9</ele></trkpt><trkpt lat="-27.008347" lon="-48.604365"><ele>-2.1</ele></trkpt><trkpt lat="-27.008347" lon="-48.604365"><ele>-2.1</ele></trkpt><trkpt lat="-27.008347" lon="-48.604365"><ele>-2.1</ele></trkpt><trkpt lat="-27.008347" lon="-48.604365"><ele>-2.1</ele></trkpt><trkpt lat="-27.008347" lon="-48.604365"><ele>-2.1</ele></trkpt><trkpt lat="-27.008347" lon="-48.604365"><ele>-2.1</ele></trkpt><trkpt lat="-27.008347" lon="-48.604365"><ele>-2.1</ele></trkpt><trkpt lat="-27.008347" lon="-48.604365"><ele>-2.1</ele></trkpt><trkpt lat="-27.008347" lon="-48.604365"><ele>-2.1</ele></trkpt><trkpt lat="-27.008347" lon="-48.604365"><ele>-2.1</ele></trkpt><trkpt lat="-27.008347" lon="-48.604365"><ele>-2.1</ele></trkpt><trkpt lat="-27.008347" lon="-48.604365"><ele>-2.1</ele></trkpt><trkpt lat="-27.008347" lon="-48.604365"><ele>-2.1</ele></trkpt><trkpt lat="-27.008347" lon="-48.604365"><ele>-2.1</ele></trkpt><trkpt lat="-27.008347" lon="-48.604365"><ele>-2.1</ele></trkpt><trkpt lat="-27.008347" lon="-48.604365"><ele>-2.1</ele></trkpt><trkpt lat="-27.00838" lon="-48.60433"><ele>-2</ele></trkpt><trkpt lat="-27.00838" lon="-48.60433"><ele>-2</ele></trkpt><trkpt lat="-27.008398" lon="-48.604348"><ele>-1.5</ele></trkpt><trkpt lat="-27.008407" lon="-48.604353"><ele>-1</ele></trkpt><trkpt lat="-27.008407" lon="-48.604353"><ele>-1</ele></trkpt><trkpt lat="-27.008407" lon="-48.604353"><ele>-1</ele></trkpt><trkpt lat="-27.008407" lon="-48.604353"><ele>-1</ele></trkpt><trkpt lat="-27.008407" lon="-48.604353"><ele>-1</ele></trkpt><trkpt lat="-27.008407" lon="-48.604353"><ele>-1</ele></trkpt><trkpt lat="-27.008407" lon="-48.604353"><ele>-1</ele></trkpt><trkpt lat="-27.008407" lon="-48.604353"><ele>-1</ele></trkpt><trkpt lat="-27.008407" lon="-48.604353"><ele>-1</ele></trkpt><trkpt lat="-27.008407" lon="-48.604353"><ele>-1</ele></trkpt><trkpt lat="-27.008407" lon="-48.604353"><ele>-1</ele></trkpt><trkpt lat="-27.008407" lon="-48.604353"><ele>-1</ele></trkpt><trkpt lat="-27.008407" lon="-48.604353"><ele>-1</ele></trkpt><trkpt lat="-27.00832" lon="-48.604363"><ele>-3.8</ele></trkpt><trkpt lat="-27.00832" lon="-48.604363"><ele>-3.8</ele></trkpt><trkpt lat="-27.00832" lon="-48.604363"><ele>-3.8</ele></trkpt><trkpt lat="-27.00832" lon="-48.604363"><ele>-3.8</ele></trkpt><trkpt lat="-27.00832" lon="-48.604363"><ele>-3.8</ele></trkpt><trkpt lat="-27.00832" lon="-48.604363"><ele>-3.8</ele></trkpt><trkpt lat="-27.00832" lon="-48.604363"><ele>-3.8</ele></trkpt><trkpt lat="-27.00832" lon="-48.604363"><ele>-3.8</ele></trkpt><trkpt lat="-27.00832" lon="-48.604363"><ele>-3.8</ele></trkpt><trkpt lat="-27.00832" lon="-48.604363"><ele>-3.8</ele></trkpt><trkpt lat="-27.00832" lon="-48.604363"><ele>-3.8</ele></trkpt><trkpt lat="-27.00832" lon="-48.604363"><ele>-3.8</ele></trkpt><trkpt lat="-27.00832" lon="-48.604363"><ele>-3.8</ele></trkpt><trkpt lat="-27.00832" lon="-48.604363"><ele>-3.8</ele></trkpt><trkpt lat="-27.00832" lon="-48.604363"><ele>-3.8</ele></trkpt><trkpt lat="-27.00832" lon="-48.604363"><ele>-3.8</ele></trkpt><trkpt lat="-27.00832" lon="-48.604363"><ele>-3.8</ele></trkpt><trkpt lat="-27.00832" lon="-48.604363"><ele>-3.8</ele></trkpt><trkpt lat="-27.00832" lon="-48.604363"><ele>-3.8</ele></trkpt><trkpt lat="-27.00832" lon="-48.604363"><ele>-3.8</ele></trkpt><trkpt lat="-27.00832" lon="-48.604363"><ele>-3.8</ele></trkpt><trkpt lat="-27.00832" lon="-48.604363"><ele>-3.8</ele></trkpt><trkpt lat="-27.00832" lon="-48.604363"><ele>-3.8</ele></trkpt><trkpt lat="-27.00832" lon="-48.604363"><ele>-3.8</ele></trkpt><trkpt lat="-27.00832" lon="-48.604363"><ele>-3.8</ele></trkpt><trkpt lat="-27.008335" lon="-48.604375"><ele>-1.2</ele></trkpt><trkpt lat="-27.008333" lon="-48.604388"><ele>-1.2</ele></trkpt><trkpt lat="-27.008333" lon="-48.604388"><ele>-1.2</ele></trkpt><trkpt lat="-27.008322" lon="-48.604367"><ele>-1.2</ele></trkpt><trkpt lat="-27.008318" lon="-48.604358"><ele>-1.3</ele></trkpt><trkpt lat="-27.008318" lon="-48.604347"><ele>-1.3</ele></trkpt><trkpt lat="-27.008337" lon="-48.604333"><ele>-1.2</ele></trkpt><trkpt lat="-27.00835" lon="-48.604317"><ele>-1</ele></trkpt><trkpt lat="-27.008368" lon="-48.604308"><ele>-0.7</ele></trkpt><trkpt lat="-27.008365" lon="-48.604303"><ele>-0.3</ele></trkpt><trkpt lat="-27.008372" lon="-48.604287"><ele>0</ele></trkpt><trkpt lat="-27.008353" lon="-48.604277"><ele>-0.2</ele></trkpt><trkpt lat="-27.008353" lon="-48.60429"><ele>-0.2</ele></trkpt><trkpt lat="-27.008352" lon="-48.604293"><ele>0.9</ele></trkpt><trkpt lat="-27.008357" lon="-48.604293"><ele>2.1</ele></trkpt><trkpt lat="-27.008357" lon="-48.604307"><ele>2.6</ele></trkpt><trkpt lat="-27.008328" lon="-48.60431"><ele>0.8</ele></trkpt><trkpt lat="-27.008277" lon="-48.604282"><ele>0.7</ele></trkpt><trkpt lat="-27.008277" lon="-48.604305"><ele>0.5</ele></trkpt><trkpt lat="-27.008275" lon="-48.604337"><ele>0.1</ele></trkpt><trkpt lat="-27.008292" lon="-48.60436"><ele>0</ele></trkpt><trkpt lat="-27.008305" lon="-48.6044"><ele>0</ele></trkpt><trkpt lat="-27.008288" lon="-48.60438"><ele>1.4</ele></trkpt><trkpt lat="-27.008283" lon="-48.604478"><ele>3.2</ele></trkpt><trkpt lat="-27.008302" lon="-48.60457"><ele>3.8</ele></trkpt><trkpt lat="-27.008348" lon="-48.604693"><ele>4.7</ele></trkpt><trkpt lat="-27.008407" lon="-48.604915"><ele>5.7</ele></trkpt><trkpt lat="-27.008438" lon="-48.605097"><ele>7.2</ele></trkpt><trkpt lat="-27.008462" lon="-48.605197"><ele>5</ele></trkpt><trkpt lat="-27.008482" lon="-48.605225"><ele>3.8</ele></trkpt><trkpt lat="-27.008485" lon="-48.605227"><ele>3.7</ele></trkpt><trkpt lat="-27.008485" lon="-48.605227"><ele>3.7</ele></trkpt><trkpt lat="-27.008485" lon="-48.605227"><ele>3.7</ele></trkpt><trkpt lat="-27.008485" lon="-48.605227"><ele>3.7</ele></trkpt><trkpt lat="-27.008485" lon="-48.605227"><ele>3.7</ele></trkpt><trkpt lat="-27.008485" lon="-48.605227"><ele>3.7</ele></trkpt><trkpt lat="-27.008485" lon="-48.605227"><ele>3.7</ele></trkpt><trkpt lat="-27.008537" lon="-48.605222"><ele>3.7</ele></trkpt><trkpt lat="-27.008525" lon="-48.60523"><ele>2.7</ele></trkpt><trkpt lat="-27.008525" lon="-48.60523"><ele>2.7</ele></trkpt><trkpt lat="-27.008517" lon="-48.605275"><ele>2.1</ele></trkpt><trkpt lat="-27.008533" lon="-48.605292"><ele>1.4</ele></trkpt><trkpt lat="-27.008537" lon="-48.605303"><ele>1.2</ele></trkpt><trkpt lat="-27.008563" lon="-48.605343"><ele>0.6</ele></trkpt><trkpt lat="-27.008582" lon="-48.605338"><ele>0</ele></trkpt><trkpt lat="-27.008587" lon="-48.605315"><ele>0.2</ele></trkpt><trkpt lat="-27.008567" lon="-48.605262"><ele>0.1</ele></trkpt><trkpt lat="-27.008545" lon="-48.605245"><ele>-0.3</ele></trkpt><trkpt lat="-27.008518" lon="-48.605237"><ele>-0.9</ele></trkpt><trkpt lat="-27.008498" lon="-48.60526"><ele>-0.8</ele></trkpt><trkpt lat="-27.00851" lon="-48.605267"><ele>0.1</ele></trkpt><trkpt lat="-27.00851" lon="-48.605268"><ele>0</ele></trkpt><trkpt lat="-27.008507" lon="-48.605282"><ele>0.1</ele></trkpt><trkpt lat="-27.008503" lon="-48.605293"><ele>0.1</ele></trkpt><trkpt lat="-27.00853" lon="-48.605268"><ele>0.5</ele></trkpt><trkpt lat="-27.008548" lon="-48.605268"><ele>1.1</ele></trkpt><trkpt lat="-27.00858" lon="-48.60525"><ele>1</ele></trkpt><trkpt lat="-27.008602" lon="-48.605237"><ele>1.1</ele></trkpt><trkpt lat="-27.008622" lon="-48.605215"><ele>1.1</ele></trkpt><trkpt lat="-27.008625" lon="-48.605205"><ele>1.1</ele></trkpt><trkpt lat="-27.008618" lon="-48.605193"><ele>3.3</ele></trkpt><trkpt lat="-27.008618" lon="-48.605192"><ele>3.8</ele></trkpt><trkpt lat="-27.008618" lon="-48.605192"><ele>3.8</ele></trkpt><trkpt lat="-27.008618" lon="-48.605192"><ele>3.8</ele></trkpt><trkpt lat="-27.008582" lon="-48.605237"><ele>4</ele></trkpt><trkpt lat="-27.008565" lon="-48.605272"><ele>3.8</ele></trkpt><trkpt lat="-27.008562" lon="-48.605282"><ele>2.8</ele></trkpt><trkpt lat="-27.008553" lon="-48.605278"><ele>2.1</ele></trkpt><trkpt lat="-27.008553" lon="-48.605278"><ele>2.1</ele></trkpt><trkpt lat="-27.008552" lon="-48.605277"><ele>1.9</ele></trkpt><trkpt lat="-27.008548" lon="-48.605277"><ele>1.7</ele></trkpt><trkpt lat="-27.008548" lon="-48.605277"><ele>1.7</ele></trkpt><trkpt lat="-27.008548" lon="-48.605277"><ele>1.7</ele></trkpt><trkpt lat="-27.008548" lon="-48.605277"><ele>1.7</ele></trkpt><trkpt lat="-27.008548" lon="-48.605277"><ele>1.7</ele></trkpt><trkpt lat="-27.008548" lon="-48.605277"><ele>1.7</ele></trkpt><trkpt lat="-27.008548" lon="-48.605277"><ele>1.7</ele></trkpt><trkpt lat="-27.008548" lon="-48.605277"><ele>1.7</ele></trkpt><trkpt lat="-27.008548" lon="-48.605277"><ele>1.7</ele></trkpt><trkpt lat="-27.008548" lon="-48.605277"><ele>1.7</ele></trkpt><trkpt lat="-27.008548" lon="-48.605277"><ele>1.7</ele></trkpt><trkpt lat="-27.008548" lon="-48.605277"><ele>1.7</ele></trkpt><trkpt lat="-27.008548" lon="-48.605277"><ele>1.7</ele></trkpt><trkpt lat="-27.00857" lon="-48.605232"><ele>-0.2</ele></trkpt><trkpt lat="-27.00857" lon="-48.605233"><ele>-0.7</ele></trkpt><trkpt lat="-27.008553" lon="-48.605232"><ele>-1.6</ele></trkpt><trkpt lat="-27.008555" lon="-48.60523"><ele>-1.9</ele></trkpt><trkpt lat="-27.008555" lon="-48.60523"><ele>-1.9</ele></trkpt><trkpt lat="-27.008555" lon="-48.60523"><ele>-1.9</ele></trkpt><trkpt lat="-27.008555" lon="-48.60523"><ele>-1.9</ele></trkpt><trkpt lat="-27.008555" lon="-48.60523"><ele>-1.9</ele></trkpt><trkpt lat="-27.008555" lon="-48.60523"><ele>-1.9</ele></trkpt><trkpt lat="-27.008505" lon="-48.605252"><ele>-1</ele></trkpt><trkpt lat="-27.00847" lon="-48.605273"><ele>-1.4</ele></trkpt><trkpt lat="-27.00847" lon="-48.605275"><ele>-1.8</ele></trkpt><trkpt lat="-27.00848" lon="-48.605283"><ele>-1.9</ele></trkpt><trkpt lat="-27.008533" lon="-48.605392"><ele>-1.8</ele></trkpt><trkpt lat="-27.008572" lon="-48.605547"><ele>-1.2</ele></trkpt><trkpt lat="-27.008628" lon="-48.605678"><ele>-0.3</ele></trkpt><trkpt lat="-27.008668" lon="-48.605743"><ele>-0.4</ele></trkpt><trkpt lat="-27.008678" lon="-48.605747"><ele>-0.4</ele></trkpt><trkpt lat="-27.008693" lon="-48.605765"><ele>-0.6</ele></trkpt><trkpt lat="-27.008708" lon="-48.605767"><ele>-0.4</ele></trkpt><trkpt lat="-27.008708" lon="-48.605767"><ele>-0.4</ele></trkpt><trkpt lat="-27.008727" lon="-48.605782"><ele>-1.5</ele></trkpt><trkpt lat="-27.008725" lon="-48.605783"><ele>-1.6</ele></trkpt><trkpt lat="-27.008725" lon="-48.605783"><ele>-1.6</ele></trkpt><trkpt lat="-27.008725" lon="-48.605783"><ele>-1.6</ele></trkpt><trkpt lat="-27.008725" lon="-48.605783"><ele>-1.6</ele></trkpt><trkpt lat="-27.008725" lon="-48.605783"><ele>-1.6</ele></trkpt><trkpt lat="-27.008725" lon="-48.605783"><ele>-1.6</ele></trkpt><trkpt lat="-27.008725" lon="-48.605783"><ele>-1.6</ele></trkpt><trkpt lat="-27.008725" lon="-48.605783"><ele>-1.6</ele></trkpt><trkpt lat="-27.008725" lon="-48.605783"><ele>-1.6</ele></trkpt><trkpt lat="-27.008757" lon="-48.605808"><ele>-1.9</ele></trkpt><trkpt lat="-27.00878" lon="-48.605885"><ele>-1.8</ele></trkpt><trkpt lat="-27.008852" lon="-48.60608"><ele>-0.2</ele></trkpt><trkpt lat="-27.008888" lon="-48.606188"><ele>0.9</ele></trkpt><trkpt lat="-27.008942" lon="-48.606305"><ele>2.1</ele></trkpt><trkpt lat="-27.009037" lon="-48.606535"><ele>4.8</ele></trkpt><trkpt lat="-27.009083" lon="-48.606645"><ele>5.8</ele></trkpt><trkpt lat="-27.009145" lon="-48.606762"><ele>6.5</ele></trkpt><trkpt lat="-27.009253" lon="-48.606922"><ele>8.7</ele></trkpt><trkpt lat="-27.009265" lon="-48.606967"><ele>10</ele></trkpt><trkpt lat="-27.009247" lon="-48.606952"><ele>11.8</ele></trkpt><trkpt lat="-27.009235" lon="-48.606982"><ele>12.6</ele></trkpt><trkpt lat="-27.009283" lon="-48.606932"><ele>12.5</ele></trkpt><trkpt lat="-27.009297" lon="-48.606925"><ele>11.3</ele></trkpt><trkpt lat="-27.009277" lon="-48.606898"><ele>9.4</ele></trkpt><trkpt lat="-27.009268" lon="-48.606905"><ele>9.6</ele></trkpt><trkpt lat="-27.009282" lon="-48.60695"><ele>8.9</ele></trkpt><trkpt lat="-27.009283" lon="-48.60703"><ele>7.3</ele></trkpt><trkpt lat="-27.009288" lon="-48.607065"><ele>6.7</ele></trkpt><trkpt lat="-27.009305" lon="-48.607088"><ele>6.2</ele></trkpt><trkpt lat="-27.009323" lon="-48.607133"><ele>5.1</ele></trkpt><trkpt lat="-27.009372" lon="-48.607158"><ele>4</ele></trkpt><trkpt lat="-27.00941" lon="-48.607175"><ele>3.2</ele></trkpt><trkpt lat="-27.009418" lon="-48.607202"><ele>2.8</ele></trkpt><trkpt lat="-27.009432" lon="-48.60722"><ele>2.4</ele></trkpt><trkpt lat="-27.009455" lon="-48.607172"><ele>2.1</ele></trkpt><trkpt lat="-27.009452" lon="-48.60717"><ele>2.7</ele></trkpt><trkpt lat="-27.009442" lon="-48.607168"><ele>2.8</ele></trkpt><trkpt lat="-27.009442" lon="-48.607168"><ele>2.8</ele></trkpt><trkpt lat="-27.009442" lon="-48.607168"><ele>2.8</ele></trkpt><trkpt lat="-27.009442" lon="-48.607168"><ele>2.8</ele></trkpt><trkpt lat="-27.009442" lon="-48.607168"><ele>2.8</ele></trkpt><trkpt lat="-27.009442" lon="-48.607168"><ele>2.8</ele></trkpt><trkpt lat="-27.009442" lon="-48.607168"><ele>2.8</ele></trkpt><trkpt lat="-27.009442" lon="-48.607168"><ele>2.8</ele></trkpt><trkpt lat="-27.009442" lon="-48.607168"><ele>2.8</ele></trkpt><trkpt lat="-27.009442" lon="-48.607168"><ele>2.8</ele></trkpt><trkpt lat="-27.009442" lon="-48.607168"><ele>2.8</ele></trkpt><trkpt lat="-27.009442" lon="-48.607168"><ele>2.8</ele></trkpt><trkpt lat="-27.009442" lon="-48.607168"><ele>2.8</ele></trkpt><trkpt lat="-27.009442" lon="-48.607168"><ele>2.8</ele></trkpt><trkpt lat="-27.009442" lon="-48.607168"><ele>2.8</ele></trkpt><trkpt lat="-27.009442" lon="-48.607168"><ele>2.8</ele></trkpt><trkpt lat="-27.009442" lon="-48.607168"><ele>2.8</ele></trkpt><trkpt lat="-27.009442" lon="-48.607168"><ele>2.8</ele></trkpt><trkpt lat="-27.009442" lon="-48.607168"><ele>2.8</ele></trkpt><trkpt lat="-27.009442" lon="-48.607168"><ele>2.8</ele></trkpt><trkpt lat="-27.009442" lon="-48.607168"><ele>2.8</ele></trkpt><trkpt lat="-27.009442" lon="-48.607168"><ele>2.8</ele></trkpt><trkpt lat="-27.009442" lon="-48.607168"><ele>2.8</ele></trkpt><trkpt lat="-27.009442" lon="-48.607168"><ele>2.8</ele></trkpt><trkpt lat="-27.00939" lon="-48.607135"><ele>1.1</ele></trkpt><trkpt lat="-27.00938" lon="-48.607113"><ele>1.2</ele></trkpt><trkpt lat="-27.009383" lon="-48.607113"><ele>1.7</ele></trkpt><trkpt lat="-27.009383" lon="-48.607083"><ele>1.2</ele></trkpt><trkpt lat="-27.00936" lon="-48.607047"><ele>2</ele></trkpt><trkpt lat="-27.00932" lon="-48.606973"><ele>3</ele></trkpt><trkpt lat="-27.009298" lon="-48.606948"><ele>3.4</ele></trkpt><trkpt lat="-27.009295" lon="-48.606942"><ele>3.5</ele></trkpt><trkpt lat="-27.009293" lon="-48.606937"><ele>3.9</ele></trkpt><trkpt lat="-27.009292" lon="-48.606933"><ele>3.5</ele></trkpt><trkpt lat="-27.009297" lon="-48.606928"><ele>3.2</ele></trkpt><trkpt lat="-27.009292" lon="-48.606965"><ele>2.6</ele></trkpt><trkpt lat="-27.009297" lon="-48.60698"><ele>2.2</ele></trkpt><trkpt lat="-27.00931" lon="-48.606995"><ele>1.5</ele></trkpt><trkpt lat="-27.009337" lon="-48.607035"><ele>1</ele></trkpt><trkpt lat="-27.009383" lon="-48.607087"><ele>1</ele></trkpt><trkpt lat="-27.009427" lon="-48.607172"><ele>1.3</ele></trkpt><trkpt lat="-27.009463" lon="-48.607307"><ele>1.9</ele></trkpt><trkpt lat="-27.009522" lon="-48.60744"><ele>3.7</ele></trkpt><trkpt lat="-27.009538" lon="-48.607478"><ele>5.1</ele></trkpt><trkpt lat="-27.009533" lon="-48.607548"><ele>7.8</ele></trkpt><trkpt lat="-27.009553" lon="-48.607573"><ele>9.3</ele></trkpt><trkpt lat="-27.009558" lon="-48.607575"><ele>8</ele></trkpt><trkpt lat="-27.009552" lon="-48.607593"><ele>6.6</ele></trkpt><trkpt lat="-27.009552" lon="-48.607593"><ele>6.6</ele></trkpt><trkpt lat="-27.009553" lon="-48.607575"><ele>5.5</ele></trkpt><trkpt lat="-27.009543" lon="-48.607537"><ele>6.2</ele></trkpt><trkpt lat="-27.009525" lon="-48.607453"><ele>7</ele></trkpt><trkpt lat="-27.009513" lon="-48.607417"><ele>7.6</ele></trkpt><trkpt lat="-27.009497" lon="-48.60738"><ele>7.4</ele></trkpt><trkpt lat="-27.009487" lon="-48.607368"><ele>7.4</ele></trkpt><trkpt lat="-27.009487" lon="-48.607373"><ele>6.9</ele></trkpt><trkpt lat="-27.009498" lon="-48.60737"><ele>5.7</ele></trkpt><trkpt lat="-27.009498" lon="-48.607372"><ele>5.2</ele></trkpt><trkpt lat="-27.009498" lon="-48.607372"><ele>5.2</ele></trkpt><trkpt lat="-27.009498" lon="-48.607372"><ele>5.2</ele></trkpt><trkpt lat="-27.009498" lon="-48.607372"><ele>5.2</ele></trkpt><trkpt lat="-27.009498" lon="-48.607372"><ele>5.2</ele></trkpt><trkpt lat="-27.009498" lon="-48.607372"><ele>5.2</ele></trkpt><trkpt lat="-27.009477" lon="-48.60732"><ele>4.1</ele></trkpt><trkpt lat="-27.009462" lon="-48.607308"><ele>4.2</ele></trkpt><trkpt lat="-27.009457" lon="-48.607298"><ele>4.1</ele></trkpt><trkpt lat="-27.009462" lon="-48.607298"><ele>4</ele></trkpt><trkpt lat="-27.009462" lon="-48.607298"><ele>4</ele></trkpt><trkpt lat="-27.009462" lon="-48.607298"><ele>4</ele></trkpt><trkpt lat="-27.009457" lon="-48.607273"><ele>3.6</ele></trkpt><trkpt lat="-27.009462" lon="-48.607262"><ele>3.1</ele></trkpt><trkpt lat="-27.009458" lon="-48.607275"><ele>2.5</ele></trkpt><trkpt lat="-27.009465" lon="-48.607282"><ele>2.3</ele></trkpt><trkpt lat="-27.009497" lon="-48.607347"><ele>1.2</ele></trkpt><trkpt lat="-27.009503" lon="-48.607387"><ele>1.1</ele></trkpt><trkpt lat="-27.009515" lon="-48.607475"><ele>1.1</ele></trkpt><trkpt lat="-27.009525" lon="-48.60751"><ele>1.4</ele></trkpt><trkpt lat="-27.009543" lon="-48.607533"><ele>2.3</ele></trkpt><trkpt lat="-27.009545" lon="-48.607543"><ele>1.8</ele></trkpt><trkpt lat="-27.009548" lon="-48.60757"><ele>2</ele></trkpt><trkpt lat="-27.009553" lon="-48.607578"><ele>2.1</ele></trkpt><trkpt lat="-27.009555" lon="-48.607582"><ele>2.2</ele></trkpt><trkpt lat="-27.009552" lon="-48.607587"><ele>1.9</ele></trkpt><trkpt lat="-27.009553" lon="-48.607588"><ele>1.9</ele></trkpt><trkpt lat="-27.009553" lon="-48.607588"><ele>1.9</ele></trkpt><trkpt lat="-27.009553" lon="-48.607588"><ele>1.9</ele></trkpt><trkpt lat="-27.00957" lon="-48.607597"><ele>1.8</ele></trkpt><trkpt lat="-27.00957" lon="-48.607598"><ele>1.7</ele></trkpt><trkpt lat="-27.009582" lon="-48.607612"><ele>1.1</ele></trkpt><trkpt lat="-27.009568" lon="-48.607618"><ele>1.1</ele></trkpt><trkpt lat="-27.009568" lon="-48.607618"><ele>1.1</ele></trkpt><trkpt lat="-27.009563" lon="-48.607618"><ele>1.1</ele></trkpt><trkpt lat="-27.009553" lon="-48.607615"><ele>0.8</ele></trkpt><trkpt lat="-27.009553" lon="-48.607615"><ele>0.8</ele></trkpt><trkpt lat="-27.009553" lon="-48.607615"><ele>0.8</ele></trkpt><trkpt lat="-27.009553" lon="-48.607615"><ele>0.8</ele></trkpt><trkpt lat="-27.009553" lon="-48.607615"><ele>0.8</ele></trkpt><trkpt lat="-27.009553" lon="-48.607615"><ele>0.8</ele></trkpt><trkpt lat="-27.009553" lon="-48.607615"><ele>0.8</ele></trkpt><trkpt lat="-27.009553" lon="-48.607615"><ele>0.8</ele></trkpt><trkpt lat="-27.009553" lon="-48.607615"><ele>0.8</ele></trkpt><trkpt lat="-27.009553" lon="-48.607615"><ele>0.8</ele></trkpt><trkpt lat="-27.009555" lon="-48.6076"><ele>0.1</ele></trkpt><trkpt lat="-27.00958" lon="-48.607622"><ele>0.3</ele></trkpt><trkpt lat="-27.009567" lon="-48.607633"><ele>0.1</ele></trkpt><trkpt lat="-27.009567" lon="-48.60764"><ele>0</ele></trkpt><trkpt lat="-27.009567" lon="-48.60764"><ele>0</ele></trkpt><trkpt lat="-27.009567" lon="-48.60764"><ele>0</ele></trkpt><trkpt lat="-27.009567" lon="-48.60764"><ele>0</ele></trkpt><trkpt lat="-27.009567" lon="-48.60764"><ele>0</ele></trkpt><trkpt lat="-27.009567" lon="-48.60764"><ele>0</ele></trkpt><trkpt lat="-27.009567" lon="-48.60764"><ele>0</ele></trkpt><trkpt lat="-27.009563" lon="-48.60764"><ele>1.3</ele></trkpt><trkpt lat="-27.009563" lon="-48.607638"><ele>1.4</ele></trkpt><trkpt lat="-27.009555" lon="-48.607637"><ele>1.6</ele></trkpt><trkpt lat="-27.009548" lon="-48.607637"><ele>1.6</ele></trkpt><trkpt lat="-27.009532" lon="-48.607598"><ele>1.3</ele></trkpt><trkpt lat="-27.009528" lon="-48.607583"><ele>1.4</ele></trkpt><trkpt lat="-27.009545" lon="-48.607592"><ele>1.4</ele></trkpt><trkpt lat="-27.009547" lon="-48.60761"><ele>1.5</ele></trkpt><trkpt lat="-27.009547" lon="-48.607697"><ele>1.7</ele></trkpt><trkpt lat="-27.009558" lon="-48.607755"><ele>1.8</ele></trkpt><trkpt lat="-27.009572" lon="-48.607913"><ele>2.3</ele></trkpt><trkpt lat="-27.009582" lon="-48.608005"><ele>3.2</ele></trkpt><trkpt lat="-27.009595" lon="-48.60809"><ele>4.7</ele></trkpt><trkpt lat="-27.00961" lon="-48.608165"><ele>6.4</ele></trkpt><trkpt lat="-27.009612" lon="-48.608172"><ele>5.4</ele></trkpt><trkpt lat="-27.009612" lon="-48.608172"><ele>4.9</ele></trkpt><trkpt lat="-27.009613" lon="-48.60817"><ele>4.8</ele></trkpt><trkpt lat="-27.009613" lon="-48.60817"><ele>4.9</ele></trkpt><trkpt lat="-27.009613" lon="-48.60817"><ele>4.9</ele></trkpt><trkpt lat="-27.009598" lon="-48.608173"><ele>4.1</ele></trkpt><trkpt lat="-27.009597" lon="-48.608167"><ele>3</ele></trkpt><trkpt lat="-27.009592" lon="-48.608162"><ele>2.9</ele></trkpt><trkpt lat="-27.009592" lon="-48.608162"><ele>2.9</ele></trkpt><trkpt lat="-27.009592" lon="-48.608162"><ele>2.9</ele></trkpt><trkpt lat="-27.009592" lon="-48.608162"><ele>2.9</ele></trkpt><trkpt lat="-27.009592" lon="-48.608162"><ele>2.9</ele></trkpt><trkpt lat="-27.009592" lon="-48.608162"><ele>2.9</ele></trkpt><trkpt lat="-27.009618" lon="-48.608187"><ele>4.1</ele></trkpt><trkpt lat="-27.009622" lon="-48.608192"><ele>4.9</ele></trkpt><trkpt lat="-27.009615" lon="-48.608197"><ele>5.6</ele></trkpt><trkpt lat="-27.009627" lon="-48.608185"><ele>6</ele></trkpt><trkpt lat="-27.009622" lon="-48.60819"><ele>6.5</ele></trkpt><trkpt lat="-27.009622" lon="-48.60819"><ele>6.5</ele></trkpt><trkpt lat="-27.009622" lon="-48.60819"><ele>6.5</ele></trkpt><trkpt lat="-27.009622" lon="-48.60819"><ele>6.5</ele></trkpt><trkpt lat="-27.009622" lon="-48.60819"><ele>6.5</ele></trkpt><trkpt lat="-27.009622" lon="-48.60819"><ele>6.5</ele></trkpt><trkpt lat="-27.009622" lon="-48.60819"><ele>6.5</ele></trkpt><trkpt lat="-27.009622" lon="-48.60819"><ele>6.5</ele></trkpt><trkpt lat="-27.009622" lon="-48.60819"><ele>6.5</ele></trkpt><trkpt lat="-27.009672" lon="-48.608228"><ele>5.5</ele></trkpt><trkpt lat="-27.00966" lon="-48.608235"><ele>5.7</ele></trkpt><trkpt lat="-27.009632" lon="-48.608208"><ele>5.5</ele></trkpt><trkpt lat="-27.009625" lon="-48.608202"><ele>5.6</ele></trkpt><trkpt lat="-27.009625" lon="-48.608202"><ele>5.6</ele></trkpt><trkpt lat="-27.009665" lon="-48.60824"><ele>5.6</ele></trkpt><trkpt lat="-27.009665" lon="-48.60824"><ele>5.6</ele></trkpt><trkpt lat="-27.009665" lon="-48.60824"><ele>5.6</ele></trkpt><trkpt lat="-27.009665" lon="-48.60824"><ele>5.6</ele></trkpt><trkpt lat="-27.009695" lon="-48.608207"><ele>5.4</ele></trkpt><trkpt lat="-27.009685" lon="-48.608232"><ele>5.4</ele></trkpt><trkpt lat="-27.009685" lon="-48.608232"><ele>5.4</ele></trkpt><trkpt lat="-27.009685" lon="-48.608232"><ele>5.4</ele></trkpt><trkpt lat="-27.009605" lon="-48.608342"><ele>5.3</ele></trkpt><trkpt lat="-27.009605" lon="-48.608423"><ele>5.1</ele></trkpt><trkpt lat="-27.009623" lon="-48.608595"><ele>5.5</ele></trkpt><trkpt lat="-27.009642" lon="-48.608743"><ele>6.1</ele></trkpt><trkpt lat="-27.009653" lon="-48.608762"><ele>6.8</ele></trkpt><trkpt lat="-27.009665" lon="-48.608782"><ele>5.9</ele></trkpt><trkpt lat="-27.00967" lon="-48.60879"><ele>5.6</ele></trkpt><trkpt lat="-27.009677" lon="-48.608798"><ele>5.4</ele></trkpt><trkpt lat="-27.009677" lon="-48.608798"><ele>5.4</ele></trkpt><trkpt lat="-27.009677" lon="-48.608798"><ele>5.4</ele></trkpt><trkpt lat="-27.009677" lon="-48.608798"><ele>5.4</ele></trkpt><trkpt lat="-27.009677" lon="-48.608798"><ele>5.4</ele></trkpt><trkpt lat="-27.009713" lon="-48.608933"><ele>1.4</ele></trkpt><trkpt lat="-27.009742" lon="-48.609052"><ele>0.7</ele></trkpt><trkpt lat="-27.009755" lon="-48.609098"><ele>1.8</ele></trkpt><trkpt lat="-27.009773" lon="-48.609103"><ele>3.1</ele></trkpt><trkpt lat="-27.009773" lon="-48.609113"><ele>4</ele></trkpt><trkpt lat="-27.009773" lon="-48.609115"><ele>4.1</ele></trkpt><trkpt lat="-27.009773" lon="-48.609115"><ele>4.1</ele></trkpt><trkpt lat="-27.009773" lon="-48.609115"><ele>4.1</ele></trkpt><trkpt lat="-27.009758" lon="-48.609122"><ele>3.3</ele></trkpt><trkpt lat="-27.009758" lon="-48.609122"><ele>3.3</ele></trkpt><trkpt lat="-27.009758" lon="-48.609122"><ele>3.3</ele></trkpt><trkpt lat="-27.009758" lon="-48.609122"><ele>3.3</ele></trkpt><trkpt lat="-27.009758" lon="-48.609122"><ele>3.3</ele></trkpt><trkpt lat="-27.009758" lon="-48.609122"><ele>3.3</ele></trkpt><trkpt lat="-27.009758" lon="-48.609122"><ele>3.3</ele></trkpt><trkpt lat="-27.009757" lon="-48.609137"><ele>5.3</ele></trkpt><trkpt lat="-27.009765" lon="-48.60914"><ele>5.6</ele></trkpt><trkpt lat="-27.009812" lon="-48.609108"><ele>5</ele></trkpt><trkpt lat="-27.009845" lon="-48.609108"><ele>5.3</ele></trkpt><trkpt lat="-27.009852" lon="-48.609118"><ele>5.8</ele></trkpt><trkpt lat="-27.009858" lon="-48.609118"><ele>5.8</ele></trkpt><trkpt lat="-27.009858" lon="-48.609118"><ele>5.8</ele></trkpt><trkpt lat="-27.009858" lon="-48.609118"><ele>5.8</ele></trkpt><trkpt lat="-27.009858" lon="-48.609118"><ele>5.8</ele></trkpt><trkpt lat="-27.009858" lon="-48.609118"><ele>5.8</ele></trkpt><trkpt lat="-27.009845" lon="-48.609105"><ele>4.7</ele></trkpt><trkpt lat="-27.009825" lon="-48.609107"><ele>4.6</ele></trkpt><trkpt lat="-27.009812" lon="-48.609102"><ele>4.7</ele></trkpt><trkpt lat="-27.009787" lon="-48.609107"><ele>4.7</ele></trkpt><trkpt lat="-27.009765" lon="-48.609148"><ele>4.4</ele></trkpt><trkpt lat="-27.00976" lon="-48.609152"><ele>4.4</ele></trkpt><trkpt lat="-27.00976" lon="-48.609152"><ele>4.4</ele></trkpt><trkpt lat="-27.00976" lon="-48.609152"><ele>4.4</ele></trkpt><trkpt lat="-27.00976" lon="-48.609152"><ele>4.4</ele></trkpt><trkpt lat="-27.00976" lon="-48.609152"><ele>4.4</ele></trkpt><trkpt lat="-27.00976" lon="-48.609152"><ele>4.4</ele></trkpt><trkpt lat="-27.00976" lon="-48.609152"><ele>4.4</ele></trkpt><trkpt lat="-27.00976" lon="-48.609152"><ele>4.4</ele></trkpt><trkpt lat="-27.00976" lon="-48.609152"><ele>4.4</ele></trkpt><trkpt lat="-27.00976" lon="-48.609152"><ele>4.4</ele></trkpt><trkpt lat="-27.00976" lon="-48.609152"><ele>4.4</ele></trkpt><trkpt lat="-27.00976" lon="-48.609152"><ele>4.4</ele></trkpt><trkpt lat="-27.00976" lon="-48.609152"><ele>4.4</ele></trkpt><trkpt lat="-27.00976" lon="-48.609152"><ele>4.4</ele></trkpt><trkpt lat="-27.00976" lon="-48.609152"><ele>4.4</ele></trkpt><trkpt lat="-27.00976" lon="-48.609152"><ele>4.4</ele></trkpt><trkpt lat="-27.00976" lon="-48.609152"><ele>4.4</ele></trkpt><trkpt lat="-27.00976" lon="-48.609152"><ele>4.4</ele></trkpt><trkpt lat="-27.00976" lon="-48.609152"><ele>4.4</ele></trkpt><trkpt lat="-27.00976" lon="-48.609152"><ele>4.4</ele></trkpt><trkpt lat="-27.00976" lon="-48.609152"><ele>4.4</ele></trkpt><trkpt lat="-27.00976" lon="-48.609152"><ele>4.4</ele></trkpt><trkpt lat="-27.00976" lon="-48.609152"><ele>4.4</ele></trkpt><trkpt lat="-27.00976" lon="-48.609152"><ele>4.4</ele></trkpt><trkpt lat="-27.009748" lon="-48.609108"><ele>1.9</ele></trkpt><trkpt lat="-27.00971" lon="-48.609032"><ele>2.2</ele></trkpt><trkpt lat="-27.009707" lon="-48.608938"><ele>2.6</ele></trkpt><trkpt lat="-27.009707" lon="-48.608917"><ele>3.5</ele></trkpt><trkpt lat="-27.009695" lon="-48.608822"><ele>3.6</ele></trkpt><trkpt lat="-27.009692" lon="-48.608747"><ele>3.1</ele></trkpt><trkpt lat="-27.009688" lon="-48.608683"><ele>3.7</ele></trkpt><trkpt lat="-27.00969" lon="-48.608633"><ele>4.1</ele></trkpt><trkpt lat="-27.00968" lon="-48.608597"><ele>4.6</ele></trkpt><trkpt lat="-27.009665" lon="-48.608588"><ele>4.9</ele></trkpt><trkpt lat="-27.009652" lon="-48.60858"><ele>6.5</ele></trkpt><trkpt lat="-27.009653" lon="-48.60858"><ele>6.7</ele></trkpt><trkpt lat="-27.009653" lon="-48.60858"><ele>6.7</ele></trkpt><trkpt lat="-27.009653" lon="-48.60858"><ele>6.7</ele></trkpt><trkpt lat="-27.009653" lon="-48.60858"><ele>6.7</ele></trkpt><trkpt lat="-27.009653" lon="-48.60858"><ele>6.7</ele></trkpt><trkpt lat="-27.009653" lon="-48.60858"><ele>6.7</ele></trkpt><trkpt lat="-27.009653" lon="-48.60858"><ele>6.7</ele></trkpt><trkpt lat="-27.009653" lon="-48.60858"><ele>6.7</ele></trkpt><trkpt lat="-27.009653" lon="-48.60858"><ele>6.7</ele></trkpt><trkpt lat="-27.009653" lon="-48.60858"><ele>6.7</ele></trkpt><trkpt lat="-27.009653" lon="-48.60858"><ele>6.7</ele></trkpt><trkpt lat="-27.009653" lon="-48.60858"><ele>6.7</ele></trkpt><trkpt lat="-27.009653" lon="-48.60858"><ele>6.7</ele></trkpt><trkpt lat="-27.009653" lon="-48.60858"><ele>6.7</ele></trkpt><trkpt lat="-27.009653" lon="-48.60858"><ele>6.7</ele></trkpt><trkpt lat="-27.009653" lon="-48.608572"><ele>9.6</ele></trkpt><trkpt lat="-27.009655" lon="-48.60858"><ele>9</ele></trkpt><trkpt lat="-27.009652" lon="-48.608577"><ele>8.9</ele></trkpt><trkpt lat="-27.009652" lon="-48.608577"><ele>8.9</ele></trkpt><trkpt lat="-27.009652" lon="-48.608577"><ele>8.9</ele></trkpt><trkpt lat="-27.009652" lon="-48.608577"><ele>8.9</ele></trkpt><trkpt lat="-27.009652" lon="-48.608577"><ele>8.9</ele></trkpt><trkpt lat="-27.009652" lon="-48.608577"><ele>8.9</ele></trkpt><trkpt lat="-27.009658" lon="-48.608578"><ele>7.3</ele></trkpt><trkpt lat="-27.009655" lon="-48.608572"><ele>7.2</ele></trkpt><trkpt lat="-27.009652" lon="-48.608583"><ele>6.9</ele></trkpt><trkpt lat="-27.009652" lon="-48.608583"><ele>6.9</ele></trkpt><trkpt lat="-27.009652" lon="-48.608583"><ele>6.9</ele></trkpt><trkpt lat="-27.009663" lon="-48.608588"><ele>7.1</ele></trkpt><trkpt lat="-27.009665" lon="-48.608622"><ele>7.1</ele></trkpt><trkpt lat="-27.009663" lon="-48.608688"><ele>6.7</ele></trkpt><trkpt lat="-27.009645" lon="-48.608863"><ele>6.3</ele></trkpt><trkpt lat="-27.009685" lon="-48.609073"><ele>7.4</ele></trkpt><trkpt lat="-27.009725" lon="-48.60919"><ele>8.6</ele></trkpt><trkpt lat="-27.00978" lon="-48.609312"><ele>10.4</ele></trkpt><trkpt lat="-27.009903" lon="-48.609555"><ele>10.8</ele></trkpt><trkpt lat="-27.009988" lon="-48.609655"><ele>11.3</ele></trkpt><trkpt lat="-27.010117" lon="-48.609813"><ele>10.8</ele></trkpt><trkpt lat="-27.010133" lon="-48.609853"><ele>10.9</ele></trkpt><trkpt lat="-27.010135" lon="-48.609882"><ele>9.3</ele></trkpt><trkpt lat="-27.010138" lon="-48.609883"><ele>8.5</ele></trkpt><trkpt lat="-27.010138" lon="-48.609895"><ele>6.9</ele></trkpt><trkpt lat="-27.010138" lon="-48.609895"><ele>6.9</ele></trkpt><trkpt lat="-27.010138" lon="-48.609895"><ele>6.9</ele></trkpt><trkpt lat="-27.010145" lon="-48.609943"><ele>4.6</ele></trkpt><trkpt lat="-27.010167" lon="-48.609997"><ele>4.5</ele></trkpt><trkpt lat="-27.01019" lon="-48.610072"><ele>5.1</ele></trkpt><trkpt lat="-27.010255" lon="-48.610165"><ele>4.6</ele></trkpt><trkpt lat="-27.010268" lon="-48.61016"><ele>5.1</ele></trkpt><trkpt lat="-27.010267" lon="-48.610158"><ele>5.1</ele></trkpt><trkpt lat="-27.010267" lon="-48.610158"><ele>5.1</ele></trkpt><trkpt lat="-27.010268" lon="-48.610158"><ele>5.1</ele></trkpt><trkpt lat="-27.010268" lon="-48.610158"><ele>5.1</ele></trkpt><trkpt lat="-27.010268" lon="-48.610158"><ele>5.1</ele></trkpt><trkpt lat="-27.010268" lon="-48.610158"><ele>5.1</ele></trkpt><trkpt lat="-27.010268" lon="-48.610158"><ele>5.1</ele></trkpt><trkpt lat="-27.010268" lon="-48.610158"><ele>5.1</ele></trkpt><trkpt lat="-27.010268" lon="-48.610158"><ele>5.1</ele></trkpt><trkpt lat="-27.010242" lon="-48.610178"><ele>2.7</ele></trkpt><trkpt lat="-27.010263" lon="-48.610235"><ele>3.1</ele></trkpt><trkpt lat="-27.010363" lon="-48.61039"><ele>4.2</ele></trkpt><trkpt lat="-27.010387" lon="-48.610437"><ele>2.8</ele></trkpt><trkpt lat="-27.010393" lon="-48.610443"><ele>2.6</ele></trkpt><trkpt lat="-27.010395" lon="-48.610443"><ele>2.6</ele></trkpt><trkpt lat="-27.0104" lon="-48.610452"><ele>3</ele></trkpt><trkpt lat="-27.010403" lon="-48.610453"><ele>3.4</ele></trkpt><trkpt lat="-27.010403" lon="-48.610453"><ele>3.4</ele></trkpt><trkpt lat="-27.010403" lon="-48.610453"><ele>3.4</ele></trkpt><trkpt lat="-27.010403" lon="-48.610453"><ele>3.4</ele></trkpt><trkpt lat="-27.010403" lon="-48.610472"><ele>2.1</ele></trkpt><trkpt lat="-27.010385" lon="-48.610465"><ele>1.5</ele></trkpt><trkpt lat="-27.010363" lon="-48.61044"><ele>1.1</ele></trkpt><trkpt lat="-27.010373" lon="-48.6104"><ele>1.9</ele></trkpt><trkpt lat="-27.01038" lon="-48.610405"><ele>2.1</ele></trkpt><trkpt lat="-27.010385" lon="-48.610407"><ele>2.1</ele></trkpt><trkpt lat="-27.010385" lon="-48.610407"><ele>2.1</ele></trkpt><trkpt lat="-27.010385" lon="-48.610407"><ele>2.1</ele></trkpt><trkpt lat="-27.010385" lon="-48.610407"><ele>2.1</ele></trkpt><trkpt lat="-27.010385" lon="-48.610407"><ele>2.1</ele></trkpt><trkpt lat="-27.010385" lon="-48.610407"><ele>2.1</ele></trkpt><trkpt lat="-27.010385" lon="-48.610407"><ele>2.1</ele></trkpt><trkpt lat="-27.010385" lon="-48.610407"><ele>2.1</ele></trkpt><trkpt lat="-27.010417" lon="-48.610392"><ele>2.3</ele></trkpt><trkpt lat="-27.010433" lon="-48.610392"><ele>2.8</ele></trkpt><trkpt lat="-27.010432" lon="-48.610377"><ele>2.8</ele></trkpt><trkpt lat="-27.010425" lon="-48.610348"><ele>3.2</ele></trkpt><trkpt lat="-27.010425" lon="-48.610348"><ele>3.2</ele></trkpt><trkpt lat="-27.010425" lon="-48.610348"><ele>3.2</ele></trkpt><trkpt lat="-27.010425" lon="-48.610348"><ele>3.2</ele></trkpt><trkpt lat="-27.010425" lon="-48.610348"><ele>3.2</ele></trkpt><trkpt lat="-27.010425" lon="-48.610348"><ele>3.2</ele></trkpt><trkpt lat="-27.010425" lon="-48.610348"><ele>3.2</ele></trkpt><trkpt lat="-27.010425" lon="-48.610348"><ele>3.2</ele></trkpt><trkpt lat="-27.010425" lon="-48.610348"><ele>3.2</ele></trkpt><trkpt lat="-27.010425" lon="-48.610348"><ele>3.2</ele></trkpt><trkpt lat="-27.010425" lon="-48.610348"><ele>3.2</ele></trkpt><trkpt lat="-27.010425" lon="-48.610348"><ele>3.2</ele></trkpt><trkpt lat="-27.010425" lon="-48.610348"><ele>3.2</ele></trkpt><trkpt lat="-27.010425" lon="-48.610348"><ele>3.2</ele></trkpt><trkpt lat="-27.010425" lon="-48.610348"><ele>3.2</ele></trkpt><trkpt lat="-27.010425" lon="-48.610348"><ele>3.2</ele></trkpt><trkpt lat="-27.010425" lon="-48.610348"><ele>3.2</ele></trkpt><trkpt lat="-27.010425" lon="-48.610348"><ele>3.2</ele></trkpt><trkpt lat="-27.010425" lon="-48.610348"><ele>3.2</ele></trkpt><trkpt lat="-27.010425" lon="-48.610348"><ele>3.2</ele></trkpt><trkpt lat="-27.010432" lon="-48.610445"><ele>3.1</ele></trkpt><trkpt lat="-27.010432" lon="-48.610445"><ele>3.1</ele></trkpt><trkpt lat="-27.010432" lon="-48.610445"><ele>3.1</ele></trkpt><trkpt lat="-27.010415" lon="-48.610453"><ele>3.6</ele></trkpt><trkpt lat="-27.010388" lon="-48.610458"><ele>3.1</ele></trkpt><trkpt lat="-27.010375" lon="-48.610438"><ele>2.9</ele></trkpt><trkpt lat="-27.010392" lon="-48.610493"><ele>3.4</ele></trkpt><trkpt lat="-27.01044" lon="-48.610555"><ele>3.6</ele></trkpt><trkpt lat="-27.01053" lon="-48.610728"><ele>4.1</ele></trkpt><trkpt lat="-27.010553" lon="-48.610832"><ele>4.3</ele></trkpt><trkpt lat="-27.01058" lon="-48.610925"><ele>4.6</ele></trkpt><trkpt lat="-27.010597" lon="-48.610945"><ele>4.7</ele></trkpt><trkpt lat="-27.010607" lon="-48.610968"><ele>5.1</ele></trkpt><trkpt lat="-27.010607" lon="-48.610967"><ele>5.1</ele></trkpt><trkpt lat="-27.01061" lon="-48.61096"><ele>4.7</ele></trkpt><trkpt lat="-27.01061" lon="-48.61096"><ele>4.7</ele></trkpt><trkpt lat="-27.01061" lon="-48.61096"><ele>4.7</ele></trkpt><trkpt lat="-27.01061" lon="-48.61096"><ele>4.7</ele></trkpt><trkpt lat="-27.010625" lon="-48.611037"><ele>3.4</ele></trkpt><trkpt lat="-27.010612" lon="-48.611093"><ele>3.1</ele></trkpt><trkpt lat="-27.010598" lon="-48.611287"><ele>2.6</ele></trkpt><trkpt lat="-27.01059" lon="-48.611378"><ele>2.2</ele></trkpt><trkpt lat="-27.01057" lon="-48.611442"><ele>1.1</ele></trkpt><trkpt lat="-27.010568" lon="-48.611448"><ele>0.9</ele></trkpt><trkpt lat="-27.010573" lon="-48.611457"><ele>0.8</ele></trkpt><trkpt lat="-27.01058" lon="-48.611462"><ele>0.6</ele></trkpt><trkpt lat="-27.01058" lon="-48.611462"><ele>0.6</ele></trkpt><trkpt lat="-27.010565" lon="-48.611493"><ele>-0.7</ele></trkpt><trkpt lat="-27.010525" lon="-48.611563"><ele>-1.1</ele></trkpt><trkpt lat="-27.01049" lon="-48.611642"><ele>-1.3</ele></trkpt><trkpt lat="-27.010463" lon="-48.611728"><ele>-1.5</ele></trkpt><trkpt lat="-27.01042" lon="-48.611828"><ele>-1.9</ele></trkpt><trkpt lat="-27.010438" lon="-48.61183"><ele>-0.5</ele></trkpt><trkpt lat="-27.01044" lon="-48.611828"><ele>-0.1</ele></trkpt><trkpt lat="-27.01044" lon="-48.611825"><ele>1</ele></trkpt><trkpt lat="-27.01044" lon="-48.611825"><ele>1</ele></trkpt><trkpt lat="-27.01044" lon="-48.611825"><ele>1</ele></trkpt><trkpt lat="-27.01044" lon="-48.611825"><ele>1</ele></trkpt><trkpt lat="-27.01044" lon="-48.611825"><ele>1</ele></trkpt><trkpt lat="-27.01044" lon="-48.611825"><ele>1</ele></trkpt><trkpt lat="-27.01044" lon="-48.611825"><ele>1</ele></trkpt><trkpt lat="-27.01044" lon="-48.611825"><ele>1</ele></trkpt><trkpt lat="-27.01041" lon="-48.611903"><ele>0.9</ele></trkpt><trkpt lat="-27.010377" lon="-48.611985"><ele>0.8</ele></trkpt><trkpt lat="-27.010298" lon="-48.612157"><ele>-0.1</ele></trkpt><trkpt lat="-27.010257" lon="-48.612225"><ele>0.5</ele></trkpt><trkpt lat="-27.01015" lon="-48.612375"><ele>2.4</ele></trkpt><trkpt lat="-27.01016" lon="-48.612405"><ele>2.9</ele></trkpt><trkpt lat="-27.010213" lon="-48.612407"><ele>3.4</ele></trkpt><trkpt lat="-27.010222" lon="-48.612418"><ele>4.3</ele></trkpt><trkpt lat="-27.010223" lon="-48.612415"><ele>4.2</ele></trkpt><trkpt lat="-27.010232" lon="-48.61242"><ele>3.9</ele></trkpt><trkpt lat="-27.010228" lon="-48.612422"><ele>3.8</ele></trkpt><trkpt lat="-27.010215" lon="-48.612428"><ele>3.9</ele></trkpt><trkpt lat="-27.010195" lon="-48.612448"><ele>3</ele></trkpt><trkpt lat="-27.010198" lon="-48.612457"><ele>2.8</ele></trkpt><trkpt lat="-27.010207" lon="-48.612458"><ele>2.8</ele></trkpt><trkpt lat="-27.010138" lon="-48.612545"><ele>2.6</ele></trkpt><trkpt lat="-27.010122" lon="-48.612612"><ele>2.1</ele></trkpt><trkpt lat="-27.010028" lon="-48.612773"><ele>2.5</ele></trkpt><trkpt lat="-27.009993" lon="-48.612818"><ele>2.8</ele></trkpt><trkpt lat="-27.010003" lon="-48.612825"><ele>3.2</ele></trkpt><trkpt lat="-27.010018" lon="-48.612823"><ele>4.7</ele></trkpt><trkpt lat="-27.01002" lon="-48.612817"><ele>4.8</ele></trkpt><trkpt lat="-27.01002" lon="-48.612817"><ele>4.8</ele></trkpt><trkpt lat="-27.01002" lon="-48.612817"><ele>4.8</ele></trkpt><trkpt lat="-27.01001" lon="-48.612807"><ele>4.3</ele></trkpt><trkpt lat="-27.009995" lon="-48.612812"><ele>3.8</ele></trkpt><trkpt lat="-27.009988" lon="-48.612818"><ele>3.7</ele></trkpt><trkpt lat="-27.01" lon="-48.612818"><ele>3.8</ele></trkpt><trkpt lat="-27.010022" lon="-48.612812"><ele>3.6</ele></trkpt><trkpt lat="-27.010067" lon="-48.61286"><ele>3.8</ele></trkpt><trkpt lat="-27.010058" lon="-48.61287"><ele>4.4</ele></trkpt><trkpt lat="-27.010058" lon="-48.612873"><ele>4.7</ele></trkpt><trkpt lat="-27.010058" lon="-48.612877"><ele>4.8</ele></trkpt><trkpt lat="-27.010058" lon="-48.612877"><ele>4.8</ele></trkpt><trkpt lat="-27.010058" lon="-48.612877"><ele>4.8</ele></trkpt><trkpt lat="-27.010058" lon="-48.612877"><ele>4.8</ele></trkpt><trkpt lat="-27.01006" lon="-48.612875"><ele>5</ele></trkpt><trkpt lat="-27.010013" lon="-48.612842"><ele>4.1</ele></trkpt><trkpt lat="-27.009982" lon="-48.61283"><ele>3.3</ele></trkpt><trkpt lat="-27.009988" lon="-48.612822"><ele>3</ele></trkpt><trkpt lat="-27.009993" lon="-48.612808"><ele>3.2</ele></trkpt><trkpt lat="-27.009993" lon="-48.612808"><ele>3.2</ele></trkpt><trkpt lat="-27.009993" lon="-48.612808"><ele>3.2</ele></trkpt><trkpt lat="-27.009993" lon="-48.612808"><ele>3.2</ele></trkpt><trkpt lat="-27.009993" lon="-48.612808"><ele>3.2</ele></trkpt><trkpt lat="-27.009993" lon="-48.612808"><ele>3.2</ele></trkpt><trkpt lat="-27.009993" lon="-48.612808"><ele>3.2</ele></trkpt><trkpt lat="-27.009993" lon="-48.612808"><ele>3.2</ele></trkpt><trkpt lat="-27.009993" lon="-48.612808"><ele>3.2</ele></trkpt><trkpt lat="-27.009993" lon="-48.612808"><ele>3.2</ele></trkpt><trkpt lat="-27.009993" lon="-48.612808"><ele>3.2</ele></trkpt><trkpt lat="-27.009993" lon="-48.612808"><ele>3.2</ele></trkpt><trkpt lat="-27.009993" lon="-48.612808"><ele>3.2</ele></trkpt><trkpt lat="-27.009993" lon="-48.612808"><ele>3.2</ele></trkpt><trkpt lat="-27.009993" lon="-48.612808"><ele>3.2</ele></trkpt><trkpt lat="-27.009993" lon="-48.612808"><ele>3.2</ele></trkpt><trkpt lat="-27.009993" lon="-48.612808"><ele>3.2</ele></trkpt><trkpt lat="-27.009993" lon="-48.612808"><ele>3.2</ele></trkpt><trkpt lat="-27.009993" lon="-48.612808"><ele>3.2</ele></trkpt><trkpt lat="-27.009993" lon="-48.612808"><ele>3.2</ele></trkpt><trkpt lat="-27.009993" lon="-48.612808"><ele>3.2</ele></trkpt><trkpt lat="-27.009993" lon="-48.612808"><ele>3.2</ele></trkpt><trkpt lat="-27.009993" lon="-48.612808"><ele>3.2</ele></trkpt><trkpt lat="-27.009993" lon="-48.612808"><ele>3.2</ele></trkpt><trkpt lat="-27.009993" lon="-48.612808"><ele>3.2</ele></trkpt><trkpt lat="-27.009993" lon="-48.612808"><ele>3.2</ele></trkpt><trkpt lat="-27.009993" lon="-48.612808"><ele>3.2</ele></trkpt><trkpt lat="-27.009993" lon="-48.612808"><ele>3.2</ele></trkpt><trkpt lat="-27.009993" lon="-48.612808"><ele>3.2</ele></trkpt><trkpt lat="-27.009993" lon="-48.612808"><ele>3.2</ele></trkpt><trkpt lat="-27.009993" lon="-48.612808"><ele>3.2</ele></trkpt><trkpt lat="-27.009993" lon="-48.612808"><ele>3.2</ele></trkpt><trkpt lat="-27.009993" lon="-48.612808"><ele>3.2</ele></trkpt><trkpt lat="-27.009993" lon="-48.612808"><ele>3.2</ele></trkpt><trkpt lat="-27.009993" lon="-48.612808"><ele>3.2</ele></trkpt><trkpt lat="-27.009993" lon="-48.612808"><ele>3.2</ele></trkpt><trkpt lat="-27.009993" lon="-48.612808"><ele>3.2</ele></trkpt><trkpt lat="-27.009993" lon="-48.612808"><ele>3.2</ele></trkpt><trkpt lat="-27.009993" lon="-48.612808"><ele>3.2</ele></trkpt><trkpt lat="-27.009993" lon="-48.612808"><ele>3.2</ele></trkpt><trkpt lat="-27.009993" lon="-48.612808"><ele>3.2</ele></trkpt><trkpt lat="-27.009993" lon="-48.612808"><ele>3.2</ele></trkpt><trkpt lat="-27.009993" lon="-48.612808"><ele>3.2</ele></trkpt><trkpt lat="-27.009993" lon="-48.612808"><ele>3.2</ele></trkpt><trkpt lat="-27.009993" lon="-48.612808"><ele>3.2</ele></trkpt><trkpt lat="-27.009993" lon="-48.612808"><ele>3.2</ele></trkpt><trkpt lat="-27.009993" lon="-48.612808"><ele>3.2</ele></trkpt><trkpt lat="-27.009993" lon="-48.612808"><ele>3.2</ele></trkpt><trkpt lat="-27.009993" lon="-48.612808"><ele>3.2</ele></trkpt><trkpt lat="-27.009993" lon="-48.612808"><ele>3.2</ele></trkpt><trkpt lat="-27.009993" lon="-48.612808"><ele>3.2</ele></trkpt><trkpt lat="-27.009993" lon="-48.612808"><ele>3.2</ele></trkpt><trkpt lat="-27.009993" lon="-48.612808"><ele>3.2</ele></trkpt><trkpt lat="-27.009993" lon="-48.612808"><ele>3.2</ele></trkpt><trkpt lat="-27.009993" lon="-48.612808"><ele>3.2</ele></trkpt><trkpt lat="-27.009993" lon="-48.612808"><ele>3.2</ele></trkpt><trkpt lat="-27.009993" lon="-48.612808"><ele>3.2</ele></trkpt><trkpt lat="-27.009993" lon="-48.612808"><ele>3.2</ele></trkpt><trkpt lat="-27.009993" lon="-48.612808"><ele>3.2</ele></trkpt><trkpt lat="-27.009993" lon="-48.612808"><ele>3.2</ele></trkpt><trkpt lat="-27.009993" lon="-48.612808"><ele>3.2</ele></trkpt><trkpt lat="-27.009993" lon="-48.612808"><ele>3.2</ele></trkpt><trkpt lat="-27.009993" lon="-48.612808"><ele>3.2</ele></trkpt><trkpt lat="-27.009993" lon="-48.612808"><ele>3.2</ele></trkpt><trkpt lat="-27.009993" lon="-48.612808"><ele>3.2</ele></trkpt><trkpt lat="-27.009993" lon="-48.612808"><ele>3.2</ele></trkpt><trkpt lat="-27.009993" lon="-48.612808"><ele>3.2</ele></trkpt><trkpt lat="-27.009993" lon="-48.612808"><ele>3.2</ele></trkpt><trkpt lat="-27.009993" lon="-48.612808"><ele>3.2</ele></trkpt><trkpt lat="-27.009993" lon="-48.612808"><ele>3.2</ele></trkpt><trkpt lat="-27.009993" lon="-48.612808"><ele>3.2</ele></trkpt><trkpt lat="-27.009993" lon="-48.612808"><ele>3.2</ele></trkpt><trkpt lat="-27.009993" lon="-48.612808"><ele>3.2</ele></trkpt><trkpt lat="-27.009993" lon="-48.612808"><ele>3.2</ele></trkpt><trkpt lat="-27.009993" lon="-48.612808"><ele>3.2</ele></trkpt><trkpt lat="-27.009993" lon="-48.612808"><ele>3.2</ele></trkpt><trkpt lat="-27.009993" lon="-48.612808"><ele>3.2</ele></trkpt><trkpt lat="-27.009993" lon="-48.612808"><ele>3.2</ele></trkpt><trkpt lat="-27.009993" lon="-48.612808"><ele>3.2</ele></trkpt><trkpt lat="-27.009993" lon="-48.612808"><ele>3.2</ele></trkpt><trkpt lat="-27.009993" lon="-48.612808"><ele>3.2</ele></trkpt><trkpt lat="-27.009993" lon="-48.612808"><ele>3.2</ele></trkpt><trkpt lat="-27.009993" lon="-48.612808"><ele>3.2</ele></trkpt><trkpt lat="-27.009993" lon="-48.612808"><ele>3.2</ele></trkpt><trkpt lat="-27.009993" lon="-48.612808"><ele>3.2</ele></trkpt><trkpt lat="-27.009993" lon="-48.612808"><ele>3.2</ele></trkpt><trkpt lat="-27.009993" lon="-48.612808"><ele>3.2</ele></trkpt><trkpt lat="-27.009993" lon="-48.612808"><ele>3.2</ele></trkpt><trkpt lat="-27.009993" lon="-48.612808"><ele>3.2</ele></trkpt><trkpt lat="-27.009993" lon="-48.612808"><ele>3.2</ele></trkpt><trkpt lat="-27.009993" lon="-48.612808"><ele>3.2</ele></trkpt><trkpt lat="-27.009993" lon="-48.612808"><ele>3.2</ele></trkpt><trkpt lat="-27.009993" lon="-48.612808"><ele>3.2</ele></trkpt><trkpt lat="-27.009993" lon="-48.612808"><ele>3.2</ele></trkpt><trkpt lat="-27.009993" lon="-48.612808"><ele>3.2</ele></trkpt><trkpt lat="-27.009993" lon="-48.612808"><ele>3.2</ele></trkpt><trkpt lat="-27.009993" lon="-48.612808"><ele>3.2</ele></trkpt><trkpt lat="-27.009993" lon="-48.612808"><ele>3.2</ele></trkpt><trkpt lat="-27.009993" lon="-48.612808"><ele>3.2</ele></trkpt><trkpt lat="-27.009993" lon="-48.612808"><ele>3.2</ele></trkpt><trkpt lat="-27.009993" lon="-48.612808"><ele>3.2</ele></trkpt><trkpt lat="-27.009993" lon="-48.612808"><ele>3.2</ele></trkpt><trkpt lat="-27.009993" lon="-48.612808"><ele>3.2</ele></trkpt><trkpt lat="-27.009993" lon="-48.612808"><ele>3.2</ele></trkpt><trkpt lat="-27.009993" lon="-48.612808"><ele>3.2</ele></trkpt><trkpt lat="-27.009993" lon="-48.612808"><ele>3.2</ele></trkpt><trkpt lat="-27.009993" lon="-48.612808"><ele>3.2</ele></trkpt><trkpt lat="-27.009993" lon="-48.612808"><ele>3.2</ele></trkpt><trkpt lat="-27.009993" lon="-48.612808"><ele>3.2</ele></trkpt><trkpt lat="-27.009993" lon="-48.612808"><ele>3.2</ele></trkpt><trkpt lat="-27.009993" lon="-48.612808"><ele>3.2</ele></trkpt><trkpt lat="-27.009993" lon="-48.612808"><ele>3.2</ele></trkpt><trkpt lat="-27.009993" lon="-48.612808"><ele>3.2</ele></trkpt><trkpt lat="-27.009993" lon="-48.612808"><ele>3.2</ele></trkpt><trkpt lat="-27.009993" lon="-48.612808"><ele>3.2</ele></trkpt><trkpt lat="-27.009993" lon="-48.612808"><ele>3.2</ele></trkpt><trkpt lat="-27.009993" lon="-48.612808"><ele>3.2</ele></trkpt><trkpt lat="-27.009993" lon="-48.612808"><ele>3.2</ele></trkpt><trkpt lat="-27.009993" lon="-48.612808"><ele>3.2</ele></trkpt></trkseg></trk></gpx>