<?xml version="1.0" encoding="UTF-8"?>
<gpx xmlns="http://www.topografix.com/GPX/1/1" version="1.1" creator="@dwayneparton/geojson-to-gpx"><wpt lat="-27.034825" lon="-48.672945"><ele>16.900000000000002</ele><name>2 faixas</name></wpt><wpt lat="-27.034683333333337" lon="-48.67461333333334"><ele>3.6</ele><name>23</name></wpt><wpt lat="-27.034683333333337" lon="-48.67461333333334"><ele>3.7</ele><name>190</name></wpt><wpt lat="-27.034683333333337" lon="-48.67461333333334"><ele>3.6</ele><name>310</name></wpt><wpt lat="-27.03467" lon="-48.67460500000001"><ele>4.300000000000001</ele><name>1140</name></wpt><wpt lat="-27.03445166666667" lon="-48.676488333333324"><ele>7</ele><name>A ciclo é completamente reta.</name></wpt><wpt lat="-27.03445166666667" lon="-48.676488333333324"><ele>7</ele><name>A pintura é MUITO falha, mostrando muito asfalto</name></wpt><wpt lat="-27.034825" lon="-48.672945"><ele>16.900000000000002</ele><name>Apenas faixas vermelhas nas bordas</name></wpt><wpt lat="-27.034683333333337" lon="-48.67461333333334"><ele>3.6</ele><name>Área de amortecimento da ciclo (cm)</name></wpt><wpt lat="-27.034685" lon="-48.67461333333334"><ele>4</ele><name>Área transitável da ciclo (cm)</name></wpt><wpt lat="-27.034825" lon="-48.672945"><ele>16.900000000000002</ele><name>Asfalto</name></wpt><wpt lat="-27.034823333333332" lon="-48.67295333333333"><ele>18.200000000000003</ele><name>Bidirecional</name></wpt><wpt lat="-27.034502" lon="-48.676407"><name>Bom estado</name></wpt><wpt lat="-27.034825" lon="-48.672936666666665"><ele>18.3</ele><name>Ciclofaixa</name></wpt><wpt lat="-27.034825" lon="-48.672945"><ele>16.900000000000002</ele><name>Em bordo de Via de Mão Dupla</name></wpt><wpt lat="-27.034848333333336" lon="-48.672916666666666"><ele>5.4</ele><name>Estacionamento dedicado de um lado, segregado da circulação</name></wpt><wpt lat="-27.034683333333337" lon="-48.67461333333334"><ele>3.6</ele><name>Faixa de carros logo ao lado da ciclo (cm)</name></wpt><wpt lat="-27.034825" lon="-48.67287833333333"><ele>7.199999999999999</ele><name>Foto</name></wpt><wpt lat="-27.034871666666664" lon="-48.67280000000001"><ele>8.5</ele><name>Foto</name></wpt><wpt lat="-27.034848333333336" lon="-48.67291"><ele>8.1</ele><name>Foto</name></wpt><wpt lat="-27.034791666666667" lon="-48.67345166666667"><ele>7.199999999999999</ele><name>Foto</name></wpt><wpt lat="-27.034738333333333" lon="-48.67389166666667"><ele>3.7</ele><name>Foto</name></wpt><wpt lat="-27.034743333333335" lon="-48.673931666666675"><ele>4.4</ele><name>Foto</name></wpt><wpt lat="-27.034715" lon="-48.674175"><ele>5.699999999999999</ele><name>Foto</name></wpt><wpt lat="-27.034683333333337" lon="-48.674530000000004"><ele>4.5</ele><name>Foto</name></wpt><wpt lat="-27.034681666666664" lon="-48.67454833333333"><ele>3.8000000000000003</ele><name>Foto</name></wpt><wpt lat="-27.034620000000004" lon="-48.675065"><ele>9.6</ele><name>Foto</name></wpt><wpt lat="-27.03459666666667" lon="-48.675291666666666"><ele>8.4</ele><name>Foto</name></wpt><wpt lat="-27.03456833333333" lon="-48.67538166666667"><ele>5.800000000000001</ele><name>Foto</name></wpt><wpt lat="-27.034533333333336" lon="-48.675825"><ele>7.300000000000001</ele><name>Foto</name></wpt><wpt lat="-27.034534999999998" lon="-48.675835000000006"><ele>7.199999999999999</ele><name>Foto</name></wpt><wpt lat="-27.03447833333333" lon="-48.676429999999996"><ele>5</ele><name>Foto</name></wpt><wpt lat="-27.03445" lon="-48.67650833333334"><ele>6.1</ele><name>Foto</name></wpt><wpt lat="-27.03445166666667" lon="-48.676488333333324"><ele>7</ele><name>Iluminação geral na via do outro lado da infraestrutura</name></wpt><wpt lat="-27.034713333333336" lon="-48.67420833333334"><ele>5.6</ele><name>Lombadas físicas</name></wpt><wpt lat="-27.034825" lon="-48.672945"><ele>16.900000000000002</ele><name>Mão Dupla</name></wpt><wpt lat="-27.03445166666667" lon="-48.676488333333324"><ele>7</ele><name>Não há árvores nem mudas</name></wpt><wpt lat="-27.034846666666667" lon="-48.67291"><ele>6.6</ele><name>Pictograma MÁ condição</name></wpt><wpt lat="-27.034736666666664" lon="-48.673898333333334"><ele>4.1</ele><name>Pictograma MÁ condição</name></wpt><wpt lat="-27.034681666666664" lon="-48.674535"><ele>5.300000000000001</ele><name>Pictograma MÁ condição</name></wpt><wpt lat="-27.03461333333333" lon="-48.67504999999999"><ele>9</ele><name>Pictograma MÁ condição</name></wpt><wpt lat="-27.03453833333333" lon="-48.67582833333333"><ele>7.300000000000001</ele><name>Pictograma MÁ condição</name></wpt><wpt lat="-27.034534999999998" lon="-48.675835000000006"><ele>7.199999999999999</ele><name>Pictograma MÁ condição</name></wpt><wpt lat="-27.034585" lon="-48.67537833333334"><ele>6</ele><name>Em cruzamento MÁ condição</name></wpt><wpt lat="-27.03445" lon="-48.67649333333334"><ele>7.199999999999999</ele><name>SE CICLOFAIXA: para invadir a ciclo parte do automóvel passa obrigatoriamente por cima de segregadores</name></wpt><wpt lat="-27.034825" lon="-48.672945"><ele>16.900000000000002</ele><name>Tachões</name></wpt><wpt lat="-27.03467" lon="-48.67460500000001"><ele>4.300000000000001</ele><name>Total da via (incluindo a ciclo) (cm)</name></wpt><trk><name>Ciclofaixa R. Jesuino A. Pereira T2 - Cb</name><trkseg><trkpt lat="-27.034795" lon="-48.672915"><ele>19.1</ele></trkpt><trkpt lat="-27.034797" lon="-48.672908"><ele>19.3</ele></trkpt><trkpt lat="-27.034803" lon="-48.672903"><ele>19.3</ele></trkpt><trkpt lat="-27.034807" lon="-48.672903"><ele>19.2</ele></trkpt><trkpt lat="-27.03482" lon="-48.672918"><ele>18.2</ele></trkpt><trkpt lat="-27.03482" lon="-48.672923"><ele>18.2</ele></trkpt><trkpt lat="-27.034822" lon="-48.67293"><ele>18.2</ele></trkpt><trkpt lat="-27.034825" lon="-48.672937"><ele>18.3</ele></trkpt><trkpt lat="-27.034825" lon="-48.672937"><ele>18.3</ele></trkpt><trkpt lat="-27.034827" lon="-48.672942"><ele>18.3</ele></trkpt><trkpt lat="-27.034823" lon="-48.672945"><ele>18.3</ele></trkpt><trkpt lat="-27.034823" lon="-48.672953"><ele>18.2</ele></trkpt><trkpt lat="-27.034823" lon="-48.672953"><ele>18.2</ele></trkpt><trkpt lat="-27.034823" lon="-48.672953"><ele>18.2</ele></trkpt><trkpt lat="-27.034823" lon="-48.672953"><ele>18.2</ele></trkpt><trkpt lat="-27.034823" lon="-48.672953"><ele>18.2</ele></trkpt><trkpt lat="-27.034823" lon="-48.672953"><ele>18.2</ele></trkpt><trkpt lat="-27.034823" lon="-48.672953"><ele>18.2</ele></trkpt><trkpt lat="-27.034823" lon="-48.672953"><ele>18.2</ele></trkpt><trkpt lat="-27.03482" lon="-48.672948"><ele>17.5</ele></trkpt><trkpt lat="-27.03482" lon="-48.672948"><ele>17.2</ele></trkpt><trkpt lat="-27.034822" lon="-48.672947"><ele>17</ele></trkpt><trkpt lat="-27.034825" lon="-48.672945"><ele>16.9</ele></trkpt><trkpt lat="-27.034825" lon="-48.672945"><ele>16.9</ele></trkpt><trkpt lat="-27.034825" lon="-48.672945"><ele>16.9</ele></trkpt><trkpt lat="-27.034825" lon="-48.672945"><ele>16.9</ele></trkpt><trkpt lat="-27.034825" lon="-48.672945"><ele>16.9</ele></trkpt><trkpt lat="-27.034825" lon="-48.672945"><ele>16.9</ele></trkpt><trkpt lat="-27.034825" lon="-48.672945"><ele>16.9</ele></trkpt><trkpt lat="-27.034825" lon="-48.672945"><ele>16.9</ele></trkpt><trkpt lat="-27.034825" lon="-48.672945"><ele>16.9</ele></trkpt><trkpt lat="-27.034825" lon="-48.672945"><ele>16.9</ele></trkpt><trkpt lat="-27.034825" lon="-48.672945"><ele>16.9</ele></trkpt><trkpt lat="-27.034825" lon="-48.672945"><ele>16.9</ele></trkpt><trkpt lat="-27.034825" lon="-48.672945"><ele>16.9</ele></trkpt><trkpt lat="-27.034825" lon="-48.672945"><ele>16.9</ele></trkpt><trkpt lat="-27.034825" lon="-48.672945"><ele>16.9</ele></trkpt><trkpt lat="-27.034825" lon="-48.672945"><ele>16.9</ele></trkpt><trkpt lat="-27.034825" lon="-48.672945"><ele>16.9</ele></trkpt><trkpt lat="-27.034825" lon="-48.672945"><ele>16.9</ele></trkpt><trkpt lat="-27.034825" lon="-48.672945"><ele>16.9</ele></trkpt><trkpt lat="-27.034825" lon="-48.672945"><ele>16.9</ele></trkpt><trkpt lat="-27.034825" lon="-48.672945"><ele>16.9</ele></trkpt><trkpt lat="-27.034825" lon="-48.672945"><ele>16.9</ele></trkpt><trkpt lat="-27.034825" lon="-48.672945"><ele>16.9</ele></trkpt><trkpt lat="-27.034825" lon="-48.672945"><ele>16.9</ele></trkpt><trkpt lat="-27.034825" lon="-48.672945"><ele>16.9</ele></trkpt><trkpt lat="-27.034825" lon="-48.672945"><ele>16.9</ele></trkpt><trkpt lat="-27.034825" lon="-48.672945"><ele>16.9</ele></trkpt><trkpt lat="-27.034825" lon="-48.672945"><ele>16.9</ele></trkpt><trkpt lat="-27.034825" lon="-48.672945"><ele>16.9</ele></trkpt><trkpt lat="-27.034825" lon="-48.672945"><ele>16.9</ele></trkpt><trkpt lat="-27.034825" lon="-48.672945"><ele>16.9</ele></trkpt><trkpt lat="-27.034825" lon="-48.672945"><ele>16.9</ele></trkpt><trkpt lat="-27.034825" lon="-48.672945"><ele>16.9</ele></trkpt><trkpt lat="-27.034825" lon="-48.672945"><ele>16.9</ele></trkpt><trkpt lat="-27.034825" lon="-48.672945"><ele>16.9</ele></trkpt><trkpt lat="-27.034825" lon="-48.672945"><ele>16.9</ele></trkpt><trkpt lat="-27.034825" lon="-48.672945"><ele>16.9</ele></trkpt><trkpt lat="-27.034825" lon="-48.672945"><ele>16.9</ele></trkpt><trkpt lat="-27.034825" lon="-48.672945"><ele>16.9</ele></trkpt><trkpt lat="-27.034825" lon="-48.672945"><ele>16.9</ele></trkpt><trkpt lat="-27.034825" lon="-48.672945"><ele>16.9</ele></trkpt><trkpt lat="-27.034825" lon="-48.672945"><ele>16.9</ele></trkpt><trkpt lat="-27.034825" lon="-48.672945"><ele>16.9</ele></trkpt><trkpt lat="-27.034825" lon="-48.672945"><ele>16.9</ele></trkpt><trkpt lat="-27.034825" lon="-48.672945"><ele>16.9</ele></trkpt><trkpt lat="-27.034825" lon="-48.672945"><ele>16.9</ele></trkpt><trkpt lat="-27.034825" lon="-48.672945"><ele>16.9</ele></trkpt><trkpt lat="-27.034825" lon="-48.672945"><ele>16.9</ele></trkpt><trkpt lat="-27.034825" lon="-48.672945"><ele>16.9</ele></trkpt><trkpt lat="-27.034825" lon="-48.672945"><ele>16.9</ele></trkpt><trkpt lat="-27.034825" lon="-48.672945"><ele>16.9</ele></trkpt><trkpt lat="-27.034825" lon="-48.672945"><ele>16.9</ele></trkpt><trkpt lat="-27.034825" lon="-48.672945"><ele>16.9</ele></trkpt><trkpt lat="-27.034825" lon="-48.672945"><ele>16.9</ele></trkpt><trkpt lat="-27.034825" lon="-48.672945"><ele>16.9</ele></trkpt><trkpt lat="-27.034825" lon="-48.672945"><ele>16.9</ele></trkpt><trkpt lat="-27.034825" lon="-48.672945"><ele>16.9</ele></trkpt><trkpt lat="-27.034825" lon="-48.672945"><ele>16.9</ele></trkpt><trkpt lat="-27.034825" lon="-48.672945"><ele>16.9</ele></trkpt><trkpt lat="-27.034825" lon="-48.672945"><ele>16.9</ele></trkpt><trkpt lat="-27.034825" lon="-48.672945"><ele>16.9</ele></trkpt><trkpt lat="-27.034825" lon="-48.672945"><ele>16.9</ele></trkpt><trkpt lat="-27.034825" lon="-48.672945"><ele>16.9</ele></trkpt><trkpt lat="-27.034825" lon="-48.672945"><ele>16.9</ele></trkpt><trkpt lat="-27.034825" lon="-48.672945"><ele>16.9</ele></trkpt><trkpt lat="-27.034825" lon="-48.672945"><ele>16.9</ele></trkpt><trkpt lat="-27.034825" lon="-48.672945"><ele>16.9</ele></trkpt><trkpt lat="-27.034825" lon="-48.672945"><ele>16.9</ele></trkpt><trkpt lat="-27.034825" lon="-48.672945"><ele>16.9</ele></trkpt><trkpt lat="-27.034825" lon="-48.672945"><ele>16.9</ele></trkpt><trkpt lat="-27.034825" lon="-48.672945"><ele>16.9</ele></trkpt><trkpt lat="-27.034862" lon="-48.672945"><ele>8.8</ele></trkpt><trkpt lat="-27.034868" lon="-48.672945"><ele>8.7</ele></trkpt><trkpt lat="-27.034875" lon="-48.672947"><ele>8.7</ele></trkpt><trkpt lat="-27.034883" lon="-48.672948"><ele>8.8</ele></trkpt><trkpt lat="-27.034887" lon="-48.672953"><ele>8.6</ele></trkpt><trkpt lat="-27.03489" lon="-48.672957"><ele>8.4</ele></trkpt><trkpt lat="-27.034895" lon="-48.672957"><ele>8.1</ele></trkpt><trkpt lat="-27.034892" lon="-48.672963"><ele>7.4</ele></trkpt><trkpt lat="-27.034882" lon="-48.672968"><ele>7.3</ele></trkpt><trkpt lat="-27.034868" lon="-48.672958"><ele>8</ele></trkpt><trkpt lat="-27.034867" lon="-48.672958"><ele>8.2</ele></trkpt><trkpt lat="-27.034863" lon="-48.672952"><ele>8.3</ele></trkpt><trkpt lat="-27.034857" lon="-48.672947"><ele>8.4</ele></trkpt><trkpt lat="-27.034848" lon="-48.672945"><ele>7.8</ele></trkpt><trkpt lat="-27.034842" lon="-48.672938"><ele>7.7</ele></trkpt><trkpt lat="-27.03484" lon="-48.672923"><ele>7.5</ele></trkpt><trkpt lat="-27.03484" lon="-48.672925"><ele>6.9</ele></trkpt><trkpt lat="-27.034842" lon="-48.672922"><ele>6.9</ele></trkpt><trkpt lat="-27.034852" lon="-48.672912"><ele>7.1</ele></trkpt><trkpt lat="-27.034855" lon="-48.672905"><ele>7.2</ele></trkpt><trkpt lat="-27.03486" lon="-48.6729"><ele>7.2</ele></trkpt><trkpt lat="-27.03486" lon="-48.6729"><ele>7.1</ele></trkpt><trkpt lat="-27.03486" lon="-48.672898"><ele>7.2</ele></trkpt><trkpt lat="-27.034857" lon="-48.672895"><ele>7</ele></trkpt><trkpt lat="-27.03486" lon="-48.672893"><ele>7.1</ele></trkpt><trkpt lat="-27.034862" lon="-48.672887"><ele>6.8</ele></trkpt><trkpt lat="-27.034862" lon="-48.672888"><ele>6.7</ele></trkpt><trkpt lat="-27.03486" lon="-48.672887"><ele>6.7</ele></trkpt><trkpt lat="-27.034858" lon="-48.672888"><ele>6.7</ele></trkpt><trkpt lat="-27.03486" lon="-48.672888"><ele>6.6</ele></trkpt><trkpt lat="-27.034857" lon="-48.672887"><ele>6.6</ele></trkpt><trkpt lat="-27.034857" lon="-48.672887"><ele>6.6</ele></trkpt><trkpt lat="-27.034857" lon="-48.672887"><ele>6.6</ele></trkpt><trkpt lat="-27.034835" lon="-48.672897"><ele>7.3</ele></trkpt><trkpt lat="-27.034835" lon="-48.672908"><ele>7.3</ele></trkpt><trkpt lat="-27.034835" lon="-48.672922"><ele>7.1</ele></trkpt><trkpt lat="-27.034833" lon="-48.672925"><ele>6.8</ele></trkpt><trkpt lat="-27.034833" lon="-48.672928"><ele>6.6</ele></trkpt><trkpt lat="-27.034835" lon="-48.672928"><ele>6.3</ele></trkpt><trkpt lat="-27.034838" lon="-48.672928"><ele>5.5</ele></trkpt><trkpt lat="-27.034842" lon="-48.672927"><ele>5.1</ele></trkpt><trkpt lat="-27.034842" lon="-48.672922"><ele>5</ele></trkpt><trkpt lat="-27.034842" lon="-48.67292"><ele>5</ele></trkpt><trkpt lat="-27.034843" lon="-48.67292"><ele>5.1</ele></trkpt><trkpt lat="-27.034845" lon="-48.672918"><ele>5</ele></trkpt><trkpt lat="-27.034845" lon="-48.672918"><ele>5.1</ele></trkpt><trkpt lat="-27.034847" lon="-48.672918"><ele>5.3</ele></trkpt><trkpt lat="-27.034848" lon="-48.672917"><ele>5.4</ele></trkpt><trkpt lat="-27.034848" lon="-48.672917"><ele>5.4</ele></trkpt><trkpt lat="-27.034848" lon="-48.672917"><ele>5.4</ele></trkpt><trkpt lat="-27.034848" lon="-48.672917"><ele>5.4</ele></trkpt><trkpt lat="-27.034848" lon="-48.672917"><ele>5.4</ele></trkpt><trkpt lat="-27.034848" lon="-48.672917"><ele>5.4</ele></trkpt><trkpt lat="-27.034848" lon="-48.672917"><ele>5.4</ele></trkpt><trkpt lat="-27.034848" lon="-48.672917"><ele>5.4</ele></trkpt><trkpt lat="-27.034848" lon="-48.672917"><ele>5.4</ele></trkpt><trkpt lat="-27.034848" lon="-48.672917"><ele>5.4</ele></trkpt><trkpt lat="-27.034848" lon="-48.672917"><ele>5.4</ele></trkpt><trkpt lat="-27.034848" lon="-48.672917"><ele>5.4</ele></trkpt><trkpt lat="-27.034848" lon="-48.672917"><ele>5.4</ele></trkpt><trkpt lat="-27.034848" lon="-48.672917"><ele>5.4</ele></trkpt><trkpt lat="-27.034848" lon="-48.672917"><ele>5.4</ele></trkpt><trkpt lat="-27.034847" lon="-48.672937"><ele>5.2</ele></trkpt><trkpt lat="-27.034847" lon="-48.672942"><ele>5.1</ele></trkpt><trkpt lat="-27.034848" lon="-48.672943"><ele>5</ele></trkpt><trkpt lat="-27.034847" lon="-48.672943"><ele>5.1</ele></trkpt><trkpt lat="-27.034847" lon="-48.672943"><ele>5.1</ele></trkpt><trkpt lat="-27.034847" lon="-48.672943"><ele>5.1</ele></trkpt><trkpt lat="-27.034847" lon="-48.672943"><ele>5.1</ele></trkpt><trkpt lat="-27.034847" lon="-48.672943"><ele>5.1</ele></trkpt><trkpt lat="-27.034847" lon="-48.672943"><ele>5.1</ele></trkpt><trkpt lat="-27.034847" lon="-48.672943"><ele>5.1</ele></trkpt><trkpt lat="-27.034847" lon="-48.672943"><ele>5.1</ele></trkpt><trkpt lat="-27.034847" lon="-48.672943"><ele>5.1</ele></trkpt><trkpt lat="-27.034847" lon="-48.672943"><ele>5.1</ele></trkpt><trkpt lat="-27.034847" lon="-48.672943"><ele>5.1</ele></trkpt><trkpt lat="-27.034847" lon="-48.672943"><ele>5.1</ele></trkpt><trkpt lat="-27.034848" lon="-48.672958"><ele>5.3</ele></trkpt><trkpt lat="-27.034847" lon="-48.672945"><ele>5.4</ele></trkpt><trkpt lat="-27.034845" lon="-48.672935"><ele>5.5</ele></trkpt><trkpt lat="-27.034848" lon="-48.672927"><ele>5.8</ele></trkpt><trkpt lat="-27.034847" lon="-48.672922"><ele>6</ele></trkpt><trkpt lat="-27.034845" lon="-48.672918"><ele>6.1</ele></trkpt><trkpt lat="-27.034847" lon="-48.672917"><ele>6.2</ele></trkpt><trkpt lat="-27.034847" lon="-48.67291"><ele>6.6</ele></trkpt><trkpt lat="-27.034847" lon="-48.67291"><ele>6.6</ele></trkpt><trkpt lat="-27.034845" lon="-48.672903"><ele>6.7</ele></trkpt><trkpt lat="-27.034847" lon="-48.6729"><ele>7</ele></trkpt><trkpt lat="-27.034847" lon="-48.672898"><ele>7</ele></trkpt><trkpt lat="-27.034848" lon="-48.672897"><ele>7.1</ele></trkpt><trkpt lat="-27.034847" lon="-48.672895"><ele>7.2</ele></trkpt><trkpt lat="-27.034847" lon="-48.67289"><ele>7.2</ele></trkpt><trkpt lat="-27.034842" lon="-48.672887"><ele>7.2</ele></trkpt><trkpt lat="-27.034835" lon="-48.672882"><ele>7.1</ele></trkpt><trkpt lat="-27.034825" lon="-48.672878"><ele>7.2</ele></trkpt><trkpt lat="-27.034825" lon="-48.672878"><ele>7.2</ele></trkpt><trkpt lat="-27.034817" lon="-48.672878"><ele>7.9</ele></trkpt><trkpt lat="-27.034817" lon="-48.672877"><ele>8.8</ele></trkpt><trkpt lat="-27.034813" lon="-48.67287"><ele>9.5</ele></trkpt><trkpt lat="-27.034815" lon="-48.672867"><ele>10.2</ele></trkpt><trkpt lat="-27.03481" lon="-48.672872"><ele>10.8</ele></trkpt><trkpt lat="-27.034798" lon="-48.67287"><ele>11.6</ele></trkpt><trkpt lat="-27.03479" lon="-48.672872"><ele>12.1</ele></trkpt><trkpt lat="-27.0348" lon="-48.672865"><ele>12.5</ele></trkpt><trkpt lat="-27.034807" lon="-48.672862"><ele>12.4</ele></trkpt><trkpt lat="-27.034812" lon="-48.672867"><ele>12.3</ele></trkpt><trkpt lat="-27.034822" lon="-48.672865"><ele>12.5</ele></trkpt><trkpt lat="-27.034827" lon="-48.672865"><ele>12.4</ele></trkpt><trkpt lat="-27.03483" lon="-48.672858"><ele>13.1</ele></trkpt><trkpt lat="-27.034835" lon="-48.672853"><ele>12.7</ele></trkpt><trkpt lat="-27.034842" lon="-48.67285"><ele>11.7</ele></trkpt><trkpt lat="-27.034845" lon="-48.672833"><ele>10.9</ele></trkpt><trkpt lat="-27.034855" lon="-48.672825"><ele>10.4</ele></trkpt><trkpt lat="-27.034863" lon="-48.672825"><ele>9.4</ele></trkpt><trkpt lat="-27.034862" lon="-48.672817"><ele>8.7</ele></trkpt><trkpt lat="-27.034858" lon="-48.67281"><ele>8.3</ele></trkpt><trkpt lat="-27.034852" lon="-48.672803"><ele>8.4</ele></trkpt><trkpt lat="-27.034848" lon="-48.672795"><ele>8.4</ele></trkpt><trkpt lat="-27.034842" lon="-48.672788"><ele>9</ele></trkpt><trkpt lat="-27.034838" lon="-48.67279"><ele>9.5</ele></trkpt><trkpt lat="-27.03484" lon="-48.672785"><ele>9.6</ele></trkpt><trkpt lat="-27.034843" lon="-48.672777"><ele>9.6</ele></trkpt><trkpt lat="-27.034852" lon="-48.672773"><ele>9.4</ele></trkpt><trkpt lat="-27.03486" lon="-48.67277"><ele>9.1</ele></trkpt><trkpt lat="-27.034868" lon="-48.672775"><ele>8.8</ele></trkpt><trkpt lat="-27.034872" lon="-48.67278"><ele>8.8</ele></trkpt><trkpt lat="-27.034873" lon="-48.672788"><ele>8.6</ele></trkpt><trkpt lat="-27.034872" lon="-48.6728"><ele>8.5</ele></trkpt><trkpt lat="-27.034872" lon="-48.6728"><ele>8.5</ele></trkpt><trkpt lat="-27.034867" lon="-48.672815"><ele>8.1</ele></trkpt><trkpt lat="-27.034862" lon="-48.672828"><ele>7.6</ele></trkpt><trkpt lat="-27.034858" lon="-48.67284"><ele>7.4</ele></trkpt><trkpt lat="-27.034857" lon="-48.672855"><ele>7.1</ele></trkpt><trkpt lat="-27.034855" lon="-48.67287"><ele>6.9</ele></trkpt><trkpt lat="-27.034852" lon="-48.672867"><ele>6.7</ele></trkpt><trkpt lat="-27.034853" lon="-48.67287"><ele>6.7</ele></trkpt><trkpt lat="-27.034853" lon="-48.672883"><ele>6.7</ele></trkpt><trkpt lat="-27.034853" lon="-48.672897"><ele>7</ele></trkpt><trkpt lat="-27.034853" lon="-48.672905"><ele>7.2</ele></trkpt><trkpt lat="-27.03485" lon="-48.672905"><ele>7.8</ele></trkpt><trkpt lat="-27.034848" lon="-48.67291"><ele>8.1</ele></trkpt><trkpt lat="-27.034848" lon="-48.67291"><ele>8.1</ele></trkpt><trkpt lat="-27.034845" lon="-48.67291"><ele>8.2</ele></trkpt><trkpt lat="-27.03484" lon="-48.672913"><ele>8.5</ele></trkpt><trkpt lat="-27.034838" lon="-48.672917"><ele>8.7</ele></trkpt><trkpt lat="-27.034837" lon="-48.67293"><ele>9.1</ele></trkpt><trkpt lat="-27.034845" lon="-48.672948"><ele>9.1</ele></trkpt><trkpt lat="-27.034848" lon="-48.672963"><ele>8.8</ele></trkpt><trkpt lat="-27.034852" lon="-48.672985"><ele>8.6</ele></trkpt><trkpt lat="-27.03486" lon="-48.673002"><ele>8.3</ele></trkpt><trkpt lat="-27.034863" lon="-48.673025"><ele>8</ele></trkpt><trkpt lat="-27.03486" lon="-48.673055"><ele>7.8</ele></trkpt><trkpt lat="-27.034855" lon="-48.67309"><ele>7.4</ele></trkpt><trkpt lat="-27.034848" lon="-48.673125"><ele>7.3</ele></trkpt><trkpt lat="-27.034847" lon="-48.673167"><ele>7.7</ele></trkpt><trkpt lat="-27.03484" lon="-48.673188"><ele>8</ele></trkpt><trkpt lat="-27.034833" lon="-48.673218"><ele>7.9</ele></trkpt><trkpt lat="-27.034827" lon="-48.673247"><ele>7.8</ele></trkpt><trkpt lat="-27.034825" lon="-48.673277"><ele>7.7</ele></trkpt><trkpt lat="-27.034823" lon="-48.673308"><ele>7.1</ele></trkpt><trkpt lat="-27.03482" lon="-48.673342"><ele>7.1</ele></trkpt><trkpt lat="-27.034805" lon="-48.673378"><ele>6.6</ele></trkpt><trkpt lat="-27.034798" lon="-48.673415"><ele>7</ele></trkpt><trkpt lat="-27.034792" lon="-48.673452"><ele>7.2</ele></trkpt><trkpt lat="-27.034792" lon="-48.673452"><ele>7.2</ele></trkpt><trkpt lat="-27.034788" lon="-48.673493"><ele>7</ele></trkpt><trkpt lat="-27.034783" lon="-48.673548"><ele>7.2</ele></trkpt><trkpt lat="-27.034775" lon="-48.673595"><ele>6.9</ele></trkpt><trkpt lat="-27.034772" lon="-48.673628"><ele>6.8</ele></trkpt><trkpt lat="-27.034772" lon="-48.673663"><ele>6.7</ele></trkpt><trkpt lat="-27.034772" lon="-48.673698"><ele>6.6</ele></trkpt><trkpt lat="-27.03477" lon="-48.673735"><ele>6.4</ele></trkpt><trkpt lat="-27.03477" lon="-48.67377"><ele>6.3</ele></trkpt><trkpt lat="-27.03477" lon="-48.673805"><ele>6.3</ele></trkpt><trkpt lat="-27.034767" lon="-48.673832"><ele>6.2</ele></trkpt><trkpt lat="-27.034767" lon="-48.673853"><ele>5.8</ele></trkpt><trkpt lat="-27.034762" lon="-48.673872"><ele>5.6</ele></trkpt><trkpt lat="-27.03475" lon="-48.673885"><ele>4.6</ele></trkpt><trkpt lat="-27.034743" lon="-48.673888"><ele>4.1</ele></trkpt><trkpt lat="-27.034738" lon="-48.673892"><ele>3.7</ele></trkpt><trkpt lat="-27.034738" lon="-48.673892"><ele>3.7</ele></trkpt><trkpt lat="-27.034737" lon="-48.67389"><ele>3.7</ele></trkpt><trkpt lat="-27.034742" lon="-48.673898"><ele>3.8</ele></trkpt><trkpt lat="-27.034738" lon="-48.673898"><ele>4</ele></trkpt><trkpt lat="-27.034735" lon="-48.673902"><ele>4</ele></trkpt><trkpt lat="-27.034737" lon="-48.673898"><ele>4.1</ele></trkpt><trkpt lat="-27.034737" lon="-48.673898"><ele>4.1</ele></trkpt><trkpt lat="-27.03474" lon="-48.673895"><ele>4.2</ele></trkpt><trkpt lat="-27.034745" lon="-48.673895"><ele>4.1</ele></trkpt><trkpt lat="-27.034745" lon="-48.673892"><ele>4.2</ele></trkpt><trkpt lat="-27.034747" lon="-48.673892"><ele>4.5</ele></trkpt><trkpt lat="-27.034747" lon="-48.673892"><ele>4.5</ele></trkpt><trkpt lat="-27.034753" lon="-48.673893"><ele>4.5</ele></trkpt><trkpt lat="-27.034752" lon="-48.673903"><ele>4.4</ele></trkpt><trkpt lat="-27.034748" lon="-48.673918"><ele>4.3</ele></trkpt><trkpt lat="-27.034743" lon="-48.673932"><ele>4.4</ele></trkpt><trkpt lat="-27.034743" lon="-48.673932"><ele>4.4</ele></trkpt><trkpt lat="-27.034742" lon="-48.673948"><ele>4.6</ele></trkpt><trkpt lat="-27.034738" lon="-48.673967"><ele>4.7</ele></trkpt><trkpt lat="-27.034737" lon="-48.673983"><ele>4.7</ele></trkpt><trkpt lat="-27.034728" lon="-48.674"><ele>4.8</ele></trkpt><trkpt lat="-27.034723" lon="-48.674025"><ele>5.1</ele></trkpt><trkpt lat="-27.034723" lon="-48.674052"><ele>5.3</ele></trkpt><trkpt lat="-27.03472" lon="-48.67408"><ele>5.2</ele></trkpt><trkpt lat="-27.03472" lon="-48.674103"><ele>5</ele></trkpt><trkpt lat="-27.034717" lon="-48.674122"><ele>5.3</ele></trkpt><trkpt lat="-27.034715" lon="-48.674142"><ele>5.4</ele></trkpt><trkpt lat="-27.034713" lon="-48.674162"><ele>5.5</ele></trkpt><trkpt lat="-27.034715" lon="-48.674175"><ele>5.7</ele></trkpt><trkpt lat="-27.034715" lon="-48.674175"><ele>5.7</ele></trkpt><trkpt lat="-27.034715" lon="-48.674188"><ele>5.5</ele></trkpt><trkpt lat="-27.034715" lon="-48.674198"><ele>6</ele></trkpt><trkpt lat="-27.034717" lon="-48.674207"><ele>6.1</ele></trkpt><trkpt lat="-27.034712" lon="-48.67421"><ele>6</ele></trkpt><trkpt lat="-27.034713" lon="-48.674208"><ele>5.6</ele></trkpt><trkpt lat="-27.034713" lon="-48.674208"><ele>5.6</ele></trkpt><trkpt lat="-27.034713" lon="-48.674208"><ele>5.5</ele></trkpt><trkpt lat="-27.034715" lon="-48.67421"><ele>5.4</ele></trkpt><trkpt lat="-27.034717" lon="-48.674208"><ele>5.5</ele></trkpt><trkpt lat="-27.03472" lon="-48.67421"><ele>5.4</ele></trkpt><trkpt lat="-27.034715" lon="-48.674215"><ele>5.2</ele></trkpt><trkpt lat="-27.03472" lon="-48.674222"><ele>4.9</ele></trkpt><trkpt lat="-27.034723" lon="-48.674233"><ele>4.4</ele></trkpt><trkpt lat="-27.034723" lon="-48.67425"><ele>4.3</ele></trkpt><trkpt lat="-27.034717" lon="-48.674273"><ele>4.2</ele></trkpt><trkpt lat="-27.034713" lon="-48.67429"><ele>4</ele></trkpt><trkpt lat="-27.034707" lon="-48.67431"><ele>3.3</ele></trkpt><trkpt lat="-27.034702" lon="-48.674328"><ele>3.1</ele></trkpt><trkpt lat="-27.034702" lon="-48.674358"><ele>2.8</ele></trkpt><trkpt lat="-27.034707" lon="-48.67438"><ele>2.5</ele></trkpt><trkpt lat="-27.034705" lon="-48.674403"><ele>2.4</ele></trkpt><trkpt lat="-27.034703" lon="-48.674428"><ele>1.9</ele></trkpt><trkpt lat="-27.034702" lon="-48.674453"><ele>2.4</ele></trkpt><trkpt lat="-27.034697" lon="-48.674473"><ele>3.1</ele></trkpt><trkpt lat="-27.034692" lon="-48.67449"><ele>3.7</ele></trkpt><trkpt lat="-27.034685" lon="-48.674508"><ele>4.1</ele></trkpt><trkpt lat="-27.034683" lon="-48.67453"><ele>4.5</ele></trkpt><trkpt lat="-27.034683" lon="-48.67453"><ele>4.5</ele></trkpt><trkpt lat="-27.034678" lon="-48.674548"><ele>5.2</ele></trkpt><trkpt lat="-27.034673" lon="-48.674562"><ele>5.8</ele></trkpt><trkpt lat="-27.034672" lon="-48.67457"><ele>6.6</ele></trkpt><trkpt lat="-27.03467" lon="-48.67458"><ele>6.7</ele></trkpt><trkpt lat="-27.034668" lon="-48.674585"><ele>7</ele></trkpt><trkpt lat="-27.03466" lon="-48.67459"><ele>7.1</ele></trkpt><trkpt lat="-27.034653" lon="-48.674597"><ele>7.2</ele></trkpt><trkpt lat="-27.034658" lon="-48.67461"><ele>7.5</ele></trkpt><trkpt lat="-27.034655" lon="-48.67461"><ele>7.7</ele></trkpt><trkpt lat="-27.034655" lon="-48.674617"><ele>7.5</ele></trkpt><trkpt lat="-27.034657" lon="-48.674617"><ele>7.5</ele></trkpt><trkpt lat="-27.03466" lon="-48.674613"><ele>7.3</ele></trkpt><trkpt lat="-27.034662" lon="-48.674608"><ele>7.3</ele></trkpt><trkpt lat="-27.034662" lon="-48.674605"><ele>7.6</ele></trkpt><trkpt lat="-27.034665" lon="-48.674607"><ele>7.6</ele></trkpt><trkpt lat="-27.03467" lon="-48.674607"><ele>7.6</ele></trkpt><trkpt lat="-27.034677" lon="-48.674602"><ele>7.6</ele></trkpt><trkpt lat="-27.034682" lon="-48.674602"><ele>7.8</ele></trkpt><trkpt lat="-27.034682" lon="-48.674602"><ele>7.8</ele></trkpt><trkpt lat="-27.034682" lon="-48.674602"><ele>7.8</ele></trkpt><trkpt lat="-27.034685" lon="-48.674587"><ele>7.7</ele></trkpt><trkpt lat="-27.034682" lon="-48.674578"><ele>7.6</ele></trkpt><trkpt lat="-27.034678" lon="-48.674573"><ele>7.1</ele></trkpt><trkpt lat="-27.034678" lon="-48.674563"><ele>6.9</ele></trkpt><trkpt lat="-27.034678" lon="-48.674552"><ele>6.2</ele></trkpt><trkpt lat="-27.034678" lon="-48.674545"><ele>5.7</ele></trkpt><trkpt lat="-27.034682" lon="-48.674535"><ele>5.3</ele></trkpt><trkpt lat="-27.034682" lon="-48.674535"><ele>5.3</ele></trkpt><trkpt lat="-27.034682" lon="-48.674532"><ele>5.3</ele></trkpt><trkpt lat="-27.03468" lon="-48.674532"><ele>5.2</ele></trkpt><trkpt lat="-27.034682" lon="-48.67453"><ele>5.1</ele></trkpt><trkpt lat="-27.034685" lon="-48.67453"><ele>5</ele></trkpt><trkpt lat="-27.034685" lon="-48.67453"><ele>4.8</ele></trkpt><trkpt lat="-27.034688" lon="-48.67453"><ele>4.7</ele></trkpt><trkpt lat="-27.034688" lon="-48.67453"><ele>4.6</ele></trkpt><trkpt lat="-27.034685" lon="-48.674537"><ele>4.2</ele></trkpt><trkpt lat="-27.034682" lon="-48.674548"><ele>3.8</ele></trkpt><trkpt lat="-27.034682" lon="-48.674548"><ele>3.8</ele></trkpt><trkpt lat="-27.034677" lon="-48.674557"><ele>3.8</ele></trkpt><trkpt lat="-27.034675" lon="-48.674568"><ele>4.2</ele></trkpt><trkpt lat="-27.034677" lon="-48.674573"><ele>3.9</ele></trkpt><trkpt lat="-27.034675" lon="-48.674582"><ele>3.5</ele></trkpt><trkpt lat="-27.034675" lon="-48.674588"><ele>3.2</ele></trkpt><trkpt lat="-27.034673" lon="-48.674598"><ele>3.1</ele></trkpt><trkpt lat="-27.034675" lon="-48.674612"><ele>2.8</ele></trkpt><trkpt lat="-27.034675" lon="-48.674617"><ele>2.8</ele></trkpt><trkpt lat="-27.034678" lon="-48.674622"><ele>2.5</ele></trkpt><trkpt lat="-27.034678" lon="-48.67463"><ele>2.2</ele></trkpt><trkpt lat="-27.03468" lon="-48.674635"><ele>1.7</ele></trkpt><trkpt lat="-27.034683" lon="-48.674635"><ele>1.4</ele></trkpt><trkpt lat="-27.034687" lon="-48.674637"><ele>1.2</ele></trkpt><trkpt lat="-27.034688" lon="-48.674635"><ele>0.9</ele></trkpt><trkpt lat="-27.034688" lon="-48.674632"><ele>0.8</ele></trkpt><trkpt lat="-27.034685" lon="-48.67463"><ele>1.1</ele></trkpt><trkpt lat="-27.034682" lon="-48.674627"><ele>1.5</ele></trkpt><trkpt lat="-27.03468" lon="-48.674627"><ele>1.6</ele></trkpt><trkpt lat="-27.034678" lon="-48.674627"><ele>1.6</ele></trkpt><trkpt lat="-27.03468" lon="-48.674628"><ele>1.5</ele></trkpt><trkpt lat="-27.03468" lon="-48.674633"><ele>1.5</ele></trkpt><trkpt lat="-27.03468" lon="-48.674633"><ele>1.5</ele></trkpt><trkpt lat="-27.03468" lon="-48.674633"><ele>1.5</ele></trkpt><trkpt lat="-27.03468" lon="-48.674633"><ele>1.5</ele></trkpt><trkpt lat="-27.03468" lon="-48.674633"><ele>1.5</ele></trkpt><trkpt lat="-27.03468" lon="-48.674633"><ele>1.5</ele></trkpt><trkpt lat="-27.03468" lon="-48.674633"><ele>1.5</ele></trkpt><trkpt lat="-27.03468" lon="-48.674633"><ele>1.5</ele></trkpt><trkpt lat="-27.03468" lon="-48.674633"><ele>1.5</ele></trkpt><trkpt lat="-27.03468" lon="-48.674633"><ele>1.5</ele></trkpt><trkpt lat="-27.03468" lon="-48.674633"><ele>1.5</ele></trkpt><trkpt lat="-27.03468" lon="-48.674633"><ele>1.5</ele></trkpt><trkpt lat="-27.03468" lon="-48.674633"><ele>1.5</ele></trkpt><trkpt lat="-27.03468" lon="-48.674633"><ele>1.5</ele></trkpt><trkpt lat="-27.03468" lon="-48.674633"><ele>1.5</ele></trkpt><trkpt lat="-27.03468" lon="-48.674633"><ele>1.5</ele></trkpt><trkpt lat="-27.03468" lon="-48.674633"><ele>1.5</ele></trkpt><trkpt lat="-27.03468" lon="-48.674633"><ele>1.5</ele></trkpt><trkpt lat="-27.03468" lon="-48.674633"><ele>1.5</ele></trkpt><trkpt lat="-27.03468" lon="-48.674633"><ele>1.5</ele></trkpt><trkpt lat="-27.03468" lon="-48.674633"><ele>1.5</ele></trkpt><trkpt lat="-27.03468" lon="-48.674633"><ele>1.5</ele></trkpt><trkpt lat="-27.03468" lon="-48.674633"><ele>1.5</ele></trkpt><trkpt lat="-27.03468" lon="-48.674633"><ele>1.5</ele></trkpt><trkpt lat="-27.03468" lon="-48.674633"><ele>1.5</ele></trkpt><trkpt lat="-27.03468" lon="-48.674633"><ele>1.5</ele></trkpt><trkpt lat="-27.03468" lon="-48.674633"><ele>1.5</ele></trkpt><trkpt lat="-27.03468" lon="-48.674633"><ele>1.5</ele></trkpt><trkpt lat="-27.03468" lon="-48.674633"><ele>1.5</ele></trkpt><trkpt lat="-27.03468" lon="-48.674633"><ele>1.5</ele></trkpt><trkpt lat="-27.03468" lon="-48.674633"><ele>1.5</ele></trkpt><trkpt lat="-27.03468" lon="-48.674633"><ele>1.5</ele></trkpt><trkpt lat="-27.03468" lon="-48.674633"><ele>1.5</ele></trkpt><trkpt lat="-27.03468" lon="-48.674633"><ele>1.5</ele></trkpt><trkpt lat="-27.03468" lon="-48.674633"><ele>1.5</ele></trkpt><trkpt lat="-27.03468" lon="-48.674633"><ele>1.5</ele></trkpt><trkpt lat="-27.03468" lon="-48.674633"><ele>1.5</ele></trkpt><trkpt lat="-27.03468" lon="-48.674633"><ele>1.5</ele></trkpt><trkpt lat="-27.03468" lon="-48.6746"><ele>3.8</ele></trkpt><trkpt lat="-27.034683" lon="-48.6746"><ele>3.7</ele></trkpt><trkpt lat="-27.034682" lon="-48.674607"><ele>3.7</ele></trkpt><trkpt lat="-27.034683" lon="-48.674613"><ele>3.9</ele></trkpt><trkpt lat="-27.034685" lon="-48.674615"><ele>4</ele></trkpt><trkpt lat="-27.034685" lon="-48.674613"><ele>4</ele></trkpt><trkpt lat="-27.034685" lon="-48.674613"><ele>4</ele></trkpt><trkpt lat="-27.034683" lon="-48.674613"><ele>3.7</ele></trkpt><trkpt lat="-27.034683" lon="-48.674613"><ele>3.7</ele></trkpt><trkpt lat="-27.034683" lon="-48.674613"><ele>3.6</ele></trkpt><trkpt lat="-27.034683" lon="-48.674613"><ele>3.6</ele></trkpt><trkpt lat="-27.034683" lon="-48.674613"><ele>3.6</ele></trkpt><trkpt lat="-27.034683" lon="-48.674613"><ele>3.6</ele></trkpt><trkpt lat="-27.034683" lon="-48.674613"><ele>3.6</ele></trkpt><trkpt lat="-27.034683" lon="-48.674613"><ele>3.6</ele></trkpt><trkpt lat="-27.034683" lon="-48.674613"><ele>3.6</ele></trkpt><trkpt lat="-27.034683" lon="-48.674613"><ele>3.6</ele></trkpt><trkpt lat="-27.034683" lon="-48.674613"><ele>3.6</ele></trkpt><trkpt lat="-27.034683" lon="-48.674613"><ele>3.6</ele></trkpt><trkpt lat="-27.034683" lon="-48.674613"><ele>3.6</ele></trkpt><trkpt lat="-27.034683" lon="-48.674613"><ele>3.6</ele></trkpt><trkpt lat="-27.034683" lon="-48.674613"><ele>3.6</ele></trkpt><trkpt lat="-27.034683" lon="-48.674613"><ele>3.6</ele></trkpt><trkpt lat="-27.034683" lon="-48.674613"><ele>3.6</ele></trkpt><trkpt lat="-27.034683" lon="-48.674613"><ele>3.6</ele></trkpt><trkpt lat="-27.034683" lon="-48.674613"><ele>3.6</ele></trkpt><trkpt lat="-27.034683" lon="-48.674613"><ele>3.6</ele></trkpt><trkpt lat="-27.034683" lon="-48.674613"><ele>3.6</ele></trkpt><trkpt lat="-27.034683" lon="-48.674613"><ele>3.6</ele></trkpt><trkpt lat="-27.034683" lon="-48.674613"><ele>3.6</ele></trkpt><trkpt lat="-27.034683" lon="-48.674613"><ele>3.6</ele></trkpt><trkpt lat="-27.034683" lon="-48.674613"><ele>3.6</ele></trkpt><trkpt lat="-27.034683" lon="-48.674613"><ele>3.6</ele></trkpt><trkpt lat="-27.034668" lon="-48.674603"><ele>3.8</ele></trkpt><trkpt lat="-27.034665" lon="-48.674605"><ele>3.9</ele></trkpt><trkpt lat="-27.034665" lon="-48.674607"><ele>4.1</ele></trkpt><trkpt lat="-27.03467" lon="-48.674605"><ele>4.3</ele></trkpt><trkpt lat="-27.03467" lon="-48.674605"><ele>4.3</ele></trkpt><trkpt lat="-27.03467" lon="-48.674605"><ele>4.3</ele></trkpt><trkpt lat="-27.03467" lon="-48.674605"><ele>4.3</ele></trkpt><trkpt lat="-27.03467" lon="-48.674605"><ele>4.3</ele></trkpt><trkpt lat="-27.03467" lon="-48.674605"><ele>4.3</ele></trkpt><trkpt lat="-27.03467" lon="-48.674605"><ele>4.3</ele></trkpt><trkpt lat="-27.03467" lon="-48.674605"><ele>4.3</ele></trkpt><trkpt lat="-27.03467" lon="-48.674605"><ele>4.3</ele></trkpt><trkpt lat="-27.03467" lon="-48.674605"><ele>4.3</ele></trkpt><trkpt lat="-27.03467" lon="-48.674605"><ele>4.3</ele></trkpt><trkpt lat="-27.03467" lon="-48.674605"><ele>4.3</ele></trkpt><trkpt lat="-27.03467" lon="-48.674605"><ele>4.3</ele></trkpt><trkpt lat="-27.03467" lon="-48.674605"><ele>4.3</ele></trkpt><trkpt lat="-27.03467" lon="-48.674605"><ele>4.3</ele></trkpt><trkpt lat="-27.03467" lon="-48.674605"><ele>4.3</ele></trkpt><trkpt lat="-27.03467" lon="-48.674605"><ele>4.3</ele></trkpt><trkpt lat="-27.03467" lon="-48.674605"><ele>4.3</ele></trkpt><trkpt lat="-27.03467" lon="-48.674605"><ele>4.3</ele></trkpt><trkpt lat="-27.03467" lon="-48.674605"><ele>4.3</ele></trkpt><trkpt lat="-27.03467" lon="-48.674605"><ele>4.3</ele></trkpt><trkpt lat="-27.03467" lon="-48.674605"><ele>4.3</ele></trkpt><trkpt lat="-27.03467" lon="-48.674605"><ele>4.3</ele></trkpt><trkpt lat="-27.03467" lon="-48.674605"><ele>4.3</ele></trkpt><trkpt lat="-27.03467" lon="-48.674605"><ele>4.3</ele></trkpt><trkpt lat="-27.03467" lon="-48.674605"><ele>4.3</ele></trkpt><trkpt lat="-27.03467" lon="-48.674605"><ele>4.3</ele></trkpt><trkpt lat="-27.03467" lon="-48.674605"><ele>4.3</ele></trkpt><trkpt lat="-27.03467" lon="-48.674605"><ele>4.3</ele></trkpt><trkpt lat="-27.03467" lon="-48.674605"><ele>4.3</ele></trkpt><trkpt lat="-27.03467" lon="-48.674605"><ele>4.3</ele></trkpt><trkpt lat="-27.03467" lon="-48.674605"><ele>4.3</ele></trkpt><trkpt lat="-27.03467" lon="-48.674605"><ele>4.3</ele></trkpt><trkpt lat="-27.03467" lon="-48.674605"><ele>4.3</ele></trkpt><trkpt lat="-27.03467" lon="-48.674605"><ele>4.3</ele></trkpt><trkpt lat="-27.03467" lon="-48.674605"><ele>4.3</ele></trkpt><trkpt lat="-27.03467" lon="-48.674605"><ele>4.3</ele></trkpt><trkpt lat="-27.03467" lon="-48.674605"><ele>4.3</ele></trkpt><trkpt lat="-27.03467" lon="-48.674605"><ele>4.3</ele></trkpt><trkpt lat="-27.03467" lon="-48.674605"><ele>4.3</ele></trkpt><trkpt lat="-27.03467" lon="-48.674605"><ele>4.3</ele></trkpt><trkpt lat="-27.03467" lon="-48.674605"><ele>4.3</ele></trkpt><trkpt lat="-27.03467" lon="-48.674605"><ele>4.3</ele></trkpt><trkpt lat="-27.03467" lon="-48.674605"><ele>4.3</ele></trkpt><trkpt lat="-27.03467" lon="-48.674605"><ele>4.3</ele></trkpt><trkpt lat="-27.03467" lon="-48.674605"><ele>4.3</ele></trkpt><trkpt lat="-27.03467" lon="-48.674605"><ele>4.3</ele></trkpt><trkpt lat="-27.03467" lon="-48.674605"><ele>4.3</ele></trkpt><trkpt lat="-27.03467" lon="-48.674605"><ele>4.3</ele></trkpt><trkpt lat="-27.03467" lon="-48.674605"><ele>4.3</ele></trkpt><trkpt lat="-27.03467" lon="-48.674605"><ele>4.3</ele></trkpt><trkpt lat="-27.03467" lon="-48.674605"><ele>4.3</ele></trkpt><trkpt lat="-27.03467" lon="-48.674605"><ele>4.3</ele></trkpt><trkpt lat="-27.03467" lon="-48.674605"><ele>4.3</ele></trkpt><trkpt lat="-27.03467" lon="-48.674605"><ele>4.3</ele></trkpt><trkpt lat="-27.03467" lon="-48.674605"><ele>4.3</ele></trkpt><trkpt lat="-27.03467" lon="-48.674605"><ele>4.3</ele></trkpt><trkpt lat="-27.03467" lon="-48.674605"><ele>4.3</ele></trkpt><trkpt lat="-27.03467" lon="-48.674605"><ele>4.3</ele></trkpt><trkpt lat="-27.03467" lon="-48.674605"><ele>4.3</ele></trkpt><trkpt lat="-27.03467" lon="-48.674605"><ele>4.3</ele></trkpt><trkpt lat="-27.03467" lon="-48.674605"><ele>4.3</ele></trkpt><trkpt lat="-27.03467" lon="-48.674605"><ele>4.3</ele></trkpt><trkpt lat="-27.03467" lon="-48.674605"><ele>4.3</ele></trkpt><trkpt lat="-27.03467" lon="-48.674605"><ele>4.3</ele></trkpt><trkpt lat="-27.03467" lon="-48.674605"><ele>4.3</ele></trkpt><trkpt lat="-27.03467" lon="-48.674605"><ele>4.3</ele></trkpt><trkpt lat="-27.03467" lon="-48.674605"><ele>4.3</ele></trkpt><trkpt lat="-27.03467" lon="-48.674605"><ele>4.3</ele></trkpt><trkpt lat="-27.03467" lon="-48.674605"><ele>4.3</ele></trkpt><trkpt lat="-27.03467" lon="-48.674605"><ele>4.3</ele></trkpt><trkpt lat="-27.03467" lon="-48.674605"><ele>4.3</ele></trkpt><trkpt lat="-27.03467" lon="-48.674605"><ele>4.3</ele></trkpt><trkpt lat="-27.03467" lon="-48.674605"><ele>4.3</ele></trkpt><trkpt lat="-27.03467" lon="-48.674605"><ele>4.3</ele></trkpt><trkpt lat="-27.03467" lon="-48.674605"><ele>4.3</ele></trkpt><trkpt lat="-27.03467" lon="-48.674605"><ele>4.3</ele></trkpt><trkpt lat="-27.03467" lon="-48.674605"><ele>4.3</ele></trkpt><trkpt lat="-27.03467" lon="-48.674605"><ele>4.3</ele></trkpt><trkpt lat="-27.03467" lon="-48.674605"><ele>4.3</ele></trkpt><trkpt lat="-27.03467" lon="-48.674605"><ele>4.3</ele></trkpt><trkpt lat="-27.03467" lon="-48.674605"><ele>4.3</ele></trkpt><trkpt lat="-27.03467" lon="-48.674605"><ele>4.3</ele></trkpt><trkpt lat="-27.03467" lon="-48.674605"><ele>4.3</ele></trkpt><trkpt lat="-27.03467" lon="-48.674605"><ele>4.3</ele></trkpt><trkpt lat="-27.03467" lon="-48.674605"><ele>4.3</ele></trkpt><trkpt lat="-27.03467" lon="-48.674605"><ele>4.3</ele></trkpt><trkpt lat="-27.03467" lon="-48.674605"><ele>4.3</ele></trkpt><trkpt lat="-27.03467" lon="-48.674605"><ele>4.3</ele></trkpt><trkpt lat="-27.03467" lon="-48.674605"><ele>4.3</ele></trkpt><trkpt lat="-27.03467" lon="-48.674605"><ele>4.3</ele></trkpt><trkpt lat="-27.03467" lon="-48.674605"><ele>4.3</ele></trkpt><trkpt lat="-27.03467" lon="-48.674605"><ele>4.3</ele></trkpt><trkpt lat="-27.03467" lon="-48.674605"><ele>4.3</ele></trkpt><trkpt lat="-27.03467" lon="-48.674605"><ele>4.3</ele></trkpt><trkpt lat="-27.03467" lon="-48.674605"><ele>4.3</ele></trkpt><trkpt lat="-27.03467" lon="-48.674605"><ele>4.3</ele></trkpt><trkpt lat="-27.03467" lon="-48.674605"><ele>4.3</ele></trkpt><trkpt lat="-27.03467" lon="-48.674605"><ele>4.3</ele></trkpt><trkpt lat="-27.03467" lon="-48.674605"><ele>4.3</ele></trkpt><trkpt lat="-27.03467" lon="-48.674605"><ele>4.3</ele></trkpt><trkpt lat="-27.03467" lon="-48.674605"><ele>4.3</ele></trkpt><trkpt lat="-27.03467" lon="-48.674605"><ele>4.3</ele></trkpt><trkpt lat="-27.03467" lon="-48.674605"><ele>4.3</ele></trkpt><trkpt lat="-27.03467" lon="-48.674605"><ele>4.3</ele></trkpt><trkpt lat="-27.03467" lon="-48.674605"><ele>4.3</ele></trkpt><trkpt lat="-27.03467" lon="-48.674605"><ele>4.3</ele></trkpt><trkpt lat="-27.03467" lon="-48.674605"><ele>4.3</ele></trkpt><trkpt lat="-27.03467" lon="-48.674605"><ele>4.3</ele></trkpt><trkpt lat="-27.03467" lon="-48.674605"><ele>4.3</ele></trkpt><trkpt lat="-27.03467" lon="-48.674605"><ele>4.3</ele></trkpt><trkpt lat="-27.03467" lon="-48.674605"><ele>4.3</ele></trkpt><trkpt lat="-27.03467" lon="-48.674605"><ele>4.3</ele></trkpt><trkpt lat="-27.03467" lon="-48.674605"><ele>4.3</ele></trkpt><trkpt lat="-27.03467" lon="-48.674605"><ele>4.3</ele></trkpt><trkpt lat="-27.03467" lon="-48.674605"><ele>4.3</ele></trkpt><trkpt lat="-27.03467" lon="-48.674605"><ele>4.3</ele></trkpt><trkpt lat="-27.03467" lon="-48.674605"><ele>4.3</ele></trkpt><trkpt lat="-27.03467" lon="-48.674605"><ele>4.3</ele></trkpt><trkpt lat="-27.03467" lon="-48.674605"><ele>4.3</ele></trkpt><trkpt lat="-27.03467" lon="-48.674605"><ele>4.3</ele></trkpt><trkpt lat="-27.03467" lon="-48.674605"><ele>4.3</ele></trkpt><trkpt lat="-27.03467" lon="-48.674605"><ele>4.3</ele></trkpt><trkpt lat="-27.03467" lon="-48.674605"><ele>4.3</ele></trkpt><trkpt lat="-27.03467" lon="-48.674605"><ele>4.3</ele></trkpt><trkpt lat="-27.03467" lon="-48.674605"><ele>4.3</ele></trkpt><trkpt lat="-27.03467" lon="-48.674605"><ele>4.3</ele></trkpt><trkpt lat="-27.03467" lon="-48.674605"><ele>4.3</ele></trkpt><trkpt lat="-27.03467" lon="-48.674605"><ele>4.3</ele></trkpt><trkpt lat="-27.03467" lon="-48.674605"><ele>4.3</ele></trkpt><trkpt lat="-27.03467" lon="-48.674605"><ele>4.3</ele></trkpt><trkpt lat="-27.03467" lon="-48.674605"><ele>4.3</ele></trkpt><trkpt lat="-27.03467" lon="-48.674605"><ele>4.3</ele></trkpt><trkpt lat="-27.03467" lon="-48.674605"><ele>4.3</ele></trkpt><trkpt lat="-27.03467" lon="-48.674605"><ele>4.3</ele></trkpt><trkpt lat="-27.03467" lon="-48.674605"><ele>4.3</ele></trkpt><trkpt lat="-27.03467" lon="-48.674605"><ele>4.3</ele></trkpt><trkpt lat="-27.03467" lon="-48.674605"><ele>4.3</ele></trkpt><trkpt lat="-27.03467" lon="-48.674605"><ele>4.3</ele></trkpt><trkpt lat="-27.03467" lon="-48.674605"><ele>4.3</ele></trkpt><trkpt lat="-27.03467" lon="-48.674605"><ele>4.3</ele></trkpt><trkpt lat="-27.03467" lon="-48.674605"><ele>4.3</ele></trkpt><trkpt lat="-27.03467" lon="-48.674605"><ele>4.3</ele></trkpt><trkpt lat="-27.03467" lon="-48.674605"><ele>4.3</ele></trkpt><trkpt lat="-27.03467" lon="-48.674605"><ele>4.3</ele></trkpt><trkpt lat="-27.03467" lon="-48.674605"><ele>4.3</ele></trkpt><trkpt lat="-27.03467" lon="-48.674605"><ele>4.3</ele></trkpt><trkpt lat="-27.03467" lon="-48.674605"><ele>4.3</ele></trkpt><trkpt lat="-27.03467" lon="-48.674605"><ele>4.3</ele></trkpt><trkpt lat="-27.03467" lon="-48.674648"><ele>5.9</ele></trkpt><trkpt lat="-27.034667" lon="-48.67466"><ele>6.1</ele></trkpt><trkpt lat="-27.03466" lon="-48.67467"><ele>6.3</ele></trkpt><trkpt lat="-27.034655" lon="-48.674683"><ele>6.4</ele></trkpt><trkpt lat="-27.03465" lon="-48.6747"><ele>6.4</ele></trkpt><trkpt lat="-27.034645" lon="-48.674715"><ele>6.6</ele></trkpt><trkpt lat="-27.034633" lon="-48.674733"><ele>6.7</ele></trkpt><trkpt lat="-27.034627" lon="-48.674748"><ele>6.6</ele></trkpt><trkpt lat="-27.034623" lon="-48.674775"><ele>7</ele></trkpt><trkpt lat="-27.034615" lon="-48.674813"><ele>7.6</ele></trkpt><trkpt lat="-27.034618" lon="-48.67485"><ele>8</ele></trkpt><trkpt lat="-27.034622" lon="-48.674888"><ele>8.6</ele></trkpt><trkpt lat="-27.03462" lon="-48.674938"><ele>9.2</ele></trkpt><trkpt lat="-27.03461" lon="-48.674973"><ele>8.4</ele></trkpt><trkpt lat="-27.034608" lon="-48.675003"><ele>8.1</ele></trkpt><trkpt lat="-27.034607" lon="-48.675013"><ele>8.1</ele></trkpt><trkpt lat="-27.03461" lon="-48.67503"><ele>7.8</ele></trkpt><trkpt lat="-27.034615" lon="-48.675042"><ele>8.2</ele></trkpt><trkpt lat="-27.034612" lon="-48.675047"><ele>8.7</ele></trkpt><trkpt lat="-27.034613" lon="-48.67505"><ele>9</ele></trkpt><trkpt lat="-27.034613" lon="-48.67505"><ele>9</ele></trkpt><trkpt lat="-27.034613" lon="-48.675052"><ele>8.8</ele></trkpt><trkpt lat="-27.034615" lon="-48.675052"><ele>8.8</ele></trkpt><trkpt lat="-27.034617" lon="-48.675052"><ele>8.8</ele></trkpt><trkpt lat="-27.034617" lon="-48.675053"><ele>8.9</ele></trkpt><trkpt lat="-27.034613" lon="-48.675053"><ele>9.1</ele></trkpt><trkpt lat="-27.034613" lon="-48.675055"><ele>9.5</ele></trkpt><trkpt lat="-27.03462" lon="-48.675065"><ele>9.6</ele></trkpt><trkpt lat="-27.03462" lon="-48.675065"><ele>9.6</ele></trkpt><trkpt lat="-27.034627" lon="-48.675083"><ele>9.6</ele></trkpt><trkpt lat="-27.034618" lon="-48.675112"><ele>9.7</ele></trkpt><trkpt lat="-27.03461" lon="-48.675137"><ele>9.7</ele></trkpt><trkpt lat="-27.034607" lon="-48.675167"><ele>9.8</ele></trkpt><trkpt lat="-27.034607" lon="-48.675195"><ele>9.6</ele></trkpt><trkpt lat="-27.034605" lon="-48.67522"><ele>9.6</ele></trkpt><trkpt lat="-27.034603" lon="-48.675245"><ele>9.1</ele></trkpt><trkpt lat="-27.034602" lon="-48.67527"><ele>8.5</ele></trkpt><trkpt lat="-27.034597" lon="-48.675292"><ele>8.4</ele></trkpt><trkpt lat="-27.034597" lon="-48.675292"><ele>8.4</ele></trkpt><trkpt lat="-27.034593" lon="-48.675312"><ele>7.7</ele></trkpt><trkpt lat="-27.034588" lon="-48.675328"><ele>7.4</ele></trkpt><trkpt lat="-27.034583" lon="-48.675347"><ele>6.9</ele></trkpt><trkpt lat="-27.03458" lon="-48.675362"><ele>6.3</ele></trkpt><trkpt lat="-27.034578" lon="-48.675368"><ele>5.9</ele></trkpt><trkpt lat="-27.03458" lon="-48.675377"><ele>5.4</ele></trkpt><trkpt lat="-27.03458" lon="-48.675377"><ele>5.5</ele></trkpt><trkpt lat="-27.034578" lon="-48.675378"><ele>5.7</ele></trkpt><trkpt lat="-27.034577" lon="-48.67538"><ele>5.6</ele></trkpt><trkpt lat="-27.034577" lon="-48.67538"><ele>5.6</ele></trkpt><trkpt lat="-27.034573" lon="-48.675383"><ele>5.6</ele></trkpt><trkpt lat="-27.034568" lon="-48.675382"><ele>5.8</ele></trkpt><trkpt lat="-27.034568" lon="-48.675382"><ele>5.8</ele></trkpt><trkpt lat="-27.03457" lon="-48.675382"><ele>5.9</ele></trkpt><trkpt lat="-27.034578" lon="-48.67538"><ele>5.9</ele></trkpt><trkpt lat="-27.034585" lon="-48.675378"><ele>6</ele></trkpt><trkpt lat="-27.034585" lon="-48.675378"><ele>6</ele></trkpt><trkpt lat="-27.034585" lon="-48.675378"><ele>6</ele></trkpt><trkpt lat="-27.034585" lon="-48.675378"><ele>6</ele></trkpt><trkpt lat="-27.034585" lon="-48.675378"><ele>6</ele></trkpt><trkpt lat="-27.034585" lon="-48.675378"><ele>6</ele></trkpt><trkpt lat="-27.034585" lon="-48.675378"><ele>6</ele></trkpt><trkpt lat="-27.034585" lon="-48.675378"><ele>6</ele></trkpt><trkpt lat="-27.034598" lon="-48.675387"><ele>6.6</ele></trkpt><trkpt lat="-27.034593" lon="-48.675402"><ele>6.6</ele></trkpt><trkpt lat="-27.03459" lon="-48.67542"><ele>6.8</ele></trkpt><trkpt lat="-27.034587" lon="-48.675445"><ele>6.9</ele></trkpt><trkpt lat="-27.034582" lon="-48.675478"><ele>7.1</ele></trkpt><trkpt lat="-27.034573" lon="-48.675512"><ele>7.3</ele></trkpt><trkpt lat="-27.034565" lon="-48.675548"><ele>7.3</ele></trkpt><trkpt lat="-27.034562" lon="-48.675585"><ele>7.3</ele></trkpt><trkpt lat="-27.034557" lon="-48.675627"><ele>7.2</ele></trkpt><trkpt lat="-27.034552" lon="-48.675667"><ele>7.1</ele></trkpt><trkpt lat="-27.034547" lon="-48.675705"><ele>7</ele></trkpt><trkpt lat="-27.03454" lon="-48.675747"><ele>6.9</ele></trkpt><trkpt lat="-27.034533" lon="-48.675783"><ele>7.2</ele></trkpt><trkpt lat="-27.034532" lon="-48.675805"><ele>7.3</ele></trkpt><trkpt lat="-27.034537" lon="-48.675812"><ele>7.6</ele></trkpt><trkpt lat="-27.034537" lon="-48.675822"><ele>7.4</ele></trkpt><trkpt lat="-27.034533" lon="-48.675825"><ele>7.3</ele></trkpt><trkpt lat="-27.034533" lon="-48.675825"><ele>7.3</ele></trkpt><trkpt lat="-27.034535" lon="-48.675823"><ele>7.1</ele></trkpt><trkpt lat="-27.034537" lon="-48.675827"><ele>7.2</ele></trkpt><trkpt lat="-27.034538" lon="-48.675827"><ele>7.3</ele></trkpt><trkpt lat="-27.034538" lon="-48.675828"><ele>7.3</ele></trkpt><trkpt lat="-27.034538" lon="-48.675828"><ele>7.3</ele></trkpt><trkpt lat="-27.034538" lon="-48.67583"><ele>7.3</ele></trkpt><trkpt lat="-27.034538" lon="-48.67583"><ele>7.2</ele></trkpt><trkpt lat="-27.034538" lon="-48.67583"><ele>7.1</ele></trkpt><trkpt lat="-27.034538" lon="-48.675832"><ele>7.1</ele></trkpt><trkpt lat="-27.034535" lon="-48.675835"><ele>7.2</ele></trkpt><trkpt lat="-27.034535" lon="-48.675835"><ele>7.2</ele></trkpt><trkpt lat="-27.034535" lon="-48.675835"><ele>7.2</ele></trkpt><trkpt lat="-27.034535" lon="-48.675835"><ele>7.2</ele></trkpt><trkpt lat="-27.034535" lon="-48.675835"><ele>7.2</ele></trkpt><trkpt lat="-27.034535" lon="-48.675835"><ele>7.2</ele></trkpt><trkpt lat="-27.034535" lon="-48.675835"><ele>7.2</ele></trkpt><trkpt lat="-27.034535" lon="-48.675835"><ele>7.2</ele></trkpt><trkpt lat="-27.034535" lon="-48.675835"><ele>7.2</ele></trkpt><trkpt lat="-27.034535" lon="-48.675835"><ele>7.2</ele></trkpt><trkpt lat="-27.034535" lon="-48.675835"><ele>7.2</ele></trkpt><trkpt lat="-27.034535" lon="-48.675835"><ele>7.2</ele></trkpt><trkpt lat="-27.034535" lon="-48.675835"><ele>7.2</ele></trkpt><trkpt lat="-27.034535" lon="-48.675835"><ele>7.2</ele></trkpt><trkpt lat="-27.034535" lon="-48.675835"><ele>7.2</ele></trkpt><trkpt lat="-27.034535" lon="-48.675835"><ele>7.2</ele></trkpt><trkpt lat="-27.034535" lon="-48.675835"><ele>7.2</ele></trkpt><trkpt lat="-27.034535" lon="-48.675835"><ele>7.2</ele></trkpt><trkpt lat="-27.034535" lon="-48.675835"><ele>7.2</ele></trkpt><trkpt lat="-27.034535" lon="-48.675835"><ele>7.2</ele></trkpt><trkpt lat="-27.034535" lon="-48.675835"><ele>7.2</ele></trkpt><trkpt lat="-27.034535" lon="-48.675835"><ele>7.2</ele></trkpt><trkpt lat="-27.03454" lon="-48.675857"><ele>5.7</ele></trkpt><trkpt lat="-27.03454" lon="-48.675865"><ele>6.2</ele></trkpt><trkpt lat="-27.034542" lon="-48.675885"><ele>6.7</ele></trkpt><trkpt lat="-27.034535" lon="-48.675908"><ele>6.8</ele></trkpt><trkpt lat="-27.034535" lon="-48.675928"><ele>6.5</ele></trkpt><trkpt lat="-27.034533" lon="-48.675952"><ele>6.3</ele></trkpt><trkpt lat="-27.034532" lon="-48.675983"><ele>6</ele></trkpt><trkpt lat="-27.034528" lon="-48.67602"><ele>5.7</ele></trkpt><trkpt lat="-27.034523" lon="-48.676062"><ele>5.9</ele></trkpt><trkpt lat="-27.034518" lon="-48.676098"><ele>5.7</ele></trkpt><trkpt lat="-27.034513" lon="-48.676128"><ele>5.3</ele></trkpt><trkpt lat="-27.03451" lon="-48.676155"><ele>5</ele></trkpt><trkpt lat="-27.03451" lon="-48.676177"><ele>5</ele></trkpt><trkpt lat="-27.034507" lon="-48.676202"><ele>4.5</ele></trkpt><trkpt lat="-27.034507" lon="-48.676217"><ele>4.2</ele></trkpt><trkpt lat="-27.034497" lon="-48.676242"><ele>3.7</ele></trkpt><trkpt lat="-27.03449" lon="-48.676265"><ele>3.4</ele></trkpt><trkpt lat="-27.034483" lon="-48.676293"><ele>3.2</ele></trkpt><trkpt lat="-27.03448" lon="-48.67633"><ele>3.7</ele></trkpt><trkpt lat="-27.034478" lon="-48.67636"><ele>4.2</ele></trkpt><trkpt lat="-27.034477" lon="-48.676385"><ele>4.8</ele></trkpt><trkpt lat="-27.034478" lon="-48.676405"><ele>5.2</ele></trkpt><trkpt lat="-27.034478" lon="-48.67643"><ele>5</ele></trkpt><trkpt lat="-27.034478" lon="-48.67643"><ele>5</ele></trkpt><trkpt lat="-27.034475" lon="-48.676458"><ele>5.5</ele></trkpt><trkpt lat="-27.034472" lon="-48.676482"><ele>5.4</ele></trkpt><trkpt lat="-27.034463" lon="-48.676498"><ele>5.3</ele></trkpt><trkpt lat="-27.034463" lon="-48.676508"><ele>5.4</ele></trkpt><trkpt lat="-27.034465" lon="-48.67651"><ele>5.8</ele></trkpt><trkpt lat="-27.034463" lon="-48.676512"><ele>5.8</ele></trkpt><trkpt lat="-27.034465" lon="-48.67651"><ele>6</ele></trkpt><trkpt lat="-27.034467" lon="-48.676512"><ele>6</ele></trkpt><trkpt lat="-27.034467" lon="-48.676515"><ele>5.9</ele></trkpt><trkpt lat="-27.034465" lon="-48.676515"><ele>5.7</ele></trkpt><trkpt lat="-27.034463" lon="-48.676513"><ele>5.6</ele></trkpt><trkpt lat="-27.034462" lon="-48.67651"><ele>5.6</ele></trkpt><trkpt lat="-27.034465" lon="-48.67651"><ele>6.1</ele></trkpt><trkpt lat="-27.03447" lon="-48.676513"><ele>6.5</ele></trkpt><trkpt lat="-27.034473" lon="-48.676517"><ele>6.8</ele></trkpt><trkpt lat="-27.034473" lon="-48.676517"><ele>6.8</ele></trkpt><trkpt lat="-27.034473" lon="-48.676517"><ele>6.8</ele></trkpt><trkpt lat="-27.034473" lon="-48.676517"><ele>6.8</ele></trkpt><trkpt lat="-27.034473" lon="-48.676517"><ele>6.8</ele></trkpt><trkpt lat="-27.034473" lon="-48.676517"><ele>6.8</ele></trkpt><trkpt lat="-27.034473" lon="-48.676517"><ele>6.8</ele></trkpt><trkpt lat="-27.034473" lon="-48.676517"><ele>6.8</ele></trkpt><trkpt lat="-27.03445" lon="-48.676508"><ele>6.1</ele></trkpt><trkpt lat="-27.03445" lon="-48.676508"><ele>6.1</ele></trkpt><trkpt lat="-27.034442" lon="-48.676503"><ele>6.2</ele></trkpt><trkpt lat="-27.034442" lon="-48.676505"><ele>6.4</ele></trkpt><trkpt lat="-27.034447" lon="-48.676503"><ele>6.7</ele></trkpt><trkpt lat="-27.034448" lon="-48.676505"><ele>6.9</ele></trkpt><trkpt lat="-27.034452" lon="-48.676502"><ele>7.1</ele></trkpt><trkpt lat="-27.034452" lon="-48.6765"><ele>7.3</ele></trkpt><trkpt lat="-27.034452" lon="-48.676498"><ele>7.5</ele></trkpt><trkpt lat="-27.034452" lon="-48.676495"><ele>7.2</ele></trkpt><trkpt lat="-27.03445" lon="-48.676493"><ele>7.2</ele></trkpt><trkpt lat="-27.03445" lon="-48.676493"><ele>7.2</ele></trkpt><trkpt lat="-27.03445" lon="-48.676492"><ele>7.1</ele></trkpt><trkpt lat="-27.034452" lon="-48.676488"><ele>7</ele></trkpt><trkpt lat="-27.034452" lon="-48.676488"><ele>7</ele></trkpt><trkpt lat="-27.034452" lon="-48.676488"><ele>7</ele></trkpt><trkpt lat="-27.034452" lon="-48.676488"><ele>7</ele></trkpt><trkpt lat="-27.034452" lon="-48.676488"><ele>7</ele></trkpt><trkpt lat="-27.034452" lon="-48.676488"><ele>7</ele></trkpt><trkpt lat="-27.034452" lon="-48.676488"><ele>7</ele></trkpt><trkpt lat="-27.034452" lon="-48.676488"><ele>7</ele></trkpt><trkpt lat="-27.034452" lon="-48.676488"><ele>7</ele></trkpt><trkpt lat="-27.034452" lon="-48.676488"><ele>7</ele></trkpt><trkpt lat="-27.034452" lon="-48.676488"><ele>7</ele></trkpt><trkpt lat="-27.034452" lon="-48.676488"><ele>7</ele></trkpt><trkpt lat="-27.034452" lon="-48.676488"><ele>7</ele></trkpt><trkpt lat="-27.034452" lon="-48.676488"><ele>7</ele></trkpt><trkpt lat="-27.034452" lon="-48.676488"><ele>7</ele></trkpt><trkpt lat="-27.034452" lon="-48.676488"><ele>7</ele></trkpt><trkpt lat="-27.034452" lon="-48.676488"><ele>7</ele></trkpt><trkpt lat="-27.034452" lon="-48.676488"><ele>7</ele></trkpt><trkpt lat="-27.034452" lon="-48.676488"><ele>7</ele></trkpt><trkpt lat="-27.034452" lon="-48.676488"><ele>7</ele></trkpt><trkpt lat="-27.034452" lon="-48.676488"><ele>7</ele></trkpt><trkpt lat="-27.034452" lon="-48.676488"><ele>7</ele></trkpt><trkpt lat="-27.034452" lon="-48.676488"><ele>7</ele></trkpt><trkpt lat="-27.034452" lon="-48.676488"><ele>7</ele></trkpt><trkpt lat="-27.034452" lon="-48.676488"><ele>7</ele></trkpt><trkpt lat="-27.034452" lon="-48.676488"><ele>7</ele></trkpt><trkpt lat="-27.034452" lon="-48.676488"><ele>7</ele></trkpt><trkpt lat="-27.034452" lon="-48.676488"><ele>7</ele></trkpt><trkpt lat="-27.034452" lon="-48.676488"><ele>7</ele></trkpt><trkpt lat="-27.034452" lon="-48.676488"><ele>7</ele></trkpt><trkpt lat="-27.034452" lon="-48.676488"><ele>7</ele></trkpt><trkpt lat="-27.034452" lon="-48.676488"><ele>7</ele></trkpt><trkpt lat="-27.034452" lon="-48.676488"><ele>7</ele></trkpt><trkpt lat="-27.034452" lon="-48.676488"><ele>7</ele></trkpt><trkpt lat="-27.034452" lon="-48.676488"><ele>7</ele></trkpt><trkpt lat="-27.034452" lon="-48.676488"><ele>7</ele></trkpt><trkpt lat="-27.034452" lon="-48.676488"><ele>7</ele></trkpt><trkpt lat="-27.034452" lon="-48.676488"><ele>7</ele></trkpt><trkpt lat="-27.034452" lon="-48.676488"><ele>7</ele></trkpt><trkpt lat="-27.034452" lon="-48.676488"><ele>7</ele></trkpt><trkpt lat="-27.034452" lon="-48.676488"><ele>7</ele></trkpt><trkpt lat="-27.034452" lon="-48.676488"><ele>7</ele></trkpt><trkpt lat="-27.034452" lon="-48.676488"><ele>7</ele></trkpt><trkpt lat="-27.034452" lon="-48.676488"><ele>7</ele></trkpt><trkpt lat="-27.034452" lon="-48.676488"><ele>7</ele></trkpt><trkpt lat="-27.034452" lon="-48.676488"><ele>7</ele></trkpt><trkpt lat="-27.034452" lon="-48.676488"><ele>7</ele></trkpt><trkpt lat="-27.034452" lon="-48.676488"><ele>7</ele></trkpt><trkpt lat="-27.03447" lon="-48.676532"><ele>6.2</ele></trkpt><trkpt lat="-27.034475" lon="-48.676542"><ele>6.1</ele></trkpt><trkpt lat="-27.03448" lon="-48.676555"><ele>5.8</ele></trkpt><trkpt lat="-27.034492" lon="-48.676562"><ele>5.7</ele></trkpt><trkpt lat="-27.034507" lon="-48.676562"><ele>6.1</ele></trkpt><trkpt lat="-27.034508" lon="-48.676555"><ele>6.5</ele></trkpt><trkpt lat="-27.034513" lon="-48.676545"><ele>6.6</ele></trkpt><trkpt lat="-27.034523" lon="-48.676537"><ele>6.5</ele></trkpt><trkpt lat="-27.034532" lon="-48.676525"><ele>6.4</ele></trkpt><trkpt lat="-27.034535" lon="-48.676518"><ele>6.3</ele></trkpt><trkpt lat="-27.034535" lon="-48.676517"><ele>6.2</ele></trkpt><trkpt lat="-27.034533" lon="-48.676512"><ele>6.1</ele></trkpt><trkpt lat="-27.034535" lon="-48.676513"><ele>6.3</ele></trkpt><trkpt lat="-27.034537" lon="-48.676515"><ele>6.6</ele></trkpt><trkpt lat="-27.034535" lon="-48.676518"><ele>6.8</ele></trkpt></trkseg></trk></gpx>