<?xml version="1.0" encoding="UTF-8"?>
<gpx xmlns="http://www.topografix.com/GPX/1/1" version="1.1" creator="@dwayneparton/geojson-to-gpx"><wpt lat="-27.024282" lon="-48.641752"><ele>8.776459</ele><name>2 faixas</name></wpt><wpt lat="-27.021695" lon="-48.641821"><ele>23.185547</ele><name>57</name></wpt><wpt lat="-27.024273" lon="-48.641765"><ele>8.239777</ele><name>80</name></wpt><wpt lat="-27.02428" lon="-48.641766"><ele>8.411591</ele><name>225</name></wpt><wpt lat="-27.021666" lon="-48.641828"><ele>37.589783</ele><name>245</name></wpt><wpt lat="-27.021728" lon="-48.641821"><ele>19.755493</ele><name>503</name></wpt><wpt lat="-27.021742" lon="-48.641823"><ele>14.59906</ele><name>1112</name></wpt><wpt lat="-27.01826" lon="-48.638915"><ele>9.864441</ele><name>A ciclo é completamente reta.</name></wpt><wpt lat="-27.024274" lon="-48.641764"><ele>8.27121</ele><name>Área de amortecimento da ciclo (cm)</name></wpt><wpt lat="-27.021701" lon="-48.641824"><ele>22.860168</ele><name>Área de amortecimento da ciclo (cm)</name></wpt><wpt lat="-27.024283" lon="-48.641766"><ele>8.954803</ele><name>Área transitável da ciclo (cm)</name></wpt><wpt lat="-27.021666" lon="-48.641828"><ele>37.589783</ele><name>Área transitável da ciclo (cm)</name></wpt><wpt lat="-27.02431" lon="-48.641895"><ele>12.107361</ele><name>Bidirecional</name></wpt><wpt lat="-27.024059" lon="-48.641642"><ele>13.481323</ele><name>Buraco</name></wpt><wpt lat="-27.023296" lon="-48.641725"><ele>10.293396</ele><name>Buraco</name></wpt><wpt lat="-27.019228" lon="-48.641589"><ele>10.656921</ele><name>Buraco</name></wpt><wpt lat="-27.018367" lon="-48.641127"><ele>7.966217</ele><name>Buraco</name></wpt><wpt lat="-27.024282" lon="-48.641743"><ele>6.827179</ele><name>Canteiros</name></wpt><wpt lat="-27.024326" lon="-48.641948"><ele>16.774475</ele><name>Ciclovia</name></wpt><wpt lat="-27.019236" lon="-48.64159"><ele>10.652954</ele><name>Desnível</name></wpt><wpt lat="-27.018361" lon="-48.641069"><ele>5.058533</ele><name>Desnível</name></wpt><wpt lat="-27.02431" lon="-48.641891"><ele>-6.979126</ele><name>Em bordo de Via de Mão Dupla</name></wpt><wpt lat="-27.02428" lon="-48.641757"><ele>8.396667</ele><name>Estacionamento proibido na via</name></wpt><wpt lat="-27.021717" lon="-48.641822"><ele>20.802734</ele><name>Faixa de carros logo ao lado da ciclo (cm)</name></wpt><wpt lat="-27.02429" lon="-48.64178"><ele>8.542786</ele><name>Foto</name></wpt><wpt lat="-27.024001" lon="-48.641661"><ele>12.298889</ele><name>Foto</name></wpt><wpt lat="-27.023295" lon="-48.641727"><ele>11.692566</ele><name>Foto</name></wpt><wpt lat="-27.018239" lon="-48.63938"><ele>8.793274</ele><name>Foto</name></wpt><wpt lat="-27.018255" lon="-48.638994"><ele>9.866669</ele><name>Foto</name></wpt><wpt lat="-27.018278" lon="-48.638924"><ele>10.712982</ele><name>Foto</name></wpt><wpt lat="-27.01828" lon="-48.63891"><ele>10.495239</ele><name>Foto</name></wpt><wpt lat="-27.018258" lon="-48.638913"><ele>10.008118</ele><name>Iluminação geral na via do outro lado da infraestrutura</name></wpt><wpt lat="-27.018269" lon="-48.638903"><ele>9.927368</ele><name>Início</name></wpt><wpt lat="-27.018269" lon="-48.638903"><ele>9.927368</ele><name>Início</name></wpt><wpt lat="-27.018258" lon="-48.638913"><ele>10.013367</ele><name>Irregularidades que demandam desvio para circulação</name></wpt><wpt lat="-27.019104" lon="-48.641581"><ele>10.093079</ele><name>Lombadas físicas</name></wpt><wpt lat="-27.024276" lon="-48.641743"><ele>4.86673</ele><name>Mão Dupla</name></wpt><wpt lat="-27.018227" lon="-48.63938"><ele>9.131012</ele><name>Outro obstáculo</name></wpt><wpt lat="-27.018259" lon="-48.639006"><ele>9.17749</ele><name>Outro obstáculo</name></wpt><wpt lat="-27.018261" lon="-48.638931"><ele>10.4328</ele><name>Outro risco. EXPLIQUE.</name></wpt><wpt lat="-27.018258" lon="-48.638913"><ele>9.903412</ele><name>Pintura APAGADA ou somente rastros de tinta</name></wpt><wpt lat="-27.018259" lon="-48.639006"><ele>9.17749</ele><name>poste</name></wpt><wpt lat="-27.018227" lon="-48.63938"><ele>9.130157</ele><name>poste de luz</name></wpt><wpt lat="-27.018255" lon="-48.638912"><ele>9.858673</ele><name>SE CICLOVIA: segregação impede completamente a invasão de automóvel e não há trechos desprotegidos</name></wpt><wpt lat="-27.01826" lon="-48.638915"><ele>9.885956</ele><name>Segregadores DIFICULTAM o acesso parcialmente de ciclistas</name></wpt><wpt lat="-27.01826" lon="-48.638915"><ele>9.763763</ele><name>Sombras em alguns trechos, SEM mudas novas</name></wpt><wpt lat="-27.018275" lon="-48.638929"><ele>10.963226</ele><name>Termina ciclo com ciclista na contramão</name></wpt><wpt lat="-27.024284" lon="-48.641746"><ele>8.396118</ele><name>Tijolo intertravado</name></wpt><wpt lat="-27.024278" lon="-48.641739"><ele>6.430359</ele><name>Toda área de circulação pintada de vermelho</name></wpt><wpt lat="-27.02174" lon="-48.641823"><ele>15.260925</ele><name>Total da via (incluindo a ciclo) (cm)</name></wpt><wpt lat="-27.018267" lon="-48.639063"><ele>9.948486</ele><name>Travessia de pedestre em nível (lombofaixa)</name></wpt><trk><name>Ciclovia Av. Santo Amaro T2 - Cb</name><trkseg><trkpt lat="-27.024289" lon="-48.641895"><ele>-7.261139</ele></trkpt><trkpt lat="-27.024304" lon="-48.641956"><ele>-20.716156</ele></trkpt><trkpt lat="-27.024316" lon="-48.641953"><ele>18.62439</ele></trkpt><trkpt lat="-27.024313" lon="-48.641932"><ele>18.574524</ele></trkpt><trkpt lat="-27.024326" lon="-48.64196"><ele>18.160767</ele></trkpt><trkpt lat="-27.024326" lon="-48.641948"><ele>16.774475</ele></trkpt><trkpt lat="-27.024326" lon="-48.641948"><ele>16.774475</ele></trkpt><trkpt lat="-27.024324" lon="-48.641938"><ele>16.025635</ele></trkpt><trkpt lat="-27.024321" lon="-48.641914"><ele>14.911987</ele></trkpt><trkpt lat="-27.02431" lon="-48.641895"><ele>12.107361</ele></trkpt><trkpt lat="-27.02431" lon="-48.641895"><ele>12.107361</ele></trkpt><trkpt lat="-27.024314" lon="-48.641902"><ele>10.021606</ele></trkpt><trkpt lat="-27.024314" lon="-48.641901"><ele>8.276154</ele></trkpt><trkpt lat="-27.024315" lon="-48.641903"><ele>6.327911</ele></trkpt><trkpt lat="-27.024314" lon="-48.641903"><ele>4.371918</ele></trkpt><trkpt lat="-27.024315" lon="-48.641905"><ele>1.688324</ele></trkpt><trkpt lat="-27.024313" lon="-48.641899"><ele>-2.332275</ele></trkpt><trkpt lat="-27.024312" lon="-48.641897"><ele>-4.059967</ele></trkpt><trkpt lat="-27.024312" lon="-48.641897"><ele>-4.848328</ele></trkpt><trkpt lat="-27.024312" lon="-48.641897"><ele>-5.927094</ele></trkpt><trkpt lat="-27.024312" lon="-48.641896"><ele>-5.258667</ele></trkpt><trkpt lat="-27.024311" lon="-48.641895"><ele>-5.990967</ele></trkpt><trkpt lat="-27.024311" lon="-48.641894"><ele>-7.021484</ele></trkpt><trkpt lat="-27.024311" lon="-48.641894"><ele>-7.179749</ele></trkpt><trkpt lat="-27.02431" lon="-48.641891"><ele>-7.023804</ele></trkpt><trkpt lat="-27.02431" lon="-48.641891"><ele>-6.979126</ele></trkpt><trkpt lat="-27.02431" lon="-48.641891"><ele>-6.979126</ele></trkpt><trkpt lat="-27.024309" lon="-48.641888"><ele>-6.737305</ele></trkpt><trkpt lat="-27.024279" lon="-48.641763"><ele>3.84494</ele></trkpt><trkpt lat="-27.024278" lon="-48.641752"><ele>4.476624</ele></trkpt><trkpt lat="-27.024278" lon="-48.641753"><ele>4.43219</ele></trkpt><trkpt lat="-27.024277" lon="-48.641751"><ele>4.81958</ele></trkpt><trkpt lat="-27.024276" lon="-48.64175"><ele>4.666901</ele></trkpt><trkpt lat="-27.024276" lon="-48.641743"><ele>4.86673</ele></trkpt><trkpt lat="-27.024276" lon="-48.641743"><ele>4.86673</ele></trkpt><trkpt lat="-27.024275" lon="-48.641744"><ele>4.98938</ele></trkpt><trkpt lat="-27.024275" lon="-48.641738"><ele>5.479004</ele></trkpt><trkpt lat="-27.024276" lon="-48.641737"><ele>5.366852</ele></trkpt><trkpt lat="-27.024274" lon="-48.641737"><ele>5.896576</ele></trkpt><trkpt lat="-27.024276" lon="-48.641738"><ele>5.930542</ele></trkpt><trkpt lat="-27.024278" lon="-48.641738"><ele>6.364777</ele></trkpt><trkpt lat="-27.024278" lon="-48.641739"><ele>6.430359</ele></trkpt><trkpt lat="-27.024278" lon="-48.641739"><ele>6.430359</ele></trkpt><trkpt lat="-27.024278" lon="-48.641739"><ele>6.511444</ele></trkpt><trkpt lat="-27.024279" lon="-48.641738"><ele>6.966705</ele></trkpt><trkpt lat="-27.024281" lon="-48.641744"><ele>6.461456</ele></trkpt><trkpt lat="-27.024281" lon="-48.641743"><ele>6.783569</ele></trkpt><trkpt lat="-27.024282" lon="-48.641743"><ele>6.717468</ele></trkpt><trkpt lat="-27.024282" lon="-48.641743"><ele>6.827179</ele></trkpt><trkpt lat="-27.024282" lon="-48.641743"><ele>6.827179</ele></trkpt><trkpt lat="-27.024282" lon="-48.641744"><ele>6.668304</ele></trkpt><trkpt lat="-27.024284" lon="-48.641745"><ele>6.430084</ele></trkpt><trkpt lat="-27.024284" lon="-48.641745"><ele>6.429077</ele></trkpt><trkpt lat="-27.024285" lon="-48.641744"><ele>6.462769</ele></trkpt><trkpt lat="-27.024285" lon="-48.641746"><ele>6.519257</ele></trkpt><trkpt lat="-27.024285" lon="-48.641749"><ele>6.450439</ele></trkpt><trkpt lat="-27.024285" lon="-48.641749"><ele>6.299286</ele></trkpt><trkpt lat="-27.024286" lon="-48.641751"><ele>6.069855</ele></trkpt><trkpt lat="-27.024287" lon="-48.641752"><ele>6.198181</ele></trkpt><trkpt lat="-27.024286" lon="-48.641751"><ele>6.61087</ele></trkpt><trkpt lat="-27.024285" lon="-48.641752"><ele>6.695099</ele></trkpt><trkpt lat="-27.024285" lon="-48.641752"><ele>6.695099</ele></trkpt><trkpt lat="-27.024285" lon="-48.641751"><ele>6.807281</ele></trkpt><trkpt lat="-27.024285" lon="-48.641751"><ele>6.977905</ele></trkpt><trkpt lat="-27.024285" lon="-48.64175"><ele>7.184448</ele></trkpt><trkpt lat="-27.024284" lon="-48.641749"><ele>7.415527</ele></trkpt><trkpt lat="-27.024284" lon="-48.641748"><ele>7.537964</ele></trkpt><trkpt lat="-27.024284" lon="-48.641748"><ele>7.537964</ele></trkpt><trkpt lat="-27.024284" lon="-48.641747"><ele>7.885895</ele></trkpt><trkpt lat="-27.024284" lon="-48.641746"><ele>8.396118</ele></trkpt><trkpt lat="-27.024284" lon="-48.641746"><ele>8.396118</ele></trkpt><trkpt lat="-27.024283" lon="-48.641746"><ele>8.430542</ele></trkpt><trkpt lat="-27.024282" lon="-48.64175"><ele>8.569916</ele></trkpt><trkpt lat="-27.024282" lon="-48.641752"><ele>8.776459</ele></trkpt><trkpt lat="-27.024282" lon="-48.641752"><ele>8.776459</ele></trkpt><trkpt lat="-27.024281" lon="-48.641754"><ele>8.794891</ele></trkpt><trkpt lat="-27.024279" lon="-48.641757"><ele>8.494171</ele></trkpt><trkpt lat="-27.024279" lon="-48.641757"><ele>8.526764</ele></trkpt><trkpt lat="-27.024279" lon="-48.641757"><ele>8.488403</ele></trkpt><trkpt lat="-27.02428" lon="-48.641757"><ele>8.396667</ele></trkpt><trkpt lat="-27.02428" lon="-48.641757"><ele>8.396667</ele></trkpt><trkpt lat="-27.024279" lon="-48.641757"><ele>8.512726</ele></trkpt><trkpt lat="-27.02428" lon="-48.641758"><ele>8.560333</ele></trkpt><trkpt lat="-27.024277" lon="-48.641761"><ele>8.872284</ele></trkpt><trkpt lat="-27.024271" lon="-48.641757"><ele>8.922974</ele></trkpt><trkpt lat="-27.024264" lon="-48.641751"><ele>8.943085</ele></trkpt><trkpt lat="-27.024256" lon="-48.64175"><ele>9.201874</ele></trkpt><trkpt lat="-27.024249" lon="-48.641751"><ele>9.534119</ele></trkpt><trkpt lat="-27.024248" lon="-48.641749"><ele>9.630371</ele></trkpt><trkpt lat="-27.024252" lon="-48.641753"><ele>9.733093</ele></trkpt><trkpt lat="-27.024253" lon="-48.641754"><ele>9.733704</ele></trkpt><trkpt lat="-27.024254" lon="-48.64176"><ele>9.445038</ele></trkpt><trkpt lat="-27.024251" lon="-48.641764"><ele>9.453796</ele></trkpt><trkpt lat="-27.024252" lon="-48.641763"><ele>9.590393</ele></trkpt><trkpt lat="-27.024252" lon="-48.641763"><ele>9.592072</ele></trkpt><trkpt lat="-27.024253" lon="-48.641761"><ele>9.541656</ele></trkpt><trkpt lat="-27.024255" lon="-48.641756"><ele>9.145447</ele></trkpt><trkpt lat="-27.024253" lon="-48.641748"><ele>9.068329</ele></trkpt><trkpt lat="-27.024247" lon="-48.64174"><ele>9.776611</ele></trkpt><trkpt lat="-27.024243" lon="-48.641738"><ele>9.957977</ele></trkpt><trkpt lat="-27.024241" lon="-48.64174"><ele>9.941772</ele></trkpt><trkpt lat="-27.02424" lon="-48.64174"><ele>9.941742</ele></trkpt><trkpt lat="-27.024247" lon="-48.641745"><ele>9.42215</ele></trkpt><trkpt lat="-27.024254" lon="-48.641753"><ele>7.934052</ele></trkpt><trkpt lat="-27.024265" lon="-48.64176"><ele>8.535919</ele></trkpt><trkpt lat="-27.024276" lon="-48.641763"><ele>8.852234</ele></trkpt><trkpt lat="-27.024279" lon="-48.641764"><ele>8.974365</ele></trkpt><trkpt lat="-27.024283" lon="-48.641766"><ele>8.962555</ele></trkpt><trkpt lat="-27.024283" lon="-48.641766"><ele>8.954803</ele></trkpt><trkpt lat="-27.024283" lon="-48.641766"><ele>8.954803</ele></trkpt><trkpt lat="-27.02428" lon="-48.641766"><ele>8.411591</ele></trkpt><trkpt lat="-27.02428" lon="-48.641766"><ele>8.411591</ele></trkpt><trkpt lat="-27.024276" lon="-48.641765"><ele>8.360016</ele></trkpt><trkpt lat="-27.024275" lon="-48.641764"><ele>8.365479</ele></trkpt><trkpt lat="-27.024275" lon="-48.641764"><ele>8.372131</ele></trkpt><trkpt lat="-27.024275" lon="-48.641764"><ele>8.373505</ele></trkpt><trkpt lat="-27.024275" lon="-48.641764"><ele>8.374512</ele></trkpt><trkpt lat="-27.024275" lon="-48.641764"><ele>8.374939</ele></trkpt><trkpt lat="-27.024275" lon="-48.641764"><ele>8.382599</ele></trkpt><trkpt lat="-27.024275" lon="-48.641764"><ele>8.38205</ele></trkpt><trkpt lat="-27.024274" lon="-48.641764"><ele>8.27121</ele></trkpt><trkpt lat="-27.024274" lon="-48.641764"><ele>8.27121</ele></trkpt><trkpt lat="-27.024273" lon="-48.641765"><ele>8.239777</ele></trkpt><trkpt lat="-27.024273" lon="-48.641765"><ele>8.239777</ele></trkpt><trkpt lat="-27.024273" lon="-48.641765"><ele>8.243073</ele></trkpt><trkpt lat="-27.024273" lon="-48.641765"><ele>8.248871</ele></trkpt><trkpt lat="-27.024273" lon="-48.641765"><ele>8.253967</ele></trkpt><trkpt lat="-27.024273" lon="-48.641765"><ele>8.256927</ele></trkpt><trkpt lat="-27.024274" lon="-48.641765"><ele>8.313812</ele></trkpt><trkpt lat="-27.02428" lon="-48.641767"><ele>8.471344</ele></trkpt><trkpt lat="-27.024288" lon="-48.641773"><ele>8.36911</ele></trkpt><trkpt lat="-27.024292" lon="-48.641775"><ele>8.170776</ele></trkpt><trkpt lat="-27.024296" lon="-48.641777"><ele>8.194</ele></trkpt><trkpt lat="-27.024301" lon="-48.641782"><ele>8.287964</ele></trkpt><trkpt lat="-27.024303" lon="-48.641784"><ele>8.504578</ele></trkpt><trkpt lat="-27.024301" lon="-48.641784"><ele>8.963562</ele></trkpt><trkpt lat="-27.0243" lon="-48.641784"><ele>8.978485</ele></trkpt><trkpt lat="-27.024299" lon="-48.641784"><ele>8.982117</ele></trkpt><trkpt lat="-27.024299" lon="-48.641784"><ele>8.984131</ele></trkpt><trkpt lat="-27.024296" lon="-48.641783"><ele>8.565521</ele></trkpt><trkpt lat="-27.02429" lon="-48.64178"><ele>8.542786</ele></trkpt><trkpt lat="-27.02429" lon="-48.64178"><ele>8.542786</ele></trkpt><trkpt lat="-27.024285" lon="-48.641776"><ele>8.734467</ele></trkpt><trkpt lat="-27.024279" lon="-48.641774"><ele>8.874878</ele></trkpt><trkpt lat="-27.024275" lon="-48.641771"><ele>9.645142</ele></trkpt><trkpt lat="-27.024275" lon="-48.641768"><ele>10.223236</ele></trkpt><trkpt lat="-27.024277" lon="-48.641761"><ele>10.604401</ele></trkpt><trkpt lat="-27.024278" lon="-48.641747"><ele>10.942017</ele></trkpt><trkpt lat="-27.024267" lon="-48.641739"><ele>11.223145</ele></trkpt><trkpt lat="-27.024251" lon="-48.641733"><ele>11.156708</ele></trkpt><trkpt lat="-27.024231" lon="-48.641727"><ele>10.940491</ele></trkpt><trkpt lat="-27.024211" lon="-48.64172"><ele>10.844238</ele></trkpt><trkpt lat="-27.024191" lon="-48.641711"><ele>10.302277</ele></trkpt><trkpt lat="-27.02417" lon="-48.641699"><ele>11.551605</ele></trkpt><trkpt lat="-27.024149" lon="-48.641689"><ele>11.80603</ele></trkpt><trkpt lat="-27.024121" lon="-48.641682"><ele>11.59314</ele></trkpt><trkpt lat="-27.024097" lon="-48.641677"><ele>11.342163</ele></trkpt><trkpt lat="-27.024088" lon="-48.641666"><ele>11.110565</ele></trkpt><trkpt lat="-27.024075" lon="-48.641662"><ele>11.057159</ele></trkpt><trkpt lat="-27.024069" lon="-48.641658"><ele>11.112</ele></trkpt><trkpt lat="-27.024082" lon="-48.641647"><ele>11.346161</ele></trkpt><trkpt lat="-27.024073" lon="-48.641643"><ele>11.980682</ele></trkpt><trkpt lat="-27.024067" lon="-48.641632"><ele>12.429321</ele></trkpt><trkpt lat="-27.024067" lon="-48.641627"><ele>12.30896</ele></trkpt><trkpt lat="-27.024067" lon="-48.64163"><ele>12.274048</ele></trkpt><trkpt lat="-27.024063" lon="-48.641631"><ele>12.548767</ele></trkpt><trkpt lat="-27.02406" lon="-48.641634"><ele>12.739136</ele></trkpt><trkpt lat="-27.024057" lon="-48.641634"><ele>11.65036</ele></trkpt><trkpt lat="-27.024054" lon="-48.641637"><ele>11.692322</ele></trkpt><trkpt lat="-27.024052" lon="-48.641636"><ele>12.074951</ele></trkpt><trkpt lat="-27.024054" lon="-48.641635"><ele>13.222412</ele></trkpt><trkpt lat="-27.024055" lon="-48.641629"><ele>14.068726</ele></trkpt><trkpt lat="-27.024056" lon="-48.641631"><ele>13.293884</ele></trkpt><trkpt lat="-27.024058" lon="-48.641638"><ele>13.435791</ele></trkpt><trkpt lat="-27.024059" lon="-48.641642"><ele>13.481323</ele></trkpt><trkpt lat="-27.024059" lon="-48.641642"><ele>13.481323</ele></trkpt><trkpt lat="-27.02406" lon="-48.641642"><ele>14.025513</ele></trkpt><trkpt lat="-27.02406" lon="-48.641642"><ele>14.081055</ele></trkpt><trkpt lat="-27.024059" lon="-48.641642"><ele>14.080505</ele></trkpt><trkpt lat="-27.024058" lon="-48.641638"><ele>14.037415</ele></trkpt><trkpt lat="-27.024051" lon="-48.641638"><ele>14.123779</ele></trkpt><trkpt lat="-27.024043" lon="-48.641641"><ele>13.596497</ele></trkpt><trkpt lat="-27.024034" lon="-48.641643"><ele>13.41217</ele></trkpt><trkpt lat="-27.024024" lon="-48.641644"><ele>12.547913</ele></trkpt><trkpt lat="-27.024011" lon="-48.641641"><ele>12.322571</ele></trkpt><trkpt lat="-27.02401" lon="-48.641641"><ele>12.250305</ele></trkpt><trkpt lat="-27.024002" lon="-48.641644"><ele>12.650818</ele></trkpt><trkpt lat="-27.024" lon="-48.641649"><ele>12.202087</ele></trkpt><trkpt lat="-27.023997" lon="-48.641651"><ele>11.942078</ele></trkpt><trkpt lat="-27.023996" lon="-48.641652"><ele>12.020447</ele></trkpt><trkpt lat="-27.023996" lon="-48.641652"><ele>11.925415</ele></trkpt><trkpt lat="-27.023997" lon="-48.641652"><ele>11.803833</ele></trkpt><trkpt lat="-27.023997" lon="-48.641652"><ele>12.778625</ele></trkpt><trkpt lat="-27.023997" lon="-48.641652"><ele>12.776917</ele></trkpt><trkpt lat="-27.023997" lon="-48.641652"><ele>12.78064</ele></trkpt><trkpt lat="-27.023997" lon="-48.641652"><ele>12.778748</ele></trkpt><trkpt lat="-27.023996" lon="-48.641655"><ele>12.506714</ele></trkpt><trkpt lat="-27.023996" lon="-48.641657"><ele>12.510254</ele></trkpt><trkpt lat="-27.024001" lon="-48.641661"><ele>12.298889</ele></trkpt><trkpt lat="-27.024001" lon="-48.641661"><ele>12.298889</ele></trkpt><trkpt lat="-27.024008" lon="-48.641663"><ele>12.288574</ele></trkpt><trkpt lat="-27.024019" lon="-48.641663"><ele>11.914795</ele></trkpt><trkpt lat="-27.024028" lon="-48.641663"><ele>11.634125</ele></trkpt><trkpt lat="-27.024039" lon="-48.64166"><ele>11.783722</ele></trkpt><trkpt lat="-27.024049" lon="-48.641659"><ele>11.45755</ele></trkpt><trkpt lat="-27.024056" lon="-48.641655"><ele>11.798218</ele></trkpt><trkpt lat="-27.024055" lon="-48.641652"><ele>11.68158</ele></trkpt><trkpt lat="-27.024051" lon="-48.641655"><ele>11.102997</ele></trkpt><trkpt lat="-27.024052" lon="-48.641662"><ele>10.68042</ele></trkpt><trkpt lat="-27.024053" lon="-48.641667"><ele>11.157715</ele></trkpt><trkpt lat="-27.024038" lon="-48.641668"><ele>11.306183</ele></trkpt><trkpt lat="-27.024024" lon="-48.641668"><ele>11.364105</ele></trkpt><trkpt lat="-27.024009" lon="-48.641666"><ele>11.482239</ele></trkpt><trkpt lat="-27.023993" lon="-48.641663"><ele>9.349945</ele></trkpt><trkpt lat="-27.023975" lon="-48.641663"><ele>8.867554</ele></trkpt><trkpt lat="-27.023954" lon="-48.641664"><ele>8.755005</ele></trkpt><trkpt lat="-27.023933" lon="-48.641664"><ele>9.013184</ele></trkpt><trkpt lat="-27.023909" lon="-48.641667"><ele>8.962372</ele></trkpt><trkpt lat="-27.023883" lon="-48.641671"><ele>8.985535</ele></trkpt><trkpt lat="-27.023856" lon="-48.641676"><ele>9.687866</ele></trkpt><trkpt lat="-27.023828" lon="-48.641677"><ele>10.238373</ele></trkpt><trkpt lat="-27.023798" lon="-48.641679"><ele>10.748291</ele></trkpt><trkpt lat="-27.02377" lon="-48.64168"><ele>10.793274</ele></trkpt><trkpt lat="-27.023746" lon="-48.64168"><ele>12.070435</ele></trkpt><trkpt lat="-27.023724" lon="-48.641681"><ele>11.508636</ele></trkpt><trkpt lat="-27.023699" lon="-48.641681"><ele>11.334839</ele></trkpt><trkpt lat="-27.023674" lon="-48.641681"><ele>11.325775</ele></trkpt><trkpt lat="-27.023649" lon="-48.641685"><ele>11.176117</ele></trkpt><trkpt lat="-27.023624" lon="-48.641691"><ele>11.272919</ele></trkpt><trkpt lat="-27.023599" lon="-48.641696"><ele>11.171112</ele></trkpt><trkpt lat="-27.023572" lon="-48.641701"><ele>11.045013</ele></trkpt><trkpt lat="-27.023545" lon="-48.641704"><ele>10.740356</ele></trkpt><trkpt lat="-27.02352" lon="-48.641705"><ele>9.996582</ele></trkpt><trkpt lat="-27.023495" lon="-48.641705"><ele>9.828735</ele></trkpt><trkpt lat="-27.023471" lon="-48.641706"><ele>8.415771</ele></trkpt><trkpt lat="-27.023444" lon="-48.641708"><ele>8.642059</ele></trkpt><trkpt lat="-27.02342" lon="-48.641713"><ele>8.411407</ele></trkpt><trkpt lat="-27.023395" lon="-48.641718"><ele>9.882843</ele></trkpt><trkpt lat="-27.023369" lon="-48.641723"><ele>9.605286</ele></trkpt><trkpt lat="-27.023342" lon="-48.641725"><ele>10.044525</ele></trkpt><trkpt lat="-27.02332" lon="-48.641725"><ele>10.355774</ele></trkpt><trkpt lat="-27.023302" lon="-48.641725"><ele>10.827087</ele></trkpt><trkpt lat="-27.023296" lon="-48.641725"><ele>11.31134</ele></trkpt><trkpt lat="-27.023295" lon="-48.641726"><ele>11.47464</ele></trkpt><trkpt lat="-27.023296" lon="-48.641725"><ele>10.293396</ele></trkpt><trkpt lat="-27.023296" lon="-48.641725"><ele>10.293396</ele></trkpt><trkpt lat="-27.023297" lon="-48.641725"><ele>10.322113</ele></trkpt><trkpt lat="-27.023297" lon="-48.641725"><ele>10.319611</ele></trkpt><trkpt lat="-27.023297" lon="-48.641725"><ele>11.4729</ele></trkpt><trkpt lat="-27.023297" lon="-48.641725"><ele>11.468018</ele></trkpt><trkpt lat="-27.023292" lon="-48.641723"><ele>11.515686</ele></trkpt><trkpt lat="-27.023294" lon="-48.641726"><ele>11.693207</ele></trkpt><trkpt lat="-27.023295" lon="-48.641727"><ele>11.692963</ele></trkpt><trkpt lat="-27.023295" lon="-48.641727"><ele>11.69278</ele></trkpt><trkpt lat="-27.023295" lon="-48.641727"><ele>11.692566</ele></trkpt><trkpt lat="-27.023295" lon="-48.641727"><ele>11.692566</ele></trkpt><trkpt lat="-27.023295" lon="-48.641727"><ele>11.693756</ele></trkpt><trkpt lat="-27.023296" lon="-48.641727"><ele>11.529144</ele></trkpt><trkpt lat="-27.023293" lon="-48.641728"><ele>11.331238</ele></trkpt><trkpt lat="-27.023279" lon="-48.641728"><ele>11.349335</ele></trkpt><trkpt lat="-27.023266" lon="-48.641729"><ele>11.55658</ele></trkpt><trkpt lat="-27.023254" lon="-48.641732"><ele>11.750183</ele></trkpt><trkpt lat="-27.023227" lon="-48.641735"><ele>12.216675</ele></trkpt><trkpt lat="-27.0232" lon="-48.641735"><ele>12.057495</ele></trkpt><trkpt lat="-27.023174" lon="-48.641735"><ele>12.328552</ele></trkpt><trkpt lat="-27.023149" lon="-48.641737"><ele>12.102539</ele></trkpt><trkpt lat="-27.023121" lon="-48.641738"><ele>12.070923</ele></trkpt><trkpt lat="-27.023094" lon="-48.641737"><ele>11.197571</ele></trkpt><trkpt lat="-27.023068" lon="-48.641737"><ele>11.21759</ele></trkpt><trkpt lat="-27.023043" lon="-48.641737"><ele>11.529999</ele></trkpt><trkpt lat="-27.023016" lon="-48.64174"><ele>11.463226</ele></trkpt><trkpt lat="-27.02299" lon="-48.641743"><ele>11.312042</ele></trkpt><trkpt lat="-27.022963" lon="-48.641747"><ele>11.311005</ele></trkpt><trkpt lat="-27.022936" lon="-48.64175"><ele>11.432495</ele></trkpt><trkpt lat="-27.022909" lon="-48.64175"><ele>11.741699</ele></trkpt><trkpt lat="-27.022883" lon="-48.641751"><ele>12.063354</ele></trkpt><trkpt lat="-27.022861" lon="-48.641754"><ele>11.078491</ele></trkpt><trkpt lat="-27.02284" lon="-48.641755"><ele>11.485016</ele></trkpt><trkpt lat="-27.022811" lon="-48.641757"><ele>11.589233</ele></trkpt><trkpt lat="-27.02278" lon="-48.641761"><ele>11.945618</ele></trkpt><trkpt lat="-27.022749" lon="-48.641765"><ele>12.270508</ele></trkpt><trkpt lat="-27.022719" lon="-48.641768"><ele>12.53241</ele></trkpt><trkpt lat="-27.02269" lon="-48.64177"><ele>13.046265</ele></trkpt><trkpt lat="-27.022659" lon="-48.641771"><ele>11.013428</ele></trkpt><trkpt lat="-27.022631" lon="-48.641775"><ele>10.636932</ele></trkpt><trkpt lat="-27.022606" lon="-48.641783"><ele>11.882813</ele></trkpt><trkpt lat="-27.022579" lon="-48.641791"><ele>11.112671</ele></trkpt><trkpt lat="-27.022547" lon="-48.641799"><ele>11.493134</ele></trkpt><trkpt lat="-27.022521" lon="-48.641801"><ele>11.358185</ele></trkpt><trkpt lat="-27.022494" lon="-48.641803"><ele>11.943359</ele></trkpt><trkpt lat="-27.022466" lon="-48.641804"><ele>12.642944</ele></trkpt><trkpt lat="-27.022436" lon="-48.641804"><ele>12.842102</ele></trkpt><trkpt lat="-27.022405" lon="-48.641806"><ele>12.410217</ele></trkpt><trkpt lat="-27.022369" lon="-48.641812"><ele>10.972961</ele></trkpt><trkpt lat="-27.022337" lon="-48.641812"><ele>10.927063</ele></trkpt><trkpt lat="-27.022308" lon="-48.641807"><ele>12.893188</ele></trkpt><trkpt lat="-27.022282" lon="-48.641812"><ele>12.576904</ele></trkpt><trkpt lat="-27.022254" lon="-48.641812"><ele>12.978943</ele></trkpt><trkpt lat="-27.022222" lon="-48.641814"><ele>12.824158</ele></trkpt><trkpt lat="-27.022184" lon="-48.641816"><ele>13.436218</ele></trkpt><trkpt lat="-27.022152" lon="-48.641821"><ele>13.110229</ele></trkpt><trkpt lat="-27.022123" lon="-48.641826"><ele>12.753784</ele></trkpt><trkpt lat="-27.022099" lon="-48.641828"><ele>12.600586</ele></trkpt><trkpt lat="-27.022072" lon="-48.641828"><ele>12.691101</ele></trkpt><trkpt lat="-27.022041" lon="-48.641828"><ele>12.652954</ele></trkpt><trkpt lat="-27.022009" lon="-48.64183"><ele>12.25592</ele></trkpt><trkpt lat="-27.021978" lon="-48.641831"><ele>12.24231</ele></trkpt><trkpt lat="-27.021948" lon="-48.641832"><ele>12.94928</ele></trkpt><trkpt lat="-27.02192" lon="-48.641837"><ele>9.680023</ele></trkpt><trkpt lat="-27.021888" lon="-48.641837"><ele>9.869019</ele></trkpt><trkpt lat="-27.021861" lon="-48.641833"><ele>12.328979</ele></trkpt><trkpt lat="-27.021834" lon="-48.641829"><ele>12.324341</ele></trkpt><trkpt lat="-27.021808" lon="-48.641827"><ele>12.212524</ele></trkpt><trkpt lat="-27.021783" lon="-48.641836"><ele>12.114136</ele></trkpt><trkpt lat="-27.021761" lon="-48.641839"><ele>12.255493</ele></trkpt><trkpt lat="-27.021736" lon="-48.64184"><ele>11.995819</ele></trkpt><trkpt lat="-27.02172" lon="-48.641839"><ele>12.04718</ele></trkpt><trkpt lat="-27.021716" lon="-48.641837"><ele>12.078491</ele></trkpt><trkpt lat="-27.021715" lon="-48.641837"><ele>12.079834</ele></trkpt><trkpt lat="-27.021713" lon="-48.641835"><ele>12.082092</ele></trkpt><trkpt lat="-27.021709" lon="-48.641832"><ele>12.032898</ele></trkpt><trkpt lat="-27.021707" lon="-48.641833"><ele>10.943848</ele></trkpt><trkpt lat="-27.021705" lon="-48.641836"><ele>11.086823</ele></trkpt><trkpt lat="-27.021705" lon="-48.641838"><ele>11.087677</ele></trkpt><trkpt lat="-27.021704" lon="-48.64184"><ele>10.91217</ele></trkpt><trkpt lat="-27.021702" lon="-48.641837"><ele>10.86731</ele></trkpt><trkpt lat="-27.021702" lon="-48.641832"><ele>11.316559</ele></trkpt><trkpt lat="-27.0217" lon="-48.641832"><ele>11.818939</ele></trkpt><trkpt lat="-27.021696" lon="-48.641833"><ele>12.143921</ele></trkpt><trkpt lat="-27.021691" lon="-48.641835"><ele>12.353821</ele></trkpt><trkpt lat="-27.021685" lon="-48.641838"><ele>12.154785</ele></trkpt><trkpt lat="-27.021685" lon="-48.64184"><ele>12.28717</ele></trkpt><trkpt lat="-27.021689" lon="-48.641837"><ele>12.35022</ele></trkpt><trkpt lat="-27.021691" lon="-48.641838"><ele>12.357361</ele></trkpt><trkpt lat="-27.02169" lon="-48.641838"><ele>12.520142</ele></trkpt><trkpt lat="-27.021687" lon="-48.641841"><ele>12.531311</ele></trkpt><trkpt lat="-27.021689" lon="-48.641844"><ele>12.535828</ele></trkpt><trkpt lat="-27.021689" lon="-48.641843"><ele>12.148315</ele></trkpt><trkpt lat="-27.021689" lon="-48.641843"><ele>12.090271</ele></trkpt><trkpt lat="-27.021689" lon="-48.641843"><ele>12.089233</ele></trkpt><trkpt lat="-27.021689" lon="-48.641843"><ele>12.08551</ele></trkpt><trkpt lat="-27.02169" lon="-48.64184"><ele>12.352295</ele></trkpt><trkpt lat="-27.02169" lon="-48.641836"><ele>12.394653</ele></trkpt><trkpt lat="-27.02169" lon="-48.641834"><ele>12.31012</ele></trkpt><trkpt lat="-27.021693" lon="-48.641833"><ele>11.993805</ele></trkpt><trkpt lat="-27.021691" lon="-48.641834"><ele>11.317963</ele></trkpt><trkpt lat="-27.021694" lon="-48.641831"><ele>11.453888</ele></trkpt><trkpt lat="-27.021701" lon="-48.641834"><ele>10.863495</ele></trkpt><trkpt lat="-27.021708" lon="-48.641848"><ele>10.707153</ele></trkpt><trkpt lat="-27.021709" lon="-48.641849"><ele>10.728302</ele></trkpt><trkpt lat="-27.021709" lon="-48.641848"><ele>10.743866</ele></trkpt><trkpt lat="-27.021711" lon="-48.641847"><ele>10.912048</ele></trkpt><trkpt lat="-27.021709" lon="-48.641844"><ele>10.886688</ele></trkpt><trkpt lat="-27.021708" lon="-48.641842"><ele>9.481964</ele></trkpt><trkpt lat="-27.021708" lon="-48.64184"><ele>9.676636</ele></trkpt><trkpt lat="-27.021706" lon="-48.641841"><ele>9.747528</ele></trkpt><trkpt lat="-27.021705" lon="-48.641844"><ele>9.803558</ele></trkpt><trkpt lat="-27.021705" lon="-48.641844"><ele>9.743256</ele></trkpt><trkpt lat="-27.021704" lon="-48.641844"><ele>9.542053</ele></trkpt><trkpt lat="-27.021701" lon="-48.641842"><ele>10.054474</ele></trkpt><trkpt lat="-27.021698" lon="-48.641839"><ele>10.19754</ele></trkpt><trkpt lat="-27.021698" lon="-48.641837"><ele>10.064819</ele></trkpt><trkpt lat="-27.021698" lon="-48.641847"><ele>9.567627</ele></trkpt><trkpt lat="-27.021697" lon="-48.64185"><ele>9.567017</ele></trkpt><trkpt lat="-27.021697" lon="-48.64185"><ele>9.56958</ele></trkpt><trkpt lat="-27.021697" lon="-48.641851"><ele>9.571686</ele></trkpt><trkpt lat="-27.021699" lon="-48.641849"><ele>9.536774</ele></trkpt><trkpt lat="-27.021702" lon="-48.641845"><ele>11.836792</ele></trkpt><trkpt lat="-27.021707" lon="-48.641837"><ele>12.591248</ele></trkpt><trkpt lat="-27.021713" lon="-48.641837"><ele>11.644501</ele></trkpt><trkpt lat="-27.021713" lon="-48.641843"><ele>11.866333</ele></trkpt><trkpt lat="-27.021713" lon="-48.641847"><ele>10.795135</ele></trkpt><trkpt lat="-27.021712" lon="-48.641855"><ele>11.08371</ele></trkpt><trkpt lat="-27.021713" lon="-48.641855"><ele>11.058746</ele></trkpt><trkpt lat="-27.02173" lon="-48.641862"><ele>11.004608</ele></trkpt><trkpt lat="-27.021737" lon="-48.641861"><ele>11.062805</ele></trkpt><trkpt lat="-27.021738" lon="-48.64186"><ele>11.063873</ele></trkpt><trkpt lat="-27.021738" lon="-48.64186"><ele>11.063049</ele></trkpt><trkpt lat="-27.021738" lon="-48.641862"><ele>10.911255</ele></trkpt><trkpt lat="-27.021734" lon="-48.641864"><ele>10.233795</ele></trkpt><trkpt lat="-27.021735" lon="-48.641862"><ele>9.792511</ele></trkpt><trkpt lat="-27.021734" lon="-48.641856"><ele>10.030273</ele></trkpt><trkpt lat="-27.021732" lon="-48.641849"><ele>9.994385</ele></trkpt><trkpt lat="-27.021731" lon="-48.641836"><ele>9.94574</ele></trkpt><trkpt lat="-27.021726" lon="-48.641815"><ele>10.14621</ele></trkpt><trkpt lat="-27.021725" lon="-48.641803"><ele>9.939728</ele></trkpt><trkpt lat="-27.021721" lon="-48.641793"><ele>10.235535</ele></trkpt><trkpt lat="-27.021716" lon="-48.641781"><ele>10.595306</ele></trkpt><trkpt lat="-27.021713" lon="-48.641776"><ele>11.974091</ele></trkpt><trkpt lat="-27.021711" lon="-48.641783"><ele>11.85376</ele></trkpt><trkpt lat="-27.021708" lon="-48.641789"><ele>11.726166</ele></trkpt><trkpt lat="-27.021707" lon="-48.64179"><ele>11.749084</ele></trkpt><trkpt lat="-27.02164" lon="-48.641832"><ele>39.671204</ele></trkpt><trkpt lat="-27.021666" lon="-48.641828"><ele>37.589783</ele></trkpt><trkpt lat="-27.021666" lon="-48.641828"><ele>37.589783</ele></trkpt><trkpt lat="-27.021666" lon="-48.641828"><ele>37.589783</ele></trkpt><trkpt lat="-27.021674" lon="-48.64182"><ele>21.560791</ele></trkpt><trkpt lat="-27.021693" lon="-48.641814"><ele>22.704773</ele></trkpt><trkpt lat="-27.021703" lon="-48.641824"><ele>22.696228</ele></trkpt><trkpt lat="-27.021701" lon="-48.641824"><ele>22.860168</ele></trkpt><trkpt lat="-27.021701" lon="-48.641824"><ele>22.860168</ele></trkpt><trkpt lat="-27.021695" lon="-48.641821"><ele>23.185547</ele></trkpt><trkpt lat="-27.021695" lon="-48.641821"><ele>23.185547</ele></trkpt><trkpt lat="-27.021695" lon="-48.641821"><ele>23.166931</ele></trkpt><trkpt lat="-27.021704" lon="-48.641823"><ele>22.769714</ele></trkpt><trkpt lat="-27.021704" lon="-48.641821"><ele>22.605408</ele></trkpt><trkpt lat="-27.021708" lon="-48.641824"><ele>21.485657</ele></trkpt><trkpt lat="-27.021717" lon="-48.641822"><ele>20.802734</ele></trkpt><trkpt lat="-27.021717" lon="-48.641822"><ele>20.802734</ele></trkpt><trkpt lat="-27.021728" lon="-48.641821"><ele>19.755493</ele></trkpt><trkpt lat="-27.021728" lon="-48.641821"><ele>19.755493</ele></trkpt><trkpt lat="-27.021731" lon="-48.64182"><ele>19.002869</ele></trkpt><trkpt lat="-27.02173" lon="-48.64182"><ele>18.641846</ele></trkpt><trkpt lat="-27.021732" lon="-48.641819"><ele>18.385864</ele></trkpt><trkpt lat="-27.021734" lon="-48.641819"><ele>17.695679</ele></trkpt><trkpt lat="-27.021737" lon="-48.641819"><ele>17.49054</ele></trkpt><trkpt lat="-27.021737" lon="-48.64182"><ele>16.539185</ele></trkpt><trkpt lat="-27.021738" lon="-48.641822"><ele>15.77063</ele></trkpt><trkpt lat="-27.02174" lon="-48.641823"><ele>15.260925</ele></trkpt><trkpt lat="-27.02174" lon="-48.641823"><ele>15.260925</ele></trkpt><trkpt lat="-27.021742" lon="-48.641823"><ele>14.59906</ele></trkpt><trkpt lat="-27.021742" lon="-48.641823"><ele>14.59906</ele></trkpt><trkpt lat="-27.021742" lon="-48.641826"><ele>14.09436</ele></trkpt><trkpt lat="-27.021745" lon="-48.641827"><ele>14.094177</ele></trkpt><trkpt lat="-27.021745" lon="-48.64183"><ele>13.586304</ele></trkpt><trkpt lat="-27.021744" lon="-48.641833"><ele>13.47052</ele></trkpt><trkpt lat="-27.021742" lon="-48.641834"><ele>13.398499</ele></trkpt><trkpt lat="-27.021745" lon="-48.641837"><ele>13.436951</ele></trkpt><trkpt lat="-27.021742" lon="-48.641837"><ele>13.413147</ele></trkpt><trkpt lat="-27.021742" lon="-48.641838"><ele>13.112488</ele></trkpt><trkpt lat="-27.021742" lon="-48.64184"><ele>12.595093</ele></trkpt><trkpt lat="-27.021743" lon="-48.641838"><ele>12.728638</ele></trkpt><trkpt lat="-27.021746" lon="-48.641838"><ele>12.586731</ele></trkpt><trkpt lat="-27.021747" lon="-48.641839"><ele>11.949554</ele></trkpt><trkpt lat="-27.021744" lon="-48.641842"><ele>11.525787</ele></trkpt><trkpt lat="-27.021735" lon="-48.641842"><ele>11.252411</ele></trkpt><trkpt lat="-27.021731" lon="-48.641841"><ele>11.282288</ele></trkpt><trkpt lat="-27.021728" lon="-48.641842"><ele>12.252258</ele></trkpt><trkpt lat="-27.021725" lon="-48.641843"><ele>12.195984</ele></trkpt><trkpt lat="-27.021723" lon="-48.641843"><ele>12.165283</ele></trkpt><trkpt lat="-27.021722" lon="-48.641843"><ele>12.090088</ele></trkpt><trkpt lat="-27.02172" lon="-48.641843"><ele>12.041382</ele></trkpt><trkpt lat="-27.021718" lon="-48.641843"><ele>11.630096</ele></trkpt><trkpt lat="-27.021717" lon="-48.641839"><ele>11.596924</ele></trkpt><trkpt lat="-27.021717" lon="-48.641839"><ele>11.508057</ele></trkpt><trkpt lat="-27.021715" lon="-48.64184"><ele>11.559601</ele></trkpt><trkpt lat="-27.021716" lon="-48.641842"><ele>11.284851</ele></trkpt><trkpt lat="-27.021713" lon="-48.641843"><ele>11.459991</ele></trkpt><trkpt lat="-27.021713" lon="-48.641847"><ele>11.446625</ele></trkpt><trkpt lat="-27.021715" lon="-48.641848"><ele>11.225525</ele></trkpt><trkpt lat="-27.021717" lon="-48.64185"><ele>10.943481</ele></trkpt><trkpt lat="-27.021719" lon="-48.641847"><ele>10.98938</ele></trkpt><trkpt lat="-27.021721" lon="-48.641841"><ele>10.863129</ele></trkpt><trkpt lat="-27.021723" lon="-48.641835"><ele>11.104431</ele></trkpt><trkpt lat="-27.021724" lon="-48.641834"><ele>11.138947</ele></trkpt><trkpt lat="-27.021724" lon="-48.641832"><ele>11.19632</ele></trkpt><trkpt lat="-27.021725" lon="-48.64183"><ele>11.355621</ele></trkpt><trkpt lat="-27.021724" lon="-48.641828"><ele>11.334137</ele></trkpt><trkpt lat="-27.021724" lon="-48.641829"><ele>11.286957</ele></trkpt><trkpt lat="-27.021724" lon="-48.641834"><ele>10.969025</ele></trkpt><trkpt lat="-27.021723" lon="-48.641834"><ele>10.621643</ele></trkpt><trkpt lat="-27.021718" lon="-48.64183"><ele>10.849792</ele></trkpt><trkpt lat="-27.021714" lon="-48.641827"><ele>11.05481</ele></trkpt><trkpt lat="-27.021715" lon="-48.641827"><ele>10.921814</ele></trkpt><trkpt lat="-27.021719" lon="-48.641826"><ele>10.970886</ele></trkpt><trkpt lat="-27.021719" lon="-48.641828"><ele>10.951874</ele></trkpt><trkpt lat="-27.021719" lon="-48.641827"><ele>11.054291</ele></trkpt><trkpt lat="-27.021718" lon="-48.641829"><ele>11.052673</ele></trkpt><trkpt lat="-27.021717" lon="-48.64183"><ele>11.078674</ele></trkpt><trkpt lat="-27.021719" lon="-48.64183"><ele>11.470459</ele></trkpt><trkpt lat="-27.021719" lon="-48.641829"><ele>11.598511</ele></trkpt><trkpt lat="-27.02172" lon="-48.641828"><ele>11.693085</ele></trkpt><trkpt lat="-27.02172" lon="-48.641826"><ele>11.933197</ele></trkpt><trkpt lat="-27.021721" lon="-48.641826"><ele>11.959717</ele></trkpt><trkpt lat="-27.021723" lon="-48.641827"><ele>12.033447</ele></trkpt><trkpt lat="-27.021722" lon="-48.641827"><ele>12.176697</ele></trkpt><trkpt lat="-27.021723" lon="-48.641826"><ele>12.186279</ele></trkpt><trkpt lat="-27.021723" lon="-48.641826"><ele>12.241089</ele></trkpt><trkpt lat="-27.021723" lon="-48.641826"><ele>12.23761</ele></trkpt><trkpt lat="-27.021722" lon="-48.641826"><ele>12.259033</ele></trkpt><trkpt lat="-27.021722" lon="-48.641826"><ele>12.325928</ele></trkpt><trkpt lat="-27.021722" lon="-48.641826"><ele>11.892426</ele></trkpt><trkpt lat="-27.021722" lon="-48.641824"><ele>11.943787</ele></trkpt><trkpt lat="-27.021722" lon="-48.641823"><ele>11.849487</ele></trkpt><trkpt lat="-27.021722" lon="-48.641821"><ele>11.724335</ele></trkpt><trkpt lat="-27.021722" lon="-48.641822"><ele>11.723999</ele></trkpt><trkpt lat="-27.021723" lon="-48.641822"><ele>11.840118</ele></trkpt><trkpt lat="-27.021722" lon="-48.641823"><ele>11.929626</ele></trkpt><trkpt lat="-27.021722" lon="-48.641824"><ele>12.043884</ele></trkpt><trkpt lat="-27.021721" lon="-48.641824"><ele>12.131836</ele></trkpt><trkpt lat="-27.021721" lon="-48.641824"><ele>12.040283</ele></trkpt><trkpt lat="-27.021722" lon="-48.641823"><ele>12.171265</ele></trkpt><trkpt lat="-27.021722" lon="-48.641822"><ele>12.138977</ele></trkpt><trkpt lat="-27.021722" lon="-48.641822"><ele>12.179871</ele></trkpt><trkpt lat="-27.021722" lon="-48.641822"><ele>12.205017</ele></trkpt><trkpt lat="-27.021722" lon="-48.641822"><ele>12.204529</ele></trkpt><trkpt lat="-27.021722" lon="-48.641822"><ele>12.170349</ele></trkpt><trkpt lat="-27.021723" lon="-48.641823"><ele>12.388733</ele></trkpt><trkpt lat="-27.021724" lon="-48.641825"><ele>11.893707</ele></trkpt><trkpt lat="-27.021725" lon="-48.641825"><ele>12.071472</ele></trkpt><trkpt lat="-27.021724" lon="-48.641825"><ele>11.63266</ele></trkpt><trkpt lat="-27.021726" lon="-48.641826"><ele>11.351257</ele></trkpt><trkpt lat="-27.02173" lon="-48.64183"><ele>10.969543</ele></trkpt><trkpt lat="-27.02173" lon="-48.641826"><ele>11.056976</ele></trkpt><trkpt lat="-27.021729" lon="-48.641825"><ele>11.055511</ele></trkpt><trkpt lat="-27.021728" lon="-48.641825"><ele>11.11261</ele></trkpt><trkpt lat="-27.021728" lon="-48.641825"><ele>11.213959</ele></trkpt><trkpt lat="-27.021728" lon="-48.641824"><ele>11.398773</ele></trkpt><trkpt lat="-27.021727" lon="-48.641831"><ele>11.367462</ele></trkpt><trkpt lat="-27.021729" lon="-48.641837"><ele>11.671875</ele></trkpt><trkpt lat="-27.021733" lon="-48.641849"><ele>11.297699</ele></trkpt><trkpt lat="-27.021729" lon="-48.641856"><ele>11.303497</ele></trkpt><trkpt lat="-27.021722" lon="-48.641862"><ele>11.070038</ele></trkpt><trkpt lat="-27.021722" lon="-48.641863"><ele>10.937897</ele></trkpt><trkpt lat="-27.021723" lon="-48.641866"><ele>10.7659</ele></trkpt><trkpt lat="-27.021335" lon="-48.641762"><ele>21.057495</ele></trkpt><trkpt lat="-27.021281" lon="-48.6418"><ele>18.679138</ele></trkpt><trkpt lat="-27.021243" lon="-48.641799"><ele>17.187744</ele></trkpt><trkpt lat="-27.021213" lon="-48.641793"><ele>14.516296</ele></trkpt><trkpt lat="-27.021185" lon="-48.641786"><ele>12.398315</ele></trkpt><trkpt lat="-27.021157" lon="-48.641781"><ele>10.961487</ele></trkpt><trkpt lat="-27.02113" lon="-48.641774"><ele>11.696503</ele></trkpt><trkpt lat="-27.021103" lon="-48.641771"><ele>11.696808</ele></trkpt><trkpt lat="-27.021076" lon="-48.641767"><ele>12.078003</ele></trkpt><trkpt lat="-27.02105" lon="-48.641765"><ele>12.070618</ele></trkpt><trkpt lat="-27.021024" lon="-48.641763"><ele>12.221375</ele></trkpt><trkpt lat="-27.021" lon="-48.641761"><ele>12.525635</ele></trkpt><trkpt lat="-27.021" lon="-48.641761"><ele>12.525635</ele></trkpt><trkpt lat="-27.020979" lon="-48.641761"><ele>11.904694</ele></trkpt><trkpt lat="-27.020958" lon="-48.64176"><ele>11.783447</ele></trkpt><trkpt lat="-27.020935" lon="-48.641761"><ele>11.924957</ele></trkpt><trkpt lat="-27.020912" lon="-48.64176"><ele>11.944489</ele></trkpt><trkpt lat="-27.02089" lon="-48.64176"><ele>10.620758</ele></trkpt><trkpt lat="-27.020866" lon="-48.641757"><ele>11.160461</ele></trkpt><trkpt lat="-27.020839" lon="-48.641754"><ele>11.002533</ele></trkpt><trkpt lat="-27.02081" lon="-48.641752"><ele>10.834503</ele></trkpt><trkpt lat="-27.020779" lon="-48.64175"><ele>10.64505</ele></trkpt><trkpt lat="-27.020747" lon="-48.641748"><ele>10.486084</ele></trkpt><trkpt lat="-27.020713" lon="-48.641745"><ele>10.357239</ele></trkpt><trkpt lat="-27.020679" lon="-48.641744"><ele>9.743103</ele></trkpt><trkpt lat="-27.020646" lon="-48.641741"><ele>9.772583</ele></trkpt><trkpt lat="-27.020615" lon="-48.641738"><ele>7.782227</ele></trkpt><trkpt lat="-27.02058" lon="-48.641735"><ele>7.803833</ele></trkpt><trkpt lat="-27.020541" lon="-48.641731"><ele>9.905792</ele></trkpt><trkpt lat="-27.020504" lon="-48.641723"><ele>9.761597</ele></trkpt><trkpt lat="-27.020466" lon="-48.641717"><ele>9.686188</ele></trkpt><trkpt lat="-27.020427" lon="-48.641714"><ele>9.216125</ele></trkpt><trkpt lat="-27.020388" lon="-48.64171"><ele>9.248932</ele></trkpt><trkpt lat="-27.02035" lon="-48.641705"><ele>9.105896</ele></trkpt><trkpt lat="-27.020312" lon="-48.6417"><ele>9.842987</ele></trkpt><trkpt lat="-27.020275" lon="-48.641696"><ele>9.728821</ele></trkpt><trkpt lat="-27.020237" lon="-48.641692"><ele>9.91098</ele></trkpt><trkpt lat="-27.020199" lon="-48.641687"><ele>9.883911</ele></trkpt><trkpt lat="-27.02016" lon="-48.641682"><ele>7.593658</ele></trkpt><trkpt lat="-27.020121" lon="-48.641679"><ele>7.390533</ele></trkpt><trkpt lat="-27.02008" lon="-48.641675"><ele>9.655762</ele></trkpt><trkpt lat="-27.020041" lon="-48.641668"><ele>9.735992</ele></trkpt><trkpt lat="-27.020001" lon="-48.641664"><ele>9.766907</ele></trkpt><trkpt lat="-27.019962" lon="-48.641659"><ele>9.799316</ele></trkpt><trkpt lat="-27.019924" lon="-48.641655"><ele>9.810455</ele></trkpt><trkpt lat="-27.019885" lon="-48.641652"><ele>9.392334</ele></trkpt><trkpt lat="-27.019846" lon="-48.641649"><ele>9.138977</ele></trkpt><trkpt lat="-27.019806" lon="-48.641647"><ele>8.870697</ele></trkpt><trkpt lat="-27.019767" lon="-48.641644"><ele>9.411469</ele></trkpt><trkpt lat="-27.019728" lon="-48.641641"><ele>8.992401</ele></trkpt><trkpt lat="-27.019688" lon="-48.641637"><ele>8.975128</ele></trkpt><trkpt lat="-27.019649" lon="-48.641633"><ele>8.964752</ele></trkpt><trkpt lat="-27.01961" lon="-48.64163"><ele>8.872314</ele></trkpt><trkpt lat="-27.019571" lon="-48.641626"><ele>9.15097</ele></trkpt><trkpt lat="-27.019534" lon="-48.641623"><ele>7.072083</ele></trkpt><trkpt lat="-27.019495" lon="-48.641616"><ele>6.778412</ele></trkpt><trkpt lat="-27.019456" lon="-48.641615"><ele>10.050629</ele></trkpt><trkpt lat="-27.019413" lon="-48.641613"><ele>8.568756</ele></trkpt><trkpt lat="-27.019371" lon="-48.641604"><ele>9.00412</ele></trkpt><trkpt lat="-27.019333" lon="-48.641602"><ele>8.897705</ele></trkpt><trkpt lat="-27.019301" lon="-48.641595"><ele>8.984131</ele></trkpt><trkpt lat="-27.019275" lon="-48.641588"><ele>9.595764</ele></trkpt><trkpt lat="-27.019249" lon="-48.641586"><ele>9.974457</ele></trkpt><trkpt lat="-27.019222" lon="-48.641583"><ele>10.197327</ele></trkpt><trkpt lat="-27.019211" lon="-48.641584"><ele>10.687164</ele></trkpt><trkpt lat="-27.019213" lon="-48.641586"><ele>10.672211</ele></trkpt><trkpt lat="-27.019228" lon="-48.641589"><ele>10.656921</ele></trkpt><trkpt lat="-27.019228" lon="-48.641589"><ele>10.656921</ele></trkpt><trkpt lat="-27.019236" lon="-48.64159"><ele>10.652954</ele></trkpt><trkpt lat="-27.019236" lon="-48.64159"><ele>10.652954</ele></trkpt><trkpt lat="-27.01924" lon="-48.641591"><ele>10.651611</ele></trkpt><trkpt lat="-27.01924" lon="-48.641592"><ele>10.522308</ele></trkpt><trkpt lat="-27.019234" lon="-48.641592"><ele>10.491272</ele></trkpt><trkpt lat="-27.019221" lon="-48.64159"><ele>10.46402</ele></trkpt><trkpt lat="-27.019206" lon="-48.641588"><ele>10.633148</ele></trkpt><trkpt lat="-27.019188" lon="-48.641587"><ele>11.731537</ele></trkpt><trkpt lat="-27.019168" lon="-48.641585"><ele>10.410309</ele></trkpt><trkpt lat="-27.019151" lon="-48.641584"><ele>9.803497</ele></trkpt><trkpt lat="-27.019136" lon="-48.641584"><ele>9.92215</ele></trkpt><trkpt lat="-27.01912" lon="-48.641583"><ele>10.172882</ele></trkpt><trkpt lat="-27.019109" lon="-48.641583"><ele>10.073517</ele></trkpt><trkpt lat="-27.019104" lon="-48.641582"><ele>9.997162</ele></trkpt><trkpt lat="-27.019104" lon="-48.641581"><ele>10.04187</ele></trkpt><trkpt lat="-27.019104" lon="-48.641581"><ele>10.093079</ele></trkpt><trkpt lat="-27.019104" lon="-48.641581"><ele>10.093079</ele></trkpt><trkpt lat="-27.019106" lon="-48.641581"><ele>10.09436</ele></trkpt><trkpt lat="-27.019103" lon="-48.641588"><ele>10.018799</ele></trkpt><trkpt lat="-27.019096" lon="-48.64159"><ele>9.97403</ele></trkpt><trkpt lat="-27.01908" lon="-48.641585"><ele>9.645142</ele></trkpt><trkpt lat="-27.019058" lon="-48.641581"><ele>9.802521</ele></trkpt><trkpt lat="-27.019031" lon="-48.641578"><ele>9.592743</ele></trkpt><trkpt lat="-27.019003" lon="-48.641575"><ele>9.718079</ele></trkpt><trkpt lat="-27.018975" lon="-48.641572"><ele>9.665009</ele></trkpt><trkpt lat="-27.018947" lon="-48.641569"><ele>9.820404</ele></trkpt><trkpt lat="-27.018916" lon="-48.641564"><ele>9.966827</ele></trkpt><trkpt lat="-27.018889" lon="-48.641557"><ele>10.225525</ele></trkpt><trkpt lat="-27.01886" lon="-48.641551"><ele>10.266815</ele></trkpt><trkpt lat="-27.018832" lon="-48.641546"><ele>10.434052</ele></trkpt><trkpt lat="-27.01881" lon="-48.641536"><ele>8.37146</ele></trkpt><trkpt lat="-27.018784" lon="-48.641532"><ele>8.606354</ele></trkpt><trkpt lat="-27.018756" lon="-48.641524"><ele>10.886597</ele></trkpt><trkpt lat="-27.018733" lon="-48.641521"><ele>10.581177</ele></trkpt><trkpt lat="-27.01871" lon="-48.641517"><ele>10.311035</ele></trkpt><trkpt lat="-27.01869" lon="-48.641509"><ele>10.482239</ele></trkpt><trkpt lat="-27.018671" lon="-48.641499"><ele>10.286499</ele></trkpt><trkpt lat="-27.01865" lon="-48.641491"><ele>10.117523</ele></trkpt><trkpt lat="-27.018631" lon="-48.641482"><ele>11.105988</ele></trkpt><trkpt lat="-27.018611" lon="-48.64147"><ele>11.777954</ele></trkpt><trkpt lat="-27.018597" lon="-48.641461"><ele>11.28241</ele></trkpt><trkpt lat="-27.018582" lon="-48.641456"><ele>10.515167</ele></trkpt><trkpt lat="-27.018563" lon="-48.641448"><ele>10.072937</ele></trkpt><trkpt lat="-27.018544" lon="-48.641427"><ele>10.037048</ele></trkpt><trkpt lat="-27.018525" lon="-48.641405"><ele>9.945892</ele></trkpt><trkpt lat="-27.018503" lon="-48.641384"><ele>10.183624</ele></trkpt><trkpt lat="-27.018482" lon="-48.641363"><ele>9.75296</ele></trkpt><trkpt lat="-27.018462" lon="-48.641338"><ele>9.976471</ele></trkpt><trkpt lat="-27.018446" lon="-48.641311"><ele>9.57785</ele></trkpt><trkpt lat="-27.018431" lon="-48.641285"><ele>8.088379</ele></trkpt><trkpt lat="-27.018415" lon="-48.641262"><ele>8.10733</ele></trkpt><trkpt lat="-27.018402" lon="-48.64124"><ele>7.38678</ele></trkpt><trkpt lat="-27.01839" lon="-48.641214"><ele>7.091187</ele></trkpt><trkpt lat="-27.018381" lon="-48.641182"><ele>6.982117</ele></trkpt><trkpt lat="-27.018373" lon="-48.641154"><ele>6.420227</ele></trkpt><trkpt lat="-27.018367" lon="-48.641127"><ele>7.966217</ele></trkpt><trkpt lat="-27.018367" lon="-48.641127"><ele>7.966217</ele></trkpt><trkpt lat="-27.018364" lon="-48.6411"><ele>8.135559</ele></trkpt><trkpt lat="-27.018361" lon="-48.641069"><ele>5.058533</ele></trkpt><trkpt lat="-27.018361" lon="-48.641069"><ele>5.058533</ele></trkpt><trkpt lat="-27.018356" lon="-48.641036"><ele>5.492981</ele></trkpt><trkpt lat="-27.018353" lon="-48.641002"><ele>6.113342</ele></trkpt><trkpt lat="-27.018348" lon="-48.640969"><ele>6.224518</ele></trkpt><trkpt lat="-27.018344" lon="-48.640937"><ele>6.413177</ele></trkpt><trkpt lat="-27.018338" lon="-48.640904"><ele>6.070587</ele></trkpt><trkpt lat="-27.018328" lon="-48.640873"><ele>6.465149</ele></trkpt><trkpt lat="-27.01832" lon="-48.640841"><ele>6.201538</ele></trkpt><trkpt lat="-27.018312" lon="-48.640813"><ele>5.478821</ele></trkpt><trkpt lat="-27.018306" lon="-48.640779"><ele>5.021729</ele></trkpt><trkpt lat="-27.0183" lon="-48.640747"><ele>5.684692</ele></trkpt><trkpt lat="-27.018296" lon="-48.640717"><ele>5.566406</ele></trkpt><trkpt lat="-27.018293" lon="-48.640683"><ele>4.729065</ele></trkpt><trkpt lat="-27.018292" lon="-48.640648"><ele>4.497742</ele></trkpt><trkpt lat="-27.018288" lon="-48.640615"><ele>4.904022</ele></trkpt><trkpt lat="-27.018284" lon="-48.64058"><ele>5.408752</ele></trkpt><trkpt lat="-27.018279" lon="-48.640544"><ele>5.842224</ele></trkpt><trkpt lat="-27.018278" lon="-48.640502"><ele>5.813416</ele></trkpt><trkpt lat="-27.018272" lon="-48.640469"><ele>5.942139</ele></trkpt><trkpt lat="-27.018266" lon="-48.640436"><ele>5.658752</ele></trkpt><trkpt lat="-27.01826" lon="-48.640402"><ele>6.642456</ele></trkpt><trkpt lat="-27.018255" lon="-48.640368"><ele>6.440002</ele></trkpt><trkpt lat="-27.01825" lon="-48.640323"><ele>6.400665</ele></trkpt><trkpt lat="-27.018245" lon="-48.64029"><ele>6.653992</ele></trkpt><trkpt lat="-27.018243" lon="-48.640256"><ele>7.525604</ele></trkpt><trkpt lat="-27.01824" lon="-48.640222"><ele>7.219818</ele></trkpt><trkpt lat="-27.018236" lon="-48.640189"><ele>6.921478</ele></trkpt><trkpt lat="-27.018233" lon="-48.640157"><ele>6.785583</ele></trkpt><trkpt lat="-27.01823" lon="-48.640124"><ele>6.464996</ele></trkpt><trkpt lat="-27.018227" lon="-48.640092"><ele>6.607086</ele></trkpt><trkpt lat="-27.018229" lon="-48.640063"><ele>6.73053</ele></trkpt><trkpt lat="-27.018229" lon="-48.640032"><ele>7.020264</ele></trkpt><trkpt lat="-27.018225" lon="-48.639999"><ele>6.609528</ele></trkpt><trkpt lat="-27.01822" lon="-48.639964"><ele>6.858673</ele></trkpt><trkpt lat="-27.018215" lon="-48.639933"><ele>6.289948</ele></trkpt><trkpt lat="-27.018214" lon="-48.639902"><ele>6.510071</ele></trkpt><trkpt lat="-27.018211" lon="-48.639869"><ele>6.861237</ele></trkpt><trkpt lat="-27.01821" lon="-48.639838"><ele>6.713104</ele></trkpt><trkpt lat="-27.018211" lon="-48.639806"><ele>6.358063</ele></trkpt><trkpt lat="-27.018211" lon="-48.639771"><ele>6.748566</ele></trkpt><trkpt lat="-27.018211" lon="-48.639734"><ele>6.824982</ele></trkpt><trkpt lat="-27.01821" lon="-48.639701"><ele>7.170837</ele></trkpt><trkpt lat="-27.018209" lon="-48.639666"><ele>7.779175</ele></trkpt><trkpt lat="-27.018214" lon="-48.639634"><ele>7.050354</ele></trkpt><trkpt lat="-27.018216" lon="-48.639599"><ele>7.260254</ele></trkpt><trkpt lat="-27.018216" lon="-48.639566"><ele>7.036652</ele></trkpt><trkpt lat="-27.018218" lon="-48.639531"><ele>7.51944</ele></trkpt><trkpt lat="-27.018218" lon="-48.639496"><ele>7.627197</ele></trkpt><trkpt lat="-27.018222" lon="-48.639461"><ele>7.930603</ele></trkpt><trkpt lat="-27.018223" lon="-48.639427"><ele>8.371429</ele></trkpt><trkpt lat="-27.018221" lon="-48.639397"><ele>8.603119</ele></trkpt><trkpt lat="-27.018219" lon="-48.639384"><ele>8.302673</ele></trkpt><trkpt lat="-27.018224" lon="-48.639371"><ele>8.649109</ele></trkpt><trkpt lat="-27.018228" lon="-48.639372"><ele>8.80777</ele></trkpt><trkpt lat="-27.018231" lon="-48.639374"><ele>9.124817</ele></trkpt><trkpt lat="-27.018228" lon="-48.639379"><ele>9.1315</ele></trkpt><trkpt lat="-27.018227" lon="-48.63938"><ele>9.131012</ele></trkpt><trkpt lat="-27.018227" lon="-48.63938"><ele>9.131012</ele></trkpt><trkpt lat="-27.018227" lon="-48.63938"><ele>9.130157</ele></trkpt><trkpt lat="-27.018227" lon="-48.63938"><ele>9.130157</ele></trkpt><trkpt lat="-27.018227" lon="-48.63938"><ele>9.129456</ele></trkpt><trkpt lat="-27.018227" lon="-48.63938"><ele>9.13205</ele></trkpt><trkpt lat="-27.018227" lon="-48.63938"><ele>9.131958</ele></trkpt><trkpt lat="-27.018227" lon="-48.63938"><ele>9.104034</ele></trkpt><trkpt lat="-27.018227" lon="-48.63938"><ele>9.10318</ele></trkpt><trkpt lat="-27.018227" lon="-48.63938"><ele>9.104523</ele></trkpt><trkpt lat="-27.018229" lon="-48.639379"><ele>9.431366</ele></trkpt><trkpt lat="-27.018229" lon="-48.63938"><ele>9.643433</ele></trkpt><trkpt lat="-27.01823" lon="-48.639379"><ele>9.64502</ele></trkpt><trkpt lat="-27.018232" lon="-48.639377"><ele>9.796539</ele></trkpt><trkpt lat="-27.018231" lon="-48.639374"><ele>9.465607</ele></trkpt><trkpt lat="-27.01823" lon="-48.639372"><ele>9.406342</ele></trkpt><trkpt lat="-27.018236" lon="-48.639377"><ele>9.748657</ele></trkpt><trkpt lat="-27.01824" lon="-48.63938"><ele>9.625305</ele></trkpt><trkpt lat="-27.018241" lon="-48.63938"><ele>9.641785</ele></trkpt><trkpt lat="-27.018241" lon="-48.639381"><ele>9.641754</ele></trkpt><trkpt lat="-27.018242" lon="-48.639381"><ele>9.164581</ele></trkpt><trkpt lat="-27.018243" lon="-48.639381"><ele>9.003937</ele></trkpt><trkpt lat="-27.018241" lon="-48.639381"><ele>8.499451</ele></trkpt><trkpt lat="-27.018239" lon="-48.63938"><ele>8.793274</ele></trkpt><trkpt lat="-27.018239" lon="-48.63938"><ele>8.793274</ele></trkpt><trkpt lat="-27.018238" lon="-48.639379"><ele>8.779907</ele></trkpt><trkpt lat="-27.018237" lon="-48.639371"><ele>8.991028</ele></trkpt><trkpt lat="-27.018237" lon="-48.639361"><ele>8.781342</ele></trkpt><trkpt lat="-27.018239" lon="-48.639347"><ele>9.158081</ele></trkpt><trkpt lat="-27.018243" lon="-48.639329"><ele>9.364044</ele></trkpt><trkpt lat="-27.018244" lon="-48.63931"><ele>8.876099</ele></trkpt><trkpt lat="-27.018246" lon="-48.639284"><ele>9.438385</ele></trkpt><trkpt lat="-27.018249" lon="-48.639257"><ele>9.609222</ele></trkpt><trkpt lat="-27.018252" lon="-48.639229"><ele>9.605286</ele></trkpt><trkpt lat="-27.018256" lon="-48.6392"><ele>9.66864</ele></trkpt><trkpt lat="-27.018258" lon="-48.639174"><ele>9.906067</ele></trkpt><trkpt lat="-27.018259" lon="-48.639148"><ele>10.149902</ele></trkpt><trkpt lat="-27.018259" lon="-48.639125"><ele>10.03595</ele></trkpt><trkpt lat="-27.018262" lon="-48.639102"><ele>10.725922</ele></trkpt><trkpt lat="-27.018265" lon="-48.639081"><ele>10.524872</ele></trkpt><trkpt lat="-27.018267" lon="-48.639063"><ele>9.948486</ele></trkpt><trkpt lat="-27.018267" lon="-48.639063"><ele>9.948486</ele></trkpt><trkpt lat="-27.018266" lon="-48.639051"><ele>9.220734</ele></trkpt><trkpt lat="-27.018265" lon="-48.639042"><ele>9.09964</ele></trkpt><trkpt lat="-27.018266" lon="-48.639027"><ele>9.199951</ele></trkpt><trkpt lat="-27.018265" lon="-48.639014"><ele>9.174225</ele></trkpt><trkpt lat="-27.018265" lon="-48.639003"><ele>9.051849</ele></trkpt><trkpt lat="-27.018265" lon="-48.639"><ele>9.180389</ele></trkpt><trkpt lat="-27.018264" lon="-48.639002"><ele>8.656128</ele></trkpt><trkpt lat="-27.018262" lon="-48.639004"><ele>9.127502</ele></trkpt><trkpt lat="-27.01826" lon="-48.639005"><ele>9.132263</ele></trkpt><trkpt lat="-27.018259" lon="-48.639006"><ele>9.17749</ele></trkpt><trkpt lat="-27.018259" lon="-48.639006"><ele>9.17749</ele></trkpt><trkpt lat="-27.018259" lon="-48.639006"><ele>9.17749</ele></trkpt><trkpt lat="-27.018259" lon="-48.639006"><ele>9.177643</ele></trkpt><trkpt lat="-27.018259" lon="-48.639006"><ele>9.151154</ele></trkpt><trkpt lat="-27.018259" lon="-48.639006"><ele>9.155457</ele></trkpt><trkpt lat="-27.018259" lon="-48.639006"><ele>9.156494</ele></trkpt><trkpt lat="-27.018259" lon="-48.639006"><ele>9.159851</ele></trkpt><trkpt lat="-27.018259" lon="-48.639006"><ele>9.160095</ele></trkpt><trkpt lat="-27.018258" lon="-48.639"><ele>9.723816</ele></trkpt><trkpt lat="-27.018258" lon="-48.638998"><ele>9.707916</ele></trkpt><trkpt lat="-27.018257" lon="-48.638998"><ele>9.706299</ele></trkpt><trkpt lat="-27.018256" lon="-48.638995"><ele>9.842407</ele></trkpt><trkpt lat="-27.018255" lon="-48.638994"><ele>9.866669</ele></trkpt><trkpt lat="-27.018255" lon="-48.638994"><ele>9.866669</ele></trkpt><trkpt lat="-27.018255" lon="-48.638994"><ele>9.868439</ele></trkpt><trkpt lat="-27.018261" lon="-48.638998"><ele>9.803619</ele></trkpt><trkpt lat="-27.018263" lon="-48.63899"><ele>10.168732</ele></trkpt><trkpt lat="-27.018261" lon="-48.638972"><ele>10.61264</ele></trkpt><trkpt lat="-27.018261" lon="-48.638957"><ele>10.379272</ele></trkpt><trkpt lat="-27.018262" lon="-48.638944"><ele>10.411957</ele></trkpt><trkpt lat="-27.018258" lon="-48.638931"><ele>10.76889</ele></trkpt><trkpt lat="-27.018252" lon="-48.638921"><ele>10.819183</ele></trkpt><trkpt lat="-27.018251" lon="-48.63892"><ele>10.77475</ele></trkpt><trkpt lat="-27.018252" lon="-48.63892"><ele>10.770782</ele></trkpt><trkpt lat="-27.018254" lon="-48.638921"><ele>10.720062</ele></trkpt><trkpt lat="-27.018257" lon="-48.638924"><ele>10.836029</ele></trkpt><trkpt lat="-27.018258" lon="-48.638926"><ele>10.783691</ele></trkpt><trkpt lat="-27.018259" lon="-48.63893"><ele>10.384979</ele></trkpt><trkpt lat="-27.01826" lon="-48.638931"><ele>10.439606</ele></trkpt><trkpt lat="-27.01826" lon="-48.638931"><ele>10.441345</ele></trkpt><trkpt lat="-27.01826" lon="-48.638931"><ele>10.438782</ele></trkpt><trkpt lat="-27.01826" lon="-48.638931"><ele>10.435059</ele></trkpt><trkpt lat="-27.01826" lon="-48.638931"><ele>10.435059</ele></trkpt><trkpt lat="-27.018261" lon="-48.638931"><ele>10.4328</ele></trkpt><trkpt lat="-27.018261" lon="-48.638931"><ele>10.4328</ele></trkpt><trkpt lat="-27.018259" lon="-48.638929"><ele>10.617798</ele></trkpt><trkpt lat="-27.018259" lon="-48.638929"><ele>10.239807</ele></trkpt><trkpt lat="-27.018263" lon="-48.638933"><ele>10.193268</ele></trkpt><trkpt lat="-27.018271" lon="-48.638935"><ele>10.198425</ele></trkpt><trkpt lat="-27.018276" lon="-48.638935"><ele>10.000763</ele></trkpt><trkpt lat="-27.018281" lon="-48.638934"><ele>10.539093</ele></trkpt><trkpt lat="-27.018282" lon="-48.638935"><ele>10.451263</ele></trkpt><trkpt lat="-27.018279" lon="-48.638938"><ele>9.958008</ele></trkpt><trkpt lat="-27.018277" lon="-48.638941"><ele>10.40564</ele></trkpt><trkpt lat="-27.01828" lon="-48.638938"><ele>10.384918</ele></trkpt><trkpt lat="-27.01828" lon="-48.638937"><ele>10.496307</ele></trkpt><trkpt lat="-27.01828" lon="-48.638937"><ele>10.489899</ele></trkpt><trkpt lat="-27.01828" lon="-48.638937"><ele>10.489594</ele></trkpt><trkpt lat="-27.018276" lon="-48.638932"><ele>10.913788</ele></trkpt><trkpt lat="-27.018273" lon="-48.638927"><ele>10.973297</ele></trkpt><trkpt lat="-27.018272" lon="-48.638926"><ele>10.971222</ele></trkpt><trkpt lat="-27.018272" lon="-48.638925"><ele>11.037476</ele></trkpt><trkpt lat="-27.018274" lon="-48.638927"><ele>10.95636</ele></trkpt><trkpt lat="-27.018275" lon="-48.638929"><ele>10.966492</ele></trkpt><trkpt lat="-27.018275" lon="-48.638929"><ele>10.963226</ele></trkpt><trkpt lat="-27.018275" lon="-48.638929"><ele>10.963226</ele></trkpt><trkpt lat="-27.018275" lon="-48.63893"><ele>11.074921</ele></trkpt><trkpt lat="-27.018275" lon="-48.63893"><ele>11.072083</ele></trkpt><trkpt lat="-27.018276" lon="-48.638927"><ele>11.430817</ele></trkpt><trkpt lat="-27.018275" lon="-48.638926"><ele>11.208008</ele></trkpt><trkpt lat="-27.018274" lon="-48.638926"><ele>11.207367</ele></trkpt><trkpt lat="-27.018273" lon="-48.638926"><ele>11.210175</ele></trkpt><trkpt lat="-27.018273" lon="-48.638926"><ele>11.210236</ele></trkpt><trkpt lat="-27.018273" lon="-48.638926"><ele>11.210571</ele></trkpt><trkpt lat="-27.018273" lon="-48.638926"><ele>11.208344</ele></trkpt><trkpt lat="-27.018273" lon="-48.638926"><ele>11.206879</ele></trkpt><trkpt lat="-27.018275" lon="-48.638927"><ele>10.785034</ele></trkpt><trkpt lat="-27.018276" lon="-48.638929"><ele>10.755585</ele></trkpt><trkpt lat="-27.018276" lon="-48.638929"><ele>10.757874</ele></trkpt><trkpt lat="-27.018276" lon="-48.638929"><ele>10.755951</ele></trkpt><trkpt lat="-27.018276" lon="-48.638928"><ele>10.748718</ele></trkpt><trkpt lat="-27.018276" lon="-48.638927"><ele>10.80835</ele></trkpt><trkpt lat="-27.018279" lon="-48.638926"><ele>10.722778</ele></trkpt><trkpt lat="-27.018279" lon="-48.638926"><ele>10.75824</ele></trkpt><trkpt lat="-27.018279" lon="-48.638926"><ele>10.757904</ele></trkpt><trkpt lat="-27.018279" lon="-48.638926"><ele>10.757843</ele></trkpt><trkpt lat="-27.018279" lon="-48.638926"><ele>10.758392</ele></trkpt><trkpt lat="-27.018278" lon="-48.638924"><ele>10.579895</ele></trkpt><trkpt lat="-27.018278" lon="-48.638924"><ele>10.712982</ele></trkpt><trkpt lat="-27.018278" lon="-48.638924"><ele>10.712982</ele></trkpt><trkpt lat="-27.018277" lon="-48.638924"><ele>10.796539</ele></trkpt><trkpt lat="-27.018277" lon="-48.638923"><ele>10.483002</ele></trkpt><trkpt lat="-27.018276" lon="-48.638923"><ele>10.676453</ele></trkpt><trkpt lat="-27.018276" lon="-48.638924"><ele>10.688782</ele></trkpt><trkpt lat="-27.018277" lon="-48.638919"><ele>10.941284</ele></trkpt><trkpt lat="-27.018277" lon="-48.638916"><ele>10.884918</ele></trkpt><trkpt lat="-27.018277" lon="-48.638916"><ele>10.887421</ele></trkpt><trkpt lat="-27.018278" lon="-48.638915"><ele>10.732361</ele></trkpt><trkpt lat="-27.018278" lon="-48.638914"><ele>10.720947</ele></trkpt><trkpt lat="-27.018278" lon="-48.638914"><ele>10.723297</ele></trkpt><trkpt lat="-27.018278" lon="-48.638914"><ele>10.723297</ele></trkpt><trkpt lat="-27.018278" lon="-48.638913"><ele>10.724976</ele></trkpt><trkpt lat="-27.018278" lon="-48.638912"><ele>10.683655</ele></trkpt><trkpt lat="-27.018278" lon="-48.638912"><ele>10.695313</ele></trkpt><trkpt lat="-27.018278" lon="-48.638912"><ele>10.696564</ele></trkpt><trkpt lat="-27.018279" lon="-48.638911"><ele>10.507233</ele></trkpt><trkpt lat="-27.01828" lon="-48.63891"><ele>10.495239</ele></trkpt><trkpt lat="-27.01828" lon="-48.63891"><ele>10.495239</ele></trkpt><trkpt lat="-27.01828" lon="-48.63891"><ele>10.494659</ele></trkpt><trkpt lat="-27.01828" lon="-48.63891"><ele>10.493988</ele></trkpt><trkpt lat="-27.01828" lon="-48.63891"><ele>10.493317</ele></trkpt><trkpt lat="-27.018281" lon="-48.638911"><ele>10.175415</ele></trkpt><trkpt lat="-27.018282" lon="-48.638913"><ele>10.147156</ele></trkpt><trkpt lat="-27.018283" lon="-48.638913"><ele>10.073792</ele></trkpt><trkpt lat="-27.018284" lon="-48.638913"><ele>10.075378</ele></trkpt><trkpt lat="-27.018284" lon="-48.638913"><ele>10.075653</ele></trkpt><trkpt lat="-27.018284" lon="-48.638913"><ele>10.07547</ele></trkpt><trkpt lat="-27.018284" lon="-48.638913"><ele>10.073059</ele></trkpt><trkpt lat="-27.018284" lon="-48.638913"><ele>10.07135</ele></trkpt><trkpt lat="-27.018284" lon="-48.638913"><ele>10.071411</ele></trkpt><trkpt lat="-27.018284" lon="-48.638913"><ele>10.073517</ele></trkpt><trkpt lat="-27.018284" lon="-48.638913"><ele>10.074219</ele></trkpt><trkpt lat="-27.018284" lon="-48.638914"><ele>9.824829</ele></trkpt><trkpt lat="-27.018286" lon="-48.638917"><ele>9.71225</ele></trkpt><trkpt lat="-27.018287" lon="-48.638917"><ele>9.738647</ele></trkpt><trkpt lat="-27.018287" lon="-48.638917"><ele>9.737701</ele></trkpt><trkpt lat="-27.018287" lon="-48.638917"><ele>9.737213</ele></trkpt><trkpt lat="-27.018287" lon="-48.638917"><ele>9.737457</ele></trkpt><trkpt lat="-27.018287" lon="-48.638917"><ele>9.738373</ele></trkpt><trkpt lat="-27.018287" lon="-48.638917"><ele>9.734833</ele></trkpt><trkpt lat="-27.018287" lon="-48.638917"><ele>9.732208</ele></trkpt><trkpt lat="-27.018287" lon="-48.638917"><ele>9.729706</ele></trkpt><trkpt lat="-27.018287" lon="-48.638917"><ele>9.724823</ele></trkpt><trkpt lat="-27.018287" lon="-48.638917"><ele>9.720612</ele></trkpt><trkpt lat="-27.018287" lon="-48.638917"><ele>9.714172</ele></trkpt><trkpt lat="-27.018287" lon="-48.638917"><ele>9.714355</ele></trkpt><trkpt lat="-27.018284" lon="-48.638912"><ele>10.141479</ele></trkpt><trkpt lat="-27.018285" lon="-48.638907"><ele>10.266174</ele></trkpt><trkpt lat="-27.01828" lon="-48.638903"><ele>10.336365</ele></trkpt><trkpt lat="-27.018273" lon="-48.638902"><ele>10.283813</ele></trkpt><trkpt lat="-27.018273" lon="-48.638902"><ele>10.283813</ele></trkpt><trkpt lat="-27.018273" lon="-48.638902"><ele>10.283813</ele></trkpt><trkpt lat="-27.018269" lon="-48.638903"><ele>9.927368</ele></trkpt><trkpt lat="-27.018269" lon="-48.638903"><ele>9.927368</ele></trkpt><trkpt lat="-27.018269" lon="-48.638903"><ele>9.927368</ele></trkpt><trkpt lat="-27.018267" lon="-48.638903"><ele>9.942871</ele></trkpt><trkpt lat="-27.018261" lon="-48.638907"><ele>9.883423</ele></trkpt><trkpt lat="-27.018256" lon="-48.638911"><ele>9.844147</ele></trkpt><trkpt lat="-27.018254" lon="-48.638914"><ele>9.802948</ele></trkpt><trkpt lat="-27.018253" lon="-48.638916"><ele>9.803223</ele></trkpt><trkpt lat="-27.018254" lon="-48.638913"><ele>9.751129</ele></trkpt><trkpt lat="-27.018255" lon="-48.638913"><ele>9.753052</ele></trkpt><trkpt lat="-27.018255" lon="-48.638912"><ele>9.858673</ele></trkpt><trkpt lat="-27.018255" lon="-48.638912"><ele>9.858673</ele></trkpt><trkpt lat="-27.018255" lon="-48.63891"><ele>9.997314</ele></trkpt><trkpt lat="-27.018255" lon="-48.638912"><ele>9.953674</ele></trkpt><trkpt lat="-27.018258" lon="-48.638913"><ele>9.957062</ele></trkpt><trkpt lat="-27.018258" lon="-48.638913"><ele>9.955475</ele></trkpt><trkpt lat="-27.018259" lon="-48.638913"><ele>9.955383</ele></trkpt><trkpt lat="-27.018259" lon="-48.638914"><ele>9.774414</ele></trkpt><trkpt lat="-27.01826" lon="-48.638914"><ele>9.773621</ele></trkpt><trkpt lat="-27.01826" lon="-48.638914"><ele>9.772491</ele></trkpt><trkpt lat="-27.01826" lon="-48.638915"><ele>9.770599</ele></trkpt><trkpt lat="-27.01826" lon="-48.638915"><ele>9.885956</ele></trkpt><trkpt lat="-27.01826" lon="-48.638915"><ele>9.885956</ele></trkpt><trkpt lat="-27.01826" lon="-48.638915"><ele>9.879639</ele></trkpt><trkpt lat="-27.01826" lon="-48.638915"><ele>9.876251</ele></trkpt><trkpt lat="-27.01826" lon="-48.638915"><ele>9.873138</ele></trkpt><trkpt lat="-27.01826" lon="-48.638915"><ele>9.867706</ele></trkpt><trkpt lat="-27.01826" lon="-48.638915"><ele>9.863586</ele></trkpt><trkpt lat="-27.01826" lon="-48.638915"><ele>9.86203</ele></trkpt><trkpt lat="-27.01826" lon="-48.638915"><ele>9.864166</ele></trkpt><trkpt lat="-27.01826" lon="-48.638915"><ele>9.863434</ele></trkpt><trkpt lat="-27.01826" lon="-48.638915"><ele>9.862366</ele></trkpt><trkpt lat="-27.01826" lon="-48.638915"><ele>9.864441</ele></trkpt><trkpt lat="-27.01826" lon="-48.638915"><ele>9.864441</ele></trkpt><trkpt lat="-27.01826" lon="-48.638915"><ele>9.86615</ele></trkpt><trkpt lat="-27.01826" lon="-48.638915"><ele>9.861023</ele></trkpt><trkpt lat="-27.01826" lon="-48.638915"><ele>9.751526</ele></trkpt><trkpt lat="-27.01826" lon="-48.638915"><ele>9.75177</ele></trkpt><trkpt lat="-27.01826" lon="-48.638915"><ele>9.754547</ele></trkpt><trkpt lat="-27.01826" lon="-48.638915"><ele>9.758209</ele></trkpt><trkpt lat="-27.01826" lon="-48.638915"><ele>9.76004</ele></trkpt><trkpt lat="-27.01826" lon="-48.638915"><ele>9.763763</ele></trkpt><trkpt lat="-27.01826" lon="-48.638915"><ele>9.763763</ele></trkpt><trkpt lat="-27.01826" lon="-48.638915"><ele>9.764099</ele></trkpt><trkpt lat="-27.018259" lon="-48.638914"><ele>9.89447</ele></trkpt><trkpt lat="-27.018258" lon="-48.638913"><ele>9.908966</ele></trkpt><trkpt lat="-27.018258" lon="-48.638913"><ele>9.906799</ele></trkpt><trkpt lat="-27.018258" lon="-48.638913"><ele>9.904541</ele></trkpt><trkpt lat="-27.018258" lon="-48.638913"><ele>9.905334</ele></trkpt><trkpt lat="-27.018258" lon="-48.638913"><ele>9.905029</ele></trkpt><trkpt lat="-27.018258" lon="-48.638913"><ele>9.903412</ele></trkpt><trkpt lat="-27.018258" lon="-48.638913"><ele>9.903412</ele></trkpt><trkpt lat="-27.018258" lon="-48.638913"><ele>9.902161</ele></trkpt><trkpt lat="-27.018258" lon="-48.638913"><ele>9.899139</ele></trkpt><trkpt lat="-27.018258" lon="-48.638913"><ele>9.898285</ele></trkpt><trkpt lat="-27.018258" lon="-48.638913"><ele>9.895691</ele></trkpt><trkpt lat="-27.018258" lon="-48.638913"><ele>9.896576</ele></trkpt><trkpt lat="-27.018258" lon="-48.638913"><ele>9.893097</ele></trkpt><trkpt lat="-27.018258" lon="-48.638913"><ele>9.891388</ele></trkpt><trkpt lat="-27.018258" lon="-48.638913"><ele>10.021729</ele></trkpt><trkpt lat="-27.018258" lon="-48.638913"><ele>10.013367</ele></trkpt><trkpt lat="-27.018258" lon="-48.638913"><ele>10.013367</ele></trkpt><trkpt lat="-27.018258" lon="-48.638913"><ele>10.011139</ele></trkpt><trkpt lat="-27.018258" lon="-48.638913"><ele>10.009216</ele></trkpt><trkpt lat="-27.018258" lon="-48.638913"><ele>10.008484</ele></trkpt><trkpt lat="-27.018258" lon="-48.638913"><ele>10.007355</ele></trkpt><trkpt lat="-27.018258" lon="-48.638913"><ele>10.008118</ele></trkpt><trkpt lat="-27.018258" lon="-48.638913"><ele>10.008118</ele></trkpt><trkpt lat="-27.018258" lon="-48.638913"><ele>10.009247</ele></trkpt><trkpt lat="-27.018258" lon="-48.638913"><ele>10.008972</ele></trkpt><trkpt lat="-27.018258" lon="-48.638913"><ele>10.01001</ele></trkpt><trkpt lat="-27.018258" lon="-48.638913"><ele>10.012573</ele></trkpt><trkpt lat="-27.018259" lon="-48.638913"><ele>9.944122</ele></trkpt><trkpt lat="-27.018261" lon="-48.638914"><ele>9.971375</ele></trkpt><trkpt lat="-27.018263" lon="-48.638915"><ele>9.97229</ele></trkpt></trkseg></trk></gpx>