<?xml version="1.0" encoding="UTF-8"?>
<gpx xmlns="http://www.topografix.com/GPX/1/1" version="1.1" creator="@dwayneparton/geojson-to-gpx"><wpt lat="-27.02064852" lon="-48.67007593"><ele>9.720672607421875</ele><name>2 faixas</name></wpt><wpt lat="-27.02066857" lon="-48.67005513"><ele>11.6494140625</ele><name>30</name></wpt><wpt lat="-27.02369131" lon="-48.67291531"><ele>10.393096923828125</ele><name>30</name></wpt><wpt lat="-27.02131498" lon="-48.6705285"><ele>7.937164306640625</ele><name>50km/h</name></wpt><wpt lat="-27.02399471" lon="-48.67471138"><ele>8.999786376953125</ele><name>50km/h</name></wpt><wpt lat="-27.02068466" lon="-48.67004939"><ele>11.72955322265625</ele><name>170</name></wpt><wpt lat="-27.02369523" lon="-48.67291496"><ele>13.01605224609375</ele><name>170</name></wpt><wpt lat="-27.02067348" lon="-48.67005408"><ele>10.576507568359375</ele><name>297</name></wpt><wpt lat="-27.02368898" lon="-48.672915"><ele>10.5335693359375</ele><name>314</name></wpt><wpt lat="-27.02065302" lon="-48.6700585"><ele>10.445892333984375</ele><name>896</name></wpt><wpt lat="-27.02367341" lon="-48.67290262"><ele>8.869873046875</ele><name>934</name></wpt><wpt lat="-27.02449371" lon="-48.67914387"><ele>11.364990234375</ele><name>A ciclo é sinuosa, exigindo atenção</name></wpt><wpt lat="-27.0244941" lon="-48.67914476"><ele>11.645233154296875</ele><name>A pintura está boa, mas FALHA em ALGUNS pontos</name></wpt><wpt lat="-27.02449283" lon="-48.67915209"><ele>10.76470947265625</ele><name>Ambas: Alguns trechos sem segregadores. Automóvel consegue passar por entre estes com facilidade</name></wpt><wpt lat="-27.02067335" lon="-48.670055"><ele>11.791290283203125</ele><name>Área de amortecimento da ciclo (cm)</name></wpt><wpt lat="-27.02369131" lon="-48.67291531"><ele>10.393096923828125</ele><name>Área de amortecimento da ciclo (cm)</name></wpt><wpt lat="-27.02069091" lon="-48.6700428"><ele>12.09539794921875</ele><name>Área transitável da ciclo (cm)</name></wpt><wpt lat="-27.02369523" lon="-48.67291496"><ele>13.01605224609375</ele><name>Área transitável da ciclo (cm)</name></wpt><wpt lat="-27.02064685" lon="-48.67007703"><ele>10.06475830078125</ele><name>Asfalto</name></wpt><wpt lat="-27.02065582" lon="-48.67005887"><ele>10.009033203125</ele><name>Bidirecional</name></wpt><wpt lat="-27.02252867" lon="-48.67090143"><ele>7.564605712890625</ele><name>Buraco</name></wpt><wpt lat="-27.02065324" lon="-48.67005852"><ele>9.466278076171875</ele><name>Ciclofaixa</name></wpt><wpt lat="-27.02459589" lon="-48.67850049"><ele>10.860565185546875</ele><name>Complementar</name></wpt><wpt lat="-27.02456792" lon="-48.67837767"><ele>10.869415283203125</ele><name>Desnível</name></wpt><wpt lat="-27.02065404" lon="-48.67006891"><ele>9.89166259765625</ele><name>Em bordo de Via de Mão Dupla</name></wpt><wpt lat="-27.02452943" lon="-48.67699222"><ele>9.735931396484375</ele><name>Estacionamento dedicado de um lado, segregado da circulação</name></wpt><wpt lat="-27.02425235" lon="-48.67614218"><ele>10.38043212890625</ele><name>Estacionamento proibido na via</name></wpt><wpt lat="-27.02067404" lon="-48.67005492"><ele>10.6881103515625</ele><name>Faixa de carros logo ao lado da ciclo (cm)</name></wpt><wpt lat="-27.02368898" lon="-48.672915"><ele>10.5335693359375</ele><name>Faixa de carros logo ao lado da ciclo (cm)</name></wpt><wpt lat="-27.02067057" lon="-48.67007072"><ele>8.90240478515625</ele><name>Foto</name></wpt><wpt lat="-27.02449874" lon="-48.67914558"><ele>11.417510986328125</ele><name>Iluminação geral na via do outro lado da infraestrutura</name></wpt><wpt lat="-27.02088832" lon="-48.67024811"><ele>9.07183837890625</ele><name>Lombadas físicas</name></wpt><wpt lat="-27.0216105" lon="-48.67059357"><ele>7.704010009765625</ele><name>Lombadas físicas</name></wpt><wpt lat="-27.02370551" lon="-48.67290037"><ele>9.236663818359375</ele><name>Lombadas físicas</name></wpt><wpt lat="-27.02456831" lon="-48.67835423"><ele>9.4359130859375</ele><name>Lombadas físicas</name></wpt><wpt lat="-27.02065408" lon="-48.6700689"><ele>9.89288330078125</ele><name>Mão Dupla</name></wpt><wpt lat="-27.0244942" lon="-48.67914474"><ele>11.643310546875</ele><name>Pequenas imperfeições, como fissuras</name></wpt><wpt lat="-27.02449397" lon="-48.67914354"><ele>11.84515380859375</ele><name>R3m0v3r Avaliação de Sombreamento 🗑️</name></wpt><wpt lat="-27.02452608" lon="-48.67699412"><ele>9.45318603515625</ele> <name>R3m0v3r  Estacionamento 🗑️</name></wpt><wpt lat="-27.02449168" lon="-48.6791466"><ele>11.369476318359375</ele><name>Segregadores NÃO DIFICULTAM o acesso de ciclistas</name></wpt><wpt lat="-27.02449387" lon="-48.67914377"><ele>11.851409912109375</ele><name>Sombras em alguns trechos, SEM mudas novas</name></wpt><wpt lat="-27.02064692" lon="-48.67007699"><ele>10.0716552734375</ele><name>Tachões</name></wpt><wpt lat="-27.02065302" lon="-48.6700585"><ele>10.445892333984375</ele><name>Total da via (incluindo a ciclo) (cm)</name></wpt><wpt lat="-27.02367959" lon="-48.67290472"><ele>9.132415771484375</ele><name>Total da via (incluindo a ciclo) (cm)</name></wpt><trk><name>Ciclofaixa Av. João da Costa T2 - Cb</name><trkseg><trkpt lat="-27.02056839" lon="-48.6700282"><ele>9.14752197265625</ele></trkpt><trkpt lat="-27.02057014" lon="-48.67003005"><ele>9.11712646484375</ele></trkpt><trkpt lat="-27.02062574" lon="-48.67005285"><ele>9.10601806640625</ele></trkpt><trkpt lat="-27.02064393" lon="-48.67006029"><ele>8.34979248046875</ele></trkpt><trkpt lat="-27.02065374" lon="-48.67006359"><ele>8.856964111328125</ele></trkpt><trkpt lat="-27.02066463" lon="-48.67006307"><ele>8.662078857421875</ele></trkpt><trkpt lat="-27.0206694" lon="-48.67006301"><ele>8.440093994140625</ele></trkpt><trkpt lat="-27.02067182" lon="-48.6700651"><ele>8.452301025390625</ele></trkpt><trkpt lat="-27.02067259" lon="-48.670068"><ele>8.4901123046875</ele></trkpt><trkpt lat="-27.02067057" lon="-48.67007072"><ele>8.90240478515625</ele></trkpt><trkpt lat="-27.02067057" lon="-48.67007072"><ele>8.90240478515625</ele></trkpt><trkpt lat="-27.02066919" lon="-48.67007124"><ele>9.226531982421875</ele></trkpt><trkpt lat="-27.0206704" lon="-48.67007141"><ele>9.40478515625</ele></trkpt><trkpt lat="-27.02066799" lon="-48.67007135"><ele>9.28033447265625</ele></trkpt><trkpt lat="-27.02066711" lon="-48.67007091"><ele>9.1837158203125</ele></trkpt><trkpt lat="-27.02066556" lon="-48.6700691"><ele>8.98590087890625</ele></trkpt><trkpt lat="-27.02066471" lon="-48.67006955"><ele>8.854400634765625</ele></trkpt><trkpt lat="-27.02066436" lon="-48.67006959"><ele>9.128936767578125</ele></trkpt><trkpt lat="-27.02066297" lon="-48.67007035"><ele>9.221282958984375</ele></trkpt><trkpt lat="-27.02066536" lon="-48.67007373"><ele>9.26983642578125</ele></trkpt><trkpt lat="-27.02067197" lon="-48.67007917"><ele>9.4703369140625</ele></trkpt><trkpt lat="-27.02067997" lon="-48.67008544"><ele>9.65869140625</ele></trkpt><trkpt lat="-27.02068695" lon="-48.67009045"><ele>9.380767822265625</ele></trkpt><trkpt lat="-27.02069347" lon="-48.67009477"><ele>9.35357666015625</ele></trkpt><trkpt lat="-27.0206979" lon="-48.67009568"><ele>9.155548095703125</ele></trkpt><trkpt lat="-27.02070115" lon="-48.67009458"><ele>9.163330078125</ele></trkpt><trkpt lat="-27.02070385" lon="-48.67009476"><ele>9.08697509765625</ele></trkpt><trkpt lat="-27.0207076" lon="-48.67009473"><ele>9.1531982421875</ele></trkpt><trkpt lat="-27.0207137" lon="-48.67009824"><ele>9.122222900390625</ele></trkpt><trkpt lat="-27.02071928" lon="-48.67010049"><ele>9.13299560546875</ele></trkpt><trkpt lat="-27.02072688" lon="-48.67010092"><ele>9.4390869140625</ele></trkpt><trkpt lat="-27.02072967" lon="-48.67010136"><ele>9.10784912109375</ele></trkpt><trkpt lat="-27.02072898" lon="-48.67010369"><ele>9.167816162109375</ele></trkpt><trkpt lat="-27.02072813" lon="-48.67010421"><ele>9.199493408203125</ele></trkpt><trkpt lat="-27.02072794" lon="-48.67010422"><ele>9.201324462890625</ele></trkpt><trkpt lat="-27.02072788" lon="-48.67010423"><ele>9.202728271484375</ele></trkpt><trkpt lat="-27.02072786" lon="-48.67010426"><ele>9.204925537109375</ele></trkpt><trkpt lat="-27.02072803" lon="-48.67010314"><ele>9.290924072265625</ele></trkpt><trkpt lat="-27.02072862" lon="-48.67010162"><ele>9.29498291015625</ele></trkpt><trkpt lat="-27.02072877" lon="-48.67010128"><ele>9.296356201171875</ele></trkpt><trkpt lat="-27.02072844" lon="-48.67009896"><ele>9.320709228515625</ele></trkpt><trkpt lat="-27.020731" lon="-48.67009533"><ele>9.19549560546875</ele></trkpt><trkpt lat="-27.02073352" lon="-48.67008959"><ele>9.30841064453125</ele></trkpt><trkpt lat="-27.02073269" lon="-48.67008868"><ele>9.27471923828125</ele></trkpt><trkpt lat="-27.02073312" lon="-48.67008875"><ele>9.3958740234375</ele></trkpt><trkpt lat="-27.02073508" lon="-48.67008842"><ele>9.6812744140625</ele></trkpt><trkpt lat="-27.02073581" lon="-48.67008866"><ele>9.628204345703125</ele></trkpt><trkpt lat="-27.02073575" lon="-48.67009148"><ele>9.817291259765625</ele></trkpt><trkpt lat="-27.02073505" lon="-48.67009315"><ele>9.821685791015625</ele></trkpt><trkpt lat="-27.02073422" lon="-48.67009612"><ele>9.827178955078125</ele></trkpt><trkpt lat="-27.02073422" lon="-48.67009854"><ele>9.46026611328125</ele></trkpt><trkpt lat="-27.02073449" lon="-48.67010058"><ele>9.45404052734375</ele></trkpt><trkpt lat="-27.02073458" lon="-48.67010105"><ele>9.45513916015625</ele></trkpt><trkpt lat="-27.02073462" lon="-48.67010117"><ele>9.458221435546875</ele></trkpt><trkpt lat="-27.02073463" lon="-48.67010121"><ele>9.457366943359375</ele></trkpt><trkpt lat="-27.02073391" lon="-48.67010156"><ele>9.52252197265625</ele></trkpt><trkpt lat="-27.02073122" lon="-48.67010214"><ele>9.433380126953125</ele></trkpt><trkpt lat="-27.0207305" lon="-48.67010249"><ele>9.439239501953125</ele></trkpt><trkpt lat="-27.02073047" lon="-48.67010254"><ele>9.4378662109375</ele></trkpt><trkpt lat="-27.02072615" lon="-48.67010276"><ele>9.469146728515625</ele></trkpt><trkpt lat="-27.02072554" lon="-48.67010322"><ele>9.47161865234375</ele></trkpt><trkpt lat="-27.02072562" lon="-48.67010348"><ele>9.66058349609375</ele></trkpt><trkpt lat="-27.02072563" lon="-48.67010354"><ele>9.660736083984375</ele></trkpt><trkpt lat="-27.0207195" lon="-48.67010087"><ele>9.58587646484375</ele></trkpt><trkpt lat="-27.02071307" lon="-48.67009979"><ele>9.122222900390625</ele></trkpt><trkpt lat="-27.02070856" lon="-48.67009634"><ele>9.109527587890625</ele></trkpt><trkpt lat="-27.02070632" lon="-48.67009514"><ele>8.97149658203125</ele></trkpt><trkpt lat="-27.02070629" lon="-48.67009576"><ele>8.932586669921875</ele></trkpt><trkpt lat="-27.02070468" lon="-48.67009523"><ele>9.31561279296875</ele></trkpt><trkpt lat="-27.02070027" lon="-48.67009333"><ele>9.323883056640625</ele></trkpt><trkpt lat="-27.0206992" lon="-48.67008599"><ele>9.5784912109375</ele></trkpt><trkpt lat="-27.02070165" lon="-48.67008561"><ele>9.276580810546875</ele></trkpt><trkpt lat="-27.02070216" lon="-48.67008596"><ele>9.277923583984375</ele></trkpt><trkpt lat="-27.02070225" lon="-48.67008603"><ele>9.278533935546875</ele></trkpt><trkpt lat="-27.02070224" lon="-48.67008605"><ele>9.279388427734375</ele></trkpt><trkpt lat="-27.02069984" lon="-48.67002689"><ele>7.911651611328125</ele></trkpt><trkpt lat="-27.02070651" lon="-48.67002815"><ele>14.02001953125</ele></trkpt><trkpt lat="-27.02069091" lon="-48.6700428"><ele>12.09539794921875</ele></trkpt><trkpt lat="-27.02069091" lon="-48.6700428"><ele>12.09539794921875</ele></trkpt><trkpt lat="-27.02068466" lon="-48.67004939"><ele>11.72955322265625</ele></trkpt><trkpt lat="-27.02068466" lon="-48.67004939"><ele>11.72955322265625</ele></trkpt><trkpt lat="-27.02068464" lon="-48.67005169"><ele>11.672943115234375</ele></trkpt><trkpt lat="-27.02068889" lon="-48.67004995"><ele>11.593902587890625</ele></trkpt><trkpt lat="-27.0206903" lon="-48.67004978"><ele>12.0572509765625</ele></trkpt><trkpt lat="-27.02068251" lon="-48.6700531"><ele>12.04180908203125</ele></trkpt><trkpt lat="-27.02067335" lon="-48.670055"><ele>11.791290283203125</ele></trkpt><trkpt lat="-27.02067335" lon="-48.670055"><ele>11.791290283203125</ele></trkpt><trkpt lat="-27.02066857" lon="-48.67005513"><ele>11.6494140625</ele></trkpt><trkpt lat="-27.02066857" lon="-48.67005513"><ele>11.6494140625</ele></trkpt><trkpt lat="-27.02067078" lon="-48.67005473"><ele>11.275238037109375</ele></trkpt><trkpt lat="-27.02067446" lon="-48.67005095"><ele>11.674407958984375</ele></trkpt><trkpt lat="-27.02067535" lon="-48.67005208"><ele>11.368438720703125</ele></trkpt><trkpt lat="-27.02067386" lon="-48.67005396"><ele>11.0281982421875</ele></trkpt><trkpt lat="-27.02067404" lon="-48.67005492"><ele>10.6881103515625</ele></trkpt><trkpt lat="-27.02067404" lon="-48.67005492"><ele>10.6881103515625</ele></trkpt><trkpt lat="-27.02067348" lon="-48.67005408"><ele>10.576507568359375</ele></trkpt><trkpt lat="-27.02067348" lon="-48.67005408"><ele>10.576507568359375</ele></trkpt><trkpt lat="-27.02067002" lon="-48.67005418"><ele>10.570037841796875</ele></trkpt><trkpt lat="-27.02066501" lon="-48.67005384"><ele>10.410186767578125</ele></trkpt><trkpt lat="-27.02066146" lon="-48.67005571"><ele>10.23529052734375</ele></trkpt><trkpt lat="-27.02065762" lon="-48.67005742"><ele>10.13055419921875</ele></trkpt><trkpt lat="-27.02065443" lon="-48.67005815"><ele>10.307159423828125</ele></trkpt><trkpt lat="-27.02065325" lon="-48.67005857"><ele>10.388916015625</ele></trkpt><trkpt lat="-27.02065298" lon="-48.67005846"><ele>10.437835693359375</ele></trkpt><trkpt lat="-27.02065296" lon="-48.67005848"><ele>10.440216064453125</ele></trkpt><trkpt lat="-27.02065301" lon="-48.67005848"><ele>10.44268798828125</ele></trkpt><trkpt lat="-27.02065302" lon="-48.6700585"><ele>10.445892333984375</ele></trkpt><trkpt lat="-27.02065302" lon="-48.6700585"><ele>10.445892333984375</ele></trkpt><trkpt lat="-27.02065302" lon="-48.6700585"><ele>10.445892333984375</ele></trkpt><trkpt lat="-27.020653" lon="-48.67005853"><ele>10.44683837890625</ele></trkpt><trkpt lat="-27.02065298" lon="-48.67005854"><ele>10.44940185546875</ele></trkpt><trkpt lat="-27.02065299" lon="-48.67005853"><ele>10.449188232421875</ele></trkpt><trkpt lat="-27.02065301" lon="-48.67005853"><ele>10.448150634765625</ele></trkpt><trkpt lat="-27.02065301" lon="-48.67005854"><ele>10.445343017578125</ele></trkpt><trkpt lat="-27.02065299" lon="-48.67005856"><ele>10.44659423828125</ele></trkpt><trkpt lat="-27.02065325" lon="-48.67005848"><ele>10.447967529296875</ele></trkpt><trkpt lat="-27.02065324" lon="-48.67005851"><ele>10.4449462890625</ele></trkpt><trkpt lat="-27.02065323" lon="-48.67005852"><ele>10.44482421875</ele></trkpt><trkpt lat="-27.02065324" lon="-48.67005852"><ele>9.466278076171875</ele></trkpt><trkpt lat="-27.02065324" lon="-48.67005852"><ele>9.466278076171875</ele></trkpt><trkpt lat="-27.02065458" lon="-48.67005875"><ele>9.76934814453125</ele></trkpt><trkpt lat="-27.02065582" lon="-48.67005887"><ele>10.009033203125</ele></trkpt><trkpt lat="-27.02065582" lon="-48.67005887"><ele>10.009033203125</ele></trkpt><trkpt lat="-27.02065946" lon="-48.67005865"><ele>10.091949462890625</ele></trkpt><trkpt lat="-27.02066084" lon="-48.67006009"><ele>10.1583251953125</ele></trkpt><trkpt lat="-27.02066262" lon="-48.67006048"><ele>10.056884765625</ele></trkpt><trkpt lat="-27.02066139" lon="-48.6700605"><ele>10.006256103515625</ele></trkpt><trkpt lat="-27.02065973" lon="-48.67006283"><ele>9.931121826171875</ele></trkpt><trkpt lat="-27.02065691" lon="-48.67006565"><ele>9.782073974609375</ele></trkpt><trkpt lat="-27.02065509" lon="-48.67006725"><ele>9.6666259765625</ele></trkpt><trkpt lat="-27.02065432" lon="-48.67006892"><ele>9.603118896484375</ele></trkpt><trkpt lat="-27.0206547" lon="-48.67006868"><ele>9.84521484375</ele></trkpt><trkpt lat="-27.0206537" lon="-48.67006869"><ele>9.851043701171875</ele></trkpt><trkpt lat="-27.0206543" lon="-48.67006849"><ele>9.8798828125</ele></trkpt><trkpt lat="-27.02065416" lon="-48.6700688"><ele>9.88336181640625</ele></trkpt><trkpt lat="-27.02065398" lon="-48.6700689"><ele>9.880950927734375</ele></trkpt><trkpt lat="-27.02065404" lon="-48.67006891"><ele>9.89166259765625</ele></trkpt><trkpt lat="-27.02065404" lon="-48.67006891"><ele>9.89166259765625</ele></trkpt><trkpt lat="-27.02065408" lon="-48.67006889"><ele>9.89459228515625</ele></trkpt><trkpt lat="-27.02065407" lon="-48.6700689"><ele>9.893280029296875</ele></trkpt><trkpt lat="-27.02065408" lon="-48.6700689"><ele>9.89288330078125</ele></trkpt><trkpt lat="-27.02065408" lon="-48.6700689"><ele>9.89288330078125</ele></trkpt><trkpt lat="-27.02065408" lon="-48.6700689"><ele>9.893524169921875</ele></trkpt><trkpt lat="-27.02065413" lon="-48.6700689"><ele>9.897674560546875</ele></trkpt><trkpt lat="-27.02065281" lon="-48.67007005"><ele>9.774810791015625</ele></trkpt><trkpt lat="-27.02065497" lon="-48.67007148"><ele>9.811004638671875</ele></trkpt><trkpt lat="-27.02065533" lon="-48.67007364"><ele>9.851287841796875</ele></trkpt><trkpt lat="-27.02065559" lon="-48.67007554"><ele>9.884796142578125</ele></trkpt><trkpt lat="-27.02065686" lon="-48.67007819"><ele>9.918548583984375</ele></trkpt><trkpt lat="-27.02065516" lon="-48.67007786"><ele>9.989990234375</ele></trkpt><trkpt lat="-27.02065343" lon="-48.6700776"><ele>10.21832275390625</ele></trkpt><trkpt lat="-27.02065343" lon="-48.6700776"><ele>10.21832275390625</ele></trkpt><trkpt lat="-27.02065249" lon="-48.67007767"><ele>10.280029296875</ele></trkpt><trkpt lat="-27.02065129" lon="-48.67007783"><ele>10.162139892578125</ele></trkpt><trkpt lat="-27.02065014" lon="-48.67007692"><ele>10.165191650390625</ele></trkpt><trkpt lat="-27.02064892" lon="-48.67007561"><ele>10.30291748046875</ele></trkpt><trkpt lat="-27.02064712" lon="-48.67007534"><ele>10.347686767578125</ele></trkpt><trkpt lat="-27.02064678" lon="-48.67007527"><ele>10.230377197265625</ele></trkpt><trkpt lat="-27.02064688" lon="-48.67007618"><ele>10.154937744140625</ele></trkpt><trkpt lat="-27.02064676" lon="-48.67007666"><ele>10.1103515625</ele></trkpt><trkpt lat="-27.02064684" lon="-48.67007679"><ele>10.091552734375</ele></trkpt><trkpt lat="-27.0206469" lon="-48.67007687"><ele>10.07940673828125</ele></trkpt><trkpt lat="-27.02064693" lon="-48.67007696"><ele>10.07000732421875</ele></trkpt><trkpt lat="-27.02064692" lon="-48.67007699"><ele>10.0716552734375</ele></trkpt><trkpt lat="-27.02064692" lon="-48.67007699"><ele>10.0716552734375</ele></trkpt><trkpt lat="-27.0206469" lon="-48.670077"><ele>10.072479248046875</ele></trkpt><trkpt lat="-27.02064688" lon="-48.670077"><ele>10.07086181640625</ele></trkpt><trkpt lat="-27.02064687" lon="-48.670077"><ele>10.06982421875</ele></trkpt><trkpt lat="-27.02064686" lon="-48.670077"><ele>10.06964111328125</ele></trkpt><trkpt lat="-27.02064685" lon="-48.670077"><ele>10.07025146484375</ele></trkpt><trkpt lat="-27.02064685" lon="-48.67007702"><ele>10.069854736328125</ele></trkpt><trkpt lat="-27.02064685" lon="-48.67007703"><ele>10.068206787109375</ele></trkpt><trkpt lat="-27.02064685" lon="-48.67007703"><ele>10.065887451171875</ele></trkpt><trkpt lat="-27.02064685" lon="-48.67007703"><ele>10.06475830078125</ele></trkpt><trkpt lat="-27.02064685" lon="-48.67007703"><ele>10.06475830078125</ele></trkpt><trkpt lat="-27.02064741" lon="-48.67007526"><ele>10.21429443359375</ele></trkpt><trkpt lat="-27.02064668" lon="-48.67007455"><ele>10.12066650390625</ele></trkpt><trkpt lat="-27.02064816" lon="-48.67007537"><ele>9.951202392578125</ele></trkpt><trkpt lat="-27.02064852" lon="-48.67007593"><ele>9.720672607421875</ele></trkpt><trkpt lat="-27.02064852" lon="-48.67007593"><ele>9.720672607421875</ele></trkpt><trkpt lat="-27.02064818" lon="-48.67007583"><ele>9.80560302734375</ele></trkpt><trkpt lat="-27.02064836" lon="-48.67007645"><ele>9.705535888671875</ele></trkpt><trkpt lat="-27.02064762" lon="-48.67007655"><ele>9.7308349609375</ele></trkpt><trkpt lat="-27.02064553" lon="-48.67007721"><ele>9.89422607421875</ele></trkpt><trkpt lat="-27.02064427" lon="-48.67007716"><ele>9.856842041015625</ele></trkpt><trkpt lat="-27.0206408" lon="-48.67007677"><ele>9.4857177734375</ele></trkpt><trkpt lat="-27.02063974" lon="-48.67007537"><ele>9.208251953125</ele></trkpt><trkpt lat="-27.0206416" lon="-48.67007444"><ele>9.16241455078125</ele></trkpt><trkpt lat="-27.02064549" lon="-48.6700764"><ele>9.14178466796875</ele></trkpt><trkpt lat="-27.0206463" lon="-48.67007697"><ele>9.14190673828125</ele></trkpt><trkpt lat="-27.02064726" lon="-48.67007677"><ele>9.13848876953125</ele></trkpt><trkpt lat="-27.02065144" lon="-48.67007785"><ele>9.46588134765625</ele></trkpt><trkpt lat="-27.02066091" lon="-48.67008101"><ele>9.663360595703125</ele></trkpt><trkpt lat="-27.02067603" lon="-48.67008445"><ele>9.055084228515625</ele></trkpt><trkpt lat="-27.02069607" lon="-48.67008944"><ele>9.129150390625</ele></trkpt><trkpt lat="-27.02071566" lon="-48.67009735"><ele>9.1861572265625</ele></trkpt><trkpt lat="-27.02073466" lon="-48.6701084"><ele>9.26788330078125</ele></trkpt><trkpt lat="-27.02075183" lon="-48.67011954"><ele>9.483612060546875</ele></trkpt><trkpt lat="-27.02077177" lon="-48.67013588"><ele>9.314178466796875</ele></trkpt><trkpt lat="-27.02078905" lon="-48.67015268"><ele>9.44189453125</ele></trkpt><trkpt lat="-27.02080382" lon="-48.67016998"><ele>9.354339599609375</ele></trkpt><trkpt lat="-27.02082114" lon="-48.67019379"><ele>9.133697509765625</ele></trkpt><trkpt lat="-27.02083809" lon="-48.67021689"><ele>8.737640380859375</ele></trkpt><trkpt lat="-27.02085375" lon="-48.67023568"><ele>8.61712646484375</ele></trkpt><trkpt lat="-27.02086929" lon="-48.67024763"><ele>8.743255615234375</ele></trkpt><trkpt lat="-27.02088161" lon="-48.67025437"><ele>8.727203369140625</ele></trkpt><trkpt lat="-27.02088985" lon="-48.67025911"><ele>8.84442138671875</ele></trkpt><trkpt lat="-27.02089264" lon="-48.67025838"><ele>8.88482666015625</ele></trkpt><trkpt lat="-27.0208928" lon="-48.67025624"><ele>8.918792724609375</ele></trkpt><trkpt lat="-27.02089086" lon="-48.6702552"><ele>8.934173583984375</ele></trkpt><trkpt lat="-27.0208899" lon="-48.67025202"><ele>8.98980712890625</ele></trkpt><trkpt lat="-27.02088832" lon="-48.67024811"><ele>9.07183837890625</ele></trkpt><trkpt lat="-27.02088832" lon="-48.67024811"><ele>9.07183837890625</ele></trkpt><trkpt lat="-27.02088767" lon="-48.67024629"><ele>9.049652099609375</ele></trkpt><trkpt lat="-27.02088752" lon="-48.67024585"><ele>9.0516357421875</ele></trkpt><trkpt lat="-27.02088748" lon="-48.67024574"><ele>9.048980712890625</ele></trkpt><trkpt lat="-27.02088749" lon="-48.67024567"><ele>9.047454833984375</ele></trkpt><trkpt lat="-27.0208917" lon="-48.67024895"><ele>9.101104736328125</ele></trkpt><trkpt lat="-27.02090014" lon="-48.67025403"><ele>9.028228759765625</ele></trkpt><trkpt lat="-27.0209133" lon="-48.67026301"><ele>8.8660888671875</ele></trkpt><trkpt lat="-27.02092794" lon="-48.67027634"><ele>9.010528564453125</ele></trkpt><trkpt lat="-27.02094518" lon="-48.67029181"><ele>8.858245849609375</ele></trkpt><trkpt lat="-27.02096249" lon="-48.67030683"><ele>8.65869140625</ele></trkpt><trkpt lat="-27.02098001" lon="-48.67032266"><ele>8.51104736328125</ele></trkpt><trkpt lat="-27.02099709" lon="-48.67033629"><ele>8.389739990234375</ele></trkpt><trkpt lat="-27.02101323" lon="-48.67035012"><ele>8.337615966796875</ele></trkpt><trkpt lat="-27.02103047" lon="-48.67036456"><ele>8.352294921875</ele></trkpt><trkpt lat="-27.02104681" lon="-48.67037646"><ele>8.294219970703125</ele></trkpt><trkpt lat="-27.02106105" lon="-48.67038727"><ele>8.231597900390625</ele></trkpt><trkpt lat="-27.02107509" lon="-48.67039693"><ele>8.007476806640625</ele></trkpt><trkpt lat="-27.02108741" lon="-48.6704049"><ele>7.989837646484375</ele></trkpt><trkpt lat="-27.02109717" lon="-48.67041336"><ele>7.834320068359375</ele></trkpt><trkpt lat="-27.02110197" lon="-48.67042037"><ele>7.756561279296875</ele></trkpt><trkpt lat="-27.02110161" lon="-48.67042423"><ele>7.758880615234375</ele></trkpt><trkpt lat="-27.02110126" lon="-48.67042493"><ele>7.758392333984375</ele></trkpt><trkpt lat="-27.02110119" lon="-48.67042509"><ele>7.759521484375</ele></trkpt><trkpt lat="-27.0211018" lon="-48.67042615"><ele>7.711639404296875</ele></trkpt><trkpt lat="-27.02110423" lon="-48.67043047"><ele>7.726104736328125</ele></trkpt><trkpt lat="-27.02111124" lon="-48.67043896"><ele>7.727386474609375</ele></trkpt><trkpt lat="-27.02112221" lon="-48.67044895"><ele>7.943695068359375</ele></trkpt><trkpt lat="-27.02113952" lon="-48.67045922"><ele>7.87774658203125</ele></trkpt><trkpt lat="-27.02115663" lon="-48.67047039"><ele>7.8419189453125</ele></trkpt><trkpt lat="-27.02117653" lon="-48.67048464"><ele>7.550689697265625</ele></trkpt><trkpt lat="-27.02119731" lon="-48.67049766"><ele>7.534637451171875</ele></trkpt><trkpt lat="-27.02121671" lon="-48.67050724"><ele>7.539642333984375</ele></trkpt><trkpt lat="-27.0212362" lon="-48.67051338"><ele>7.7603759765625</ele></trkpt><trkpt lat="-27.02125641" lon="-48.67051818"><ele>7.647979736328125</ele></trkpt><trkpt lat="-27.0212771" lon="-48.67052233"><ele>7.519866943359375</ele></trkpt><trkpt lat="-27.02129756" lon="-48.67052603"><ele>7.716796875</ele></trkpt><trkpt lat="-27.02131498" lon="-48.6705285"><ele>7.937164306640625</ele></trkpt><trkpt lat="-27.02131498" lon="-48.6705285"><ele>7.937164306640625</ele></trkpt><trkpt lat="-27.02132872" lon="-48.67053038"><ele>7.90533447265625</ele></trkpt><trkpt lat="-27.02134278" lon="-48.67053299"><ele>7.702972412109375</ele></trkpt><trkpt lat="-27.02136055" lon="-48.67053424"><ele>7.666046142578125</ele></trkpt><trkpt lat="-27.02138215" lon="-48.67053551"><ele>7.717193603515625</ele></trkpt><trkpt lat="-27.02140461" lon="-48.67053892"><ele>7.864990234375</ele></trkpt><trkpt lat="-27.02142754" lon="-48.67054617"><ele>7.964874267578125</ele></trkpt><trkpt lat="-27.02145219" lon="-48.670554"><ele>8.00360107421875</ele></trkpt><trkpt lat="-27.0214781" lon="-48.67056088"><ele>7.7630615234375</ele></trkpt><trkpt lat="-27.0215054" lon="-48.67056755"><ele>7.82586669921875</ele></trkpt><trkpt lat="-27.02153289" lon="-48.67057397"><ele>7.765350341796875</ele></trkpt><trkpt lat="-27.02155714" lon="-48.67057947"><ele>7.9404296875</ele></trkpt><trkpt lat="-27.02158016" lon="-48.67058349"><ele>8.122283935546875</ele></trkpt><trkpt lat="-27.02159727" lon="-48.67058829"><ele>7.744384765625</ele></trkpt><trkpt lat="-27.0216105" lon="-48.67059357"><ele>7.704010009765625</ele></trkpt><trkpt lat="-27.0216105" lon="-48.67059357"><ele>7.704010009765625</ele></trkpt><trkpt lat="-27.02161817" lon="-48.67059589"><ele>7.78900146484375</ele></trkpt><trkpt lat="-27.02163027" lon="-48.67060138"><ele>7.587432861328125</ele></trkpt><trkpt lat="-27.02164927" lon="-48.6706068"><ele>7.7586669921875</ele></trkpt><trkpt lat="-27.02167252" lon="-48.67061219"><ele>7.8367919921875</ele></trkpt><trkpt lat="-27.02169764" lon="-48.67061678"><ele>7.849578857421875</ele></trkpt><trkpt lat="-27.02172314" lon="-48.67062155"><ele>8.011077880859375</ele></trkpt><trkpt lat="-27.02175097" lon="-48.67062593"><ele>8.174957275390625</ele></trkpt><trkpt lat="-27.02177871" lon="-48.67063273"><ele>7.963409423828125</ele></trkpt><trkpt lat="-27.02180653" lon="-48.67064018"><ele>7.94940185546875</ele></trkpt><trkpt lat="-27.02183511" lon="-48.67064548"><ele>8.01007080078125</ele></trkpt><trkpt lat="-27.02186512" lon="-48.67064929"><ele>7.968292236328125</ele></trkpt><trkpt lat="-27.02189988" lon="-48.6706497"><ele>7.68743896484375</ele></trkpt><trkpt lat="-27.02192446" lon="-48.67065417"><ele>7.34088134765625</ele></trkpt><trkpt lat="-27.02195455" lon="-48.67065839"><ele>8.719879150390625</ele></trkpt><trkpt lat="-27.02198208" lon="-48.67066562"><ele>8.526824951171875</ele></trkpt><trkpt lat="-27.02201081" lon="-48.67066924"><ele>8.32916259765625</ele></trkpt><trkpt lat="-27.02203535" lon="-48.67067796"><ele>8.31732177734375</ele></trkpt><trkpt lat="-27.02206176" lon="-48.67068671"><ele>8.309814453125</ele></trkpt><trkpt lat="-27.02209247" lon="-48.6706904"><ele>8.278106689453125</ele></trkpt><trkpt lat="-27.02212036" lon="-48.67069179"><ele>8.2877197265625</ele></trkpt><trkpt lat="-27.02214954" lon="-48.67069276"><ele>7.957855224609375</ele></trkpt><trkpt lat="-27.0221799" lon="-48.67069537"><ele>8.4847412109375</ele></trkpt><trkpt lat="-27.0222084" lon="-48.67070505"><ele>8.5592041015625</ele></trkpt><trkpt lat="-27.02223371" lon="-48.67071626"><ele>8.685882568359375</ele></trkpt><trkpt lat="-27.02225764" lon="-48.67072824"><ele>9.07763671875</ele></trkpt><trkpt lat="-27.02228181" lon="-48.67074169"><ele>9.004150390625</ele></trkpt><trkpt lat="-27.02230632" lon="-48.67075518"><ele>8.88031005859375</ele></trkpt><trkpt lat="-27.02233061" lon="-48.67077097"><ele>8.559844970703125</ele></trkpt><trkpt lat="-27.02235458" lon="-48.67078641"><ele>8.27435302734375</ele></trkpt><trkpt lat="-27.02237828" lon="-48.67080106"><ele>8.218841552734375</ele></trkpt><trkpt lat="-27.02240288" lon="-48.67081952"><ele>7.61029052734375</ele></trkpt><trkpt lat="-27.02242732" lon="-48.67083644"><ele>7.467803955078125</ele></trkpt><trkpt lat="-27.02245355" lon="-48.67085251"><ele>7.3153076171875</ele></trkpt><trkpt lat="-27.02247727" lon="-48.67086845"><ele>7.5450439453125</ele></trkpt><trkpt lat="-27.02249525" lon="-48.67088164"><ele>7.579803466796875</ele></trkpt><trkpt lat="-27.02251175" lon="-48.67089225"><ele>7.636444091796875</ele></trkpt><trkpt lat="-27.02252867" lon="-48.67090143"><ele>7.564605712890625</ele></trkpt><trkpt lat="-27.02252867" lon="-48.67090143"><ele>7.564605712890625</ele></trkpt><trkpt lat="-27.02254583" lon="-48.67090889"><ele>7.473297119140625</ele></trkpt><trkpt lat="-27.02256078" lon="-48.67091637"><ele>7.740875244140625</ele></trkpt><trkpt lat="-27.02258047" lon="-48.67092634"><ele>7.784820556640625</ele></trkpt><trkpt lat="-27.02260428" lon="-48.67093935"><ele>7.6221923828125</ele></trkpt><trkpt lat="-27.02262598" lon="-48.6709522"><ele>7.663238525390625</ele></trkpt><trkpt lat="-27.02264804" lon="-48.67096665"><ele>7.538543701171875</ele></trkpt><trkpt lat="-27.02266814" lon="-48.67098137"><ele>7.387939453125</ele></trkpt><trkpt lat="-27.02268809" lon="-48.67099714"><ele>7.332489013671875</ele></trkpt><trkpt lat="-27.02271078" lon="-48.6710139"><ele>7.2318115234375</ele></trkpt><trkpt lat="-27.02273616" lon="-48.67102872"><ele>7.13653564453125</ele></trkpt><trkpt lat="-27.02276133" lon="-48.67104183"><ele>7.056396484375</ele></trkpt><trkpt lat="-27.02278597" lon="-48.6710519"><ele>7.000152587890625</ele></trkpt><trkpt lat="-27.02281056" lon="-48.67106313"><ele>7.346466064453125</ele></trkpt><trkpt lat="-27.02283418" lon="-48.6710762"><ele>6.954864501953125</ele></trkpt><trkpt lat="-27.02285806" lon="-48.67108906"><ele>6.763427734375</ele></trkpt><trkpt lat="-27.02288124" lon="-48.6711022"><ele>6.90380859375</ele></trkpt><trkpt lat="-27.022905" lon="-48.67111556"><ele>6.868499755859375</ele></trkpt><trkpt lat="-27.02292968" lon="-48.67113024"><ele>6.911712646484375</ele></trkpt><trkpt lat="-27.02295395" lon="-48.6711462"><ele>6.657379150390625</ele></trkpt><trkpt lat="-27.02297859" lon="-48.67116201"><ele>6.5118408203125</ele></trkpt><trkpt lat="-27.02300323" lon="-48.67117695"><ele>6.171417236328125</ele></trkpt><trkpt lat="-27.02302814" lon="-48.67118902"><ele>6.240509033203125</ele></trkpt><trkpt lat="-27.02305543" lon="-48.67120095"><ele>6.2176513671875</ele></trkpt><trkpt lat="-27.02308395" lon="-48.67121619"><ele>6.423187255859375</ele></trkpt><trkpt lat="-27.02311185" lon="-48.67123193"><ele>6.612030029296875</ele></trkpt><trkpt lat="-27.02313695" lon="-48.67124763"><ele>6.39239501953125</ele></trkpt><trkpt lat="-27.02316657" lon="-48.67126882"><ele>6.425872802734375</ele></trkpt><trkpt lat="-27.02319532" lon="-48.67129074"><ele>5.982330322265625</ele></trkpt><trkpt lat="-27.02321643" lon="-48.67131353"><ele>5.699462890625</ele></trkpt><trkpt lat="-27.02324003" lon="-48.67134018"><ele>5.819793701171875</ele></trkpt><trkpt lat="-27.0232625" lon="-48.67136542"><ele>5.519012451171875</ele></trkpt><trkpt lat="-27.0232837" lon="-48.67139696"><ele>5.423828125</ele></trkpt><trkpt lat="-27.02330496" lon="-48.67143028"><ele>5.18609619140625</ele></trkpt><trkpt lat="-27.02333817" lon="-48.67147"><ele>5.1634521484375</ele></trkpt><trkpt lat="-27.02336093" lon="-48.67150631"><ele>5.341278076171875</ele></trkpt><trkpt lat="-27.02337844" lon="-48.67154146"><ele>6.286376953125</ele></trkpt><trkpt lat="-27.0233991" lon="-48.67157838"><ele>6.31536865234375</ele></trkpt><trkpt lat="-27.02340859" lon="-48.6716172"><ele>6.20819091796875</ele></trkpt><trkpt lat="-27.02341679" lon="-48.67165466"><ele>6.3260498046875</ele></trkpt><trkpt lat="-27.02343049" lon="-48.67169098"><ele>6.280609130859375</ele></trkpt><trkpt lat="-27.02344251" lon="-48.67172833"><ele>6.18975830078125</ele></trkpt><trkpt lat="-27.02345483" lon="-48.67176882"><ele>6.129974365234375</ele></trkpt><trkpt lat="-27.02346559" lon="-48.67181023"><ele>6.453399658203125</ele></trkpt><trkpt lat="-27.02347095" lon="-48.67185228"><ele>6.7529296875</ele></trkpt><trkpt lat="-27.02347279" lon="-48.67189546"><ele>6.722991943359375</ele></trkpt><trkpt lat="-27.02347088" lon="-48.67193939"><ele>6.72784423828125</ele></trkpt><trkpt lat="-27.02346804" lon="-48.67198231"><ele>6.67059326171875</ele></trkpt><trkpt lat="-27.02346948" lon="-48.67202291"><ele>6.987030029296875</ele></trkpt><trkpt lat="-27.02346998" lon="-48.67206164"><ele>7.4063720703125</ele></trkpt><trkpt lat="-27.02346951" lon="-48.67210001"><ele>7.368133544921875</ele></trkpt><trkpt lat="-27.02346943" lon="-48.67213885"><ele>7.20660400390625</ele></trkpt><trkpt lat="-27.02346845" lon="-48.67217738"><ele>6.780975341796875</ele></trkpt><trkpt lat="-27.02347338" lon="-48.67221278"><ele>6.804779052734375</ele></trkpt><trkpt lat="-27.023477" lon="-48.67224812"><ele>6.974884033203125</ele></trkpt><trkpt lat="-27.02348275" lon="-48.67228311"><ele>7.092987060546875</ele></trkpt><trkpt lat="-27.02348813" lon="-48.67231996"><ele>6.884033203125</ele></trkpt><trkpt lat="-27.023494" lon="-48.672356"><ele>6.66534423828125</ele></trkpt><trkpt lat="-27.02350091" lon="-48.67239148"><ele>6.726898193359375</ele></trkpt><trkpt lat="-27.02350863" lon="-48.67242673"><ele>6.82464599609375</ele></trkpt><trkpt lat="-27.02352015" lon="-48.67246016"><ele>6.90826416015625</ele></trkpt><trkpt lat="-27.02353325" lon="-48.67249209"><ele>6.954681396484375</ele></trkpt><trkpt lat="-27.02354594" lon="-48.67252297"><ele>7.16314697265625</ele></trkpt><trkpt lat="-27.02355512" lon="-48.6725539"><ele>7.3468017578125</ele></trkpt><trkpt lat="-27.02356762" lon="-48.67258511"><ele>7.662628173828125</ele></trkpt><trkpt lat="-27.0235822" lon="-48.67261563"><ele>7.8857421875</ele></trkpt><trkpt lat="-27.02359499" lon="-48.67264112"><ele>8.00537109375</ele></trkpt><trkpt lat="-27.02360812" lon="-48.6726687"><ele>8.104034423828125</ele></trkpt><trkpt lat="-27.02361949" lon="-48.67269798"><ele>8.28607177734375</ele></trkpt><trkpt lat="-27.02363247" lon="-48.67272702"><ele>8.237945556640625</ele></trkpt><trkpt lat="-27.02364585" lon="-48.67275486"><ele>8.252777099609375</ele></trkpt><trkpt lat="-27.02365712" lon="-48.67278353"><ele>8.231903076171875</ele></trkpt><trkpt lat="-27.02366974" lon="-48.67280968"><ele>8.22552490234375</ele></trkpt><trkpt lat="-27.02368165" lon="-48.67283403"><ele>8.3782958984375</ele></trkpt><trkpt lat="-27.02369069" lon="-48.672858"><ele>8.5714111328125</ele></trkpt><trkpt lat="-27.02369833" lon="-48.67287957"><ele>8.780914306640625</ele></trkpt><trkpt lat="-27.02370534" lon="-48.67289674"><ele>8.9178466796875</ele></trkpt><trkpt lat="-27.02370866" lon="-48.67290153"><ele>9.00201416015625</ele></trkpt><trkpt lat="-27.0237094" lon="-48.67289986"><ele>9.073883056640625</ele></trkpt><trkpt lat="-27.02370757" lon="-48.67289965"><ele>9.23455810546875</ele></trkpt><trkpt lat="-27.02370551" lon="-48.67290037"><ele>9.236663818359375</ele></trkpt><trkpt lat="-27.02370551" lon="-48.67290037"><ele>9.236663818359375</ele></trkpt><trkpt lat="-27.02370522" lon="-48.6729003"><ele>9.23565673828125</ele></trkpt><trkpt lat="-27.02370206" lon="-48.67289627"><ele>9.235748291015625</ele></trkpt><trkpt lat="-27.02370309" lon="-48.67289286"><ele>9.235076904296875</ele></trkpt><trkpt lat="-27.02369755" lon="-48.67289164"><ele>8.828033447265625</ele></trkpt><trkpt lat="-27.02369459" lon="-48.67289161"><ele>8.630126953125</ele></trkpt><trkpt lat="-27.02369549" lon="-48.67289689"><ele>8.92596435546875</ele></trkpt><trkpt lat="-27.0236972" lon="-48.67290869"><ele>8.93133544921875</ele></trkpt><trkpt lat="-27.02369552" lon="-48.67291064"><ele>9.2828369140625</ele></trkpt><trkpt lat="-27.02369325" lon="-48.67290746"><ele>9.27197265625</ele></trkpt><trkpt lat="-27.0236898" lon="-48.67290959"><ele>9.266693115234375</ele></trkpt><trkpt lat="-27.02368936" lon="-48.67291073"><ele>9.27398681640625</ele></trkpt><trkpt lat="-27.0236894" lon="-48.67291087"><ele>9.2750244140625</ele></trkpt><trkpt lat="-27.02368811" lon="-48.67291172"><ele>9.286346435546875</ele></trkpt><trkpt lat="-27.02368555" lon="-48.67291017"><ele>9.208831787109375</ele></trkpt><trkpt lat="-27.02368339" lon="-48.67290901"><ele>10.581085205078125</ele></trkpt><trkpt lat="-27.02368262" lon="-48.67290818"><ele>10.5975341796875</ele></trkpt><trkpt lat="-27.02367943" lon="-48.67290232"><ele>10.249755859375</ele></trkpt><trkpt lat="-27.02367767" lon="-48.67289832"><ele>10.12640380859375</ele></trkpt><trkpt lat="-27.02367879" lon="-48.67289114"><ele>10.416900634765625</ele></trkpt><trkpt lat="-27.02367859" lon="-48.67288523"><ele>10.255126953125</ele></trkpt><trkpt lat="-27.02367582" lon="-48.67288333"><ele>9.992156982421875</ele></trkpt><trkpt lat="-27.02367593" lon="-48.67288191"><ele>9.82122802734375</ele></trkpt><trkpt lat="-27.02367588" lon="-48.67288116"><ele>9.756011962890625</ele></trkpt><trkpt lat="-27.02367656" lon="-48.67287999"><ele>9.73370361328125</ele></trkpt><trkpt lat="-27.02367674" lon="-48.67287852"><ele>9.736602783203125</ele></trkpt><trkpt lat="-27.02367746" lon="-48.67287663"><ele>9.7457275390625</ele></trkpt><trkpt lat="-27.02367569" lon="-48.67287622"><ele>9.83636474609375</ele></trkpt><trkpt lat="-27.02367587" lon="-48.67287161"><ele>9.846923828125</ele></trkpt><trkpt lat="-27.0236799" lon="-48.67286586"><ele>9.869476318359375</ele></trkpt><trkpt lat="-27.02368842" lon="-48.67286327"><ele>9.98602294921875</ele></trkpt><trkpt lat="-27.02369914" lon="-48.67286364"><ele>9.6734619140625</ele></trkpt><trkpt lat="-27.02370672" lon="-48.67286301"><ele>10.022674560546875</ele></trkpt><trkpt lat="-27.02371336" lon="-48.67286122"><ele>10.371002197265625</ele></trkpt><trkpt lat="-27.02372029" lon="-48.67285814"><ele>10.5025634765625</ele></trkpt><trkpt lat="-27.02372529" lon="-48.67285762"><ele>10.40814208984375</ele></trkpt><trkpt lat="-27.02372444" lon="-48.6728614"><ele>10.489349365234375</ele></trkpt><trkpt lat="-27.02372107" lon="-48.67286238"><ele>10.489501953125</ele></trkpt><trkpt lat="-27.0237183" lon="-48.67286208"><ele>10.176971435546875</ele></trkpt><trkpt lat="-27.02371899" lon="-48.67285949"><ele>10.116973876953125</ele></trkpt><trkpt lat="-27.02371877" lon="-48.67285889"><ele>10.043365478515625</ele></trkpt><trkpt lat="-27.02371762" lon="-48.67286046"><ele>9.575103759765625</ele></trkpt><trkpt lat="-27.02372057" lon="-48.67286037"><ele>9.559814453125</ele></trkpt><trkpt lat="-27.02373187" lon="-48.67285744"><ele>9.677490234375</ele></trkpt><trkpt lat="-27.02374396" lon="-48.67285309"><ele>10.58673095703125</ele></trkpt><trkpt lat="-27.02375448" lon="-48.67284842"><ele>10.34173583984375</ele></trkpt><trkpt lat="-27.02376652" lon="-48.67284626"><ele>10.654571533203125</ele></trkpt><trkpt lat="-27.02377693" lon="-48.67285315"><ele>11.010589599609375</ele></trkpt><trkpt lat="-27.02378137" lon="-48.67286452"><ele>10.80889892578125</ele></trkpt><trkpt lat="-27.02377801" lon="-48.6728678"><ele>11.11614990234375</ele></trkpt><trkpt lat="-27.02377438" lon="-48.67287072"><ele>10.986297607421875</ele></trkpt><trkpt lat="-27.02376818" lon="-48.67287265"><ele>10.99609375</ele></trkpt><trkpt lat="-27.02377119" lon="-48.67287411"><ele>10.959625244140625</ele></trkpt><trkpt lat="-27.0237751" lon="-48.67287383"><ele>10.869873046875</ele></trkpt><trkpt lat="-27.02377595" lon="-48.67287342"><ele>10.9154052734375</ele></trkpt><trkpt lat="-27.02377477" lon="-48.67287409"><ele>10.92962646484375</ele></trkpt><trkpt lat="-27.02377677" lon="-48.67287607"><ele>10.9893798828125</ele></trkpt><trkpt lat="-27.02377622" lon="-48.67287999"><ele>11.071533203125</ele></trkpt><trkpt lat="-27.02377308" lon="-48.67288278"><ele>11.06256103515625</ele></trkpt><trkpt lat="-27.02376474" lon="-48.67288093"><ele>11.22906494140625</ele></trkpt><trkpt lat="-27.02374902" lon="-48.67288038"><ele>11.3851318359375</ele></trkpt><trkpt lat="-27.02373497" lon="-48.67288066"><ele>11.37298583984375</ele></trkpt><trkpt lat="-27.02372555" lon="-48.67286854"><ele>10.004913330078125</ele></trkpt><trkpt lat="-27.02372546" lon="-48.67286885"><ele>9.94866943359375</ele></trkpt><trkpt lat="-27.02370261" lon="-48.67287228"><ele>7.23828125</ele></trkpt><trkpt lat="-27.02371211" lon="-48.67288283"><ele>7.5364990234375</ele></trkpt><trkpt lat="-27.02370449" lon="-48.67289602"><ele>8.059844970703125</ele></trkpt><trkpt lat="-27.02370755" lon="-48.67290296"><ele>8.892120361328125</ele></trkpt><trkpt lat="-27.02371263" lon="-48.67290736"><ele>10.2664794921875</ele></trkpt><trkpt lat="-27.02371428" lon="-48.67291418"><ele>10.944366455078125</ele></trkpt><trkpt lat="-27.02371933" lon="-48.672914"><ele>10.890380859375</ele></trkpt><trkpt lat="-27.02371411" lon="-48.67291566"><ele>10.71636962890625</ele></trkpt><trkpt lat="-27.02370849" lon="-48.67291771"><ele>9.351959228515625</ele></trkpt><trkpt lat="-27.02370494" lon="-48.67291977"><ele>9.0882568359375</ele></trkpt><trkpt lat="-27.02369976" lon="-48.67292225"><ele>8.764068603515625</ele></trkpt><trkpt lat="-27.02369976" lon="-48.67292305"><ele>9.026336669921875</ele></trkpt><trkpt lat="-27.02369816" lon="-48.67292385"><ele>9.227783203125</ele></trkpt><trkpt lat="-27.02369886" lon="-48.67292113"><ele>9.441680908203125</ele></trkpt><trkpt lat="-27.02369649" lon="-48.6729205"><ele>9.47564697265625</ele></trkpt><trkpt lat="-27.02369775" lon="-48.67291753"><ele>12.78350830078125</ele></trkpt><trkpt lat="-27.02369523" lon="-48.67291496"><ele>13.01605224609375</ele></trkpt><trkpt lat="-27.02369523" lon="-48.67291496"><ele>13.01605224609375</ele></trkpt><trkpt lat="-27.02369523" lon="-48.67291496"><ele>13.01605224609375</ele></trkpt><trkpt lat="-27.02369557" lon="-48.67291611"><ele>12.96942138671875</ele></trkpt><trkpt lat="-27.02369562" lon="-48.67291554"><ele>10.508453369140625</ele></trkpt><trkpt lat="-27.02369504" lon="-48.67291551"><ele>10.454833984375</ele></trkpt><trkpt lat="-27.02369286" lon="-48.6729161"><ele>10.34698486328125</ele></trkpt><trkpt lat="-27.02369131" lon="-48.67291531"><ele>10.393096923828125</ele></trkpt><trkpt lat="-27.02369131" lon="-48.67291531"><ele>10.393096923828125</ele></trkpt><trkpt lat="-27.02369131" lon="-48.67291531"><ele>10.393096923828125</ele></trkpt><trkpt lat="-27.02369078" lon="-48.67291554"><ele>10.413177490234375</ele></trkpt><trkpt lat="-27.02369042" lon="-48.67291482"><ele>10.41180419921875</ele></trkpt><trkpt lat="-27.02368954" lon="-48.67291515"><ele>10.52239990234375</ele></trkpt><trkpt lat="-27.02368898" lon="-48.672915"><ele>10.5335693359375</ele></trkpt><trkpt lat="-27.02368898" lon="-48.672915"><ele>10.5335693359375</ele></trkpt><trkpt lat="-27.02368898" lon="-48.672915"><ele>10.5335693359375</ele></trkpt><trkpt lat="-27.02368876" lon="-48.67291129"><ele>10.515655517578125</ele></trkpt><trkpt lat="-27.02368747" lon="-48.67290852"><ele>9.177764892578125</ele></trkpt><trkpt lat="-27.02368512" lon="-48.67290757"><ele>9.172882080078125</ele></trkpt><trkpt lat="-27.02368235" lon="-48.67290712"><ele>9.101165771484375</ele></trkpt><trkpt lat="-27.0236804" lon="-48.67290591"><ele>9.121337890625</ele></trkpt><trkpt lat="-27.02367974" lon="-48.67290515"><ele>9.120269775390625</ele></trkpt><trkpt lat="-27.02367959" lon="-48.67290472"><ele>9.132415771484375</ele></trkpt><trkpt lat="-27.02367959" lon="-48.67290472"><ele>9.132415771484375</ele></trkpt><trkpt lat="-27.02367823" lon="-48.67290374"><ele>9.07244873046875</ele></trkpt><trkpt lat="-27.02367582" lon="-48.67290295"><ele>9.11627197265625</ele></trkpt><trkpt lat="-27.02367385" lon="-48.67290327"><ele>9.0057373046875</ele></trkpt><trkpt lat="-27.02367241" lon="-48.67290353"><ele>8.907928466796875</ele></trkpt><trkpt lat="-27.02367341" lon="-48.67290262"><ele>8.869873046875</ele></trkpt><trkpt lat="-27.02367341" lon="-48.67290262"><ele>8.869873046875</ele></trkpt><trkpt lat="-27.02367213" lon="-48.67290279"><ele>8.807891845703125</ele></trkpt><trkpt lat="-27.02367222" lon="-48.67290309"><ele>8.78118896484375</ele></trkpt><trkpt lat="-27.02367214" lon="-48.67290519"><ele>8.8408203125</ele></trkpt><trkpt lat="-27.0236744" lon="-48.67290625"><ele>8.807220458984375</ele></trkpt><trkpt lat="-27.02367416" lon="-48.67290776"><ele>8.79730224609375</ele></trkpt><trkpt lat="-27.02367433" lon="-48.67290658"><ele>8.695281982421875</ele></trkpt><trkpt lat="-27.02367446" lon="-48.67290475"><ele>8.60394287109375</ele></trkpt><trkpt lat="-27.0236768" lon="-48.67290641"><ele>8.53094482421875</ele></trkpt><trkpt lat="-27.02367734" lon="-48.67290608"><ele>8.46490478515625</ele></trkpt><trkpt lat="-27.02367982" lon="-48.67290588"><ele>8.43365478515625</ele></trkpt><trkpt lat="-27.02368181" lon="-48.67290401"><ele>8.33905029296875</ele></trkpt><trkpt lat="-27.02368188" lon="-48.67290226"><ele>9.66912841796875</ele></trkpt><trkpt lat="-27.02368246" lon="-48.67290093"><ele>9.7081298828125</ele></trkpt><trkpt lat="-27.02368307" lon="-48.67290105"><ele>9.596893310546875</ele></trkpt><trkpt lat="-27.02368292" lon="-48.67290038"><ele>9.58697509765625</ele></trkpt><trkpt lat="-27.0236843" lon="-48.6729004"><ele>9.433502197265625</ele></trkpt><trkpt lat="-27.02368866" lon="-48.67290693"><ele>9.290740966796875</ele></trkpt><trkpt lat="-27.02369565" lon="-48.67291624"><ele>9.493743896484375</ele></trkpt><trkpt lat="-27.02370844" lon="-48.67293127"><ele>9.691162109375</ele></trkpt><trkpt lat="-27.02372183" lon="-48.67294798"><ele>9.748199462890625</ele></trkpt><trkpt lat="-27.02373015" lon="-48.67297042"><ele>9.31512451171875</ele></trkpt><trkpt lat="-27.023738" lon="-48.67299369"><ele>9.304534912109375</ele></trkpt><trkpt lat="-27.02374646" lon="-48.67302003"><ele>9.789093017578125</ele></trkpt><trkpt lat="-27.02375896" lon="-48.67304633"><ele>9.548919677734375</ele></trkpt><trkpt lat="-27.02377448" lon="-48.67307092"><ele>10.007049560546875</ele></trkpt><trkpt lat="-27.02379034" lon="-48.67309326"><ele>10.0357666015625</ele></trkpt><trkpt lat="-27.02380464" lon="-48.67311323"><ele>10.914703369140625</ele></trkpt><trkpt lat="-27.02381761" lon="-48.67313332"><ele>11.09320068359375</ele></trkpt><trkpt lat="-27.02383012" lon="-48.67315551"><ele>10.98052978515625</ele></trkpt><trkpt lat="-27.02384001" lon="-48.67318077"><ele>10.880401611328125</ele></trkpt><trkpt lat="-27.02384885" lon="-48.67320802"><ele>11.020477294921875</ele></trkpt><trkpt lat="-27.02385911" lon="-48.67323317"><ele>11.037200927734375</ele></trkpt><trkpt lat="-27.02387089" lon="-48.67325703"><ele>11.2022705078125</ele></trkpt><trkpt lat="-27.02388326" lon="-48.67327996"><ele>11.104339599609375</ele></trkpt><trkpt lat="-27.02389603" lon="-48.6733055"><ele>11.12591552734375</ele></trkpt><trkpt lat="-27.02390563" lon="-48.67333453"><ele>11.11541748046875</ele></trkpt><trkpt lat="-27.02391335" lon="-48.67336658"><ele>10.85736083984375</ele></trkpt><trkpt lat="-27.02392266" lon="-48.67340073"><ele>10.73394775390625</ele></trkpt><trkpt lat="-27.02393219" lon="-48.67343591"><ele>10.552978515625</ele></trkpt><trkpt lat="-27.02393933" lon="-48.67347258"><ele>10.46319580078125</ele></trkpt><trkpt lat="-27.02394615" lon="-48.6735089"><ele>10.310577392578125</ele></trkpt><trkpt lat="-27.0239516" lon="-48.67354669"><ele>9.8546142578125</ele></trkpt><trkpt lat="-27.02395801" lon="-48.67358644"><ele>9.439300537109375</ele></trkpt><trkpt lat="-27.02396093" lon="-48.67362762"><ele>9.28656005859375</ele></trkpt><trkpt lat="-27.02396222" lon="-48.67366623"><ele>9.059173583984375</ele></trkpt><trkpt lat="-27.02396381" lon="-48.67371007"><ele>8.084564208984375</ele></trkpt><trkpt lat="-27.023968" lon="-48.67374763"><ele>8.338897705078125</ele></trkpt><trkpt lat="-27.02397163" lon="-48.67378922"><ele>8.391876220703125</ele></trkpt><trkpt lat="-27.02396962" lon="-48.67383408"><ele>8.19390869140625</ele></trkpt><trkpt lat="-27.0239669" lon="-48.67387727"><ele>7.83544921875</ele></trkpt><trkpt lat="-27.02396595" lon="-48.6739192"><ele>7.9364013671875</ele></trkpt><trkpt lat="-27.02396561" lon="-48.67395913"><ele>7.710693359375</ele></trkpt><trkpt lat="-27.02396332" lon="-48.67400028"><ele>8.14593505859375</ele></trkpt><trkpt lat="-27.02396228" lon="-48.67404324"><ele>7.78497314453125</ele></trkpt><trkpt lat="-27.02396209" lon="-48.67408578"><ele>8.190032958984375</ele></trkpt><trkpt lat="-27.02396141" lon="-48.67412897"><ele>9.015106201171875</ele></trkpt><trkpt lat="-27.02395917" lon="-48.67416868"><ele>9.36163330078125</ele></trkpt><trkpt lat="-27.02395645" lon="-48.6742134"><ele>9.3165283203125</ele></trkpt><trkpt lat="-27.02395621" lon="-48.67425677"><ele>9.38824462890625</ele></trkpt><trkpt lat="-27.02395748" lon="-48.67429927"><ele>9.256103515625</ele></trkpt><trkpt lat="-27.02395549" lon="-48.67434279"><ele>9.256317138671875</ele></trkpt><trkpt lat="-27.02395979" lon="-48.67438496"><ele>9.344482421875</ele></trkpt><trkpt lat="-27.02396546" lon="-48.67442513"><ele>9.375274658203125</ele></trkpt><trkpt lat="-27.02396961" lon="-48.67446245"><ele>9.46282958984375</ele></trkpt><trkpt lat="-27.02397134" lon="-48.67449759"><ele>9.329864501953125</ele></trkpt><trkpt lat="-27.0239707" lon="-48.6745329"><ele>9.558013916015625</ele></trkpt><trkpt lat="-27.02397057" lon="-48.67456976"><ele>9.626129150390625</ele></trkpt><trkpt lat="-27.02397443" lon="-48.67460722"><ele>9.72564697265625</ele></trkpt><trkpt lat="-27.02398059" lon="-48.6746439"><ele>9.072357177734375</ele></trkpt><trkpt lat="-27.02398744" lon="-48.67467924"><ele>8.711639404296875</ele></trkpt><trkpt lat="-27.02399471" lon="-48.67471138"><ele>8.999786376953125</ele></trkpt><trkpt lat="-27.02399471" lon="-48.67471138"><ele>8.999786376953125</ele></trkpt><trkpt lat="-27.02400056" lon="-48.67474077"><ele>9.003814697265625</ele></trkpt><trkpt lat="-27.02400303" lon="-48.67476863"><ele>8.66851806640625</ele></trkpt><trkpt lat="-27.02400576" lon="-48.67479881"><ele>8.52850341796875</ele></trkpt><trkpt lat="-27.02400951" lon="-48.67483279"><ele>8.855316162109375</ele></trkpt><trkpt lat="-27.02401644" lon="-48.67487064"><ele>9.140838623046875</ele></trkpt><trkpt lat="-27.02402354" lon="-48.67491131"><ele>9.365234375</ele></trkpt><trkpt lat="-27.02403938" lon="-48.6749485"><ele>9.4794921875</ele></trkpt><trkpt lat="-27.02405097" lon="-48.67498814"><ele>11.519134521484375</ele></trkpt><trkpt lat="-27.0240643" lon="-48.67502694"><ele>11.258758544921875</ele></trkpt><trkpt lat="-27.02406749" lon="-48.6750696"><ele>11.028045654296875</ele></trkpt><trkpt lat="-27.02407183" lon="-48.67511304"><ele>11.364044189453125</ele></trkpt><trkpt lat="-27.02407743" lon="-48.67515487"><ele>11.360595703125</ele></trkpt><trkpt lat="-27.02408249" lon="-48.67519576"><ele>8.579803466796875</ele></trkpt><trkpt lat="-27.02408784" lon="-48.67523346"><ele>8.827880859375</ele></trkpt><trkpt lat="-27.02409562" lon="-48.67527053"><ele>9.31201171875</ele></trkpt><trkpt lat="-27.02410298" lon="-48.67530681"><ele>9.254364013671875</ele></trkpt><trkpt lat="-27.02410594" lon="-48.67534417"><ele>8.979217529296875</ele></trkpt><trkpt lat="-27.02410938" lon="-48.6753806"><ele>8.894256591796875</ele></trkpt><trkpt lat="-27.02411341" lon="-48.67541936"><ele>8.811614990234375</ele></trkpt><trkpt lat="-27.02412291" lon="-48.67545977"><ele>9.22308349609375</ele></trkpt><trkpt lat="-27.0241321" lon="-48.67549874"><ele>9.079986572265625</ele></trkpt><trkpt lat="-27.02414034" lon="-48.67553784"><ele>8.89593505859375</ele></trkpt><trkpt lat="-27.02414653" lon="-48.6755762"><ele>9.064300537109375</ele></trkpt><trkpt lat="-27.02415218" lon="-48.67561444"><ele>8.947509765625</ele></trkpt><trkpt lat="-27.02415804" lon="-48.6756534"><ele>8.908660888671875</ele></trkpt><trkpt lat="-27.02416286" lon="-48.67568988"><ele>9.08026123046875</ele></trkpt><trkpt lat="-27.02416895" lon="-48.6757257"><ele>10.6326904296875</ele></trkpt><trkpt lat="-27.0241739" lon="-48.67576044"><ele>10.601806640625</ele></trkpt><trkpt lat="-27.02417952" lon="-48.67579409"><ele>9.359710693359375</ele></trkpt><trkpt lat="-27.02418404" lon="-48.67582908"><ele>9.231689453125</ele></trkpt><trkpt lat="-27.02418748" lon="-48.67586289"><ele>8.299407958984375</ele></trkpt><trkpt lat="-27.0241937" lon="-48.67589739"><ele>8.908477783203125</ele></trkpt><trkpt lat="-27.02420252" lon="-48.67593049"><ele>8.8480224609375</ele></trkpt><trkpt lat="-27.02420589" lon="-48.67596422"><ele>8.847808837890625</ele></trkpt><trkpt lat="-27.0242112" lon="-48.6759947"><ele>8.75445556640625</ele></trkpt><trkpt lat="-27.02421914" lon="-48.67602555"><ele>8.783599853515625</ele></trkpt><trkpt lat="-27.02422816" lon="-48.6760566"><ele>8.1417236328125</ele></trkpt><trkpt lat="-27.02423655" lon="-48.67608545"><ele>8.717803955078125</ele></trkpt><trkpt lat="-27.02424548" lon="-48.67611342"><ele>9.044586181640625</ele></trkpt><trkpt lat="-27.02425235" lon="-48.67614218"><ele>10.38043212890625</ele></trkpt><trkpt lat="-27.02425235" lon="-48.67614218"><ele>10.38043212890625</ele></trkpt><trkpt lat="-27.02425944" lon="-48.67617071"><ele>10.12005615234375</ele></trkpt><trkpt lat="-27.0242657" lon="-48.67619906"><ele>10.280731201171875</ele></trkpt><trkpt lat="-27.0242683" lon="-48.6762273"><ele>10.098052978515625</ele></trkpt><trkpt lat="-27.02427255" lon="-48.67625702"><ele>8.4822998046875</ele></trkpt><trkpt lat="-27.02428384" lon="-48.67628664"><ele>8.601348876953125</ele></trkpt><trkpt lat="-27.02429107" lon="-48.67631834"><ele>9.27264404296875</ele></trkpt><trkpt lat="-27.02430368" lon="-48.67635055"><ele>8.94793701171875</ele></trkpt><trkpt lat="-27.02431761" lon="-48.67638362"><ele>9.3555908203125</ele></trkpt><trkpt lat="-27.02433401" lon="-48.67641822"><ele>9.2537841796875</ele></trkpt><trkpt lat="-27.02435058" lon="-48.67645293"><ele>8.98724365234375</ele></trkpt><trkpt lat="-27.02436665" lon="-48.67648694"><ele>9.128387451171875</ele></trkpt><trkpt lat="-27.02438995" lon="-48.67651195"><ele>10.38427734375</ele></trkpt><trkpt lat="-27.02440945" lon="-48.67654197"><ele>10.33514404296875</ele></trkpt><trkpt lat="-27.02442741" lon="-48.67657417"><ele>8.357513427734375</ele></trkpt><trkpt lat="-27.02444327" lon="-48.67660656"><ele>8.28533935546875</ele></trkpt><trkpt lat="-27.02445925" lon="-48.67664026"><ele>8.451324462890625</ele></trkpt><trkpt lat="-27.02446842" lon="-48.67668134"><ele>8.36187744140625</ele></trkpt><trkpt lat="-27.0244767" lon="-48.67672166"><ele>9.038604736328125</ele></trkpt><trkpt lat="-27.02448707" lon="-48.6767602"><ele>9.210723876953125</ele></trkpt><trkpt lat="-27.02449769" lon="-48.67679286"><ele>8.951171875</ele></trkpt><trkpt lat="-27.0245087" lon="-48.6768271"><ele>8.796661376953125</ele></trkpt><trkpt lat="-27.02451639" lon="-48.67686236"><ele>8.510589599609375</ele></trkpt><trkpt lat="-27.02452056" lon="-48.67689515"><ele>8.5284423828125</ele></trkpt><trkpt lat="-27.02452539" lon="-48.67692598"><ele>8.454437255859375</ele></trkpt><trkpt lat="-27.02452898" lon="-48.6769542"><ele>8.271087646484375</ele></trkpt><trkpt lat="-27.02453174" lon="-48.676979"><ele>8.848419189453125</ele></trkpt><trkpt lat="-27.02453342" lon="-48.67700009"><ele>8.894805908203125</ele></trkpt><trkpt lat="-27.02453191" lon="-48.67700346"><ele>8.58087158203125</ele></trkpt><trkpt lat="-27.02453047" lon="-48.67700339"><ele>8.98333740234375</ele></trkpt><trkpt lat="-27.02452279" lon="-48.67700228"><ele>8.88067626953125</ele></trkpt><trkpt lat="-27.02452307" lon="-48.67699563"><ele>8.622161865234375</ele></trkpt><trkpt lat="-27.02452578" lon="-48.67699112"><ele>8.645111083984375</ele></trkpt><trkpt lat="-27.02452645" lon="-48.67699185"><ele>8.87158203125</ele></trkpt><trkpt lat="-27.02452631" lon="-48.67699351"><ele>8.843597412109375</ele></trkpt><trkpt lat="-27.02452624" lon="-48.67699398"><ele>8.630462646484375</ele></trkpt><trkpt lat="-27.02452624" lon="-48.67699409"><ele>8.628265380859375</ele></trkpt><trkpt lat="-27.02452625" lon="-48.6769941"><ele>8.6270751953125</ele></trkpt><trkpt lat="-27.02452627" lon="-48.67699408"><ele>8.6234130859375</ele></trkpt><trkpt lat="-27.02452626" lon="-48.67699405"><ele>8.624114990234375</ele></trkpt><trkpt lat="-27.02452623" lon="-48.67699407"><ele>8.622222900390625</ele></trkpt><trkpt lat="-27.02452619" lon="-48.67699408"><ele>8.83343505859375</ele></trkpt><trkpt lat="-27.02452613" lon="-48.6769941"><ele>8.83294677734375</ele></trkpt><trkpt lat="-27.02452611" lon="-48.67699411"><ele>8.83111572265625</ele></trkpt><trkpt lat="-27.02452608" lon="-48.67699412"><ele>8.8310546875</ele></trkpt><trkpt lat="-27.02452608" lon="-48.67699412"><ele>9.45318603515625</ele></trkpt><trkpt lat="-27.02452608" lon="-48.67699412"><ele>9.45318603515625</ele></trkpt><trkpt lat="-27.02452611" lon="-48.6769941"><ele>9.454193115234375</ele></trkpt><trkpt lat="-27.02452613" lon="-48.67699407"><ele>9.218109130859375</ele></trkpt><trkpt lat="-27.02452669" lon="-48.6769932"><ele>9.45263671875</ele></trkpt><trkpt lat="-27.02452732" lon="-48.67699224"><ele>9.079132080078125</ele></trkpt><trkpt lat="-27.02452749" lon="-48.67699198"><ele>9.079559326171875</ele></trkpt><trkpt lat="-27.02452844" lon="-48.67699237"><ele>9.110504150390625</ele></trkpt><trkpt lat="-27.02452894" lon="-48.67699248"><ele>9.37054443359375</ele></trkpt><trkpt lat="-27.02452943" lon="-48.67699222"><ele>9.735931396484375</ele></trkpt><trkpt lat="-27.02452943" lon="-48.67699222"><ele>9.735931396484375</ele></trkpt><trkpt lat="-27.024529" lon="-48.67699225"><ele>9.913818359375</ele></trkpt><trkpt lat="-27.02452877" lon="-48.67699244"><ele>10.29248046875</ele></trkpt><trkpt lat="-27.02453053" lon="-48.67699015"><ele>10.1466064453125</ele></trkpt><trkpt lat="-27.02452941" lon="-48.67699067"><ele>9.242340087890625</ele></trkpt><trkpt lat="-27.02453283" lon="-48.67699681"><ele>9.245391845703125</ele></trkpt><trkpt lat="-27.02453291" lon="-48.67700002"><ele>9.170166015625</ele></trkpt><trkpt lat="-27.02452994" lon="-48.67701464"><ele>9.57635498046875</ele></trkpt><trkpt lat="-27.02453131" lon="-48.67703306"><ele>9.540069580078125</ele></trkpt><trkpt lat="-27.02453364" lon="-48.67704989"><ele>9.77337646484375</ele></trkpt><trkpt lat="-27.02453507" lon="-48.67707668"><ele>9.611785888671875</ele></trkpt><trkpt lat="-27.02453514" lon="-48.67710696"><ele>9.546600341796875</ele></trkpt><trkpt lat="-27.02453554" lon="-48.67713784"><ele>9.35198974609375</ele></trkpt><trkpt lat="-27.02453475" lon="-48.67716737"><ele>9.178497314453125</ele></trkpt><trkpt lat="-27.02453362" lon="-48.67719784"><ele>8.818145751953125</ele></trkpt><trkpt lat="-27.0245337" lon="-48.67722979"><ele>8.938507080078125</ele></trkpt><trkpt lat="-27.02453371" lon="-48.67726286"><ele>9.002410888671875</ele></trkpt><trkpt lat="-27.0245324" lon="-48.67729065"><ele>8.730865478515625</ele></trkpt><trkpt lat="-27.02453108" lon="-48.67732417"><ele>8.372589111328125</ele></trkpt><trkpt lat="-27.02453004" lon="-48.67735801"><ele>8.252349853515625</ele></trkpt><trkpt lat="-27.02452865" lon="-48.67739142"><ele>9.014892578125</ele></trkpt><trkpt lat="-27.0245279" lon="-48.67742581"><ele>8.978851318359375</ele></trkpt><trkpt lat="-27.02452844" lon="-48.67746061"><ele>8.8258056640625</ele></trkpt><trkpt lat="-27.02452926" lon="-48.67749558"><ele>8.7877197265625</ele></trkpt><trkpt lat="-27.024529" lon="-48.67752973"><ele>8.714752197265625</ele></trkpt><trkpt lat="-27.02452788" lon="-48.67756384"><ele>8.89276123046875</ele></trkpt><trkpt lat="-27.02452633" lon="-48.67759801"><ele>8.41790771484375</ele></trkpt><trkpt lat="-27.02452513" lon="-48.67763316"><ele>8.58868408203125</ele></trkpt><trkpt lat="-27.02452429" lon="-48.67766718"><ele>8.242919921875</ele></trkpt><trkpt lat="-27.02452352" lon="-48.67770141"><ele>8.128143310546875</ele></trkpt><trkpt lat="-27.02452528" lon="-48.67773625"><ele>8.23931884765625</ele></trkpt><trkpt lat="-27.02452579" lon="-48.67777156"><ele>8.17010498046875</ele></trkpt><trkpt lat="-27.0245257" lon="-48.67780513"><ele>8.772796630859375</ele></trkpt><trkpt lat="-27.02452715" lon="-48.67783957"><ele>8.919036865234375</ele></trkpt><trkpt lat="-27.02452985" lon="-48.67787373"><ele>11.240814208984375</ele></trkpt><trkpt lat="-27.02453234" lon="-48.67790912"><ele>8.9803466796875</ele></trkpt><trkpt lat="-27.02453364" lon="-48.67794371"><ele>8.930267333984375</ele></trkpt><trkpt lat="-27.02453494" lon="-48.67797978"><ele>9.20159912109375</ele></trkpt><trkpt lat="-27.02453767" lon="-48.67801613"><ele>9.40887451171875</ele></trkpt><trkpt lat="-27.02454147" lon="-48.67805162"><ele>9.323974609375</ele></trkpt><trkpt lat="-27.02454535" lon="-48.67808665"><ele>8.81805419921875</ele></trkpt><trkpt lat="-27.02454837" lon="-48.67811951"><ele>8.7625732421875</ele></trkpt><trkpt lat="-27.02455215" lon="-48.67815487"><ele>8.690582275390625</ele></trkpt><trkpt lat="-27.02455699" lon="-48.67819262"><ele>8.86846923828125</ele></trkpt><trkpt lat="-27.02456113" lon="-48.67822709"><ele>8.968475341796875</ele></trkpt><trkpt lat="-27.02456522" lon="-48.67825881"><ele>9.111785888671875</ele></trkpt><trkpt lat="-27.02456762" lon="-48.67828843"><ele>9.339019775390625</ele></trkpt><trkpt lat="-27.02456984" lon="-48.6783162"><ele>9.281890869140625</ele></trkpt><trkpt lat="-27.02457238" lon="-48.67834235"><ele>9.31610107421875</ele></trkpt><trkpt lat="-27.02457308" lon="-48.67835921"><ele>9.062591552734375</ele></trkpt><trkpt lat="-27.02457197" lon="-48.67836407"><ele>9.0888671875</ele></trkpt><trkpt lat="-27.02457116" lon="-48.67836428"><ele>8.975616455078125</ele></trkpt><trkpt lat="-27.02456881" lon="-48.67835622"><ele>8.935699462890625</ele></trkpt><trkpt lat="-27.02456831" lon="-48.67835423"><ele>9.4359130859375</ele></trkpt><trkpt lat="-27.02456831" lon="-48.67835423"><ele>9.4359130859375</ele></trkpt><trkpt lat="-27.02456821" lon="-48.67835372"><ele>9.437408447265625</ele></trkpt><trkpt lat="-27.02456819" lon="-48.67835359"><ele>9.43841552734375</ele></trkpt><trkpt lat="-27.02456821" lon="-48.67835354"><ele>8.941864013671875</ele></trkpt><trkpt lat="-27.0245682" lon="-48.67835353"><ele>8.942840576171875</ele></trkpt><trkpt lat="-27.02456817" lon="-48.67835351"><ele>8.9388427734375</ele></trkpt><trkpt lat="-27.02456792" lon="-48.6783518"><ele>8.657745361328125</ele></trkpt><trkpt lat="-27.02456715" lon="-48.67835196"><ele>8.672210693359375</ele></trkpt><trkpt lat="-27.02456581" lon="-48.67835344"><ele>8.672515869140625</ele></trkpt><trkpt lat="-27.02456549" lon="-48.67835384"><ele>10.608489990234375</ele></trkpt><trkpt lat="-27.02456541" lon="-48.67835394"><ele>10.610992431640625</ele></trkpt><trkpt lat="-27.02456539" lon="-48.67835396"><ele>10.60955810546875</ele></trkpt><trkpt lat="-27.02456306" lon="-48.67835774"><ele>10.616912841796875</ele></trkpt><trkpt lat="-27.02456181" lon="-48.67836247"><ele>10.674224853515625</ele></trkpt><trkpt lat="-27.02456092" lon="-48.67836519"><ele>10.874053955078125</ele></trkpt><trkpt lat="-27.0245604" lon="-48.67836936"><ele>9.558441162109375</ele></trkpt><trkpt lat="-27.0245594" lon="-48.67837854"><ele>9.53778076171875</ele></trkpt><trkpt lat="-27.02455917" lon="-48.67838083"><ele>9.54248046875</ele></trkpt><trkpt lat="-27.02455889" lon="-48.67838151"><ele>9.546478271484375</ele></trkpt><trkpt lat="-27.02455887" lon="-48.67838175"><ele>9.5439453125</ele></trkpt><trkpt lat="-27.02455875" lon="-48.67838252"><ele>9.67559814453125</ele></trkpt><trkpt lat="-27.02455825" lon="-48.6783831"><ele>9.67205810546875</ele></trkpt><trkpt lat="-27.02455809" lon="-48.67838324"><ele>9.67108154296875</ele></trkpt><trkpt lat="-27.02455806" lon="-48.67838332"><ele>9.67266845703125</ele></trkpt><trkpt lat="-27.02455804" lon="-48.67838334"><ele>9.671722412109375</ele></trkpt><trkpt lat="-27.02455803" lon="-48.67838334"><ele>9.672698974609375</ele></trkpt><trkpt lat="-27.0245585" lon="-48.67837938"><ele>10.063140869140625</ele></trkpt><trkpt lat="-27.02455831" lon="-48.67837779"><ele>9.8814697265625</ele></trkpt><trkpt lat="-27.02455817" lon="-48.67837527"><ele>9.894500732421875</ele></trkpt><trkpt lat="-27.02455994" lon="-48.6783614"><ele>9.786590576171875</ele></trkpt><trkpt lat="-27.02455983" lon="-48.67835633"><ele>9.76025390625</ele></trkpt><trkpt lat="-27.02456299" lon="-48.678358"><ele>9.862579345703125</ele></trkpt><trkpt lat="-27.02456518" lon="-48.67836621"><ele>9.78131103515625</ele></trkpt><trkpt lat="-27.02456713" lon="-48.67837265"><ele>9.72021484375</ele></trkpt><trkpt lat="-27.02456731" lon="-48.678374"><ele>9.89227294921875</ele></trkpt><trkpt lat="-27.02456654" lon="-48.67837451"><ele>9.893157958984375</ele></trkpt><trkpt lat="-27.02456635" lon="-48.67837465"><ele>9.894805908203125</ele></trkpt><trkpt lat="-27.02456529" lon="-48.67837635"><ele>10.122283935546875</ele></trkpt><trkpt lat="-27.02456324" lon="-48.67837581"><ele>10.174652099609375</ele></trkpt><trkpt lat="-27.02456345" lon="-48.67837133"><ele>9.960601806640625</ele></trkpt><trkpt lat="-27.02456275" lon="-48.67836776"><ele>9.78277587890625</ele></trkpt><trkpt lat="-27.02456212" lon="-48.67836756"><ele>9.77471923828125</ele></trkpt><trkpt lat="-27.02456703" lon="-48.67838201"><ele>10.050750732421875</ele></trkpt><trkpt lat="-27.02456703" lon="-48.67838202"><ele>10.249664306640625</ele></trkpt><trkpt lat="-27.02456551" lon="-48.67838131"><ele>10.120147705078125</ele></trkpt><trkpt lat="-27.02456549" lon="-48.67837106"><ele>10.180511474609375</ele></trkpt><trkpt lat="-27.02456792" lon="-48.67837767"><ele>10.869415283203125</ele></trkpt><trkpt lat="-27.02456792" lon="-48.67837767"><ele>10.869415283203125</ele></trkpt><trkpt lat="-27.02456792" lon="-48.67837767"><ele>10.869415283203125</ele></trkpt><trkpt lat="-27.02457318" lon="-48.67838301"><ele>11.283203125</ele></trkpt><trkpt lat="-27.02457622" lon="-48.67839912"><ele>11.0010986328125</ele></trkpt><trkpt lat="-27.02457809" lon="-48.67841467"><ele>11.03369140625</ele></trkpt><trkpt lat="-27.02458052" lon="-48.6784353"><ele>11.116485595703125</ele></trkpt><trkpt lat="-27.02458582" lon="-48.67845379"><ele>10.919647216796875</ele></trkpt><trkpt lat="-27.02459066" lon="-48.67846966"><ele>10.50848388671875</ele></trkpt><trkpt lat="-27.02459423" lon="-48.67848492"><ele>10.436248779296875</ele></trkpt><trkpt lat="-27.02459589" lon="-48.67850049"><ele>10.860565185546875</ele></trkpt><trkpt lat="-27.02459589" lon="-48.67850049"><ele>10.860565185546875</ele></trkpt><trkpt lat="-27.02459407" lon="-48.67851342"><ele>10.5528564453125</ele></trkpt><trkpt lat="-27.02459174" lon="-48.67852502"><ele>10.4532470703125</ele></trkpt><trkpt lat="-27.02459272" lon="-48.67853886"><ele>10.486236572265625</ele></trkpt><trkpt lat="-27.02459337" lon="-48.67855566"><ele>10.703857421875</ele></trkpt><trkpt lat="-27.0245952" lon="-48.67857513"><ele>13.17132568359375</ele></trkpt><trkpt lat="-27.02459789" lon="-48.67859756"><ele>13.21124267578125</ele></trkpt><trkpt lat="-27.02459991" lon="-48.67862194"><ele>13.21221923828125</ele></trkpt><trkpt lat="-27.02460029" lon="-48.67864777"><ele>9.858123779296875</ele></trkpt><trkpt lat="-27.02460005" lon="-48.67867255"><ele>9.636749267578125</ele></trkpt><trkpt lat="-27.02460103" lon="-48.67869787"><ele>9.564666748046875</ele></trkpt><trkpt lat="-27.02460325" lon="-48.67872692"><ele>9.78033447265625</ele></trkpt><trkpt lat="-27.02460337" lon="-48.67875273"><ele>9.827301025390625</ele></trkpt><trkpt lat="-27.02460127" lon="-48.67877854"><ele>9.887786865234375</ele></trkpt><trkpt lat="-27.0246009" lon="-48.67880501"><ele>9.764434814453125</ele></trkpt><trkpt lat="-27.0245995" lon="-48.67883147"><ele>9.744415283203125</ele></trkpt><trkpt lat="-27.02459679" lon="-48.67885644"><ele>9.661285400390625</ele></trkpt><trkpt lat="-27.02459499" lon="-48.67887975"><ele>9.59149169921875</ele></trkpt><trkpt lat="-27.02459353" lon="-48.67890169"><ele>9.760650634765625</ele></trkpt><trkpt lat="-27.02459047" lon="-48.67892209"><ele>9.668670654296875</ele></trkpt><trkpt lat="-27.02458592" lon="-48.67894416"><ele>9.572845458984375</ele></trkpt><trkpt lat="-27.02458079" lon="-48.67896768"><ele>9.460174560546875</ele></trkpt><trkpt lat="-27.02457478" lon="-48.67899243"><ele>9.4490966796875</ele></trkpt><trkpt lat="-27.02456714" lon="-48.6790176"><ele>9.638214111328125</ele></trkpt><trkpt lat="-27.02455943" lon="-48.67903927"><ele>9.55126953125</ele></trkpt><trkpt lat="-27.02455252" lon="-48.67905682"><ele>9.589569091796875</ele></trkpt><trkpt lat="-27.02454391" lon="-48.67907522"><ele>9.867950439453125</ele></trkpt><trkpt lat="-27.02453544" lon="-48.67909238"><ele>9.897369384765625</ele></trkpt><trkpt lat="-27.02452464" lon="-48.67911079"><ele>10.04449462890625</ele></trkpt><trkpt lat="-27.02451205" lon="-48.6791269"><ele>10.08428955078125</ele></trkpt><trkpt lat="-27.02450091" lon="-48.67914001"><ele>10.165618896484375</ele></trkpt><trkpt lat="-27.02449204" lon="-48.67914929"><ele>13.4949951171875</ele></trkpt><trkpt lat="-27.02449152" lon="-48.67914825"><ele>10.227081298828125</ele></trkpt><trkpt lat="-27.02449188" lon="-48.67914751"><ele>10.227020263671875</ele></trkpt><trkpt lat="-27.02449087" lon="-48.67914901"><ele>10.403717041015625</ele></trkpt><trkpt lat="-27.02449011" lon="-48.67914986"><ele>10.7960205078125</ele></trkpt><trkpt lat="-27.02448996" lon="-48.67915115"><ele>11.0374755859375</ele></trkpt><trkpt lat="-27.02449034" lon="-48.67915189"><ele>11.0177001953125</ele></trkpt><trkpt lat="-27.02449066" lon="-48.67915264"><ele>10.889739990234375</ele></trkpt><trkpt lat="-27.02449079" lon="-48.67915291"><ele>10.87872314453125</ele></trkpt><trkpt lat="-27.02449083" lon="-48.67915299"><ele>13.79278564453125</ele></trkpt><trkpt lat="-27.02449086" lon="-48.67915304"><ele>13.7945556640625</ele></trkpt><trkpt lat="-27.0244921" lon="-48.67915272"><ele>10.786529541015625</ele></trkpt><trkpt lat="-27.0244926" lon="-48.67915215"><ele>10.7657470703125</ele></trkpt><trkpt lat="-27.02449269" lon="-48.67915204"><ele>10.76422119140625</ele></trkpt><trkpt lat="-27.02449271" lon="-48.67915204"><ele>10.76422119140625</ele></trkpt><trkpt lat="-27.02449274" lon="-48.67915205"><ele>10.76373291015625</ele></trkpt><trkpt lat="-27.02449276" lon="-48.67915205"><ele>10.76177978515625</ele></trkpt><trkpt lat="-27.02449276" lon="-48.67915205"><ele>10.761474609375</ele></trkpt><trkpt lat="-27.02449279" lon="-48.67915208"><ele>10.762786865234375</ele></trkpt><trkpt lat="-27.02449283" lon="-48.67915209"><ele>10.76470947265625</ele></trkpt><trkpt lat="-27.02449283" lon="-48.67915209"><ele>10.76470947265625</ele></trkpt><trkpt lat="-27.02449164" lon="-48.67915601"><ele>10.996124267578125</ele></trkpt><trkpt lat="-27.02449048" lon="-48.67915471"><ele>11.417236328125</ele></trkpt><trkpt lat="-27.02449066" lon="-48.679151"><ele>11.42364501953125</ele></trkpt><trkpt lat="-27.02449134" lon="-48.67914843"><ele>11.366302490234375</ele></trkpt><trkpt lat="-27.02449164" lon="-48.67914699"><ele>11.368194580078125</ele></trkpt><trkpt lat="-27.02449166" lon="-48.67914667"><ele>11.370758056640625</ele></trkpt><trkpt lat="-27.02449168" lon="-48.6791466"><ele>11.369476318359375</ele></trkpt><trkpt lat="-27.02449168" lon="-48.6791466"><ele>11.369476318359375</ele></trkpt><trkpt lat="-27.02449169" lon="-48.67914658"><ele>11.372589111328125</ele></trkpt><trkpt lat="-27.0244917" lon="-48.67914654"><ele>11.374176025390625</ele></trkpt><trkpt lat="-27.02449315" lon="-48.67914479"><ele>11.3587646484375</ele></trkpt><trkpt lat="-27.02449371" lon="-48.67914387"><ele>11.364990234375</ele></trkpt><trkpt lat="-27.02449371" lon="-48.67914387"><ele>11.364990234375</ele></trkpt><trkpt lat="-27.02449377" lon="-48.6791437"><ele>11.36614990234375</ele></trkpt><trkpt lat="-27.02449375" lon="-48.67914365"><ele>11.365631103515625</ele></trkpt><trkpt lat="-27.02449373" lon="-48.67914363"><ele>11.363555908203125</ele></trkpt><trkpt lat="-27.02449374" lon="-48.6791436"><ele>11.36602783203125</ele></trkpt><trkpt lat="-27.02449374" lon="-48.6791436"><ele>11.36602783203125</ele></trkpt><trkpt lat="-27.02449373" lon="-48.6791436"><ele>11.3660888671875</ele></trkpt><trkpt lat="-27.02449375" lon="-48.6791436"><ele>11.36669921875</ele></trkpt><trkpt lat="-27.02449397" lon="-48.67914354"><ele>11.84515380859375</ele></trkpt><trkpt lat="-27.02449397" lon="-48.67914354"><ele>11.84515380859375</ele></trkpt><trkpt lat="-27.02449387" lon="-48.67914377"><ele>11.851409912109375</ele></trkpt><trkpt lat="-27.02449387" lon="-48.67914377"><ele>11.851409912109375</ele></trkpt><trkpt lat="-27.02449383" lon="-48.67914387"><ele>11.85015869140625</ele></trkpt><trkpt lat="-27.02449454" lon="-48.67914279"><ele>11.621917724609375</ele></trkpt><trkpt lat="-27.02449484" lon="-48.67914257"><ele>11.609649658203125</ele></trkpt><trkpt lat="-27.02449408" lon="-48.67914216"><ele>11.399169921875</ele></trkpt><trkpt lat="-27.02449366" lon="-48.67914129"><ele>11.525299072265625</ele></trkpt><trkpt lat="-27.02449246" lon="-48.67914226"><ele>11.4151611328125</ele></trkpt><trkpt lat="-27.02449312" lon="-48.67914353"><ele>11.652252197265625</ele></trkpt><trkpt lat="-27.02449385" lon="-48.67914447"><ele>11.672515869140625</ele></trkpt><trkpt lat="-27.02449403" lon="-48.67914471"><ele>11.644683837890625</ele></trkpt><trkpt lat="-27.0244941" lon="-48.67914476"><ele>11.645233154296875</ele></trkpt><trkpt lat="-27.0244941" lon="-48.67914476"><ele>11.645233154296875</ele></trkpt><trkpt lat="-27.02449414" lon="-48.67914476"><ele>11.643035888671875</ele></trkpt><trkpt lat="-27.02449415" lon="-48.67914476"><ele>11.64263916015625</ele></trkpt><trkpt lat="-27.02449415" lon="-48.67914475"><ele>11.64495849609375</ele></trkpt><trkpt lat="-27.02449415" lon="-48.67914477"><ele>11.645172119140625</ele></trkpt><trkpt lat="-27.02449417" lon="-48.67914476"><ele>11.64508056640625</ele></trkpt><trkpt lat="-27.0244942" lon="-48.67914474"><ele>11.644775390625</ele></trkpt><trkpt lat="-27.0244942" lon="-48.67914474"><ele>11.643310546875</ele></trkpt><trkpt lat="-27.0244942" lon="-48.67914474"><ele>11.643310546875</ele></trkpt><trkpt lat="-27.02449421" lon="-48.67914476"><ele>11.6412353515625</ele></trkpt><trkpt lat="-27.02449422" lon="-48.67914476"><ele>11.641632080078125</ele></trkpt><trkpt lat="-27.02449423" lon="-48.67914477"><ele>11.642578125</ele></trkpt><trkpt lat="-27.02449422" lon="-48.6791448"><ele>11.64385986328125</ele></trkpt><trkpt lat="-27.02449424" lon="-48.67914481"><ele>11.64154052734375</ele></trkpt><trkpt lat="-27.024497" lon="-48.67914528"><ele>11.42010498046875</ele></trkpt><trkpt lat="-27.02449874" lon="-48.67914558"><ele>11.417510986328125</ele></trkpt><trkpt lat="-27.02449874" lon="-48.67914558"><ele>11.417510986328125</ele></trkpt><trkpt lat="-27.02449917" lon="-48.67914563"><ele>11.41912841796875</ele></trkpt><trkpt lat="-27.02449929" lon="-48.67914564"><ele>11.41900634765625</ele></trkpt><trkpt lat="-27.02449933" lon="-48.67914564"><ele>11.416748046875</ele></trkpt><trkpt lat="-27.02449935" lon="-48.67914563"><ele>11.41656494140625</ele></trkpt><trkpt lat="-27.02449938" lon="-48.67914566"><ele>11.415069580078125</ele></trkpt><trkpt lat="-27.02449941" lon="-48.67914569"><ele>11.41680908203125</ele></trkpt><trkpt lat="-27.02449945" lon="-48.67914571"><ele>11.415679931640625</ele></trkpt><trkpt lat="-27.02449951" lon="-48.67914572"><ele>11.4158935546875</ele></trkpt><trkpt lat="-27.02449955" lon="-48.6791457"><ele>11.41644287109375</ele></trkpt></trkseg></trk></gpx>