<?xml version="1.0" encoding="UTF-8"?>
<gpx xmlns="http://www.topografix.com/GPX/1/1" version="1.1" creator="@dwayneparton/geojson-to-gpx"><wpt lat="-27.015364999999996" lon="-48.62824333333333"><ele>2</ele><name>2 faixas</name></wpt><wpt lat="-27.015805" lon="-48.62875333333333"><ele>-0.6000000000000001</ele><name>25</name></wpt><wpt lat="-27.015810000000002" lon="-48.628766666666664"><ele>0.10000000000000009</ele><name>135</name></wpt><wpt lat="-27.016526666666664" lon="-48.62983333333333"><ele>1.5</ele><name>A ciclo é completamente reta.</name></wpt><wpt lat="-27.016526666666664" lon="-48.62983333333333"><ele>1.5</ele><name>Ambas: Alguns trechos sem segregadores. Automóvel consegue passar por entre estes com facilidade</name></wpt><wpt lat="-27.015364999999996" lon="-48.62824333333333"><ele>2</ele><name>Apenas faixas vermelhas nas bordas</name></wpt><wpt lat="-27.015805" lon="-48.62875333333333"><ele>-0.6000000000000001</ele><name>Área de amortecimento da ciclo (cm)</name></wpt><wpt lat="-27.015811666666664" lon="-48.62876500000001"><ele>0</ele><name>Área transitável da ciclo (cm)</name></wpt><wpt lat="-27.015364999999996" lon="-48.62824333333333"><ele>2</ele><name>Asfalto</name></wpt><wpt lat="-27.016243333333332" lon="-48.62937333333333"><ele>2.2</ele><name>Ausência de conexão entre ciclos.</name></wpt><wpt lat="-27.015364999999996" lon="-48.62824333333333"><ele>2</ele><name>Bidirecional</name></wpt><wpt lat="-27.015363333333333" lon="-48.62824333333333"><ele>2</ele><name>Ciclofaixa</name></wpt><wpt lat="-27.015364999999996" lon="-48.62824333333333"><ele>2</ele><name>Em bordo de Via de Mão Dupla</name></wpt><wpt lat="-27.015364999999996" lon="-48.62824333333333"><ele>2</ele><name>Estacionamento proibido na via</name></wpt><wpt lat="-27.015345000000003" lon="-48.62822666666666"><ele>0.40000000000000013</ele><name>Foto</name></wpt><wpt lat="-27.015303333333335" lon="-48.62815333333333"><ele>2.8</ele><name>Foto</name></wpt><wpt lat="-27.015438333333336" lon="-48.62833833333334"><ele>5.2</ele><name>Foto</name></wpt><wpt lat="-27.015516666666667" lon="-48.62843666666666"><ele>6.699999999999999</ele><name>Foto</name></wpt><wpt lat="-27.016001666666664" lon="-48.628975000000004"><ele>1.3</ele><name>Foto</name></wpt><wpt lat="-27.01597" lon="-48.62896166666666"><ele>0.30000000000000004</ele><name>Foto</name></wpt><wpt lat="-27.016115" lon="-48.629155000000004"><ele>2.7</ele><name>Foto</name></wpt><wpt lat="-27.01624" lon="-48.62937"><ele>1.7000000000000002</ele><name>Foto</name></wpt><wpt lat="-27.016409999999997" lon="-48.629603333333336"><ele>2</ele><name>Foto</name></wpt><wpt lat="-27.016526666666664" lon="-48.62983333333333"><ele>1.5</ele><name>Iluminação geral na via do outro lado da infraestrutura</name></wpt><wpt lat="-27.015364999999996" lon="-48.62824333333333"><ele>2</ele><name>Mão Dupla</name></wpt><wpt lat="-27.016526666666664" lon="-48.62983333333333"><ele>1.5</ele><name>Não há árvores nem mudas</name></wpt><wpt lat="-27.016526666666664" lon="-48.62983333333333"><ele>1.5</ele><name>Pequenas imperfeições, como fissuras</name></wpt><wpt lat="-27.016526666666664" lon="-48.62983333333333"><ele>1.5</ele><name>Pintura APAGADA ou somente rastros de tinta</name></wpt><wpt lat="-27.016526666666664" lon="-48.62983333333333"><ele>1.5</ele><name>SE CICLOFAIXA: para invadir a ciclo parte do automóvel passa obrigatoriamente por cima de segregadores</name></wpt><wpt lat="-27.015364999999996" lon="-48.62824333333333"><ele>2</ele><name>Tachões</name></wpt><wpt lat="-27.01598333333333" lon="-48.62895166666667"><ele>0.30000000000000004</ele><name>Travessia de pedestre em nível (lombofaixa)</name></wpt><trk><name>Ciclofaixa Av. Santo Amaro T1 - Cb</name><trkseg><trkpt lat="-27.01527" lon="-48.62821666666667"><ele>0.10000000000000009</ele></trkpt><trkpt lat="-27.01526833333333" lon="-48.6282"><ele>-0.2999999999999998</ele></trkpt><trkpt lat="-27.015263333333337" lon="-48.628191666666666"><ele>-0.09999999999999987</ele></trkpt><trkpt lat="-27.015263333333337" lon="-48.628191666666666"><ele>-0.09999999999999987</ele></trkpt><trkpt lat="-27.015263333333337" lon="-48.628193333333336"><ele>-0.09999999999999987</ele></trkpt><trkpt lat="-27.015261666666667" lon="-48.628193333333336"><ele>-0.09999999999999987</ele></trkpt><trkpt lat="-27.015259999999998" lon="-48.628191666666666"><ele>-0.09999999999999987</ele></trkpt><trkpt lat="-27.015259999999998" lon="-48.62818333333333"><ele>-0.19999999999999996</ele></trkpt><trkpt lat="-27.015263333333337" lon="-48.62818166666666"><ele>-0.19999999999999996</ele></trkpt><trkpt lat="-27.015265" lon="-48.62818666666667"><ele>0.10000000000000009</ele></trkpt><trkpt lat="-27.015273333333333" lon="-48.62818833333334"><ele>0.20000000000000018</ele></trkpt><trkpt lat="-27.01528166666667" lon="-48.628193333333336"><ele>0.40000000000000013</ele></trkpt><trkpt lat="-27.015289999999997" lon="-48.6282"><ele>0.8</ele></trkpt><trkpt lat="-27.015286666666665" lon="-48.62820333333334"><ele>1.5</ele></trkpt><trkpt lat="-27.01528" lon="-48.628204999999994"><ele>2</ele></trkpt><trkpt lat="-27.015273333333333" lon="-48.62821"><ele>2.5</ele></trkpt><trkpt lat="-27.01526833333333" lon="-48.628215"><ele>2.8</ele></trkpt><trkpt lat="-27.01526666666667" lon="-48.62821999999999"><ele>2.9000000000000004</ele></trkpt><trkpt lat="-27.01527666666667" lon="-48.62822166666667"><ele>3.3</ele></trkpt><trkpt lat="-27.015288333333334" lon="-48.62822166666667"><ele>3.4000000000000004</ele></trkpt><trkpt lat="-27.015300000000003" lon="-48.62822166666667"><ele>3.6</ele></trkpt><trkpt lat="-27.01531166666667" lon="-48.62822500000001"><ele>3.6</ele></trkpt><trkpt lat="-27.01532166666667" lon="-48.62823"><ele>3.8000000000000003</ele></trkpt><trkpt lat="-27.015331666666665" lon="-48.62823333333334"><ele>3.7</ele></trkpt><trkpt lat="-27.01534" lon="-48.628238333333336"><ele>3.8000000000000003</ele></trkpt><trkpt lat="-27.015346666666666" lon="-48.628240000000005"><ele>3.8000000000000003</ele></trkpt><trkpt lat="-27.015349999999998" lon="-48.62824166666666"><ele>3.6</ele></trkpt><trkpt lat="-27.015349999999998" lon="-48.62824166666666"><ele>3.4000000000000004</ele></trkpt><trkpt lat="-27.015349999999998" lon="-48.62824166666666"><ele>3.2</ele></trkpt><trkpt lat="-27.015349999999998" lon="-48.62824166666666"><ele>3.1</ele></trkpt><trkpt lat="-27.015351666666668" lon="-48.62824333333333"><ele>2.9000000000000004</ele></trkpt><trkpt lat="-27.01535666666667" lon="-48.628245"><ele>2.7</ele></trkpt><trkpt lat="-27.01536" lon="-48.62824666666667"><ele>2.5</ele></trkpt><trkpt lat="-27.01536" lon="-48.628245"><ele>2.6</ele></trkpt><trkpt lat="-27.015363333333333" lon="-48.628245"><ele>2.3</ele></trkpt><trkpt lat="-27.015363333333333" lon="-48.62824333333333"><ele>2.1</ele></trkpt><trkpt lat="-27.015363333333333" lon="-48.62824333333333"><ele>2</ele></trkpt><trkpt lat="-27.015363333333333" lon="-48.62824333333333"><ele>2</ele></trkpt><trkpt lat="-27.015364999999996" lon="-48.62824333333333"><ele>2</ele></trkpt><trkpt lat="-27.015364999999996" lon="-48.62824333333333"><ele>2</ele></trkpt><trkpt lat="-27.015364999999996" lon="-48.62824333333333"><ele>2</ele></trkpt><trkpt lat="-27.015364999999996" lon="-48.62824333333333"><ele>2</ele></trkpt><trkpt lat="-27.015364999999996" lon="-48.62824333333333"><ele>2</ele></trkpt><trkpt lat="-27.015364999999996" lon="-48.62824333333333"><ele>2</ele></trkpt><trkpt lat="-27.015364999999996" lon="-48.62824333333333"><ele>2</ele></trkpt><trkpt lat="-27.015364999999996" lon="-48.62824333333333"><ele>2</ele></trkpt><trkpt lat="-27.015364999999996" lon="-48.62824333333333"><ele>2</ele></trkpt><trkpt lat="-27.015364999999996" lon="-48.62824333333333"><ele>2</ele></trkpt><trkpt lat="-27.015364999999996" lon="-48.62824333333333"><ele>2</ele></trkpt><trkpt lat="-27.015364999999996" lon="-48.62824333333333"><ele>2</ele></trkpt><trkpt lat="-27.015364999999996" lon="-48.62824333333333"><ele>2</ele></trkpt><trkpt lat="-27.015364999999996" lon="-48.62824333333333"><ele>2</ele></trkpt><trkpt lat="-27.015364999999996" lon="-48.62824333333333"><ele>2</ele></trkpt><trkpt lat="-27.015364999999996" lon="-48.62824333333333"><ele>2</ele></trkpt><trkpt lat="-27.015364999999996" lon="-48.62824333333333"><ele>2</ele></trkpt><trkpt lat="-27.015364999999996" lon="-48.62824333333333"><ele>2</ele></trkpt><trkpt lat="-27.015364999999996" lon="-48.62824333333333"><ele>2</ele></trkpt><trkpt lat="-27.015364999999996" lon="-48.62824333333333"><ele>2</ele></trkpt><trkpt lat="-27.015364999999996" lon="-48.62824333333333"><ele>2</ele></trkpt><trkpt lat="-27.015364999999996" lon="-48.62824333333333"><ele>2</ele></trkpt><trkpt lat="-27.015364999999996" lon="-48.62824333333333"><ele>2</ele></trkpt><trkpt lat="-27.015364999999996" lon="-48.62824333333333"><ele>2</ele></trkpt><trkpt lat="-27.015364999999996" lon="-48.62824333333333"><ele>2</ele></trkpt><trkpt lat="-27.015364999999996" lon="-48.62824333333333"><ele>2</ele></trkpt><trkpt lat="-27.015364999999996" lon="-48.62824333333333"><ele>2</ele></trkpt><trkpt lat="-27.015364999999996" lon="-48.62824333333333"><ele>2</ele></trkpt><trkpt lat="-27.015364999999996" lon="-48.62824333333333"><ele>2</ele></trkpt><trkpt lat="-27.015364999999996" lon="-48.62824333333333"><ele>2</ele></trkpt><trkpt lat="-27.015364999999996" lon="-48.62824333333333"><ele>2</ele></trkpt><trkpt lat="-27.015364999999996" lon="-48.62824333333333"><ele>2</ele></trkpt><trkpt lat="-27.015364999999996" lon="-48.62824333333333"><ele>2</ele></trkpt><trkpt lat="-27.015364999999996" lon="-48.62824333333333"><ele>2</ele></trkpt><trkpt lat="-27.015364999999996" lon="-48.62824333333333"><ele>2</ele></trkpt><trkpt lat="-27.015364999999996" lon="-48.62824333333333"><ele>2</ele></trkpt><trkpt lat="-27.015364999999996" lon="-48.62824333333333"><ele>2</ele></trkpt><trkpt lat="-27.015364999999996" lon="-48.62824333333333"><ele>2</ele></trkpt><trkpt lat="-27.015364999999996" lon="-48.62824333333333"><ele>2</ele></trkpt><trkpt lat="-27.015364999999996" lon="-48.62824333333333"><ele>2</ele></trkpt><trkpt lat="-27.015364999999996" lon="-48.62824333333333"><ele>2</ele></trkpt><trkpt lat="-27.015364999999996" lon="-48.62824333333333"><ele>2</ele></trkpt><trkpt lat="-27.015364999999996" lon="-48.62824333333333"><ele>2</ele></trkpt><trkpt lat="-27.015364999999996" lon="-48.62824333333333"><ele>2</ele></trkpt><trkpt lat="-27.015364999999996" lon="-48.62824333333333"><ele>2</ele></trkpt><trkpt lat="-27.015364999999996" lon="-48.62824333333333"><ele>2</ele></trkpt><trkpt lat="-27.015364999999996" lon="-48.62824333333333"><ele>2</ele></trkpt><trkpt lat="-27.015364999999996" lon="-48.62824333333333"><ele>2</ele></trkpt><trkpt lat="-27.015364999999996" lon="-48.62824333333333"><ele>2</ele></trkpt><trkpt lat="-27.015364999999996" lon="-48.62824333333333"><ele>2</ele></trkpt><trkpt lat="-27.015364999999996" lon="-48.62824333333333"><ele>2</ele></trkpt><trkpt lat="-27.015364999999996" lon="-48.62824333333333"><ele>2</ele></trkpt><trkpt lat="-27.015364999999996" lon="-48.62824333333333"><ele>2</ele></trkpt><trkpt lat="-27.015364999999996" lon="-48.62824333333333"><ele>2</ele></trkpt><trkpt lat="-27.015364999999996" lon="-48.62824333333333"><ele>2</ele></trkpt><trkpt lat="-27.015364999999996" lon="-48.62824333333333"><ele>2</ele></trkpt><trkpt lat="-27.015364999999996" lon="-48.62824333333333"><ele>2</ele></trkpt><trkpt lat="-27.015364999999996" lon="-48.62824333333333"><ele>2</ele></trkpt><trkpt lat="-27.015364999999996" lon="-48.62824333333333"><ele>2</ele></trkpt><trkpt lat="-27.015364999999996" lon="-48.62824333333333"><ele>2</ele></trkpt><trkpt lat="-27.015364999999996" lon="-48.62824333333333"><ele>2</ele></trkpt><trkpt lat="-27.015364999999996" lon="-48.62824333333333"><ele>2</ele></trkpt><trkpt lat="-27.015364999999996" lon="-48.62824333333333"><ele>2</ele></trkpt><trkpt lat="-27.015364999999996" lon="-48.62824333333333"><ele>2</ele></trkpt><trkpt lat="-27.015364999999996" lon="-48.62824333333333"><ele>2</ele></trkpt><trkpt lat="-27.015364999999996" lon="-48.62824333333333"><ele>2</ele></trkpt><trkpt lat="-27.015364999999996" lon="-48.62824333333333"><ele>2</ele></trkpt><trkpt lat="-27.015364999999996" lon="-48.62824333333333"><ele>2</ele></trkpt><trkpt lat="-27.015364999999996" lon="-48.62824333333333"><ele>2</ele></trkpt><trkpt lat="-27.015364999999996" lon="-48.62824333333333"><ele>2</ele></trkpt><trkpt lat="-27.015364999999996" lon="-48.62824333333333"><ele>2</ele></trkpt><trkpt lat="-27.015364999999996" lon="-48.62824333333333"><ele>2</ele></trkpt><trkpt lat="-27.015364999999996" lon="-48.62824333333333"><ele>2</ele></trkpt><trkpt lat="-27.015364999999996" lon="-48.62824333333333"><ele>2</ele></trkpt><trkpt lat="-27.015364999999996" lon="-48.62824333333333"><ele>2</ele></trkpt><trkpt lat="-27.015364999999996" lon="-48.62824333333333"><ele>2</ele></trkpt><trkpt lat="-27.015364999999996" lon="-48.62824333333333"><ele>2</ele></trkpt><trkpt lat="-27.015364999999996" lon="-48.62824333333333"><ele>2</ele></trkpt><trkpt lat="-27.015364999999996" lon="-48.62824333333333"><ele>2</ele></trkpt><trkpt lat="-27.015364999999996" lon="-48.62824333333333"><ele>2</ele></trkpt><trkpt lat="-27.015364999999996" lon="-48.62824333333333"><ele>2</ele></trkpt><trkpt lat="-27.015364999999996" lon="-48.62824333333333"><ele>2</ele></trkpt><trkpt lat="-27.015364999999996" lon="-48.62824333333333"><ele>2</ele></trkpt><trkpt lat="-27.015364999999996" lon="-48.62824333333333"><ele>2</ele></trkpt><trkpt lat="-27.015364999999996" lon="-48.62824333333333"><ele>2</ele></trkpt><trkpt lat="-27.015364999999996" lon="-48.62824333333333"><ele>2</ele></trkpt><trkpt lat="-27.015364999999996" lon="-48.62824333333333"><ele>2</ele></trkpt><trkpt lat="-27.015364999999996" lon="-48.62824333333333"><ele>2</ele></trkpt><trkpt lat="-27.015364999999996" lon="-48.62824333333333"><ele>2</ele></trkpt><trkpt lat="-27.015364999999996" lon="-48.62824333333333"><ele>2</ele></trkpt><trkpt lat="-27.015364999999996" lon="-48.62824333333333"><ele>2</ele></trkpt><trkpt lat="-27.015364999999996" lon="-48.62824333333333"><ele>2</ele></trkpt><trkpt lat="-27.015364999999996" lon="-48.62824333333333"><ele>2</ele></trkpt><trkpt lat="-27.015364999999996" lon="-48.62824333333333"><ele>2</ele></trkpt><trkpt lat="-27.015364999999996" lon="-48.62824333333333"><ele>2</ele></trkpt><trkpt lat="-27.015364999999996" lon="-48.62824333333333"><ele>2</ele></trkpt><trkpt lat="-27.015364999999996" lon="-48.62824333333333"><ele>2</ele></trkpt><trkpt lat="-27.015364999999996" lon="-48.62824333333333"><ele>2</ele></trkpt><trkpt lat="-27.015364999999996" lon="-48.62824333333333"><ele>2</ele></trkpt><trkpt lat="-27.015364999999996" lon="-48.62824333333333"><ele>2</ele></trkpt><trkpt lat="-27.015364999999996" lon="-48.62824333333333"><ele>2</ele></trkpt><trkpt lat="-27.015364999999996" lon="-48.62824333333333"><ele>2</ele></trkpt><trkpt lat="-27.015364999999996" lon="-48.62824333333333"><ele>2</ele></trkpt><trkpt lat="-27.015364999999996" lon="-48.62824333333333"><ele>2</ele></trkpt><trkpt lat="-27.015364999999996" lon="-48.62824333333333"><ele>2</ele></trkpt><trkpt lat="-27.015364999999996" lon="-48.62824333333333"><ele>2</ele></trkpt><trkpt lat="-27.015364999999996" lon="-48.62824333333333"><ele>2</ele></trkpt><trkpt lat="-27.015364999999996" lon="-48.62824333333333"><ele>2</ele></trkpt><trkpt lat="-27.015355" lon="-48.628236666666666"><ele>-0.5</ele></trkpt><trkpt lat="-27.015346666666666" lon="-48.62823166666667"><ele>-0.6999999999999997</ele></trkpt><trkpt lat="-27.01534" lon="-48.62822666666666"><ele>-0.7999999999999998</ele></trkpt><trkpt lat="-27.015334999999997" lon="-48.62821833333334"><ele>-0.6000000000000001</ele></trkpt><trkpt lat="-27.015338333333336" lon="-48.62822666666666"><ele>-0.09999999999999987</ele></trkpt><trkpt lat="-27.015341666666668" lon="-48.62822500000001"><ele>0.10000000000000009</ele></trkpt><trkpt lat="-27.015345000000003" lon="-48.62822666666666"><ele>0.40000000000000013</ele></trkpt><trkpt lat="-27.015345000000003" lon="-48.62822666666666"><ele>0.40000000000000013</ele></trkpt><trkpt lat="-27.015345000000003" lon="-48.62823"><ele>0.5</ele></trkpt><trkpt lat="-27.015336666666666" lon="-48.62822833333333"><ele>0.7000000000000001</ele></trkpt><trkpt lat="-27.015328333333333" lon="-48.62822333333334"><ele>0.9000000000000001</ele></trkpt><trkpt lat="-27.01532166666667" lon="-48.62821666666667"><ele>1</ele></trkpt><trkpt lat="-27.01531" lon="-48.62820833333333"><ele>1</ele></trkpt><trkpt lat="-27.015300000000003" lon="-48.628193333333336"><ele>1.2000000000000002</ele></trkpt><trkpt lat="-27.015296666666668" lon="-48.62817833333334"><ele>1.4000000000000001</ele></trkpt><trkpt lat="-27.015295" lon="-48.62816333333333"><ele>1.4000000000000001</ele></trkpt><trkpt lat="-27.01529833333333" lon="-48.62815333333333"><ele>2</ele></trkpt><trkpt lat="-27.01529833333333" lon="-48.628144999999996"><ele>1.9000000000000001</ele></trkpt><trkpt lat="-27.015296666666668" lon="-48.62814333333334"><ele>2.4000000000000004</ele></trkpt><trkpt lat="-27.01529833333333" lon="-48.628144999999996"><ele>2.3</ele></trkpt><trkpt lat="-27.015300000000003" lon="-48.628148333333336"><ele>2.5</ele></trkpt><trkpt lat="-27.015303333333335" lon="-48.628150000000005"><ele>2.6</ele></trkpt><trkpt lat="-27.015303333333335" lon="-48.62815333333333"><ele>2.8</ele></trkpt><trkpt lat="-27.015303333333335" lon="-48.62815333333333"><ele>2.8</ele></trkpt><trkpt lat="-27.015301666666666" lon="-48.62815333333333"><ele>3</ele></trkpt><trkpt lat="-27.015295" lon="-48.628159999999994"><ele>3.3</ele></trkpt><trkpt lat="-27.015291666666666" lon="-48.62817166666667"><ele>3.8000000000000003</ele></trkpt><trkpt lat="-27.015291666666666" lon="-48.62818833333334"><ele>4.2</ele></trkpt><trkpt lat="-27.015291666666666" lon="-48.6282"><ele>4.1</ele></trkpt><trkpt lat="-27.015289999999997" lon="-48.62821333333333"><ele>4.1</ele></trkpt><trkpt lat="-27.015283333333333" lon="-48.62823"><ele>4.6</ele></trkpt><trkpt lat="-27.01528166666667" lon="-48.62823333333334"><ele>4.800000000000001</ele></trkpt><trkpt lat="-27.015286666666665" lon="-48.62823166666667"><ele>4.4</ele></trkpt><trkpt lat="-27.015296666666668" lon="-48.628235"><ele>4</ele></trkpt><trkpt lat="-27.015308333333337" lon="-48.628235"><ele>3.9</ele></trkpt><trkpt lat="-27.01532333333334" lon="-48.628236666666666"><ele>4</ele></trkpt><trkpt lat="-27.015334999999997" lon="-48.62824166666666"><ele>4.1</ele></trkpt><trkpt lat="-27.01534333333333" lon="-48.62824666666667"><ele>3.8000000000000003</ele></trkpt><trkpt lat="-27.015353333333337" lon="-48.628245"><ele>4.2</ele></trkpt><trkpt lat="-27.01536" lon="-48.628245"><ele>3.8000000000000003</ele></trkpt><trkpt lat="-27.01537166666667" lon="-48.628255"><ele>3.7</ele></trkpt><trkpt lat="-27.015381666666666" lon="-48.628263333333344"><ele>3.3</ele></trkpt><trkpt lat="-27.015391666666666" lon="-48.62827000000001"><ele>3</ele></trkpt><trkpt lat="-27.01539833333333" lon="-48.62828"><ele>2.9000000000000004</ele></trkpt><trkpt lat="-27.015408333333333" lon="-48.62829"><ele>3.2</ele></trkpt><trkpt lat="-27.015420000000002" lon="-48.6283"><ele>3.8000000000000003</ele></trkpt><trkpt lat="-27.015426666666666" lon="-48.62831500000001"><ele>3.9</ele></trkpt><trkpt lat="-27.01543333333333" lon="-48.628326666666666"><ele>4.4</ele></trkpt><trkpt lat="-27.015438333333336" lon="-48.62833833333334"><ele>5.2</ele></trkpt><trkpt lat="-27.015438333333336" lon="-48.62833833333334"><ele>5.2</ele></trkpt><trkpt lat="-27.015439999999998" lon="-48.628345"><ele>5.800000000000001</ele></trkpt><trkpt lat="-27.015445" lon="-48.62835666666667"><ele>6.199999999999999</ele></trkpt><trkpt lat="-27.01545" lon="-48.62836666666667"><ele>6.199999999999999</ele></trkpt><trkpt lat="-27.01545666666667" lon="-48.628375000000005"><ele>6.800000000000001</ele></trkpt><trkpt lat="-27.015465000000003" lon="-48.62838"><ele>7.199999999999999</ele></trkpt><trkpt lat="-27.015475" lon="-48.628386666666664"><ele>7.199999999999999</ele></trkpt><trkpt lat="-27.015483333333336" lon="-48.62839666666667"><ele>7.1</ele></trkpt><trkpt lat="-27.01549166666667" lon="-48.62841166666667"><ele>7</ele></trkpt><trkpt lat="-27.01550333333333" lon="-48.62842666666667"><ele>7.1</ele></trkpt><trkpt lat="-27.015516666666667" lon="-48.62843666666666"><ele>6.699999999999999</ele></trkpt><trkpt lat="-27.015516666666667" lon="-48.62843666666666"><ele>6.699999999999999</ele></trkpt><trkpt lat="-27.015526666666666" lon="-48.62844833333334"><ele>6.5</ele></trkpt><trkpt lat="-27.01553666666667" lon="-48.62845833333334"><ele>6.300000000000001</ele></trkpt><trkpt lat="-27.015544999999996" lon="-48.62846666666666"><ele>6.4</ele></trkpt><trkpt lat="-27.015553333333333" lon="-48.628476666666664"><ele>6.300000000000001</ele></trkpt><trkpt lat="-27.01556333333333" lon="-48.62848999999999"><ele>5.5</ele></trkpt><trkpt lat="-27.015573333333336" lon="-48.6285"><ele>4.9</ele></trkpt><trkpt lat="-27.01558" lon="-48.628508333333336"><ele>5</ele></trkpt><trkpt lat="-27.015588333333334" lon="-48.628519999999995"><ele>4.7</ele></trkpt><trkpt lat="-27.01559666666667" lon="-48.62853"><ele>4</ele></trkpt><trkpt lat="-27.015603333333335" lon="-48.62853499999999"><ele>3.8000000000000003</ele></trkpt><trkpt lat="-27.015604999999997" lon="-48.62853499999999"><ele>3.2</ele></trkpt><trkpt lat="-27.015606666666667" lon="-48.62853666666667"><ele>3.1</ele></trkpt><trkpt lat="-27.01561166666667" lon="-48.62854000000001"><ele>3</ele></trkpt><trkpt lat="-27.01562" lon="-48.62854833333334"><ele>2.7</ele></trkpt><trkpt lat="-27.01563" lon="-48.62856"><ele>2.7</ele></trkpt><trkpt lat="-27.01564166666667" lon="-48.62857333333333"><ele>2.6</ele></trkpt><trkpt lat="-27.015649999999997" lon="-48.62858500000001"><ele>2.2</ele></trkpt><trkpt lat="-27.01565833333333" lon="-48.62859333333334"><ele>1.9000000000000001</ele></trkpt><trkpt lat="-27.01566833333333" lon="-48.628605"><ele>1.9000000000000001</ele></trkpt><trkpt lat="-27.015679999999996" lon="-48.62861666666666"><ele>1.8</ele></trkpt><trkpt lat="-27.015691666666665" lon="-48.62862666666667"><ele>1.7000000000000002</ele></trkpt><trkpt lat="-27.01570333333333" lon="-48.62863666666667"><ele>1.7000000000000002</ele></trkpt><trkpt lat="-27.01571333333333" lon="-48.62864666666666"><ele>1.7000000000000002</ele></trkpt><trkpt lat="-27.015723333333334" lon="-48.628656666666664"><ele>1.5</ele></trkpt><trkpt lat="-27.015728333333332" lon="-48.62866666666667"><ele>1.6</ele></trkpt><trkpt lat="-27.015733333333333" lon="-48.628676666666664"><ele>1.4000000000000001</ele></trkpt><trkpt lat="-27.015739999999997" lon="-48.628688333333336"><ele>1.2000000000000002</ele></trkpt><trkpt lat="-27.01574833333333" lon="-48.628701666666664"><ele>1.4000000000000001</ele></trkpt><trkpt lat="-27.01576166666667" lon="-48.62871166666667"><ele>1.5</ele></trkpt><trkpt lat="-27.015769999999996" lon="-48.62872333333333"><ele>1.9000000000000001</ele></trkpt><trkpt lat="-27.015780000000003" lon="-48.62873166666667"><ele>1.9000000000000001</ele></trkpt><trkpt lat="-27.015786666666667" lon="-48.62873833333333"><ele>1.9000000000000001</ele></trkpt><trkpt lat="-27.015795000000004" lon="-48.628746666666665"><ele>1.8</ele></trkpt><trkpt lat="-27.01580333333333" lon="-48.62875333333333"><ele>1.5</ele></trkpt><trkpt lat="-27.01580666666667" lon="-48.62875666666667"><ele>0.7000000000000001</ele></trkpt><trkpt lat="-27.015810000000002" lon="-48.62875666666667"><ele>0.6000000000000001</ele></trkpt><trkpt lat="-27.015810000000002" lon="-48.628755"><ele>0.5</ele></trkpt><trkpt lat="-27.015808333333332" lon="-48.628755"><ele>0.40000000000000013</ele></trkpt><trkpt lat="-27.015808333333332" lon="-48.628755"><ele>0.5</ele></trkpt><trkpt lat="-27.015808333333332" lon="-48.628755"><ele>0.5</ele></trkpt><trkpt lat="-27.015810000000002" lon="-48.62875666666667"><ele>0.20000000000000018</ele></trkpt><trkpt lat="-27.015811666666664" lon="-48.62875999999999"><ele>0</ele></trkpt><trkpt lat="-27.015811666666664" lon="-48.62876333333334"><ele>-0.19999999999999996</ele></trkpt><trkpt lat="-27.015811666666664" lon="-48.62876500000001"><ele>0</ele></trkpt><trkpt lat="-27.015811666666664" lon="-48.62876500000001"><ele>0</ele></trkpt><trkpt lat="-27.015810000000002" lon="-48.628766666666664"><ele>0.10000000000000009</ele></trkpt><trkpt lat="-27.015810000000002" lon="-48.628766666666664"><ele>0.10000000000000009</ele></trkpt><trkpt lat="-27.015810000000002" lon="-48.628766666666664"><ele>0.10000000000000009</ele></trkpt><trkpt lat="-27.015810000000002" lon="-48.628766666666664"><ele>0.10000000000000009</ele></trkpt><trkpt lat="-27.015810000000002" lon="-48.628766666666664"><ele>0.10000000000000009</ele></trkpt><trkpt lat="-27.015810000000002" lon="-48.628766666666664"><ele>0.10000000000000009</ele></trkpt><trkpt lat="-27.01580666666667" lon="-48.62875666666667"><ele>0.10000000000000009</ele></trkpt><trkpt lat="-27.01580333333333" lon="-48.628755"><ele>-0.2999999999999998</ele></trkpt><trkpt lat="-27.01580333333333" lon="-48.62875333333333"><ele>-0.5</ele></trkpt><trkpt lat="-27.015805" lon="-48.62875333333333"><ele>-0.6999999999999997</ele></trkpt><trkpt lat="-27.015805" lon="-48.62875333333333"><ele>-0.6000000000000001</ele></trkpt><trkpt lat="-27.015805" lon="-48.62875333333333"><ele>-0.6000000000000001</ele></trkpt><trkpt lat="-27.015805" lon="-48.62875333333333"><ele>-0.6000000000000001</ele></trkpt><trkpt lat="-27.015805" lon="-48.62875333333333"><ele>-0.6000000000000001</ele></trkpt><trkpt lat="-27.015805" lon="-48.62875333333333"><ele>-0.6000000000000001</ele></trkpt><trkpt lat="-27.015805" lon="-48.62875333333333"><ele>-0.6000000000000001</ele></trkpt><trkpt lat="-27.015805" lon="-48.62875333333333"><ele>-0.6000000000000001</ele></trkpt><trkpt lat="-27.015805" lon="-48.62875333333333"><ele>-0.6000000000000001</ele></trkpt><trkpt lat="-27.015805" lon="-48.62875333333333"><ele>-0.6000000000000001</ele></trkpt><trkpt lat="-27.015805" lon="-48.62875333333333"><ele>-0.6000000000000001</ele></trkpt><trkpt lat="-27.015805" lon="-48.62875333333333"><ele>-0.6000000000000001</ele></trkpt><trkpt lat="-27.015805" lon="-48.62875333333333"><ele>-0.6000000000000001</ele></trkpt><trkpt lat="-27.015805" lon="-48.62875333333333"><ele>-0.6000000000000001</ele></trkpt><trkpt lat="-27.015805" lon="-48.62875333333333"><ele>-0.6000000000000001</ele></trkpt><trkpt lat="-27.015805" lon="-48.62875333333333"><ele>-0.6000000000000001</ele></trkpt><trkpt lat="-27.015805" lon="-48.62875333333333"><ele>-0.6000000000000001</ele></trkpt><trkpt lat="-27.015805" lon="-48.62875333333333"><ele>-0.6000000000000001</ele></trkpt><trkpt lat="-27.015805" lon="-48.62875333333333"><ele>-0.6000000000000001</ele></trkpt><trkpt lat="-27.015805" lon="-48.62875333333333"><ele>-0.6000000000000001</ele></trkpt><trkpt lat="-27.015805" lon="-48.62875333333333"><ele>-0.6000000000000001</ele></trkpt><trkpt lat="-27.015805" lon="-48.62875333333333"><ele>-0.6000000000000001</ele></trkpt><trkpt lat="-27.015805" lon="-48.62875333333333"><ele>-0.6000000000000001</ele></trkpt><trkpt lat="-27.015805" lon="-48.62875333333333"><ele>-0.6000000000000001</ele></trkpt><trkpt lat="-27.015805" lon="-48.62875333333333"><ele>-0.6000000000000001</ele></trkpt><trkpt lat="-27.015805" lon="-48.62875333333333"><ele>-0.6000000000000001</ele></trkpt><trkpt lat="-27.015805" lon="-48.62875333333333"><ele>-0.6000000000000001</ele></trkpt><trkpt lat="-27.015805" lon="-48.62875333333333"><ele>-0.6000000000000001</ele></trkpt><trkpt lat="-27.015805" lon="-48.62875333333333"><ele>-0.6000000000000001</ele></trkpt><trkpt lat="-27.015805" lon="-48.62875333333333"><ele>-0.6000000000000001</ele></trkpt><trkpt lat="-27.015805" lon="-48.62875333333333"><ele>-0.6000000000000001</ele></trkpt><trkpt lat="-27.015805" lon="-48.62875333333333"><ele>-0.6000000000000001</ele></trkpt><trkpt lat="-27.015805" lon="-48.62875333333333"><ele>-0.6000000000000001</ele></trkpt><trkpt lat="-27.015805" lon="-48.62875333333333"><ele>-0.6000000000000001</ele></trkpt><trkpt lat="-27.015805" lon="-48.62875333333333"><ele>-0.6000000000000001</ele></trkpt><trkpt lat="-27.015805" lon="-48.62875333333333"><ele>-0.6000000000000001</ele></trkpt><trkpt lat="-27.015805" lon="-48.62875333333333"><ele>-0.6000000000000001</ele></trkpt><trkpt lat="-27.015805" lon="-48.62875333333333"><ele>-0.6000000000000001</ele></trkpt><trkpt lat="-27.015805" lon="-48.62875333333333"><ele>-0.6000000000000001</ele></trkpt><trkpt lat="-27.015805" lon="-48.62875333333333"><ele>-0.6000000000000001</ele></trkpt><trkpt lat="-27.015805" lon="-48.62875333333333"><ele>-0.6000000000000001</ele></trkpt><trkpt lat="-27.015805" lon="-48.62875333333333"><ele>-0.6000000000000001</ele></trkpt><trkpt lat="-27.015805" lon="-48.62875333333333"><ele>-0.6000000000000001</ele></trkpt><trkpt lat="-27.015805" lon="-48.62875333333333"><ele>-0.6000000000000001</ele></trkpt><trkpt lat="-27.015805" lon="-48.62875333333333"><ele>-0.6000000000000001</ele></trkpt><trkpt lat="-27.015805" lon="-48.62875333333333"><ele>-0.6000000000000001</ele></trkpt><trkpt lat="-27.015805" lon="-48.62875333333333"><ele>-0.6000000000000001</ele></trkpt><trkpt lat="-27.015805" lon="-48.62875333333333"><ele>-0.6000000000000001</ele></trkpt><trkpt lat="-27.015805" lon="-48.62875333333333"><ele>-0.6000000000000001</ele></trkpt><trkpt lat="-27.015805" lon="-48.62875333333333"><ele>-0.6000000000000001</ele></trkpt><trkpt lat="-27.015805" lon="-48.62875333333333"><ele>-0.6000000000000001</ele></trkpt><trkpt lat="-27.015805" lon="-48.62875333333333"><ele>-0.6000000000000001</ele></trkpt><trkpt lat="-27.015805" lon="-48.62875333333333"><ele>-0.6000000000000001</ele></trkpt><trkpt lat="-27.015805" lon="-48.62875333333333"><ele>-0.6000000000000001</ele></trkpt><trkpt lat="-27.015805" lon="-48.62875333333333"><ele>-0.6000000000000001</ele></trkpt><trkpt lat="-27.015805" lon="-48.62875333333333"><ele>-0.6000000000000001</ele></trkpt><trkpt lat="-27.015818333333332" lon="-48.62877833333334"><ele>0.8</ele></trkpt><trkpt lat="-27.015826666666666" lon="-48.628788333333326"><ele>0.9000000000000001</ele></trkpt><trkpt lat="-27.01583333333333" lon="-48.62879666666666"><ele>1</ele></trkpt><trkpt lat="-27.015843333333336" lon="-48.62880833333334"><ele>1.3</ele></trkpt><trkpt lat="-27.015853333333332" lon="-48.62881833333333"><ele>1.3</ele></trkpt><trkpt lat="-27.015863333333332" lon="-48.62882666666666"><ele>1.2000000000000002</ele></trkpt><trkpt lat="-27.015873333333335" lon="-48.628836666666665"><ele>0.9000000000000001</ele></trkpt><trkpt lat="-27.01588333333333" lon="-48.62884666666667"><ele>0.7000000000000001</ele></trkpt><trkpt lat="-27.01589333333333" lon="-48.62885333333334"><ele>0.40000000000000013</ele></trkpt><trkpt lat="-27.015903333333334" lon="-48.62886333333333"><ele>0.40000000000000013</ele></trkpt><trkpt lat="-27.01591" lon="-48.62887166666666"><ele>0.5</ele></trkpt><trkpt lat="-27.015919999999998" lon="-48.628879999999995"><ele>0.40000000000000013</ele></trkpt><trkpt lat="-27.01592666666666" lon="-48.62889166666667"><ele>0.20000000000000018</ele></trkpt><trkpt lat="-27.015933333333336" lon="-48.628905"><ele>0.10000000000000009</ele></trkpt><trkpt lat="-27.015943333333333" lon="-48.628915000000006"><ele>-0.19999999999999996</ele></trkpt><trkpt lat="-27.01595166666667" lon="-48.62892166666667"><ele>-0.09999999999999987</ele></trkpt><trkpt lat="-27.015960000000003" lon="-48.62893166666666"><ele>-0.19999999999999996</ele></trkpt><trkpt lat="-27.015966666666667" lon="-48.62893833333332"><ele>-0.19999999999999996</ele></trkpt><trkpt lat="-27.015971666666662" lon="-48.62894333333334"><ele>-0.09999999999999987</ele></trkpt><trkpt lat="-27.015975000000005" lon="-48.62895"><ele>0</ele></trkpt><trkpt lat="-27.01598" lon="-48.62895166666667"><ele>0</ele></trkpt><trkpt lat="-27.01598333333333" lon="-48.62895166666667"><ele>0.10000000000000009</ele></trkpt><trkpt lat="-27.015988333333333" lon="-48.62895"><ele>-0.09999999999999987</ele></trkpt><trkpt lat="-27.015990000000002" lon="-48.628946666666664"><ele>-0.09999999999999987</ele></trkpt><trkpt lat="-27.015990000000002" lon="-48.628946666666664"><ele>0</ele></trkpt><trkpt lat="-27.015986666666663" lon="-48.628948333333334"><ele>0.10000000000000009</ele></trkpt><trkpt lat="-27.015985" lon="-48.62895166666667"><ele>0.10000000000000009</ele></trkpt><trkpt lat="-27.01598333333333" lon="-48.62895166666667"><ele>0.20000000000000018</ele></trkpt><trkpt lat="-27.01598333333333" lon="-48.62895166666667"><ele>0.20000000000000018</ele></trkpt><trkpt lat="-27.01598333333333" lon="-48.62895166666667"><ele>0.30000000000000004</ele></trkpt><trkpt lat="-27.01598333333333" lon="-48.62895166666667"><ele>0.30000000000000004</ele></trkpt><trkpt lat="-27.01598333333333" lon="-48.62895166666667"><ele>0.30000000000000004</ele></trkpt><trkpt lat="-27.01598333333333" lon="-48.62895166666667"><ele>0.30000000000000004</ele></trkpt><trkpt lat="-27.01598333333333" lon="-48.62895166666667"><ele>0.30000000000000004</ele></trkpt><trkpt lat="-27.01598333333333" lon="-48.62895166666667"><ele>0.30000000000000004</ele></trkpt><trkpt lat="-27.01598333333333" lon="-48.62895166666667"><ele>0.30000000000000004</ele></trkpt><trkpt lat="-27.01598333333333" lon="-48.62895166666667"><ele>0.30000000000000004</ele></trkpt><trkpt lat="-27.015991666666665" lon="-48.62896166666666"><ele>0.8</ele></trkpt><trkpt lat="-27.015998333333332" lon="-48.628969999999995"><ele>1.3</ele></trkpt><trkpt lat="-27.016001666666664" lon="-48.628975000000004"><ele>1.3</ele></trkpt><trkpt lat="-27.016001666666664" lon="-48.628975000000004"><ele>1.3</ele></trkpt><trkpt lat="-27.016003333333334" lon="-48.628975000000004"><ele>1.5</ele></trkpt><trkpt lat="-27.016000000000002" lon="-48.628968333333326"><ele>1.6</ele></trkpt><trkpt lat="-27.015991666666665" lon="-48.62896666666667"><ele>1.2000000000000002</ele></trkpt><trkpt lat="-27.015985" lon="-48.62896333333333"><ele>0.8</ele></trkpt><trkpt lat="-27.015976666666667" lon="-48.628960000000006"><ele>0.6000000000000001</ele></trkpt><trkpt lat="-27.01597333333333" lon="-48.62895833333334"><ele>0.6000000000000001</ele></trkpt><trkpt lat="-27.015971666666662" lon="-48.62895833333334"><ele>0.40000000000000013</ele></trkpt><trkpt lat="-27.015971666666662" lon="-48.62895833333334"><ele>0.20000000000000018</ele></trkpt><trkpt lat="-27.01597" lon="-48.62896166666666"><ele>0.30000000000000004</ele></trkpt><trkpt lat="-27.01597" lon="-48.62896166666666"><ele>0.30000000000000004</ele></trkpt><trkpt lat="-27.01597" lon="-48.62896166666666"><ele>0.30000000000000004</ele></trkpt><trkpt lat="-27.01597" lon="-48.62896166666666"><ele>0.30000000000000004</ele></trkpt><trkpt lat="-27.01597" lon="-48.62896166666666"><ele>0.30000000000000004</ele></trkpt><trkpt lat="-27.01597" lon="-48.62896166666666"><ele>0.30000000000000004</ele></trkpt><trkpt lat="-27.01597" lon="-48.62896166666666"><ele>0.30000000000000004</ele></trkpt><trkpt lat="-27.01597" lon="-48.62896166666666"><ele>0.30000000000000004</ele></trkpt><trkpt lat="-27.01597" lon="-48.62896166666666"><ele>0.30000000000000004</ele></trkpt><trkpt lat="-27.01597" lon="-48.62896166666666"><ele>0.30000000000000004</ele></trkpt><trkpt lat="-27.01597" lon="-48.62896166666666"><ele>0.30000000000000004</ele></trkpt><trkpt lat="-27.01597" lon="-48.62896166666666"><ele>0.30000000000000004</ele></trkpt><trkpt lat="-27.015975000000005" lon="-48.628968333333326"><ele>0.6000000000000001</ele></trkpt><trkpt lat="-27.015985" lon="-48.62897833333333"><ele>0.6000000000000001</ele></trkpt><trkpt lat="-27.01599666666667" lon="-48.62898666666667"><ele>0.30000000000000004</ele></trkpt><trkpt lat="-27.016008333333335" lon="-48.62899666666667"><ele>0.5</ele></trkpt><trkpt lat="-27.016016666666662" lon="-48.62900666666666"><ele>0.8</ele></trkpt><trkpt lat="-27.016023333333337" lon="-48.629016666666665"><ele>1</ele></trkpt><trkpt lat="-27.016033333333333" lon="-48.629025"><ele>1.1</ele></trkpt><trkpt lat="-27.01604166666667" lon="-48.629036666666664"><ele>1.2000000000000002</ele></trkpt><trkpt lat="-27.016051666666666" lon="-48.629045"><ele>1.4000000000000001</ele></trkpt><trkpt lat="-27.016061666666662" lon="-48.62905666666667"><ele>1.4000000000000001</ele></trkpt><trkpt lat="-27.01607333333333" lon="-48.62907"><ele>1.3</ele></trkpt><trkpt lat="-27.016084999999997" lon="-48.62907833333334"><ele>1</ele></trkpt><trkpt lat="-27.016093333333334" lon="-48.62909333333334"><ele>1.1</ele></trkpt><trkpt lat="-27.016099999999998" lon="-48.629106666666665"><ele>1.3</ele></trkpt><trkpt lat="-27.016106666666662" lon="-48.62912166666667"><ele>1.6</ele></trkpt><trkpt lat="-27.016111666666667" lon="-48.62913833333334"><ele>2.1</ele></trkpt><trkpt lat="-27.016115" lon="-48.629155000000004"><ele>2.7</ele></trkpt><trkpt lat="-27.016115" lon="-48.629155000000004"><ele>2.7</ele></trkpt><trkpt lat="-27.01612" lon="-48.62917000000001"><ele>3</ele></trkpt><trkpt lat="-27.016121666666663" lon="-48.62918166666667"><ele>3</ele></trkpt><trkpt lat="-27.016125000000002" lon="-48.629193333333326"><ele>3.1</ele></trkpt><trkpt lat="-27.016133333333332" lon="-48.62920166666666"><ele>2.4000000000000004</ele></trkpt><trkpt lat="-27.016141666666666" lon="-48.62921166666667"><ele>2</ele></trkpt><trkpt lat="-27.01614833333333" lon="-48.629225"><ele>1.6</ele></trkpt><trkpt lat="-27.016158333333337" lon="-48.629241666666665"><ele>1.4000000000000001</ele></trkpt><trkpt lat="-27.016166666666663" lon="-48.62925499999999"><ele>1.3</ele></trkpt><trkpt lat="-27.016174999999997" lon="-48.62926666666667"><ele>1.3</ele></trkpt><trkpt lat="-27.016183333333334" lon="-48.62927833333333"><ele>1.3</ele></trkpt><trkpt lat="-27.016189999999998" lon="-48.629290000000005"><ele>1.2000000000000002</ele></trkpt><trkpt lat="-27.016191666666668" lon="-48.62930500000001"><ele>1.2000000000000002</ele></trkpt><trkpt lat="-27.016195" lon="-48.62932000000001"><ele>1.7000000000000002</ele></trkpt><trkpt lat="-27.016200000000005" lon="-48.629331666666666"><ele>1.9000000000000001</ele></trkpt><trkpt lat="-27.016205" lon="-48.629343333333324"><ele>2</ele></trkpt><trkpt lat="-27.016211666666663" lon="-48.629355000000004"><ele>2.1</ele></trkpt><trkpt lat="-27.016216666666665" lon="-48.62936166666667"><ele>2.4000000000000004</ele></trkpt><trkpt lat="-27.01622166666667" lon="-48.62937166666667"><ele>2.4000000000000004</ele></trkpt><trkpt lat="-27.016228333333334" lon="-48.62938333333333"><ele>2.3</ele></trkpt><trkpt lat="-27.016233333333336" lon="-48.629389999999994"><ele>2.7</ele></trkpt><trkpt lat="-27.01623833333333" lon="-48.629388333333324"><ele>3.1</ele></trkpt><trkpt lat="-27.01624" lon="-48.629385"><ele>2.7</ele></trkpt><trkpt lat="-27.016241666666662" lon="-48.62938166666666"><ele>2.5</ele></trkpt><trkpt lat="-27.016241666666662" lon="-48.629378333333335"><ele>2.3</ele></trkpt><trkpt lat="-27.016241666666662" lon="-48.629374999999996"><ele>2.2</ele></trkpt><trkpt lat="-27.016243333333332" lon="-48.62937333333333"><ele>2.2</ele></trkpt><trkpt lat="-27.016243333333332" lon="-48.62937333333333"><ele>2.2</ele></trkpt><trkpt lat="-27.016245000000005" lon="-48.62937"><ele>2.3</ele></trkpt><trkpt lat="-27.016243333333332" lon="-48.62937"><ele>2.3</ele></trkpt><trkpt lat="-27.016241666666662" lon="-48.62936833333333"><ele>2.1</ele></trkpt><trkpt lat="-27.01624" lon="-48.62937"><ele>1.7000000000000002</ele></trkpt><trkpt lat="-27.01624" lon="-48.62937"><ele>1.7000000000000002</ele></trkpt><trkpt lat="-27.01624" lon="-48.62937"><ele>1.7000000000000002</ele></trkpt><trkpt lat="-27.01624" lon="-48.62937"><ele>1.7000000000000002</ele></trkpt><trkpt lat="-27.01624" lon="-48.62937"><ele>1.7000000000000002</ele></trkpt><trkpt lat="-27.01624" lon="-48.62937"><ele>1.7000000000000002</ele></trkpt><trkpt lat="-27.01624" lon="-48.62937"><ele>1.7000000000000002</ele></trkpt><trkpt lat="-27.01624" lon="-48.62937"><ele>1.7000000000000002</ele></trkpt><trkpt lat="-27.01624" lon="-48.62937"><ele>1.7000000000000002</ele></trkpt><trkpt lat="-27.01624" lon="-48.62937"><ele>1.7000000000000002</ele></trkpt><trkpt lat="-27.01624" lon="-48.62937"><ele>1.7000000000000002</ele></trkpt><trkpt lat="-27.01624" lon="-48.62937"><ele>1.7000000000000002</ele></trkpt><trkpt lat="-27.01624" lon="-48.62937"><ele>1.7000000000000002</ele></trkpt><trkpt lat="-27.01624" lon="-48.62937"><ele>1.7000000000000002</ele></trkpt><trkpt lat="-27.01624" lon="-48.62937"><ele>1.7000000000000002</ele></trkpt><trkpt lat="-27.01624" lon="-48.62937"><ele>1.7000000000000002</ele></trkpt><trkpt lat="-27.01624" lon="-48.62937"><ele>1.7000000000000002</ele></trkpt><trkpt lat="-27.016245000000005" lon="-48.629389999999994"><ele>1.3</ele></trkpt><trkpt lat="-27.01625166666667" lon="-48.629400000000004"><ele>1.6</ele></trkpt><trkpt lat="-27.016260000000003" lon="-48.629415"><ele>1.7000000000000002</ele></trkpt><trkpt lat="-27.016264999999997" lon="-48.62942666666666"><ele>1.7000000000000002</ele></trkpt><trkpt lat="-27.016268333333333" lon="-48.62943666666667"><ele>2.7</ele></trkpt><trkpt lat="-27.016273333333334" lon="-48.629443333333334"><ele>2.7</ele></trkpt><trkpt lat="-27.016276666666666" lon="-48.62945"><ele>2.7</ele></trkpt><trkpt lat="-27.01628333333333" lon="-48.62945833333333"><ele>2.5</ele></trkpt><trkpt lat="-27.016288333333332" lon="-48.629468333333335"><ele>2.3</ele></trkpt><trkpt lat="-27.016295" lon="-48.62947666666667"><ele>1.6</ele></trkpt><trkpt lat="-27.016301666666664" lon="-48.629486666666665"><ele>1.1</ele></trkpt><trkpt lat="-27.01631166666667" lon="-48.629495"><ele>0.40000000000000013</ele></trkpt><trkpt lat="-27.016318333333334" lon="-48.62950166666666"><ele>-0.19999999999999996</ele></trkpt><trkpt lat="-27.01633" lon="-48.62950833333333"><ele>-0.3999999999999999</ele></trkpt><trkpt lat="-27.01634333333333" lon="-48.62951666666666"><ele>-0.2999999999999998</ele></trkpt><trkpt lat="-27.016354999999997" lon="-48.62952666666667"><ele>-0.2999999999999998</ele></trkpt><trkpt lat="-27.016365000000004" lon="-48.629535000000004"><ele>-0.3999999999999999</ele></trkpt><trkpt lat="-27.016375" lon="-48.62954333333334"><ele>-0.3999999999999999</ele></trkpt><trkpt lat="-27.016381666666668" lon="-48.62955"><ele>0.10000000000000009</ele></trkpt><trkpt lat="-27.01638666666667" lon="-48.62956166666666"><ele>0.20000000000000018</ele></trkpt><trkpt lat="-27.016395000000003" lon="-48.629576666666665"><ele>0.7000000000000001</ele></trkpt><trkpt lat="-27.016403333333333" lon="-48.62959000000001"><ele>1.4000000000000001</ele></trkpt><trkpt lat="-27.016409999999997" lon="-48.629603333333336"><ele>2</ele></trkpt><trkpt lat="-27.016409999999997" lon="-48.629603333333336"><ele>2</ele></trkpt><trkpt lat="-27.016415" lon="-48.62961666666667"><ele>2.1</ele></trkpt><trkpt lat="-27.016423333333332" lon="-48.62962833333333"><ele>2.2</ele></trkpt><trkpt lat="-27.016428333333337" lon="-48.62964166666667"><ele>2.2</ele></trkpt><trkpt lat="-27.016435" lon="-48.62965666666667"><ele>2.4000000000000004</ele></trkpt><trkpt lat="-27.016443333333335" lon="-48.629670000000004"><ele>2.7</ele></trkpt><trkpt lat="-27.016448333333333" lon="-48.62968333333333"><ele>3.2</ele></trkpt><trkpt lat="-27.016448333333333" lon="-48.62969666666666"><ele>2.8</ele></trkpt><trkpt lat="-27.016450000000003" lon="-48.629709999999996"><ele>2.3</ele></trkpt><trkpt lat="-27.016456666666667" lon="-48.62972333333334"><ele>2.1</ele></trkpt><trkpt lat="-27.01646333333333" lon="-48.629735"><ele>1.5</ele></trkpt><trkpt lat="-27.016471666666668" lon="-48.629748333333325"><ele>1.2000000000000002</ele></trkpt><trkpt lat="-27.016481666666664" lon="-48.629761666666674"><ele>0.7000000000000001</ele></trkpt><trkpt lat="-27.01649166666667" lon="-48.62977333333333"><ele>0.20000000000000018</ele></trkpt><trkpt lat="-27.016498333333335" lon="-48.629783333333336"><ele>0</ele></trkpt><trkpt lat="-27.016505" lon="-48.629793333333325"><ele>0.30000000000000004</ele></trkpt><trkpt lat="-27.016505" lon="-48.629803333333335"><ele>0</ele></trkpt><trkpt lat="-27.016511666666663" lon="-48.62981333333334"><ele>0.20000000000000018</ele></trkpt><trkpt lat="-27.01652" lon="-48.62982166666667"><ele>0.5</ele></trkpt><trkpt lat="-27.016523333333332" lon="-48.629826666666666"><ele>0.6000000000000001</ele></trkpt><trkpt lat="-27.01652166666667" lon="-48.62983333333333"><ele>0.7000000000000001</ele></trkpt><trkpt lat="-27.01652" lon="-48.62983666666667"><ele>0.7000000000000001</ele></trkpt><trkpt lat="-27.01652" lon="-48.62983666666667"><ele>0.8</ele></trkpt><trkpt lat="-27.016523333333332" lon="-48.62983666666667"><ele>0.7000000000000001</ele></trkpt><trkpt lat="-27.016526666666664" lon="-48.62983666666667"><ele>0.8</ele></trkpt><trkpt lat="-27.016528333333333" lon="-48.62983666666667"><ele>0.9000000000000001</ele></trkpt><trkpt lat="-27.016528333333333" lon="-48.62983666666667"><ele>0.8</ele></trkpt><trkpt lat="-27.016528333333333" lon="-48.629835"><ele>1</ele></trkpt><trkpt lat="-27.016528333333333" lon="-48.629835"><ele>1.2000000000000002</ele></trkpt><trkpt lat="-27.016526666666664" lon="-48.62983333333333"><ele>1.5</ele></trkpt><trkpt lat="-27.016526666666664" lon="-48.62983333333333"><ele>1.5</ele></trkpt><trkpt lat="-27.016526666666664" lon="-48.62983333333333"><ele>1.5</ele></trkpt><trkpt lat="-27.016526666666664" lon="-48.62983333333333"><ele>1.5</ele></trkpt><trkpt lat="-27.016526666666664" lon="-48.62983333333333"><ele>1.5</ele></trkpt><trkpt lat="-27.016526666666664" lon="-48.62983333333333"><ele>1.5</ele></trkpt><trkpt lat="-27.016526666666664" lon="-48.62983333333333"><ele>1.5</ele></trkpt><trkpt lat="-27.016526666666664" lon="-48.62983333333333"><ele>1.5</ele></trkpt><trkpt lat="-27.016526666666664" lon="-48.62983333333333"><ele>1.5</ele></trkpt><trkpt lat="-27.016526666666664" lon="-48.62983333333333"><ele>1.5</ele></trkpt><trkpt lat="-27.016526666666664" lon="-48.62983333333333"><ele>1.5</ele></trkpt><trkpt lat="-27.016526666666664" lon="-48.62983333333333"><ele>1.5</ele></trkpt><trkpt lat="-27.016526666666664" lon="-48.62983333333333"><ele>1.5</ele></trkpt><trkpt lat="-27.016526666666664" lon="-48.62983333333333"><ele>1.5</ele></trkpt><trkpt lat="-27.016526666666664" lon="-48.62983333333333"><ele>1.5</ele></trkpt><trkpt lat="-27.016526666666664" lon="-48.62983333333333"><ele>1.5</ele></trkpt><trkpt lat="-27.016526666666664" lon="-48.62983333333333"><ele>1.5</ele></trkpt><trkpt lat="-27.016526666666664" lon="-48.62983333333333"><ele>1.5</ele></trkpt><trkpt lat="-27.016526666666664" lon="-48.62983333333333"><ele>1.5</ele></trkpt><trkpt lat="-27.016526666666664" lon="-48.62983333333333"><ele>1.5</ele></trkpt><trkpt lat="-27.016526666666664" lon="-48.62983333333333"><ele>1.5</ele></trkpt><trkpt lat="-27.016526666666664" lon="-48.62983333333333"><ele>1.5</ele></trkpt><trkpt lat="-27.016526666666664" lon="-48.62983333333333"><ele>1.5</ele></trkpt><trkpt lat="-27.016526666666664" lon="-48.62983333333333"><ele>1.5</ele></trkpt><trkpt lat="-27.016526666666664" lon="-48.62983333333333"><ele>1.5</ele></trkpt><trkpt lat="-27.016526666666664" lon="-48.62983333333333"><ele>1.5</ele></trkpt><trkpt lat="-27.016526666666664" lon="-48.62983333333333"><ele>1.5</ele></trkpt><trkpt lat="-27.016526666666664" lon="-48.62983333333333"><ele>1.5</ele></trkpt><trkpt lat="-27.016526666666664" lon="-48.62983333333333"><ele>1.5</ele></trkpt><trkpt lat="-27.016526666666664" lon="-48.62983333333333"><ele>1.5</ele></trkpt><trkpt lat="-27.016526666666664" lon="-48.62983333333333"><ele>1.5</ele></trkpt><trkpt lat="-27.016526666666664" lon="-48.62983333333333"><ele>1.5</ele></trkpt><trkpt lat="-27.016526666666664" lon="-48.62983333333333"><ele>1.5</ele></trkpt><trkpt lat="-27.016526666666664" lon="-48.62983333333333"><ele>1.5</ele></trkpt><trkpt lat="-27.016526666666664" lon="-48.62983333333333"><ele>1.5</ele></trkpt><trkpt lat="-27.016526666666664" lon="-48.62983333333333"><ele>1.5</ele></trkpt><trkpt lat="-27.016526666666664" lon="-48.62983333333333"><ele>1.5</ele></trkpt><trkpt lat="-27.016526666666664" lon="-48.62983333333333"><ele>1.5</ele></trkpt><trkpt lat="-27.016526666666664" lon="-48.62983333333333"><ele>1.5</ele></trkpt><trkpt lat="-27.016526666666664" lon="-48.62983333333333"><ele>1.5</ele></trkpt><trkpt lat="-27.016526666666664" lon="-48.62983333333333"><ele>1.5</ele></trkpt><trkpt lat="-27.016526666666664" lon="-48.62983333333333"><ele>1.5</ele></trkpt><trkpt lat="-27.016526666666664" lon="-48.62983333333333"><ele>1.5</ele></trkpt><trkpt lat="-27.016526666666664" lon="-48.62983333333333"><ele>1.5</ele></trkpt><trkpt lat="-27.016526666666664" lon="-48.62983333333333"><ele>1.5</ele></trkpt><trkpt lat="-27.016526666666664" lon="-48.62983333333333"><ele>1.5</ele></trkpt><trkpt lat="-27.016526666666664" lon="-48.62983333333333"><ele>1.5</ele></trkpt><trkpt lat="-27.016526666666664" lon="-48.62983333333333"><ele>1.5</ele></trkpt><trkpt lat="-27.016526666666664" lon="-48.62983333333333"><ele>1.5</ele></trkpt><trkpt lat="-27.016526666666664" lon="-48.62983333333333"><ele>1.5</ele></trkpt><trkpt lat="-27.016526666666664" lon="-48.62983333333333"><ele>1.5</ele></trkpt><trkpt lat="-27.016526666666664" lon="-48.62983333333333"><ele>1.5</ele></trkpt><trkpt lat="-27.016526666666664" lon="-48.62983333333333"><ele>1.5</ele></trkpt><trkpt lat="-27.016526666666664" lon="-48.62983333333333"><ele>1.5</ele></trkpt><trkpt lat="-27.016526666666664" lon="-48.62983333333333"><ele>1.5</ele></trkpt><trkpt lat="-27.016526666666664" lon="-48.62983333333333"><ele>1.5</ele></trkpt><trkpt lat="-27.016526666666664" lon="-48.62983333333333"><ele>1.5</ele></trkpt><trkpt lat="-27.016526666666664" lon="-48.62983333333333"><ele>1.5</ele></trkpt><trkpt lat="-27.016526666666664" lon="-48.62983333333333"><ele>1.5</ele></trkpt><trkpt lat="-27.016526666666664" lon="-48.62983333333333"><ele>1.5</ele></trkpt><trkpt lat="-27.016526666666664" lon="-48.62983333333333"><ele>1.5</ele></trkpt><trkpt lat="-27.016526666666664" lon="-48.62983333333333"><ele>1.5</ele></trkpt><trkpt lat="-27.016526666666664" lon="-48.62983333333333"><ele>1.5</ele></trkpt><trkpt lat="-27.016526666666664" lon="-48.62983333333333"><ele>1.5</ele></trkpt><trkpt lat="-27.016526666666664" lon="-48.62983333333333"><ele>1.5</ele></trkpt><trkpt lat="-27.016526666666664" lon="-48.62983333333333"><ele>1.5</ele></trkpt><trkpt lat="-27.016526666666664" lon="-48.62983333333333"><ele>1.5</ele></trkpt><trkpt lat="-27.016526666666664" lon="-48.62983333333333"><ele>1.5</ele></trkpt><trkpt lat="-27.016526666666664" lon="-48.62983333333333"><ele>1.5</ele></trkpt><trkpt lat="-27.016526666666664" lon="-48.62983333333333"><ele>1.5</ele></trkpt><trkpt lat="-27.016526666666664" lon="-48.62983333333333"><ele>1.5</ele></trkpt><trkpt lat="-27.016526666666664" lon="-48.62983333333333"><ele>1.5</ele></trkpt><trkpt lat="-27.016526666666664" lon="-48.62983333333333"><ele>1.5</ele></trkpt><trkpt lat="-27.016526666666664" lon="-48.62983333333333"><ele>1.5</ele></trkpt></trkseg></trk></gpx>