<?xml version="1.0" encoding="UTF-8"?>
<gpx xmlns="http://www.topografix.com/GPX/1/1" version="1.1" creator="@dwayneparton/geojson-to-gpx"><wpt lat="-26.996568" lon="-48.656279"/><wpt lat="-27.000875" lon="-48.664587"><ele>12.367798</ele><name>1 faixa</name></wpt><wpt lat="-27.000823" lon="-48.664446"><name>22</name></wpt><wpt lat="-26.998869" lon="-48.660706"><ele>1.22171</ele><name>170</name></wpt><wpt lat="-27.000886" lon="-48.664581"><ele>8.034973</ele><name>200</name></wpt><wpt lat="-27.000872" lon="-48.66455"><ele>8.992767</ele><name>350</name></wpt><wpt lat="-26.998838" lon="-48.660751"><ele>5.059052</ele><name>404</name></wpt><wpt lat="-26.998817" lon="-48.660752"><ele>7.905914</ele><name>809</name></wpt><wpt lat="-27.000876" lon="-48.664571"><ele>7.203766</ele><name>832</name></wpt><wpt lat="-26.996816" lon="-48.657097"><ele>13.025696</ele><name>A ciclo é completamente reta.</name></wpt><wpt lat="-26.996816" lon="-48.657097"><ele>13.013611</ele><name>A pintura está boa, COMPLETA e visível</name></wpt><wpt lat="-27.000845" lon="-48.664493"><name>Área de amortecimento da ciclo (cm)</name></wpt><wpt lat="-27.000888" lon="-48.664583"><ele>9.144806</ele><name>Área transitável da ciclo (cm)</name></wpt><wpt lat="-26.998874" lon="-48.660702"><ele>1.288177</ele><name>Área transitável da ciclo (cm)</name></wpt><wpt lat="-27.000873" lon="-48.664586"><ele>11.896667</ele><name>Asfalto</name></wpt><wpt lat="-27.000871" lon="-48.664558"><ele>13.59668</ele><name>Bidirecional</name></wpt><wpt lat="-27.000593" lon="-48.664045"><ele>11.214417</ele><name>Bueiro</name></wpt><wpt lat="-27.000307" lon="-48.663507"><ele>11.037872</ele><name>Bueiro</name></wpt><wpt lat="-27.000064" lon="-48.663064"><ele>8.700592</ele><name>Bueiro</name></wpt><wpt lat="-26.999953" lon="-48.662862"><ele>8.187408</ele><name>Bueiro</name></wpt><wpt lat="-26.999812" lon="-48.662595"><ele>9.7341</ele><name>Bueiro</name></wpt><wpt lat="-26.998459" lon="-48.660113"><ele>7.428864</ele><name>Bueiro</name></wpt><wpt lat="-26.998211" lon="-48.659646"><ele>7.585541</ele><name>Bueiro</name></wpt><wpt lat="-26.997816" lon="-48.658923"><ele>7.804321</ele><name>Bueiro</name></wpt><wpt lat="-26.997469" lon="-48.658269"><ele>7.973083</ele><name>Bueiro</name></wpt><wpt lat="-26.99816" lon="-48.659547"><ele>7.816803</ele><name>Buraco</name></wpt><wpt lat="-26.997167" lon="-48.657739"><ele>9.489899</ele><name>Buraco</name></wpt><wpt lat="-27.000874" lon="-48.664562"><ele>13.493164</ele><name>Ciclofaixa</name></wpt><wpt lat="-27.00087" lon="-48.664598"><ele>11.919037</ele><name>Estacionamento de um lado, incluso na circulação</name></wpt><wpt lat="-27.000872" lon="-48.66455"><ele>8.992767</ele><name>Faixa de carros logo ao lado da ciclo (cm)</name></wpt><wpt lat="-26.998838" lon="-48.660751"><ele>5.059052</ele><name>Faixa de carros logo ao lado da ciclo (cm)</name></wpt><wpt lat="-27.000897" lon="-48.664595"><ele>14.385925</ele><name>Foto</name></wpt><wpt lat="-26.997168" lon="-48.657736"><ele>9.264343</ele><name>Foto</name></wpt><wpt lat="-26.997179" lon="-48.657758"><ele>8.86557</ele><name>Foto</name></wpt><wpt lat="-26.996873" lon="-48.657103"><ele>10.967804</ele><name>Foto</name></wpt><wpt lat="-26.996817" lon="-48.657096"><ele>13.381348</ele><name>Iluminação geral na via do outro lado da infraestrutura</name></wpt><wpt lat="-27.000867" lon="-48.664573"><ele>12.453491</ele><name>Mão Única</name></wpt><wpt lat="-26.996816" lon="-48.657097"><ele>13.030884</ele><name>Não há árvores nem mudas</name></wpt><wpt lat="-27.000867" lon="-48.664569"><ele>12.4776</ele><name>No bordo esquerdo de Via de Mão Única</name></wpt><wpt lat="-26.998837" lon="-48.660801"><ele>10.604828</ele><name>Outro obstáculo</name></wpt><wpt lat="-26.99719" lon="-48.657768"><ele>6.833008</ele><name>Outro obstáculo</name></wpt><wpt lat="-26.996817" lon="-48.657097"><ele>13.280823</ele><name>Pequenas imperfeições, como fissuras</name></wpt><wpt lat="-27.000754" lon="-48.664319"><name>Em cruzamento BOA condição</name></wpt><wpt lat="-27.000496" lon="-48.663852"><name>Em cruzamento BOA condição</name></wpt><wpt lat="-27.000263" lon="-48.663417"><name>Em cruzamento BOA condição</name></wpt><wpt lat="-27.000005" lon="-48.662951"><name>Em cruzamento BOA condição</name></wpt><wpt lat="-26.999741" lon="-48.662442"><name>Em cruzamento BOA condição</name></wpt><wpt lat="-26.99945" lon="-48.661934"><name>Em cruzamento BOA condição</name></wpt><wpt lat="-26.999205" lon="-48.661486"><name>Em cruzamento BOA condição</name></wpt><wpt lat="-26.998948" lon="-48.66102"><name>Em cruzamento BOA condição</name></wpt><wpt lat="-26.998714" lon="-48.660568"><name>Em cruzamento BOA condição</name></wpt><wpt lat="-26.998475" lon="-48.66014"><name>Em cruzamento BOA condição</name></wpt><wpt lat="-26.998228" lon="-48.659677"><name>Em cruzamento BOA condição</name></wpt><wpt lat="-26.997974" lon="-48.659225"><name>Em cruzamento BOA condição</name></wpt><wpt lat="-26.997741" lon="-48.658807"><name>Em cruzamento BOA condição</name></wpt><wpt lat="-26.9975" lon="-48.658324"><name>Em cruzamento BOA condição</name></wpt><wpt lat="-26.99725" lon="-48.657879"><name>Em cruzamento BOA condição</name></wpt><wpt lat="-26.997" lon="-48.657427"><name>Em cruzamento BOA condição</name></wpt><wpt lat="-26.998837" lon="-48.660798"><ele>10.631714</ele><name>rampa</name></wpt><wpt lat="-26.99719" lon="-48.657767"><ele>6.759308</ele><name>rampa </name></wpt><wpt lat="-26.996817" lon="-48.657097"><ele>13.396423</ele><name>SE CICLOFAIXA: para invadir a ciclo parte do automóvel passa obrigatoriamente por cima de segregadores</name></wpt><wpt lat="-26.996816" lon="-48.657097"><ele>13.402588</ele><name>Segregadores NÃO DIFICULTAM o acesso de ciclistas</name></wpt><wpt lat="-27.000873" lon="-48.664583"><ele>11.866608</ele><name>Tachões</name></wpt><wpt lat="-27.000873" lon="-48.664576"><ele>11.969757</ele><name>Toda área de circulação pintada de vermelho</name></wpt><wpt lat="-27.000875" lon="-48.664562"><ele>7.56839</ele><name>Total da via (incluindo a ciclo) (cm)</name></wpt><wpt lat="-26.998819" lon="-48.660751"><ele>7.148499</ele><name>Total da via (incluindo a ciclo) (cm)</name></wpt><wpt lat="-27.00012" lon="-48.663142"><ele>8.901581</ele><name>Travessia de pedestre em nível (lombofaixa)</name></wpt><wpt lat="-26.999521" lon="-48.662061"><ele>9.878937</ele><name>Travessia de pedestre em nível (lombofaixa)</name></wpt><wpt lat="-26.998575" lon="-48.660304"><ele>8.172974</ele><name>Travessia de pedestre em nível (lombofaixa)</name></wpt><wpt lat="-26.997357" lon="-48.658057"><ele>7.632233</ele><name>Travessia de pedestre em nível (lombofaixa)</name></wpt><trk><name>Ciclofaixa R. Monte Bandeiras - Cb</name><trkseg><trkpt lat="-27.00089" lon="-48.66457"><ele>15.934265</ele></trkpt><trkpt lat="-27.000888" lon="-48.664568"><ele>15.586243</ele></trkpt><trkpt lat="-27.000894" lon="-48.66456"><ele>14.864502</ele></trkpt><trkpt lat="-27.000894" lon="-48.664566"><ele>14.628662</ele></trkpt><trkpt lat="-27.000897" lon="-48.664569"><ele>14.622498</ele></trkpt><trkpt lat="-27.000906" lon="-48.664576"><ele>14.708252</ele></trkpt><trkpt lat="-27.000905" lon="-48.664582"><ele>15.304382</ele></trkpt><trkpt lat="-27.000905" lon="-48.664591"><ele>15.019592</ele></trkpt><trkpt lat="-27.000902" lon="-48.664591"><ele>15.369568</ele></trkpt><trkpt lat="-27.000897" lon="-48.664595"><ele>14.385925</ele></trkpt><trkpt lat="-27.000897" lon="-48.664595"><ele>14.385925</ele></trkpt><trkpt lat="-27.000895" lon="-48.664598"><ele>13.885437</ele></trkpt><trkpt lat="-27.000894" lon="-48.664596"><ele>14.365051</ele></trkpt><trkpt lat="-27.000892" lon="-48.664593"><ele>14.835327</ele></trkpt><trkpt lat="-27.000889" lon="-48.664587"><ele>14.47345</ele></trkpt><trkpt lat="-27.000883" lon="-48.664575"><ele>13.942078</ele></trkpt><trkpt lat="-27.000881" lon="-48.664567"><ele>13.672791</ele></trkpt><trkpt lat="-27.000882" lon="-48.664559"><ele>12.997009</ele></trkpt><trkpt lat="-27.000879" lon="-48.664565"><ele>12.255737</ele></trkpt><trkpt lat="-27.000877" lon="-48.664567"><ele>12.531738</ele></trkpt><trkpt lat="-27.000875" lon="-48.664567"><ele>13.070435</ele></trkpt><trkpt lat="-27.000875" lon="-48.664565"><ele>12.948425</ele></trkpt><trkpt lat="-27.000874" lon="-48.664562"><ele>13.493164</ele></trkpt><trkpt lat="-27.000874" lon="-48.664562"><ele>13.493164</ele></trkpt><trkpt lat="-27.000871" lon="-48.664558"><ele>13.59668</ele></trkpt><trkpt lat="-27.000871" lon="-48.664558"><ele>13.59668</ele></trkpt><trkpt lat="-27.000869" lon="-48.664558"><ele>13.427795</ele></trkpt><trkpt lat="-27.000868" lon="-48.66456"><ele>13.111755</ele></trkpt><trkpt lat="-27.000868" lon="-48.664565"><ele>12.680298</ele></trkpt><trkpt lat="-27.000869" lon="-48.664567"><ele>12.471191</ele></trkpt><trkpt lat="-27.000867" lon="-48.664569"><ele>12.4776</ele></trkpt><trkpt lat="-27.000867" lon="-48.664569"><ele>12.4776</ele></trkpt><trkpt lat="-27.000866" lon="-48.664571"><ele>12.46106</ele></trkpt><trkpt lat="-27.000867" lon="-48.664572"><ele>12.482788</ele></trkpt><trkpt lat="-27.000867" lon="-48.664573"><ele>12.453491</ele></trkpt><trkpt lat="-27.000867" lon="-48.664573"><ele>12.453491</ele></trkpt><trkpt lat="-27.000868" lon="-48.664573"><ele>12.559204</ele></trkpt><trkpt lat="-27.000866" lon="-48.66457"><ele>12.873047</ele></trkpt><trkpt lat="-27.000868" lon="-48.664569"><ele>12.263733</ele></trkpt><trkpt lat="-27.000871" lon="-48.664573"><ele>12.098267</ele></trkpt><trkpt lat="-27.000872" lon="-48.664575"><ele>12.058838</ele></trkpt><trkpt lat="-27.000873" lon="-48.664576"><ele>11.969757</ele></trkpt><trkpt lat="-27.000873" lon="-48.664576"><ele>11.969757</ele></trkpt><trkpt lat="-27.000873" lon="-48.664576"><ele>12.014587</ele></trkpt><trkpt lat="-27.000873" lon="-48.664578"><ele>11.919708</ele></trkpt><trkpt lat="-27.000873" lon="-48.66458"><ele>11.908508</ele></trkpt><trkpt lat="-27.000873" lon="-48.664581"><ele>11.86554</ele></trkpt><trkpt lat="-27.000873" lon="-48.664583"><ele>11.866608</ele></trkpt><trkpt lat="-27.000873" lon="-48.664583"><ele>11.866608</ele></trkpt><trkpt lat="-27.000873" lon="-48.664584"><ele>11.87207</ele></trkpt><trkpt lat="-27.000873" lon="-48.664586"><ele>11.896667</ele></trkpt><trkpt lat="-27.000873" lon="-48.664586"><ele>11.896667</ele></trkpt><trkpt lat="-27.000874" lon="-48.664587"><ele>11.879913</ele></trkpt><trkpt lat="-27.000874" lon="-48.664587"><ele>12.177368</ele></trkpt><trkpt lat="-27.000873" lon="-48.664586"><ele>12.432495</ele></trkpt><trkpt lat="-27.000874" lon="-48.664586"><ele>12.602234</ele></trkpt><trkpt lat="-27.000874" lon="-48.664587"><ele>12.468811</ele></trkpt><trkpt lat="-27.000875" lon="-48.664587"><ele>12.427368</ele></trkpt><trkpt lat="-27.000875" lon="-48.664587"><ele>12.388367</ele></trkpt><trkpt lat="-27.000875" lon="-48.664587"><ele>12.383545</ele></trkpt><trkpt lat="-27.000875" lon="-48.664587"><ele>12.379272</ele></trkpt><trkpt lat="-27.000875" lon="-48.664587"><ele>12.372437</ele></trkpt><trkpt lat="-27.000875" lon="-48.664587"><ele>12.369202</ele></trkpt><trkpt lat="-27.000875" lon="-48.664587"><ele>12.367798</ele></trkpt><trkpt lat="-27.000875" lon="-48.664587"><ele>12.367798</ele></trkpt><trkpt lat="-27.000873" lon="-48.664589"><ele>12.269226</ele></trkpt><trkpt lat="-27.000872" lon="-48.664592"><ele>12.246399</ele></trkpt><trkpt lat="-27.00087" lon="-48.664595"><ele>12.117371</ele></trkpt><trkpt lat="-27.00087" lon="-48.664598"><ele>11.919037</ele></trkpt><trkpt lat="-27.00087" lon="-48.664598"><ele>11.919037</ele></trkpt><trkpt lat="-27.00087" lon="-48.6646"><ele>11.85614</ele></trkpt><trkpt lat="-27.000868" lon="-48.6646"><ele>12.061584</ele></trkpt><trkpt lat="-27.000866" lon="-48.664599"><ele>12.233154</ele></trkpt><trkpt lat="-27.000867" lon="-48.664596"><ele>12.087524</ele></trkpt><trkpt lat="-27.000868" lon="-48.664595"><ele>12.408752</ele></trkpt><trkpt lat="-27.000868" lon="-48.664592"><ele>12.434631</ele></trkpt><trkpt lat="-27.000869" lon="-48.664592"><ele>12.412537</ele></trkpt><trkpt lat="-27.000869" lon="-48.664592"><ele>12.40625</ele></trkpt><trkpt lat="-27.000869" lon="-48.664593"><ele>12.494019</ele></trkpt><trkpt lat="-27.00087" lon="-48.664592"><ele>12.519775</ele></trkpt><trkpt lat="-27.000868" lon="-48.664586"><ele>12.485779</ele></trkpt><trkpt lat="-27.000862" lon="-48.664572"><ele>12.749207</ele></trkpt><trkpt lat="-27.000856" lon="-48.664561"><ele>13.148376</ele></trkpt><trkpt lat="-27.000854" lon="-48.664557"><ele>12.929688</ele></trkpt><trkpt lat="-27.000858" lon="-48.66455"><ele>12.59082</ele></trkpt><trkpt lat="-27.000862" lon="-48.664548"><ele>12.548035</ele></trkpt><trkpt lat="-27.000863" lon="-48.664541"><ele>13.4375</ele></trkpt><trkpt lat="-27.000864" lon="-48.664535"><ele>13.52948</ele></trkpt><trkpt lat="-27.000862" lon="-48.664533"><ele>13.540039</ele></trkpt><trkpt lat="-27.000861" lon="-48.664534"><ele>13.542114</ele></trkpt><trkpt lat="-27.00086" lon="-48.664534"><ele>13.539063</ele></trkpt><trkpt lat="-27.00086" lon="-48.664534"><ele>13.535583</ele></trkpt><trkpt lat="-27.000859" lon="-48.664535"><ele>13.611938</ele></trkpt><trkpt lat="-27.000859" lon="-48.664536"><ele>13.634827</ele></trkpt><trkpt lat="-27.00086" lon="-48.66454"><ele>13.507202</ele></trkpt><trkpt lat="-27.000853" lon="-48.664559"><ele>13.898193</ele></trkpt><trkpt lat="-27.000847" lon="-48.664564"><ele>14.960266</ele></trkpt><trkpt lat="-27.000846" lon="-48.664559"><ele>14.930481</ele></trkpt><trkpt lat="-27.000855" lon="-48.664546"><ele>15.692566</ele></trkpt><trkpt lat="-27.000857" lon="-48.664543"><ele>15.669739</ele></trkpt><trkpt lat="-27.000862" lon="-48.664546"><ele>15.503357</ele></trkpt><trkpt lat="-27.000868" lon="-48.664552"><ele>14.908569</ele></trkpt><trkpt lat="-27.000871" lon="-48.664558"><ele>13.893921</ele></trkpt><trkpt lat="-27.000857" lon="-48.664567"><ele>13.578918</ele></trkpt><trkpt lat="-27.000854" lon="-48.664568"><ele>13.620422</ele></trkpt><trkpt lat="-27.000858" lon="-48.664566"><ele>13.589111</ele></trkpt><trkpt lat="-27.000859" lon="-48.664564"><ele>14.209534</ele></trkpt><trkpt lat="-27.000857" lon="-48.664564"><ele>14.087769</ele></trkpt><trkpt lat="-27.00086" lon="-48.664563"><ele>14.034973</ele></trkpt><trkpt lat="-27.00086" lon="-48.664563"><ele>14.032654</ele></trkpt><trkpt lat="-27.000861" lon="-48.664562"><ele>14.026245</ele></trkpt><trkpt lat="-27.000858" lon="-48.664562"><ele>14.168457</ele></trkpt><trkpt lat="-27.000856" lon="-48.664558"><ele>14.44751</ele></trkpt><trkpt lat="-27.00086" lon="-48.664555"><ele>14.35907</ele></trkpt><trkpt lat="-27.00086" lon="-48.664557"><ele>14.019043</ele></trkpt><trkpt lat="-27.00086" lon="-48.664557"><ele>13.664978</ele></trkpt><trkpt lat="-27.000862" lon="-48.664559"><ele>13.140503</ele></trkpt><trkpt lat="-27.000866" lon="-48.66456"><ele>13.002502</ele></trkpt><trkpt lat="-27.000873" lon="-48.664557"><ele>12.893677</ele></trkpt><trkpt lat="-27.000876" lon="-48.664557"><ele>12.890015</ele></trkpt><trkpt lat="-27.000877" lon="-48.664557"><ele>12.886658</ele></trkpt><trkpt lat="-27.000877" lon="-48.664557"><ele>12.882568</ele></trkpt><trkpt lat="-27.000877" lon="-48.664557"><ele>12.880737</ele></trkpt><trkpt lat="-27.000877" lon="-48.664557"><ele>12.882874</ele></trkpt><trkpt lat="-27.000877" lon="-48.664557"><ele>12.885437</ele></trkpt><trkpt lat="-27.000877" lon="-48.664557"><ele>12.886108</ele></trkpt><trkpt lat="-27.000877" lon="-48.664557"><ele>12.888489</ele></trkpt><trkpt lat="-27.000875" lon="-48.664553"><ele>12.607178</ele></trkpt><trkpt lat="-27.000875" lon="-48.664547"><ele>12.30127</ele></trkpt><trkpt lat="-27.000881" lon="-48.664544"><ele>11.907043</ele></trkpt><trkpt lat="-27.00089" lon="-48.664543"><ele>12.275696</ele></trkpt><trkpt lat="-27.000895" lon="-48.664543"><ele>12.138245</ele></trkpt><trkpt lat="-27.000899" lon="-48.664543"><ele>11.665436</ele></trkpt><trkpt lat="-27.0009" lon="-48.664542"><ele>11.739716</ele></trkpt><trkpt lat="-27.000903" lon="-48.66454"><ele>11.650574</ele></trkpt><trkpt lat="-27.00091" lon="-48.664539"><ele>11.184906</ele></trkpt><trkpt lat="-27.000912" lon="-48.66454"><ele>10.843811</ele></trkpt><trkpt lat="-27.000914" lon="-48.664539"><ele>10.938141</ele></trkpt><trkpt lat="-27.000914" lon="-48.66454"><ele>10.786743</ele></trkpt><trkpt lat="-27.000913" lon="-48.66454"><ele>11.118256</ele></trkpt><trkpt lat="-27.000911" lon="-48.66454"><ele>11.12146</ele></trkpt><trkpt lat="-27.000912" lon="-48.66454"><ele>11.399963</ele></trkpt><trkpt lat="-27.000912" lon="-48.664539"><ele>11.478912</ele></trkpt><trkpt lat="-27.000913" lon="-48.664538"><ele>11.456909</ele></trkpt><trkpt lat="-27.000913" lon="-48.664538"><ele>11.457001</ele></trkpt><trkpt lat="-27.000912" lon="-48.664538"><ele>11.574158</ele></trkpt><trkpt lat="-27.000917" lon="-48.664541"><ele>11.237457</ele></trkpt><trkpt lat="-27.000919" lon="-48.664542"><ele>11.236633</ele></trkpt><trkpt lat="-27.00092" lon="-48.664543"><ele>8.253174</ele></trkpt><trkpt lat="-27.000921" lon="-48.664542"><ele>8.285736</ele></trkpt><trkpt lat="-27.000922" lon="-48.664542"><ele>8.230469</ele></trkpt><trkpt lat="-27.000923" lon="-48.664544"><ele>8.0383</ele></trkpt><trkpt lat="-27.000923" lon="-48.664545"><ele>11.419128</ele></trkpt><trkpt lat="-27.000922" lon="-48.664546"><ele>11.669952</ele></trkpt><trkpt lat="-27.000917" lon="-48.664549"><ele>12.352844</ele></trkpt><trkpt lat="-27.000909" lon="-48.664553"><ele>12.600952</ele></trkpt><trkpt lat="-27.000911" lon="-48.664543"><ele>0.848206</ele></trkpt><trkpt lat="-27.000895" lon="-48.664582"><ele>-2.536041</ele></trkpt><trkpt lat="-27.000888" lon="-48.664583"><ele>9.144806</ele></trkpt><trkpt lat="-27.000888" lon="-48.664583"><ele>9.144806</ele></trkpt><trkpt lat="-27.000886" lon="-48.664581"><ele>8.034973</ele></trkpt><trkpt lat="-27.000886" lon="-48.664581"><ele>8.034973</ele></trkpt><trkpt lat="-27.000885" lon="-48.664582"><ele>6.95163</ele></trkpt><trkpt lat="-27.00088" lon="-48.664576"><ele>7.901306</ele></trkpt><trkpt lat="-27.00088" lon="-48.664576"><ele>7.367188</ele></trkpt><trkpt lat="-27.000878" lon="-48.664568"><ele>7.520844</ele></trkpt><trkpt lat="-27.000882" lon="-48.664565"><ele>7.048615</ele></trkpt><trkpt lat="-27.000883" lon="-48.664561"><ele>7.79187</ele></trkpt><trkpt lat="-27.000878" lon="-48.664551"><ele>8.270691</ele></trkpt><trkpt lat="-27.000876" lon="-48.664551"><ele>8.289856</ele></trkpt><trkpt lat="-27.000872" lon="-48.66455"><ele>8.992767</ele></trkpt><trkpt lat="-27.000872" lon="-48.66455"><ele>8.992767</ele></trkpt><trkpt lat="-27.000872" lon="-48.66455"><ele>8.992767</ele></trkpt><trkpt lat="-27.000873" lon="-48.664552"><ele>8.855377</ele></trkpt><trkpt lat="-27.000873" lon="-48.66455"><ele>9.037323</ele></trkpt><trkpt lat="-27.000872" lon="-48.664547"><ele>9.177856</ele></trkpt><trkpt lat="-27.000873" lon="-48.664553"><ele>8.634827</ele></trkpt><trkpt lat="-27.000875" lon="-48.664562"><ele>7.56839</ele></trkpt><trkpt lat="-27.000875" lon="-48.664562"><ele>7.56839</ele></trkpt><trkpt lat="-27.000876" lon="-48.664571"><ele>7.203766</ele></trkpt><trkpt lat="-27.000876" lon="-48.664571"><ele>7.203766</ele></trkpt><trkpt lat="-27.000876" lon="-48.664573"><ele>7.111786</ele></trkpt><trkpt lat="-27.000877" lon="-48.664574"><ele>6.615479</ele></trkpt><trkpt lat="-27.000877" lon="-48.664575"><ele>6.535461</ele></trkpt><trkpt lat="-27.000877" lon="-48.664575"><ele>6.621429</ele></trkpt><trkpt lat="-27.000877" lon="-48.664574"><ele>6.440125</ele></trkpt><trkpt lat="-27.000877" lon="-48.664574"><ele>6.650146</ele></trkpt><trkpt lat="-27.000877" lon="-48.664574"><ele>7.011658</ele></trkpt><trkpt lat="-27.000877" lon="-48.664574"><ele>6.610229</ele></trkpt><trkpt lat="-27.000877" lon="-48.664574"><ele>6.35614</ele></trkpt><trkpt lat="-27.000877" lon="-48.664574"><ele>5.965363</ele></trkpt><trkpt lat="-27.000871" lon="-48.664572"><ele>6.0047</ele></trkpt><trkpt lat="-27.000873" lon="-48.664566"><ele>6.749664</ele></trkpt><trkpt lat="-27.000874" lon="-48.664565"><ele>7.188904</ele></trkpt><trkpt lat="-27.000876" lon="-48.664567"><ele>6.639679</ele></trkpt><trkpt lat="-27.000874" lon="-48.664555"><ele>6.364075</ele></trkpt><trkpt lat="-27.00087" lon="-48.664537"><ele>6.259216</ele></trkpt><trkpt lat="-27.000861" lon="-48.664515"><ele>6.147461</ele></trkpt><trkpt lat="-27.000848" lon="-48.664491"><ele>6.337463</ele></trkpt><trkpt lat="-27.000835" lon="-48.664465"><ele>6.893616</ele></trkpt><trkpt lat="-27.000821" lon="-48.66444"><ele>7.109894</ele></trkpt><trkpt lat="-27.000808" lon="-48.664415"><ele>7.662201</ele></trkpt><trkpt lat="-27.000796" lon="-48.66439"><ele>7.507294</ele></trkpt><trkpt lat="-27.000783" lon="-48.664364"><ele>8.33725</ele></trkpt><trkpt lat="-27.000768" lon="-48.664336"><ele>8.746979</ele></trkpt><trkpt lat="-27.000757" lon="-48.664307"><ele>9.585876</ele></trkpt><trkpt lat="-27.000747" lon="-48.664278"><ele>9.409088</ele></trkpt><trkpt lat="-27.000736" lon="-48.664256"><ele>9.789001</ele></trkpt><trkpt lat="-27.00072" lon="-48.664236"><ele>9.229797</ele></trkpt><trkpt lat="-27.000703" lon="-48.664218"><ele>9.177063</ele></trkpt><trkpt lat="-27.000687" lon="-48.6642"><ele>9.602295</ele></trkpt><trkpt lat="-27.000673" lon="-48.66418"><ele>9.837341</ele></trkpt><trkpt lat="-27.000657" lon="-48.664159"><ele>10.664581</ele></trkpt><trkpt lat="-27.000639" lon="-48.664136"><ele>10.776886</ele></trkpt><trkpt lat="-27.000626" lon="-48.664112"><ele>10.44281</ele></trkpt><trkpt lat="-27.000613" lon="-48.664087"><ele>10.423309</ele></trkpt><trkpt lat="-27.000601" lon="-48.664065"><ele>10.890778</ele></trkpt><trkpt lat="-27.000593" lon="-48.664045"><ele>11.214417</ele></trkpt><trkpt lat="-27.000593" lon="-48.664045"><ele>11.214417</ele></trkpt><trkpt lat="-27.000585" lon="-48.664026"><ele>11.498993</ele></trkpt><trkpt lat="-27.000577" lon="-48.664009"><ele>11.02597</ele></trkpt><trkpt lat="-27.000567" lon="-48.663989"><ele>10.987366</ele></trkpt><trkpt lat="-27.000556" lon="-48.663964"><ele>10.77652</ele></trkpt><trkpt lat="-27.000546" lon="-48.663941"><ele>10.664703</ele></trkpt><trkpt lat="-27.000532" lon="-48.663915"><ele>10.928497</ele></trkpt><trkpt lat="-27.000516" lon="-48.663889"><ele>9.329224</ele></trkpt><trkpt lat="-27.000499" lon="-48.663864"><ele>8.866272</ele></trkpt><trkpt lat="-27.000485" lon="-48.663839"><ele>8.981873</ele></trkpt><trkpt lat="-27.000474" lon="-48.663817"><ele>9.165619</ele></trkpt><trkpt lat="-27.000461" lon="-48.663796"><ele>8.919678</ele></trkpt><trkpt lat="-27.000447" lon="-48.663775"><ele>8.451904</ele></trkpt><trkpt lat="-27.000434" lon="-48.663755"><ele>9.566864</ele></trkpt><trkpt lat="-27.00042" lon="-48.663732"><ele>9.378448</ele></trkpt><trkpt lat="-27.000408" lon="-48.663708"><ele>9.313904</ele></trkpt><trkpt lat="-27.000397" lon="-48.663682"><ele>9.445648</ele></trkpt><trkpt lat="-27.000386" lon="-48.663658"><ele>9.835175</ele></trkpt><trkpt lat="-27.000374" lon="-48.663633"><ele>9.531219</ele></trkpt><trkpt lat="-27.000361" lon="-48.663607"><ele>10.485687</ele></trkpt><trkpt lat="-27.000348" lon="-48.663581"><ele>10.814575</ele></trkpt><trkpt lat="-27.000334" lon="-48.663555"><ele>10.918579</ele></trkpt><trkpt lat="-27.00032" lon="-48.663529"><ele>11.049866</ele></trkpt><trkpt lat="-27.000307" lon="-48.663507"><ele>11.037872</ele></trkpt><trkpt lat="-27.000307" lon="-48.663507"><ele>11.037872</ele></trkpt><trkpt lat="-27.000292" lon="-48.663487"><ele>10.927734</ele></trkpt><trkpt lat="-27.00028" lon="-48.663464"><ele>11.543304</ele></trkpt><trkpt lat="-27.000268" lon="-48.663441"><ele>11.902161</ele></trkpt><trkpt lat="-27.000262" lon="-48.663418"><ele>10.223663</ele></trkpt><trkpt lat="-27.000254" lon="-48.663395"><ele>10.503876</ele></trkpt><trkpt lat="-27.000244" lon="-48.663373"><ele>12.29895</ele></trkpt><trkpt lat="-27.000233" lon="-48.663352"><ele>12.465271</ele></trkpt><trkpt lat="-27.000221" lon="-48.66333"><ele>12.519043</ele></trkpt><trkpt lat="-27.000207" lon="-48.663305"><ele>12.481812</ele></trkpt><trkpt lat="-27.000193" lon="-48.663279"><ele>10.063995</ele></trkpt><trkpt lat="-27.000181" lon="-48.663258"><ele>9.878143</ele></trkpt><trkpt lat="-27.000168" lon="-48.663238"><ele>9.406647</ele></trkpt><trkpt lat="-27.000155" lon="-48.663215"><ele>9.341461</ele></trkpt><trkpt lat="-27.000142" lon="-48.66319"><ele>9.341003</ele></trkpt><trkpt lat="-27.000131" lon="-48.663165"><ele>9.23703</ele></trkpt><trkpt lat="-27.00012" lon="-48.663142"><ele>8.901581</ele></trkpt><trkpt lat="-27.00012" lon="-48.663142"><ele>8.901581</ele></trkpt><trkpt lat="-27.000108" lon="-48.663126"><ele>8.088928</ele></trkpt><trkpt lat="-27.000097" lon="-48.66311"><ele>7.955109</ele></trkpt><trkpt lat="-27.000085" lon="-48.663094"><ele>7.73642</ele></trkpt><trkpt lat="-27.000074" lon="-48.663077"><ele>8.111969</ele></trkpt><trkpt lat="-27.000064" lon="-48.663064"><ele>8.700592</ele></trkpt><trkpt lat="-27.000064" lon="-48.663064"><ele>8.700592</ele></trkpt><trkpt lat="-27.000055" lon="-48.663049"><ele>9.424866</ele></trkpt><trkpt lat="-27.000047" lon="-48.663031"><ele>9.580688</ele></trkpt><trkpt lat="-27.000034" lon="-48.663013"><ele>9.553101</ele></trkpt><trkpt lat="-27.000021" lon="-48.662996"><ele>9.36203</ele></trkpt><trkpt lat="-27.000006" lon="-48.662975"><ele>9.349091</ele></trkpt><trkpt lat="-26.999994" lon="-48.66295"><ele>9.0383</ele></trkpt><trkpt lat="-26.99998" lon="-48.66292"><ele>9.093475</ele></trkpt><trkpt lat="-26.999967" lon="-48.662892"><ele>8.137787</ele></trkpt><trkpt lat="-26.999953" lon="-48.662862"><ele>8.187408</ele></trkpt><trkpt lat="-26.999953" lon="-48.662862"><ele>8.187408</ele></trkpt><trkpt lat="-26.99994" lon="-48.662832"><ele>8.443359</ele></trkpt><trkpt lat="-26.999925" lon="-48.662804"><ele>8.677338</ele></trkpt><trkpt lat="-26.99991" lon="-48.662776"><ele>8.425232</ele></trkpt><trkpt lat="-26.999896" lon="-48.662749"><ele>8.723846</ele></trkpt><trkpt lat="-26.999882" lon="-48.662722"><ele>9.124939</ele></trkpt><trkpt lat="-26.999868" lon="-48.662697"><ele>9.159668</ele></trkpt><trkpt lat="-26.999853" lon="-48.662671"><ele>9.441681</ele></trkpt><trkpt lat="-26.999838" lon="-48.662645"><ele>9.387146</ele></trkpt><trkpt lat="-26.999825" lon="-48.66262"><ele>9.477295</ele></trkpt><trkpt lat="-26.999812" lon="-48.662595"><ele>9.7341</ele></trkpt><trkpt lat="-26.999812" lon="-48.662595"><ele>9.7341</ele></trkpt><trkpt lat="-26.9998" lon="-48.662569"><ele>9.603394</ele></trkpt><trkpt lat="-26.999788" lon="-48.662544"><ele>9.143585</ele></trkpt><trkpt lat="-26.999775" lon="-48.662521"><ele>9.078094</ele></trkpt><trkpt lat="-26.999761" lon="-48.662496"><ele>9.602936</ele></trkpt><trkpt lat="-26.999748" lon="-48.662472"><ele>9.191803</ele></trkpt><trkpt lat="-26.999734" lon="-48.662448"><ele>9.594208</ele></trkpt><trkpt lat="-26.999723" lon="-48.662426"><ele>9.409332</ele></trkpt><trkpt lat="-26.999714" lon="-48.662405"><ele>8.726257</ele></trkpt><trkpt lat="-26.999701" lon="-48.662381"><ele>9.044006</ele></trkpt><trkpt lat="-26.999687" lon="-48.662359"><ele>8.509796</ele></trkpt><trkpt lat="-26.999673" lon="-48.662335"><ele>8.444275</ele></trkpt><trkpt lat="-26.999657" lon="-48.662308"><ele>8.41687</ele></trkpt><trkpt lat="-26.999642" lon="-48.66228"><ele>8.628601</ele></trkpt><trkpt lat="-26.999628" lon="-48.662256"><ele>9.042633</ele></trkpt><trkpt lat="-26.999615" lon="-48.662233"><ele>9.170441</ele></trkpt><trkpt lat="-26.999601" lon="-48.66221"><ele>9.115479</ele></trkpt><trkpt lat="-26.999586" lon="-48.662185"><ele>9.129639</ele></trkpt><trkpt lat="-26.999571" lon="-48.662158"><ele>9.103851</ele></trkpt><trkpt lat="-26.999558" lon="-48.662129"><ele>9.527313</ele></trkpt><trkpt lat="-26.999546" lon="-48.662105"><ele>9.537567</ele></trkpt><trkpt lat="-26.999534" lon="-48.662081"><ele>9.919006</ele></trkpt><trkpt lat="-26.999521" lon="-48.662061"><ele>9.878937</ele></trkpt><trkpt lat="-26.999521" lon="-48.662061"><ele>9.878937</ele></trkpt><trkpt lat="-26.99951" lon="-48.662041"><ele>9.991089</ele></trkpt><trkpt lat="-26.9995" lon="-48.662023"><ele>9.995697</ele></trkpt><trkpt lat="-26.999488" lon="-48.662003"><ele>10.079407</ele></trkpt><trkpt lat="-26.999477" lon="-48.661981"><ele>10.358978</ele></trkpt><trkpt lat="-26.999469" lon="-48.661959"><ele>10.995483</ele></trkpt><trkpt lat="-26.999458" lon="-48.661934"><ele>10.506317</ele></trkpt><trkpt lat="-26.999442" lon="-48.66191"><ele>10.361511</ele></trkpt><trkpt lat="-26.999427" lon="-48.661887"><ele>9.280609</ele></trkpt><trkpt lat="-26.999412" lon="-48.661861"><ele>9.043335</ele></trkpt><trkpt lat="-26.999397" lon="-48.661835"><ele>9.322235</ele></trkpt><trkpt lat="-26.999384" lon="-48.66181"><ele>9.544281</ele></trkpt><trkpt lat="-26.999371" lon="-48.661787"><ele>9.355743</ele></trkpt><trkpt lat="-26.999358" lon="-48.661762"><ele>9.446045</ele></trkpt><trkpt lat="-26.999344" lon="-48.661737"><ele>9.32373</ele></trkpt><trkpt lat="-26.999328" lon="-48.661712"><ele>9.139954</ele></trkpt><trkpt lat="-26.999312" lon="-48.661685"><ele>8.402557</ele></trkpt><trkpt lat="-26.999296" lon="-48.66166"><ele>7.856445</ele></trkpt><trkpt lat="-26.999273" lon="-48.661618"><ele>11.413971</ele></trkpt><trkpt lat="-26.999262" lon="-48.661588"><ele>11.884277</ele></trkpt><trkpt lat="-26.999253" lon="-48.661555"><ele>9.996674</ele></trkpt><trkpt lat="-26.999239" lon="-48.66153"><ele>10.47995</ele></trkpt><trkpt lat="-26.999227" lon="-48.661504"><ele>9.164673</ele></trkpt><trkpt lat="-26.999211" lon="-48.661479"><ele>9.132965</ele></trkpt><trkpt lat="-26.999201" lon="-48.661451"><ele>8.904541</ele></trkpt><trkpt lat="-26.999188" lon="-48.661428"><ele>8.128418</ele></trkpt><trkpt lat="-26.999175" lon="-48.661404"><ele>8.526062</ele></trkpt><trkpt lat="-26.999162" lon="-48.66138"><ele>8.094635</ele></trkpt><trkpt lat="-26.999146" lon="-48.661354"><ele>7.64267</ele></trkpt><trkpt lat="-26.99913" lon="-48.661331"><ele>8.060394</ele></trkpt><trkpt lat="-26.999116" lon="-48.661303"><ele>7.317261</ele></trkpt><trkpt lat="-26.999104" lon="-48.661274"><ele>7.00473</ele></trkpt><trkpt lat="-26.999088" lon="-48.661247"><ele>7.189301</ele></trkpt><trkpt lat="-26.999071" lon="-48.661221"><ele>7.290222</ele></trkpt><trkpt lat="-26.999058" lon="-48.661196"><ele>7.515442</ele></trkpt><trkpt lat="-26.999043" lon="-48.661171"><ele>7.15863</ele></trkpt><trkpt lat="-26.99903" lon="-48.661146"><ele>7.515991</ele></trkpt><trkpt lat="-26.999016" lon="-48.661116"><ele>7.884705</ele></trkpt><trkpt lat="-26.998998" lon="-48.661086"><ele>8.293213</ele></trkpt><trkpt lat="-26.99898" lon="-48.661055"><ele>8.320099</ele></trkpt><trkpt lat="-26.998965" lon="-48.66103"><ele>8.287628</ele></trkpt><trkpt lat="-26.998954" lon="-48.661003"><ele>7.760193</ele></trkpt><trkpt lat="-26.998944" lon="-48.660981"><ele>8.176239</ele></trkpt><trkpt lat="-26.998932" lon="-48.66096"><ele>8.151093</ele></trkpt><trkpt lat="-26.99892" lon="-48.660938"><ele>8.350281</ele></trkpt><trkpt lat="-26.99891" lon="-48.660921"><ele>8.253082</ele></trkpt><trkpt lat="-26.998897" lon="-48.660901"><ele>8.41745</ele></trkpt><trkpt lat="-26.998882" lon="-48.660881"><ele>8.718323</ele></trkpt><trkpt lat="-26.998868" lon="-48.66086"><ele>8.361267</ele></trkpt><trkpt lat="-26.998856" lon="-48.660838"><ele>8.635803</ele></trkpt><trkpt lat="-26.998843" lon="-48.660818"><ele>8.374725</ele></trkpt><trkpt lat="-26.998831" lon="-48.660799"><ele>8.532623</ele></trkpt><trkpt lat="-26.998824" lon="-48.660792"><ele>8.784821</ele></trkpt><trkpt lat="-26.998823" lon="-48.660794"><ele>8.863922</ele></trkpt><trkpt lat="-26.998824" lon="-48.660793"><ele>8.885681</ele></trkpt><trkpt lat="-26.998822" lon="-48.660792"><ele>9.273407</ele></trkpt><trkpt lat="-26.998824" lon="-48.660791"><ele>9.329803</ele></trkpt><trkpt lat="-26.998823" lon="-48.660791"><ele>9.448853</ele></trkpt><trkpt lat="-26.998824" lon="-48.660791"><ele>9.617798</ele></trkpt><trkpt lat="-26.998824" lon="-48.66079"><ele>10.03244</ele></trkpt><trkpt lat="-26.998826" lon="-48.66079"><ele>10.414734</ele></trkpt><trkpt lat="-26.998833" lon="-48.660798"><ele>10.420746</ele></trkpt><trkpt lat="-26.998836" lon="-48.660801"><ele>10.479736</ele></trkpt><trkpt lat="-26.998837" lon="-48.660803"><ele>10.537628</ele></trkpt><trkpt lat="-26.998837" lon="-48.660802"><ele>10.472534</ele></trkpt><trkpt lat="-26.998837" lon="-48.660801"><ele>10.604828</ele></trkpt><trkpt lat="-26.998837" lon="-48.660801"><ele>10.604828</ele></trkpt><trkpt lat="-26.998837" lon="-48.660798"><ele>10.631714</ele></trkpt><trkpt lat="-26.998837" lon="-48.660798"><ele>10.631714</ele></trkpt><trkpt lat="-26.998838" lon="-48.660795"><ele>10.750519</ele></trkpt><trkpt lat="-26.998839" lon="-48.660793"><ele>10.778748</ele></trkpt><trkpt lat="-26.99884" lon="-48.660791"><ele>10.865753</ele></trkpt><trkpt lat="-26.998841" lon="-48.660788"><ele>10.858704</ele></trkpt><trkpt lat="-26.998841" lon="-48.660788"><ele>10.962982</ele></trkpt><trkpt lat="-26.998842" lon="-48.660787"><ele>10.770691</ele></trkpt><trkpt lat="-26.99884" lon="-48.660785"><ele>10.635742</ele></trkpt><trkpt lat="-26.99884" lon="-48.660785"><ele>10.637787</ele></trkpt><trkpt lat="-26.998841" lon="-48.660785"><ele>10.547028</ele></trkpt><trkpt lat="-26.998841" lon="-48.660786"><ele>10.479431</ele></trkpt><trkpt lat="-26.99884" lon="-48.660785"><ele>10.394684</ele></trkpt><trkpt lat="-26.998838" lon="-48.660783"><ele>11.806366</ele></trkpt><trkpt lat="-26.998837" lon="-48.660779"><ele>11.039917</ele></trkpt><trkpt lat="-26.998841" lon="-48.660772"><ele>9.907166</ele></trkpt><trkpt lat="-26.998845" lon="-48.66077"><ele>9.450165</ele></trkpt><trkpt lat="-26.998858" lon="-48.660768"><ele>9.196655</ele></trkpt><trkpt lat="-26.998862" lon="-48.660767"><ele>9.435699</ele></trkpt><trkpt lat="-26.998858" lon="-48.660767"><ele>8.771332</ele></trkpt><trkpt lat="-26.998859" lon="-48.660765"><ele>8.739594</ele></trkpt><trkpt lat="-26.998855" lon="-48.660763"><ele>8.981476</ele></trkpt><trkpt lat="-26.99885" lon="-48.660761"><ele>9.53067</ele></trkpt><trkpt lat="-26.998849" lon="-48.660762"><ele>11.14798</ele></trkpt><trkpt lat="-26.998855" lon="-48.660761"><ele>11.380219</ele></trkpt><trkpt lat="-26.998856" lon="-48.66076"><ele>11.38327</ele></trkpt><trkpt lat="-26.998858" lon="-48.660759"><ele>11.247284</ele></trkpt><trkpt lat="-26.998857" lon="-48.660756"><ele>10.590912</ele></trkpt><trkpt lat="-26.998858" lon="-48.660758"><ele>10.56897</ele></trkpt><trkpt lat="-26.99886" lon="-48.66076"><ele>11.373749</ele></trkpt><trkpt lat="-26.998863" lon="-48.660762"><ele>11.379547</ele></trkpt><trkpt lat="-26.998864" lon="-48.660761"><ele>11.641693</ele></trkpt><trkpt lat="-26.998868" lon="-48.660754"><ele>11.821014</ele></trkpt><trkpt lat="-26.99887" lon="-48.660753"><ele>11.819489</ele></trkpt><trkpt lat="-26.99887" lon="-48.660751"><ele>11.545746</ele></trkpt><trkpt lat="-26.998871" lon="-48.660749"><ele>11.789642</ele></trkpt><trkpt lat="-26.998873" lon="-48.660747"><ele>11.807556</ele></trkpt><trkpt lat="-26.998877" lon="-48.660749"><ele>11.345306</ele></trkpt><trkpt lat="-26.998884" lon="-48.660752"><ele>11.63797</ele></trkpt><trkpt lat="-26.998887" lon="-48.660755"><ele>12.345215</ele></trkpt><trkpt lat="-26.998889" lon="-48.660757"><ele>12.365479</ele></trkpt><trkpt lat="-26.998888" lon="-48.660756"><ele>11.792023</ele></trkpt><trkpt lat="-26.998888" lon="-48.660755"><ele>11.443939</ele></trkpt><trkpt lat="-26.998888" lon="-48.660753"><ele>10.708679</ele></trkpt><trkpt lat="-26.998886" lon="-48.660754"><ele>11.001465</ele></trkpt><trkpt lat="-26.998881" lon="-48.660757"><ele>10.998962</ele></trkpt><trkpt lat="-26.998884" lon="-48.660761"><ele>10.380951</ele></trkpt><trkpt lat="-26.998884" lon="-48.660764"><ele>10.380402</ele></trkpt><trkpt lat="-26.998884" lon="-48.660765"><ele>10.377289</ele></trkpt><trkpt lat="-26.998883" lon="-48.660765"><ele>10.378876</ele></trkpt><trkpt lat="-26.998882" lon="-48.660764"><ele>10.30423</ele></trkpt><trkpt lat="-26.998881" lon="-48.660762"><ele>10.905975</ele></trkpt><trkpt lat="-26.998884" lon="-48.660764"><ele>10.678497</ele></trkpt><trkpt lat="-26.998884" lon="-48.660765"><ele>10.60376</ele></trkpt><trkpt lat="-26.998886" lon="-48.660765"><ele>10.99762</ele></trkpt><trkpt lat="-26.99889" lon="-48.660768"><ele>11.103333</ele></trkpt><trkpt lat="-26.99889" lon="-48.660773"><ele>9.699554</ele></trkpt><trkpt lat="-26.99889" lon="-48.660774"><ele>9.686005</ele></trkpt><trkpt lat="-26.998891" lon="-48.660773"><ele>9.254547</ele></trkpt><trkpt lat="-26.998892" lon="-48.660772"><ele>9.198944</ele></trkpt><trkpt lat="-26.998891" lon="-48.660771"><ele>9.027313</ele></trkpt><trkpt lat="-26.998889" lon="-48.660771"><ele>9.02475</ele></trkpt><trkpt lat="-26.998888" lon="-48.660771"><ele>9.024078</ele></trkpt><trkpt lat="-26.998888" lon="-48.660771"><ele>9.028351</ele></trkpt><trkpt lat="-26.998884" lon="-48.660773"><ele>8.90506</ele></trkpt><trkpt lat="-26.998874" lon="-48.660773"><ele>9.007324</ele></trkpt><trkpt lat="-26.998869" lon="-48.660775"><ele>8.807251</ele></trkpt><trkpt lat="-26.998868" lon="-48.660704"><ele>-10.35257</ele></trkpt><trkpt lat="-26.998871" lon="-48.660704"><ele>-10.58728</ele></trkpt><trkpt lat="-26.998874" lon="-48.660702"><ele>1.288177</ele></trkpt><trkpt lat="-26.998874" lon="-48.660702"><ele>1.288177</ele></trkpt><trkpt lat="-26.998869" lon="-48.660706"><ele>1.22171</ele></trkpt><trkpt lat="-26.998869" lon="-48.660706"><ele>1.22171</ele></trkpt><trkpt lat="-26.998869" lon="-48.660715"><ele>0.390289</ele></trkpt><trkpt lat="-26.998859" lon="-48.660732"><ele>2.082153</ele></trkpt><trkpt lat="-26.998856" lon="-48.660734"><ele>2.478912</ele></trkpt><trkpt lat="-26.998847" lon="-48.66074"><ele>3.695099</ele></trkpt><trkpt lat="-26.998838" lon="-48.660751"><ele>5.059052</ele></trkpt><trkpt lat="-26.998838" lon="-48.660751"><ele>5.059052</ele></trkpt><trkpt lat="-26.998838" lon="-48.660751"><ele>5.059052</ele></trkpt><trkpt lat="-26.998832" lon="-48.660757"><ele>6.413757</ele></trkpt><trkpt lat="-26.998826" lon="-48.660756"><ele>6.891357</ele></trkpt><trkpt lat="-26.998822" lon="-48.660755"><ele>7.209106</ele></trkpt><trkpt lat="-26.998819" lon="-48.660756"><ele>7.604523</ele></trkpt><trkpt lat="-26.998818" lon="-48.660756"><ele>7.983643</ele></trkpt><trkpt lat="-26.998819" lon="-48.660756"><ele>7.820862</ele></trkpt><trkpt lat="-26.998819" lon="-48.660756"><ele>8.223663</ele></trkpt><trkpt lat="-26.998819" lon="-48.660751"><ele>7.148499</ele></trkpt><trkpt lat="-26.998819" lon="-48.660751"><ele>7.148499</ele></trkpt><trkpt lat="-26.998817" lon="-48.660752"><ele>7.905914</ele></trkpt><trkpt lat="-26.998817" lon="-48.660752"><ele>7.905914</ele></trkpt><trkpt lat="-26.998812" lon="-48.660749"><ele>8.024078</ele></trkpt><trkpt lat="-26.998811" lon="-48.660751"><ele>8.095917</ele></trkpt><trkpt lat="-26.998809" lon="-48.660752"><ele>7.924683</ele></trkpt><trkpt lat="-26.99881" lon="-48.660753"><ele>7.660156</ele></trkpt><trkpt lat="-26.998808" lon="-48.660755"><ele>7.824768</ele></trkpt><trkpt lat="-26.998811" lon="-48.660758"><ele>7.133881</ele></trkpt><trkpt lat="-26.99881" lon="-48.66076"><ele>7.585663</ele></trkpt><trkpt lat="-26.998819" lon="-48.660761"><ele>8.004578</ele></trkpt><trkpt lat="-26.998819" lon="-48.660762"><ele>7.31488</ele></trkpt><trkpt lat="-26.99882" lon="-48.660762"><ele>7.400238</ele></trkpt><trkpt lat="-26.998828" lon="-48.660769"><ele>7.719269</ele></trkpt><trkpt lat="-26.998831" lon="-48.660772"><ele>7.990173</ele></trkpt><trkpt lat="-26.998831" lon="-48.660773"><ele>8.008911</ele></trkpt><trkpt lat="-26.998831" lon="-48.660772"><ele>6.429413</ele></trkpt><trkpt lat="-26.998831" lon="-48.660771"><ele>7.513275</ele></trkpt><trkpt lat="-26.998831" lon="-48.660769"><ele>7.25589</ele></trkpt><trkpt lat="-26.998832" lon="-48.660767"><ele>6.853882</ele></trkpt><trkpt lat="-26.998833" lon="-48.660766"><ele>6.817383</ele></trkpt><trkpt lat="-26.998833" lon="-48.660765"><ele>6.903412</ele></trkpt><trkpt lat="-26.998832" lon="-48.660764"><ele>6.642944</ele></trkpt><trkpt lat="-26.998832" lon="-48.660763"><ele>6.53241</ele></trkpt><trkpt lat="-26.998833" lon="-48.660763"><ele>6.652649</ele></trkpt><trkpt lat="-26.998832" lon="-48.660763"><ele>6.725616</ele></trkpt><trkpt lat="-26.998833" lon="-48.660763"><ele>7.084747</ele></trkpt><trkpt lat="-26.998833" lon="-48.660763"><ele>7.240814</ele></trkpt><trkpt lat="-26.998833" lon="-48.660763"><ele>7.447693</ele></trkpt><trkpt lat="-26.998833" lon="-48.66076"><ele>7.649628</ele></trkpt><trkpt lat="-26.998829" lon="-48.660765"><ele>6.81781</ele></trkpt><trkpt lat="-26.998834" lon="-48.660768"><ele>7.198334</ele></trkpt><trkpt lat="-26.998835" lon="-48.660768"><ele>7.181</ele></trkpt><trkpt lat="-26.99883" lon="-48.660765"><ele>7.029053</ele></trkpt><trkpt lat="-26.99883" lon="-48.660761"><ele>6.661163</ele></trkpt><trkpt lat="-26.998828" lon="-48.660761"><ele>6.409851</ele></trkpt><trkpt lat="-26.99881" lon="-48.660754"><ele>5.820129</ele></trkpt><trkpt lat="-26.998799" lon="-48.66075"><ele>5.693573</ele></trkpt><trkpt lat="-26.998789" lon="-48.660737"><ele>6.078857</ele></trkpt><trkpt lat="-26.998784" lon="-48.660722"><ele>6.000702</ele></trkpt><trkpt lat="-26.99877" lon="-48.660703"><ele>5.67804</ele></trkpt><trkpt lat="-26.998758" lon="-48.660685"><ele>5.213257</ele></trkpt><trkpt lat="-26.998744" lon="-48.660662"><ele>5.191437</ele></trkpt><trkpt lat="-26.998727" lon="-48.660636"><ele>5.059387</ele></trkpt><trkpt lat="-26.998716" lon="-48.66062"><ele>5.50882</ele></trkpt><trkpt lat="-26.998708" lon="-48.660601"><ele>6.238861</ele></trkpt><trkpt lat="-26.9987" lon="-48.66057"><ele>6.781067</ele></trkpt><trkpt lat="-26.998685" lon="-48.660539"><ele>7.172943</ele></trkpt><trkpt lat="-26.998665" lon="-48.660514"><ele>6.380829</ele></trkpt><trkpt lat="-26.998646" lon="-48.660492"><ele>6.004272</ele></trkpt><trkpt lat="-26.99863" lon="-48.660463"><ele>6.794281</ele></trkpt><trkpt lat="-26.998617" lon="-48.660434"><ele>7.057953</ele></trkpt><trkpt lat="-26.998608" lon="-48.660407"><ele>6.893097</ele></trkpt><trkpt lat="-26.998598" lon="-48.660379"><ele>7.378235</ele></trkpt><trkpt lat="-26.998586" lon="-48.660355"><ele>7.907227</ele></trkpt><trkpt lat="-26.998581" lon="-48.66033"><ele>8.051941</ele></trkpt><trkpt lat="-26.998575" lon="-48.660304"><ele>8.172974</ele></trkpt><trkpt lat="-26.998575" lon="-48.660304"><ele>8.172974</ele></trkpt><trkpt lat="-26.998568" lon="-48.660284"><ele>7.91275</ele></trkpt><trkpt lat="-26.998559" lon="-48.660263"><ele>7.700928</ele></trkpt><trkpt lat="-26.99855" lon="-48.660245"><ele>8.001984</ele></trkpt><trkpt lat="-26.998541" lon="-48.660229"><ele>7.791687</ele></trkpt><trkpt lat="-26.998529" lon="-48.660208"><ele>8.287567</ele></trkpt><trkpt lat="-26.998518" lon="-48.660191"><ele>7.983673</ele></trkpt><trkpt lat="-26.998501" lon="-48.660167"><ele>8.076843</ele></trkpt><trkpt lat="-26.998487" lon="-48.660149"><ele>7.140442</ele></trkpt><trkpt lat="-26.998473" lon="-48.660132"><ele>7.577515</ele></trkpt><trkpt lat="-26.998459" lon="-48.660113"><ele>7.428864</ele></trkpt><trkpt lat="-26.998459" lon="-48.660113"><ele>7.428864</ele></trkpt><trkpt lat="-26.998449" lon="-48.660091"><ele>7.0849</ele></trkpt><trkpt lat="-26.998439" lon="-48.66007"><ele>7.321442</ele></trkpt><trkpt lat="-26.998426" lon="-48.660045"><ele>7.51474</ele></trkpt><trkpt lat="-26.99841" lon="-48.660018"><ele>7.68399</ele></trkpt><trkpt lat="-26.998394" lon="-48.659989"><ele>7.946838</ele></trkpt><trkpt lat="-26.998377" lon="-48.659959"><ele>7.018738</ele></trkpt><trkpt lat="-26.99836" lon="-48.659928"><ele>7.187561</ele></trkpt><trkpt lat="-26.998343" lon="-48.659897"><ele>6.879181</ele></trkpt><trkpt lat="-26.998326" lon="-48.659866"><ele>7.521973</ele></trkpt><trkpt lat="-26.998309" lon="-48.659836"><ele>7.464325</ele></trkpt><trkpt lat="-26.998293" lon="-48.659807"><ele>7.030334</ele></trkpt><trkpt lat="-26.99828" lon="-48.659781"><ele>6.78717</ele></trkpt><trkpt lat="-26.998268" lon="-48.659754"><ele>7.091125</ele></trkpt><trkpt lat="-26.998255" lon="-48.659725"><ele>7.814209</ele></trkpt><trkpt lat="-26.99824" lon="-48.659696"><ele>10.337891</ele></trkpt><trkpt lat="-26.998227" lon="-48.659671"><ele>9.993286</ele></trkpt><trkpt lat="-26.998211" lon="-48.659646"><ele>7.585541</ele></trkpt><trkpt lat="-26.998211" lon="-48.659646"><ele>7.585541</ele></trkpt><trkpt lat="-26.998196" lon="-48.65962"><ele>7.659088</ele></trkpt><trkpt lat="-26.998183" lon="-48.659591"><ele>7.674164</ele></trkpt><trkpt lat="-26.998173" lon="-48.659567"><ele>7.628113</ele></trkpt><trkpt lat="-26.99816" lon="-48.659547"><ele>7.816803</ele></trkpt><trkpt lat="-26.99816" lon="-48.659547"><ele>7.816803</ele></trkpt><trkpt lat="-26.998149" lon="-48.659529"><ele>8.060669</ele></trkpt><trkpt lat="-26.998138" lon="-48.659508"><ele>8.027344</ele></trkpt><trkpt lat="-26.998128" lon="-48.659487"><ele>7.747314</ele></trkpt><trkpt lat="-26.998119" lon="-48.659467"><ele>7.765137</ele></trkpt><trkpt lat="-26.998112" lon="-48.659451"><ele>7.510223</ele></trkpt><trkpt lat="-26.998104" lon="-48.659436"><ele>6.924225</ele></trkpt><trkpt lat="-26.998096" lon="-48.659422"><ele>6.492249</ele></trkpt><trkpt lat="-26.998081" lon="-48.659398"><ele>6.916809</ele></trkpt><trkpt lat="-26.998065" lon="-48.659372"><ele>6.696167</ele></trkpt><trkpt lat="-26.99805" lon="-48.659348"><ele>6.073853</ele></trkpt><trkpt lat="-26.998035" lon="-48.659319"><ele>6.825195</ele></trkpt><trkpt lat="-26.99802" lon="-48.659291"><ele>7.131531</ele></trkpt><trkpt lat="-26.998003" lon="-48.659264"><ele>6.872681</ele></trkpt><trkpt lat="-26.997986" lon="-48.659239"><ele>6.664093</ele></trkpt><trkpt lat="-26.997968" lon="-48.65921"><ele>7.045441</ele></trkpt><trkpt lat="-26.99795" lon="-48.65918"><ele>7.653503</ele></trkpt><trkpt lat="-26.997933" lon="-48.65915"><ele>7.818726</ele></trkpt><trkpt lat="-26.997917" lon="-48.659118"><ele>7.635254</ele></trkpt><trkpt lat="-26.997904" lon="-48.659089"><ele>7.728851</ele></trkpt><trkpt lat="-26.99789" lon="-48.659064"><ele>7.767029</ele></trkpt><trkpt lat="-26.997878" lon="-48.659039"><ele>7.68573</ele></trkpt><trkpt lat="-26.997866" lon="-48.659014"><ele>7.649261</ele></trkpt><trkpt lat="-26.997852" lon="-48.658988"><ele>7.57309</ele></trkpt><trkpt lat="-26.997839" lon="-48.658964"><ele>7.552307</ele></trkpt><trkpt lat="-26.997828" lon="-48.658945"><ele>7.588898</ele></trkpt><trkpt lat="-26.997816" lon="-48.658923"><ele>7.804321</ele></trkpt><trkpt lat="-26.997816" lon="-48.658923"><ele>7.804321</ele></trkpt><trkpt lat="-26.997801" lon="-48.658898"><ele>8.059509</ele></trkpt><trkpt lat="-26.99779" lon="-48.658879"><ele>8.08493</ele></trkpt><trkpt lat="-26.997777" lon="-48.658856"><ele>8.616791</ele></trkpt><trkpt lat="-26.997764" lon="-48.658828"><ele>8.911255</ele></trkpt><trkpt lat="-26.997751" lon="-48.6588"><ele>8.261597</ele></trkpt><trkpt lat="-26.99774" lon="-48.658773"><ele>7.753418</ele></trkpt><trkpt lat="-26.99773" lon="-48.658748"><ele>7.271606</ele></trkpt><trkpt lat="-26.997717" lon="-48.658723"><ele>7.533051</ele></trkpt><trkpt lat="-26.997703" lon="-48.658697"><ele>7.249268</ele></trkpt><trkpt lat="-26.997689" lon="-48.658671"><ele>6.898468</ele></trkpt><trkpt lat="-26.997673" lon="-48.658645"><ele>7.09552</ele></trkpt><trkpt lat="-26.997657" lon="-48.658619"><ele>7.296356</ele></trkpt><trkpt lat="-26.99764" lon="-48.65859"><ele>6.848328</ele></trkpt><trkpt lat="-26.997622" lon="-48.658558"><ele>6.747131</ele></trkpt><trkpt lat="-26.99761" lon="-48.658527"><ele>5.91925</ele></trkpt><trkpt lat="-26.997599" lon="-48.658496"><ele>6.174377</ele></trkpt><trkpt lat="-26.997583" lon="-48.658465"><ele>6.537354</ele></trkpt><trkpt lat="-26.997566" lon="-48.658435"><ele>6.281586</ele></trkpt><trkpt lat="-26.997549" lon="-48.658397"><ele>6.71875</ele></trkpt><trkpt lat="-26.997531" lon="-48.658364"><ele>6.605438</ele></trkpt><trkpt lat="-26.997509" lon="-48.658333"><ele>8.605194</ele></trkpt><trkpt lat="-26.997487" lon="-48.6583"><ele>8.690491</ele></trkpt><trkpt lat="-26.997469" lon="-48.658269"><ele>7.973083</ele></trkpt><trkpt lat="-26.997469" lon="-48.658269"><ele>7.973083</ele></trkpt><trkpt lat="-26.997451" lon="-48.65824"><ele>8.279297</ele></trkpt><trkpt lat="-26.997437" lon="-48.658214"><ele>8.402435</ele></trkpt><trkpt lat="-26.997423" lon="-48.658184"><ele>8.427063</ele></trkpt><trkpt lat="-26.997407" lon="-48.658158"><ele>8.252441</ele></trkpt><trkpt lat="-26.997396" lon="-48.658131"><ele>7.718933</ele></trkpt><trkpt lat="-26.997379" lon="-48.658099"><ele>10.005951</ele></trkpt><trkpt lat="-26.997366" lon="-48.658075"><ele>10.470886</ele></trkpt><trkpt lat="-26.997357" lon="-48.658057"><ele>7.632233</ele></trkpt><trkpt lat="-26.997357" lon="-48.658057"><ele>7.632233</ele></trkpt><trkpt lat="-26.997339" lon="-48.658039"><ele>7.280212</ele></trkpt><trkpt lat="-26.997333" lon="-48.658019"><ele>7.579254</ele></trkpt><trkpt lat="-26.997317" lon="-48.657998"><ele>7.430267</ele></trkpt><trkpt lat="-26.997307" lon="-48.657975"><ele>7.080353</ele></trkpt><trkpt lat="-26.997294" lon="-48.657954"><ele>7.36673</ele></trkpt><trkpt lat="-26.997282" lon="-48.657931"><ele>8.423187</ele></trkpt><trkpt lat="-26.997276" lon="-48.657917"><ele>8.050323</ele></trkpt><trkpt lat="-26.99727" lon="-48.657905"><ele>7.769348</ele></trkpt><trkpt lat="-26.997263" lon="-48.657889"><ele>7.414185</ele></trkpt><trkpt lat="-26.997256" lon="-48.657871"><ele>6.951324</ele></trkpt><trkpt lat="-26.99725" lon="-48.657865"><ele>7.238037</ele></trkpt><trkpt lat="-26.997238" lon="-48.657857"><ele>7.341736</ele></trkpt><trkpt lat="-26.997229" lon="-48.657845"><ele>7.093811</ele></trkpt><trkpt lat="-26.997223" lon="-48.657827"><ele>7.111847</ele></trkpt><trkpt lat="-26.997217" lon="-48.65781"><ele>7.355194</ele></trkpt><trkpt lat="-26.997214" lon="-48.657797"><ele>7.216858</ele></trkpt><trkpt lat="-26.997205" lon="-48.657781"><ele>6.922607</ele></trkpt><trkpt lat="-26.997197" lon="-48.65777"><ele>6.897064</ele></trkpt><trkpt lat="-26.997195" lon="-48.657767"><ele>6.651184</ele></trkpt><trkpt lat="-26.997191" lon="-48.657767"><ele>6.740082</ele></trkpt><trkpt lat="-26.99719" lon="-48.657767"><ele>6.75589</ele></trkpt><trkpt lat="-26.99719" lon="-48.657768"><ele>6.833008</ele></trkpt><trkpt lat="-26.99719" lon="-48.657768"><ele>6.833008</ele></trkpt><trkpt lat="-26.99719" lon="-48.657767"><ele>6.759308</ele></trkpt><trkpt lat="-26.99719" lon="-48.657767"><ele>6.759308</ele></trkpt><trkpt lat="-26.997188" lon="-48.657767"><ele>6.640839</ele></trkpt><trkpt lat="-26.997186" lon="-48.657768"><ele>6.687744</ele></trkpt><trkpt lat="-26.997185" lon="-48.657768"><ele>8.461426</ele></trkpt><trkpt lat="-26.997187" lon="-48.657767"><ele>8.582214</ele></trkpt><trkpt lat="-26.997187" lon="-48.657767"><ele>9.179993</ele></trkpt><trkpt lat="-26.997187" lon="-48.657768"><ele>9.380707</ele></trkpt><trkpt lat="-26.997186" lon="-48.657768"><ele>9.435608</ele></trkpt><trkpt lat="-26.997185" lon="-48.657766"><ele>9.531586</ele></trkpt><trkpt lat="-26.997184" lon="-48.657762"><ele>9.374847</ele></trkpt><trkpt lat="-26.997178" lon="-48.657752"><ele>9.335693</ele></trkpt><trkpt lat="-26.997171" lon="-48.657742"><ele>9.508759</ele></trkpt><trkpt lat="-26.997167" lon="-48.657739"><ele>9.489899</ele></trkpt><trkpt lat="-26.997167" lon="-48.657739"><ele>9.489899</ele></trkpt><trkpt lat="-26.997166" lon="-48.657738"><ele>9.506134</ele></trkpt><trkpt lat="-26.997165" lon="-48.657738"><ele>10.022888</ele></trkpt><trkpt lat="-26.997165" lon="-48.657738"><ele>10.011108</ele></trkpt><trkpt lat="-26.997166" lon="-48.657737"><ele>10.028809</ele></trkpt><trkpt lat="-26.997166" lon="-48.657734"><ele>10.057587</ele></trkpt><trkpt lat="-26.997165" lon="-48.657728"><ele>10.270416</ele></trkpt><trkpt lat="-26.997172" lon="-48.65773"><ele>10.09198</ele></trkpt><trkpt lat="-26.997169" lon="-48.657731"><ele>9.756744</ele></trkpt><trkpt lat="-26.997169" lon="-48.657732"><ele>9.75531</ele></trkpt><trkpt lat="-26.997169" lon="-48.657732"><ele>9.75177</ele></trkpt><trkpt lat="-26.997169" lon="-48.657732"><ele>9.747864</ele></trkpt><trkpt lat="-26.997169" lon="-48.657732"><ele>9.748474</ele></trkpt><trkpt lat="-26.997169" lon="-48.657732"><ele>9.746887</ele></trkpt><trkpt lat="-26.997168" lon="-48.657736"><ele>9.264343</ele></trkpt><trkpt lat="-26.997168" lon="-48.657736"><ele>9.264343</ele></trkpt><trkpt lat="-26.997168" lon="-48.65774"><ele>9.232788</ele></trkpt><trkpt lat="-26.997166" lon="-48.657739"><ele>8.997101</ele></trkpt><trkpt lat="-26.997165" lon="-48.657738"><ele>9.138489</ele></trkpt><trkpt lat="-26.997169" lon="-48.657741"><ele>8.969971</ele></trkpt><trkpt lat="-26.997176" lon="-48.657754"><ele>9.211243</ele></trkpt><trkpt lat="-26.997178" lon="-48.657757"><ele>9.188629</ele></trkpt><trkpt lat="-26.997178" lon="-48.657758"><ele>9.187042</ele></trkpt><trkpt lat="-26.997179" lon="-48.657758"><ele>8.86557</ele></trkpt><trkpt lat="-26.997179" lon="-48.657758"><ele>8.86557</ele></trkpt><trkpt lat="-26.997178" lon="-48.657756"><ele>9.04837</ele></trkpt><trkpt lat="-26.997178" lon="-48.657755"><ele>9.045471</ele></trkpt><trkpt lat="-26.997177" lon="-48.657755"><ele>9.05719</ele></trkpt><trkpt lat="-26.997176" lon="-48.657754"><ele>9.192291</ele></trkpt><trkpt lat="-26.997167" lon="-48.657748"><ele>8.879913</ele></trkpt><trkpt lat="-26.997159" lon="-48.657735"><ele>8.818298</ele></trkpt><trkpt lat="-26.997151" lon="-48.657717"><ele>8.218048</ele></trkpt><trkpt lat="-26.997142" lon="-48.657702"><ele>6.58786</ele></trkpt><trkpt lat="-26.997131" lon="-48.657681"><ele>7.005585</ele></trkpt><trkpt lat="-26.997122" lon="-48.657661"><ele>7.131622</ele></trkpt><trkpt lat="-26.997105" lon="-48.657639"><ele>7.354523</ele></trkpt><trkpt lat="-26.997091" lon="-48.657615"><ele>6.4216</ele></trkpt><trkpt lat="-26.997076" lon="-48.657593"><ele>6.013</ele></trkpt><trkpt lat="-26.997066" lon="-48.65757"><ele>5.567627</ele></trkpt><trkpt lat="-26.997055" lon="-48.657554"><ele>6.183075</ele></trkpt><trkpt lat="-26.997051" lon="-48.657531"><ele>6.377991</ele></trkpt><trkpt lat="-26.997037" lon="-48.657507"><ele>5.871887</ele></trkpt><trkpt lat="-26.997024" lon="-48.65748"><ele>6.141571</ele></trkpt><trkpt lat="-26.997006" lon="-48.657439"><ele>6.983521</ele></trkpt><trkpt lat="-26.996991" lon="-48.657409"><ele>7.355408</ele></trkpt><trkpt lat="-26.996973" lon="-48.657378"><ele>7.638916</ele></trkpt><trkpt lat="-26.99696" lon="-48.657351"><ele>8.057648</ele></trkpt><trkpt lat="-26.996945" lon="-48.657326"><ele>8.216248</ele></trkpt><trkpt lat="-26.996935" lon="-48.657297"><ele>8.593567</ele></trkpt><trkpt lat="-26.996925" lon="-48.65727"><ele>8.918365</ele></trkpt><trkpt lat="-26.996911" lon="-48.657241"><ele>8.550903</ele></trkpt><trkpt lat="-26.996898" lon="-48.657215"><ele>8.290039</ele></trkpt><trkpt lat="-26.996884" lon="-48.657192"><ele>7.924103</ele></trkpt><trkpt lat="-26.99687" lon="-48.657168"><ele>7.880707</ele></trkpt><trkpt lat="-26.996857" lon="-48.65715"><ele>7.424286</ele></trkpt><trkpt lat="-26.996845" lon="-48.657135"><ele>7.399719</ele></trkpt><trkpt lat="-26.996835" lon="-48.657122"><ele>7.691162</ele></trkpt><trkpt lat="-26.99683" lon="-48.657118"><ele>7.962463</ele></trkpt><trkpt lat="-26.996828" lon="-48.657118"><ele>8.530518</ele></trkpt><trkpt lat="-26.996826" lon="-48.657118"><ele>8.645325</ele></trkpt><trkpt lat="-26.996824" lon="-48.657115"><ele>8.722412</ele></trkpt><trkpt lat="-26.996823" lon="-48.657114"><ele>9.251251</ele></trkpt><trkpt lat="-26.996835" lon="-48.657103"><ele>9.158112</ele></trkpt><trkpt lat="-26.996845" lon="-48.657093"><ele>9.149689</ele></trkpt><trkpt lat="-26.996847" lon="-48.65709"><ele>9.422485</ele></trkpt><trkpt lat="-26.996849" lon="-48.657086"><ele>9.519379</ele></trkpt><trkpt lat="-26.996853" lon="-48.657087"><ele>10.020386</ele></trkpt><trkpt lat="-26.996859" lon="-48.657098"><ele>9.903137</ele></trkpt><trkpt lat="-26.996867" lon="-48.657101"><ele>9.783844</ele></trkpt><trkpt lat="-26.996874" lon="-48.657104"><ele>9.866669</ele></trkpt><trkpt lat="-26.99688" lon="-48.657108"><ele>9.652527</ele></trkpt><trkpt lat="-26.996878" lon="-48.657106"><ele>10.277557</ele></trkpt><trkpt lat="-26.996878" lon="-48.657107"><ele>10.665985</ele></trkpt><trkpt lat="-26.996878" lon="-48.657107"><ele>10.675385</ele></trkpt><trkpt lat="-26.996878" lon="-48.657107"><ele>10.604126</ele></trkpt><trkpt lat="-26.99688" lon="-48.657106"><ele>10.814209</ele></trkpt><trkpt lat="-26.996873" lon="-48.657103"><ele>10.967804</ele></trkpt><trkpt lat="-26.996873" lon="-48.657103"><ele>10.967804</ele></trkpt><trkpt lat="-26.996858" lon="-48.657101"><ele>10.619629</ele></trkpt><trkpt lat="-26.996839" lon="-48.657096"><ele>10.567047</ele></trkpt><trkpt lat="-26.996815" lon="-48.657089"><ele>10.575439</ele></trkpt><trkpt lat="-26.996813" lon="-48.65709"><ele>11.475159</ele></trkpt><trkpt lat="-26.996817" lon="-48.657092"><ele>13.502686</ele></trkpt><trkpt lat="-26.996817" lon="-48.657096"><ele>13.579041</ele></trkpt><trkpt lat="-26.996817" lon="-48.657097"><ele>13.518127</ele></trkpt><trkpt lat="-26.996817" lon="-48.657097"><ele>13.429932</ele></trkpt><trkpt lat="-26.996817" lon="-48.657097"><ele>13.429077</ele></trkpt><trkpt lat="-26.996817" lon="-48.657097"><ele>13.428589</ele></trkpt><trkpt lat="-26.996817" lon="-48.657097"><ele>13.396423</ele></trkpt><trkpt lat="-26.996817" lon="-48.657097"><ele>13.396423</ele></trkpt><trkpt lat="-26.996817" lon="-48.657097"><ele>13.475586</ele></trkpt><trkpt lat="-26.996817" lon="-48.657097"><ele>13.526978</ele></trkpt><trkpt lat="-26.996816" lon="-48.657097"><ele>13.538696</ele></trkpt><trkpt lat="-26.996816" lon="-48.657097"><ele>13.501587</ele></trkpt><trkpt lat="-26.996816" lon="-48.657097"><ele>13.426331</ele></trkpt><trkpt lat="-26.996816" lon="-48.657097"><ele>13.402588</ele></trkpt><trkpt lat="-26.996816" lon="-48.657097"><ele>13.402588</ele></trkpt><trkpt lat="-26.996816" lon="-48.657097"><ele>13.009216</ele></trkpt><trkpt lat="-26.996816" lon="-48.657097"><ele>13.023193</ele></trkpt><trkpt lat="-26.996816" lon="-48.657097"><ele>13.025696</ele></trkpt><trkpt lat="-26.996816" lon="-48.657097"><ele>13.025696</ele></trkpt><trkpt lat="-26.996816" lon="-48.657097"><ele>13.029175</ele></trkpt><trkpt lat="-26.996816" lon="-48.657097"><ele>13.027222</ele></trkpt><trkpt lat="-26.996816" lon="-48.657097"><ele>13.026245</ele></trkpt><trkpt lat="-26.996816" lon="-48.657097"><ele>13.031616</ele></trkpt><trkpt lat="-26.996816" lon="-48.657097"><ele>13.030884</ele></trkpt><trkpt lat="-26.996816" lon="-48.657097"><ele>13.030884</ele></trkpt><trkpt lat="-26.996816" lon="-48.657097"><ele>13.028259</ele></trkpt><trkpt lat="-26.996816" lon="-48.657097"><ele>13.046082</ele></trkpt><trkpt lat="-26.996816" lon="-48.657097"><ele>13.024475</ele></trkpt><trkpt lat="-26.996816" lon="-48.657097"><ele>13.023682</ele></trkpt><trkpt lat="-26.996816" lon="-48.657097"><ele>13.018555</ele></trkpt><trkpt lat="-26.996816" lon="-48.657097"><ele>13.013611</ele></trkpt><trkpt lat="-26.996816" lon="-48.657097"><ele>13.013611</ele></trkpt><trkpt lat="-26.996816" lon="-48.657097"><ele>13.046936</ele></trkpt><trkpt lat="-26.996817" lon="-48.657097"><ele>13.118835</ele></trkpt><trkpt lat="-26.996817" lon="-48.657097"><ele>13.177185</ele></trkpt><trkpt lat="-26.996817" lon="-48.657097"><ele>13.194519</ele></trkpt><trkpt lat="-26.996817" lon="-48.657097"><ele>13.232605</ele></trkpt><trkpt lat="-26.996817" lon="-48.657097"><ele>13.280823</ele></trkpt><trkpt lat="-26.996817" lon="-48.657097"><ele>13.280823</ele></trkpt><trkpt lat="-26.996817" lon="-48.657097"><ele>13.348267</ele></trkpt><trkpt lat="-26.996817" lon="-48.657096"><ele>13.381714</ele></trkpt><trkpt lat="-26.996817" lon="-48.657096"><ele>13.384888</ele></trkpt><trkpt lat="-26.996817" lon="-48.657096"><ele>13.423767</ele></trkpt><trkpt lat="-26.996817" lon="-48.657096"><ele>13.457703</ele></trkpt><trkpt lat="-26.996817" lon="-48.657096"><ele>13.381348</ele></trkpt><trkpt lat="-26.996817" lon="-48.657096"><ele>13.381348</ele></trkpt><trkpt lat="-26.996817" lon="-48.657096"><ele>13.402588</ele></trkpt><trkpt lat="-26.996817" lon="-48.657096"><ele>13.41687</ele></trkpt><trkpt lat="-26.996817" lon="-48.657096"><ele>13.356384</ele></trkpt><trkpt lat="-26.996817" lon="-48.657096"><ele>13.413147</ele></trkpt><trkpt lat="-26.996818" lon="-48.657096"><ele>13.432556</ele></trkpt><trkpt lat="-26.996818" lon="-48.657097"><ele>13.453125</ele></trkpt><trkpt lat="-26.996818" lon="-48.657097"><ele>13.481262</ele></trkpt></trkseg></trk></gpx>