<?xml version="1.0" encoding="UTF-8"?>
<gpx xmlns="http://www.topografix.com/GPX/1/1" version="1.1" creator="@dwayneparton/geojson-to-gpx"><wpt lat="-27.033153333333335" lon="-48.58201833333332"><ele>6.800000000000001</ele><name>1 faixa</name></wpt><wpt lat="-27.032736666666665" lon="-48.58199333333334"><ele>2.6</ele><name>24</name></wpt><wpt lat="-27.032304999999997" lon="-48.58295666666666"><ele>13.1</ele><name>24</name></wpt><wpt lat="-27.032736666666665" lon="-48.58199333333334"><ele>2.6</ele><name>150</name></wpt><wpt lat="-27.032304999999997" lon="-48.58295666666666"><ele>13.1</ele><name>210</name></wpt><wpt lat="-27.032294999999998" lon="-48.582881666666665"><ele>7.800000000000001</ele><name>320</name></wpt><wpt lat="-27.032736666666665" lon="-48.58199333333334"><ele>2.6</ele><name>350</name></wpt><wpt lat="-27.032736666666665" lon="-48.58199333333334"><ele>2.6</ele><name>550</name></wpt><wpt lat="-27.032244999999996" lon="-48.58290333333333"><ele>4.300000000000001</ele><name>800</name></wpt><wpt lat="-27.032076666666665" lon="-48.583935000000004"><ele>11</ele><name>A ciclo é completamente reta.</name></wpt><wpt lat="-27.032076666666665" lon="-48.583935000000004"><ele>11</ele><name>A pintura está boa, COMPLETA e visível</name></wpt><wpt lat="-27.033153333333335" lon="-48.58201833333332"><ele>6.800000000000001</ele><name>Apenas faixas vermelhas nas bordas</name></wpt><wpt lat="-27.032736666666665" lon="-48.58199333333334"><ele>2.6</ele><name>Área de amortecimento da ciclo (cm)</name></wpt><wpt lat="-27.032304999999997" lon="-48.58295666666666"><ele>13.1</ele><name>Área de amortecimento da ciclo (cm)</name></wpt><wpt lat="-27.032736666666665" lon="-48.58199333333334"><ele>2.6</ele><name>Área transitável da ciclo (cm)</name></wpt><wpt lat="-27.032304999999997" lon="-48.58295666666666"><ele>13.1</ele><name>Área transitável da ciclo (cm)</name></wpt><wpt lat="-27.033153333333335" lon="-48.58201833333332"><ele>6.800000000000001</ele><name>Asfalto</name></wpt><wpt lat="-27.033163" lon="-48.582047"><name>ATENÇAO: VER a FOTO AÉREA Rua da Praia T1 e Rua Nap. Vieira</name></wpt><wpt lat="-27.033153333333335" lon="-48.58201833333332"><ele>6.800000000000001</ele><name>Bidirecional</name></wpt><wpt lat="-27.032076666666665" lon="-48.583935000000004"><ele>11</ele><name>Bom estado</name></wpt><wpt lat="-27.033153333333335" lon="-48.58201833333332"><ele>6.800000000000001</ele><name>Ciclofaixa</name></wpt><wpt lat="-27.032076666666665" lon="-48.583935000000004"><ele>11</ele><name>Estacionamento dedicado de um lado, segregado da circulação</name></wpt><wpt lat="-27.033153333333335" lon="-48.58201833333332"><ele>6.800000000000001</ele><name>Estacionamento proibido na via</name></wpt><wpt lat="-27.0331" lon="-48.582042"><name>Estacionamento proibido, mas tem um bolsão de estacionamento de um restaurante</name></wpt><wpt lat="-27.032736666666665" lon="-48.58199333333334"><ele>2.6</ele><name>Faixa de carros logo ao lado da ciclo (cm)</name></wpt><wpt lat="-27.032293333333335" lon="-48.582879999999996"><ele>7.800000000000001</ele><name>Faixa de carros logo ao lado da ciclo (cm)</name></wpt><wpt lat="-27.033153333333335" lon="-48.58208"><ele>4.2</ele><name>Foto</name></wpt><wpt lat="-27.03305833333333" lon="-48.58203"><ele>6.4</ele><name>Foto</name></wpt><wpt lat="-27.032856666666664" lon="-48.58201833333332"><ele>7.300000000000001</ele><name>Foto</name></wpt><wpt lat="-27.03256666666667" lon="-48.582028333333334"><ele>5.6</ele><name>Foto</name></wpt><wpt lat="-27.032480000000003" lon="-48.582045"><ele>5.9</ele><name>Foto</name></wpt><wpt lat="-27.032443333333337" lon="-48.582225"><ele>6.699999999999999</ele><name>Foto</name></wpt><wpt lat="-27.032409999999995" lon="-48.58241666666666"><ele>10.1</ele><name>Foto</name></wpt><wpt lat="-27.032306666666667" lon="-48.58278"><ele>11.9</ele><name>Foto</name></wpt><wpt lat="-27.032265" lon="-48.58294333333333"><ele>9.2</ele><name>Foto</name></wpt><wpt lat="-27.032228333333332" lon="-48.583279999999995"><ele>11.7</ele><name>Foto</name></wpt><wpt lat="-27.032138333333332" lon="-48.583845000000004"><ele>8.6</ele><name>Foto</name></wpt><wpt lat="-27.03206" lon="-48.58407333333333"><ele>8.1</ele><name>Foto</name></wpt><wpt lat="-27.033153333333335" lon="-48.58201833333332"><ele>6.800000000000001</ele><name>Gravação de voz</name></wpt><wpt lat="-27.032666666666668" lon="-48.58201333333333"><ele>5.300000000000001</ele><name>Gravação de voz</name></wpt><wpt lat="-27.032076666666665" lon="-48.583935000000004"><ele>11</ele><name>Iluminação geral na via do mesmo lado da estrutura</name></wpt><wpt lat="-27.032666666666668" lon="-48.58201333333333"><ele>5.300000000000001</ele><name>Iluminação geral na via do outro lado da infraestrutura</name></wpt><wpt lat="-27.032286666666664" lon="-48.582838333333335"><ele>11.9</ele><name>Lombadas físicas</name></wpt><wpt lat="-27.032076666666665" lon="-48.583935000000004"><ele>11</ele><name>Não há árvores nem mudas</name></wpt><wpt lat="-27.033153333333335" lon="-48.58201833333332"><ele>6.800000000000001</ele><name>No bordo direito de Via de Mão Única</name></wpt><wpt lat="-27.033153333333335" lon="-48.58201833333332"><ele>6.800000000000001</ele><name>Mão Única</name></wpt><wpt lat="-27.0324" lon="-48.58242"><ele>9.7</ele><name>R-34</name></wpt><wpt lat="-27.032241666666664" lon="-48.583205"><ele>8.1</ele><name>R-34</name></wpt><wpt lat="-27.032075000000003" lon="-48.58393666666666"><ele>10.7</ele><name>SE CICLOFAIXA: para invadir a ciclo parte do automóvel passa obrigatoriamente por cima de segregadores</name></wpt><wpt lat="-27.033153333333335" lon="-48.58201833333332"><ele>6.800000000000001</ele><name>Tachões</name></wpt><wpt lat="-27.032736666666665" lon="-48.58199333333334"><ele>2.6</ele><name>Total da via (incluindo a ciclo) (cm)</name></wpt><wpt lat="-27.032294999999998" lon="-48.582881666666665"><ele>7.800000000000001</ele><name>Total da via (incluindo a ciclo) (cm)</name></wpt><wpt lat="-27.032256666666665" lon="-48.58289833333333"><ele>5.1</ele><name>Total da via (incluindo a ciclo) (cm)</name></wpt><wpt lat="-27.033164" lon="-48.58203"><name>Esta ciclofaixa é a mesma, sem divisão, do outro trecho analisado, mas aqui a via de motorizados muda de sentido</name></wpt><trk><name>Ciclofaixa R. da Praia T1 e R. Napoleão Vieira - BC</name><trkseg><trkpt lat="-27.033141666666666" lon="-48.58230666666667"><ele>9.3</ele></trkpt><trkpt lat="-27.033141666666666" lon="-48.58230666666667"><ele>9.3</ele></trkpt><trkpt lat="-27.033141666666666" lon="-48.58230666666667"><ele>9.3</ele></trkpt><trkpt lat="-27.033141666666666" lon="-48.58230666666667"><ele>9.3</ele></trkpt><trkpt lat="-27.033141666666666" lon="-48.58230666666667"><ele>9.3</ele></trkpt><trkpt lat="-27.03311833333333" lon="-48.58233166666667"><ele>3.2</ele></trkpt><trkpt lat="-27.033111666666667" lon="-48.58233"><ele>3.2</ele></trkpt><trkpt lat="-27.033110000000004" lon="-48.58233"><ele>3.2</ele></trkpt><trkpt lat="-27.033110000000004" lon="-48.58233"><ele>3.3</ele></trkpt><trkpt lat="-27.033105" lon="-48.582333333333324"><ele>3.3</ele></trkpt><trkpt lat="-27.033110000000004" lon="-48.58232833333333"><ele>3.3</ele></trkpt><trkpt lat="-27.033121666666663" lon="-48.582321666666665"><ele>3.2</ele></trkpt><trkpt lat="-27.033129999999996" lon="-48.58231166666666"><ele>3.2</ele></trkpt><trkpt lat="-27.033138333333333" lon="-48.58230166666667"><ele>3.3</ele></trkpt><trkpt lat="-27.03315" lon="-48.58229333333334"><ele>3.5</ele></trkpt><trkpt lat="-27.033153333333335" lon="-48.58228333333333"><ele>3.8000000000000003</ele></trkpt><trkpt lat="-27.033158333333336" lon="-48.58227166666667"><ele>3.8000000000000003</ele></trkpt><trkpt lat="-27.033165" lon="-48.58226166666667"><ele>4.1</ele></trkpt><trkpt lat="-27.033170000000002" lon="-48.58225000000001"><ele>4.2</ele></trkpt><trkpt lat="-27.033168333333332" lon="-48.582229999999996"><ele>4.2</ele></trkpt><trkpt lat="-27.033170000000002" lon="-48.582215"><ele>4.300000000000001</ele></trkpt><trkpt lat="-27.033170000000002" lon="-48.58220166666667"><ele>4.1</ele></trkpt><trkpt lat="-27.033174999999996" lon="-48.582186666666665"><ele>4.300000000000001</ele></trkpt><trkpt lat="-27.03318" lon="-48.58217166666667"><ele>4.4</ele></trkpt><trkpt lat="-27.033186666666666" lon="-48.58215666666667"><ele>4.4</ele></trkpt><trkpt lat="-27.033189999999998" lon="-48.582138333333326"><ele>4.300000000000001</ele></trkpt><trkpt lat="-27.033198333333335" lon="-48.58212166666667"><ele>4.1</ele></trkpt><trkpt lat="-27.033203333333336" lon="-48.58210166666666"><ele>3.8000000000000003</ele></trkpt><trkpt lat="-27.033203333333336" lon="-48.58208666666666"><ele>3.7</ele></trkpt><trkpt lat="-27.033201666666667" lon="-48.582075"><ele>3.8000000000000003</ele></trkpt><trkpt lat="-27.033195" lon="-48.58206499999999"><ele>3.4000000000000004</ele></trkpt><trkpt lat="-27.03319333333333" lon="-48.582048333333326"><ele>3.3</ele></trkpt><trkpt lat="-27.033183333333334" lon="-48.58203666666667"><ele>3.1</ele></trkpt><trkpt lat="-27.033173333333334" lon="-48.582028333333334"><ele>3.3</ele></trkpt><trkpt lat="-27.033165" lon="-48.58202333333334"><ele>3.8000000000000003</ele></trkpt><trkpt lat="-27.033158333333336" lon="-48.58201833333332"><ele>4</ele></trkpt><trkpt lat="-27.03315166666666" lon="-48.58201999999999"><ele>4.5</ele></trkpt><trkpt lat="-27.033146666666667" lon="-48.58201833333332"><ele>4.800000000000001</ele></trkpt><trkpt lat="-27.033146666666667" lon="-48.58201333333333"><ele>5.1</ele></trkpt><trkpt lat="-27.03314833333333" lon="-48.582010000000004"><ele>5.4</ele></trkpt><trkpt lat="-27.03315" lon="-48.582010000000004"><ele>5.800000000000001</ele></trkpt><trkpt lat="-27.03315166666666" lon="-48.58201166666666"><ele>6.199999999999999</ele></trkpt><trkpt lat="-27.03315166666666" lon="-48.58201333333333"><ele>6.4</ele></trkpt><trkpt lat="-27.033153333333335" lon="-48.58201666666667"><ele>6.6</ele></trkpt><trkpt lat="-27.033155000000004" lon="-48.58201666666667"><ele>6.5</ele></trkpt><trkpt lat="-27.033153333333335" lon="-48.58201833333332"><ele>6.800000000000001</ele></trkpt><trkpt lat="-27.033153333333335" lon="-48.58201833333332"><ele>6.800000000000001</ele></trkpt><trkpt lat="-27.033153333333335" lon="-48.58201833333332"><ele>6.800000000000001</ele></trkpt><trkpt lat="-27.033153333333335" lon="-48.58201833333332"><ele>6.800000000000001</ele></trkpt><trkpt lat="-27.033153333333335" lon="-48.58201833333332"><ele>6.800000000000001</ele></trkpt><trkpt lat="-27.033153333333335" lon="-48.58201833333332"><ele>6.800000000000001</ele></trkpt><trkpt lat="-27.033153333333335" lon="-48.58201833333332"><ele>6.800000000000001</ele></trkpt><trkpt lat="-27.033153333333335" lon="-48.58201833333332"><ele>6.800000000000001</ele></trkpt><trkpt lat="-27.033153333333335" lon="-48.58201833333332"><ele>6.800000000000001</ele></trkpt><trkpt lat="-27.033153333333335" lon="-48.58201833333332"><ele>6.800000000000001</ele></trkpt><trkpt lat="-27.033153333333335" lon="-48.58201833333332"><ele>6.800000000000001</ele></trkpt><trkpt lat="-27.033153333333335" lon="-48.58201833333332"><ele>6.800000000000001</ele></trkpt><trkpt lat="-27.033153333333335" lon="-48.58201833333332"><ele>6.800000000000001</ele></trkpt><trkpt lat="-27.033153333333335" lon="-48.58201833333332"><ele>6.800000000000001</ele></trkpt><trkpt lat="-27.033153333333335" lon="-48.58201833333332"><ele>6.800000000000001</ele></trkpt><trkpt lat="-27.033153333333335" lon="-48.58201833333332"><ele>6.800000000000001</ele></trkpt><trkpt lat="-27.033153333333335" lon="-48.58201833333332"><ele>6.800000000000001</ele></trkpt><trkpt lat="-27.033153333333335" lon="-48.58201833333332"><ele>6.800000000000001</ele></trkpt><trkpt lat="-27.033153333333335" lon="-48.58201833333332"><ele>6.800000000000001</ele></trkpt><trkpt lat="-27.033153333333335" lon="-48.58201833333332"><ele>6.800000000000001</ele></trkpt><trkpt lat="-27.033153333333335" lon="-48.58201833333332"><ele>6.800000000000001</ele></trkpt><trkpt lat="-27.033153333333335" lon="-48.58201833333332"><ele>6.800000000000001</ele></trkpt><trkpt lat="-27.033153333333335" lon="-48.58201833333332"><ele>6.800000000000001</ele></trkpt><trkpt lat="-27.033153333333335" lon="-48.58201833333332"><ele>6.800000000000001</ele></trkpt><trkpt lat="-27.033153333333335" lon="-48.58201833333332"><ele>6.800000000000001</ele></trkpt><trkpt lat="-27.033153333333335" lon="-48.58201833333332"><ele>6.800000000000001</ele></trkpt><trkpt lat="-27.033153333333335" lon="-48.58201833333332"><ele>6.800000000000001</ele></trkpt><trkpt lat="-27.033153333333335" lon="-48.58201833333332"><ele>6.800000000000001</ele></trkpt><trkpt lat="-27.033153333333335" lon="-48.58201833333332"><ele>6.800000000000001</ele></trkpt><trkpt lat="-27.033153333333335" lon="-48.58201833333332"><ele>6.800000000000001</ele></trkpt><trkpt lat="-27.033153333333335" lon="-48.58201833333332"><ele>6.800000000000001</ele></trkpt><trkpt lat="-27.033153333333335" lon="-48.58201833333332"><ele>6.800000000000001</ele></trkpt><trkpt lat="-27.033153333333335" lon="-48.58201833333332"><ele>6.800000000000001</ele></trkpt><trkpt lat="-27.033153333333335" lon="-48.58201833333332"><ele>6.800000000000001</ele></trkpt><trkpt lat="-27.033153333333335" lon="-48.58201833333332"><ele>6.800000000000001</ele></trkpt><trkpt lat="-27.033153333333335" lon="-48.58201833333332"><ele>6.800000000000001</ele></trkpt><trkpt lat="-27.033153333333335" lon="-48.58201833333332"><ele>6.800000000000001</ele></trkpt><trkpt lat="-27.033153333333335" lon="-48.58201833333332"><ele>6.800000000000001</ele></trkpt><trkpt lat="-27.033153333333335" lon="-48.58201833333332"><ele>6.800000000000001</ele></trkpt><trkpt lat="-27.033153333333335" lon="-48.58201833333332"><ele>6.800000000000001</ele></trkpt><trkpt lat="-27.033153333333335" lon="-48.58201833333332"><ele>6.800000000000001</ele></trkpt><trkpt lat="-27.033153333333335" lon="-48.58201833333332"><ele>6.800000000000001</ele></trkpt><trkpt lat="-27.033153333333335" lon="-48.58201833333332"><ele>6.800000000000001</ele></trkpt><trkpt lat="-27.033153333333335" lon="-48.58201833333332"><ele>6.800000000000001</ele></trkpt><trkpt lat="-27.033153333333335" lon="-48.58201833333332"><ele>6.800000000000001</ele></trkpt><trkpt lat="-27.033153333333335" lon="-48.58201833333332"><ele>6.800000000000001</ele></trkpt><trkpt lat="-27.033153333333335" lon="-48.58201833333332"><ele>6.800000000000001</ele></trkpt><trkpt lat="-27.033153333333335" lon="-48.58201833333332"><ele>6.800000000000001</ele></trkpt><trkpt lat="-27.033153333333335" lon="-48.58201833333332"><ele>6.800000000000001</ele></trkpt><trkpt lat="-27.033153333333335" lon="-48.58201833333332"><ele>6.800000000000001</ele></trkpt><trkpt lat="-27.033153333333335" lon="-48.58201833333332"><ele>6.800000000000001</ele></trkpt><trkpt lat="-27.033153333333335" lon="-48.58201833333332"><ele>6.800000000000001</ele></trkpt><trkpt lat="-27.033153333333335" lon="-48.58201833333332"><ele>6.800000000000001</ele></trkpt><trkpt lat="-27.033153333333335" lon="-48.58201833333332"><ele>6.800000000000001</ele></trkpt><trkpt lat="-27.033153333333335" lon="-48.58201833333332"><ele>6.800000000000001</ele></trkpt><trkpt lat="-27.033153333333335" lon="-48.58201833333332"><ele>6.800000000000001</ele></trkpt><trkpt lat="-27.033153333333335" lon="-48.58201833333332"><ele>6.800000000000001</ele></trkpt><trkpt lat="-27.033153333333335" lon="-48.58201833333332"><ele>6.800000000000001</ele></trkpt><trkpt lat="-27.033153333333335" lon="-48.58201833333332"><ele>6.800000000000001</ele></trkpt><trkpt lat="-27.033153333333335" lon="-48.58201833333332"><ele>6.800000000000001</ele></trkpt><trkpt lat="-27.033153333333335" lon="-48.58201833333332"><ele>6.800000000000001</ele></trkpt><trkpt lat="-27.033153333333335" lon="-48.58201833333332"><ele>6.800000000000001</ele></trkpt><trkpt lat="-27.033153333333335" lon="-48.58201833333332"><ele>6.800000000000001</ele></trkpt><trkpt lat="-27.033153333333335" lon="-48.58201833333332"><ele>6.800000000000001</ele></trkpt><trkpt lat="-27.033153333333335" lon="-48.58201833333332"><ele>6.800000000000001</ele></trkpt><trkpt lat="-27.033153333333335" lon="-48.58201833333332"><ele>6.800000000000001</ele></trkpt><trkpt lat="-27.033153333333335" lon="-48.58201833333332"><ele>6.800000000000001</ele></trkpt><trkpt lat="-27.033153333333335" lon="-48.58201833333332"><ele>6.800000000000001</ele></trkpt><trkpt lat="-27.033153333333335" lon="-48.58201833333332"><ele>6.800000000000001</ele></trkpt><trkpt lat="-27.033153333333335" lon="-48.58201833333332"><ele>6.800000000000001</ele></trkpt><trkpt lat="-27.033153333333335" lon="-48.58201833333332"><ele>6.800000000000001</ele></trkpt><trkpt lat="-27.033153333333335" lon="-48.58201833333332"><ele>6.800000000000001</ele></trkpt><trkpt lat="-27.033153333333335" lon="-48.58201833333332"><ele>6.800000000000001</ele></trkpt><trkpt lat="-27.033153333333335" lon="-48.58201833333332"><ele>6.800000000000001</ele></trkpt><trkpt lat="-27.033153333333335" lon="-48.58201833333332"><ele>6.800000000000001</ele></trkpt><trkpt lat="-27.033153333333335" lon="-48.58201833333332"><ele>6.800000000000001</ele></trkpt><trkpt lat="-27.033153333333335" lon="-48.58201833333332"><ele>6.800000000000001</ele></trkpt><trkpt lat="-27.033153333333335" lon="-48.58201833333332"><ele>6.800000000000001</ele></trkpt><trkpt lat="-27.033153333333335" lon="-48.58201833333332"><ele>6.800000000000001</ele></trkpt><trkpt lat="-27.033153333333335" lon="-48.58201833333332"><ele>6.800000000000001</ele></trkpt><trkpt lat="-27.033153333333335" lon="-48.58201833333332"><ele>6.800000000000001</ele></trkpt><trkpt lat="-27.033153333333335" lon="-48.58201833333332"><ele>6.800000000000001</ele></trkpt><trkpt lat="-27.033153333333335" lon="-48.58201833333332"><ele>6.800000000000001</ele></trkpt><trkpt lat="-27.033153333333335" lon="-48.58201833333332"><ele>6.800000000000001</ele></trkpt><trkpt lat="-27.033153333333335" lon="-48.58201833333332"><ele>6.800000000000001</ele></trkpt><trkpt lat="-27.033153333333335" lon="-48.58201833333332"><ele>6.800000000000001</ele></trkpt><trkpt lat="-27.033153333333335" lon="-48.58201833333332"><ele>6.800000000000001</ele></trkpt><trkpt lat="-27.033153333333335" lon="-48.58201833333332"><ele>6.800000000000001</ele></trkpt><trkpt lat="-27.033153333333335" lon="-48.58201833333332"><ele>6.800000000000001</ele></trkpt><trkpt lat="-27.033153333333335" lon="-48.58201833333332"><ele>6.800000000000001</ele></trkpt><trkpt lat="-27.033153333333335" lon="-48.58201833333332"><ele>6.800000000000001</ele></trkpt><trkpt lat="-27.033153333333335" lon="-48.58201833333332"><ele>6.800000000000001</ele></trkpt><trkpt lat="-27.033153333333335" lon="-48.58201833333332"><ele>6.800000000000001</ele></trkpt><trkpt lat="-27.033153333333335" lon="-48.58201833333332"><ele>6.800000000000001</ele></trkpt><trkpt lat="-27.033153333333335" lon="-48.58201833333332"><ele>6.800000000000001</ele></trkpt><trkpt lat="-27.033153333333335" lon="-48.58201833333332"><ele>6.800000000000001</ele></trkpt><trkpt lat="-27.033153333333335" lon="-48.58201833333332"><ele>6.800000000000001</ele></trkpt><trkpt lat="-27.033153333333335" lon="-48.58201833333332"><ele>6.800000000000001</ele></trkpt><trkpt lat="-27.033153333333335" lon="-48.58201833333332"><ele>6.800000000000001</ele></trkpt><trkpt lat="-27.033153333333335" lon="-48.58201833333332"><ele>6.800000000000001</ele></trkpt><trkpt lat="-27.033153333333335" lon="-48.58201833333332"><ele>6.800000000000001</ele></trkpt><trkpt lat="-27.033153333333335" lon="-48.58201833333332"><ele>6.800000000000001</ele></trkpt><trkpt lat="-27.033153333333335" lon="-48.58201833333332"><ele>6.800000000000001</ele></trkpt><trkpt lat="-27.033153333333335" lon="-48.58201833333332"><ele>6.800000000000001</ele></trkpt><trkpt lat="-27.033133333333332" lon="-48.58204666666667"><ele>9.4</ele></trkpt><trkpt lat="-27.033123333333332" lon="-48.58204666666667"><ele>9.5</ele></trkpt><trkpt lat="-27.033113333333336" lon="-48.582045"><ele>9.7</ele></trkpt><trkpt lat="-27.033098333333335" lon="-48.58204166666666"><ele>9.799999999999999</ele></trkpt><trkpt lat="-27.033081666666664" lon="-48.582035"><ele>10.1</ele></trkpt><trkpt lat="-27.033068333333336" lon="-48.58203333333333"><ele>10.2</ele></trkpt><trkpt lat="-27.033054999999997" lon="-48.582035"><ele>10.299999999999999</ele></trkpt><trkpt lat="-27.033051666666665" lon="-48.58204666666667"><ele>10.6</ele></trkpt><trkpt lat="-27.03306" lon="-48.582055000000004"><ele>10.6</ele></trkpt><trkpt lat="-27.033071666666668" lon="-48.58205666666666"><ele>10.799999999999999</ele></trkpt><trkpt lat="-27.033084999999996" lon="-48.58205833333333"><ele>11</ele></trkpt><trkpt lat="-27.03310666666666" lon="-48.58205666666666"><ele>11</ele></trkpt><trkpt lat="-27.03313166666667" lon="-48.58206166666667"><ele>10.4</ele></trkpt><trkpt lat="-27.033144999999998" lon="-48.582071666666664"><ele>10.2</ele></trkpt><trkpt lat="-27.033153333333335" lon="-48.582085000000006"><ele>10.1</ele></trkpt><trkpt lat="-27.033158333333336" lon="-48.582100000000004"><ele>10.1</ele></trkpt><trkpt lat="-27.033153333333335" lon="-48.58212166666667"><ele>10</ele></trkpt><trkpt lat="-27.033143333333335" lon="-48.582138333333326"><ele>10</ele></trkpt><trkpt lat="-27.033133333333332" lon="-48.58216000000001"><ele>10</ele></trkpt><trkpt lat="-27.033123333333332" lon="-48.58218166666667"><ele>9.799999999999999</ele></trkpt><trkpt lat="-27.03312" lon="-48.58220333333334"><ele>9.3</ele></trkpt><trkpt lat="-27.03312" lon="-48.582225"><ele>9.1</ele></trkpt><trkpt lat="-27.03311666666667" lon="-48.58224666666667"><ele>8.8</ele></trkpt><trkpt lat="-27.03311666666667" lon="-48.58226833333333"><ele>8.6</ele></trkpt><trkpt lat="-27.033125000000002" lon="-48.582274999999996"><ele>8</ele></trkpt><trkpt lat="-27.03313166666667" lon="-48.58227"><ele>7.6</ele></trkpt><trkpt lat="-27.033135" lon="-48.58225833333333"><ele>7.5</ele></trkpt><trkpt lat="-27.033141666666666" lon="-48.58224833333334"><ele>7.5</ele></trkpt><trkpt lat="-27.03314833333333" lon="-48.582235000000004"><ele>7.4</ele></trkpt><trkpt lat="-27.033153333333335" lon="-48.58221166666667"><ele>7.199999999999999</ele></trkpt><trkpt lat="-27.033155000000004" lon="-48.58219333333333"><ele>7</ele></trkpt><trkpt lat="-27.03315" lon="-48.58217666666666"><ele>6.199999999999999</ele></trkpt><trkpt lat="-27.03314833333333" lon="-48.58215833333334"><ele>6.300000000000001</ele></trkpt><trkpt lat="-27.03314833333333" lon="-48.582141666666665"><ele>6</ele></trkpt><trkpt lat="-27.033144999999998" lon="-48.58213000000001"><ele>5.5</ele></trkpt><trkpt lat="-27.033144999999998" lon="-48.582125"><ele>5.1</ele></trkpt><trkpt lat="-27.033146666666667" lon="-48.582125"><ele>4.6</ele></trkpt><trkpt lat="-27.03314833333333" lon="-48.582125"><ele>4.6</ele></trkpt><trkpt lat="-27.033156666666667" lon="-48.58212333333333"><ele>4</ele></trkpt><trkpt lat="-27.03316" lon="-48.58212333333333"><ele>3.8000000000000003</ele></trkpt><trkpt lat="-27.03316333333333" lon="-48.58212833333334"><ele>3.8000000000000003</ele></trkpt><trkpt lat="-27.03316333333333" lon="-48.58213166666666"><ele>3.9</ele></trkpt><trkpt lat="-27.033166666666663" lon="-48.582138333333326"><ele>3.7</ele></trkpt><trkpt lat="-27.033165" lon="-48.582145000000004"><ele>3.4000000000000004</ele></trkpt><trkpt lat="-27.03316333333333" lon="-48.58214666666666"><ele>3.7</ele></trkpt><trkpt lat="-27.03316333333333" lon="-48.58214666666666"><ele>4</ele></trkpt><trkpt lat="-27.03316333333333" lon="-48.58214666666666"><ele>4</ele></trkpt><trkpt lat="-27.03316333333333" lon="-48.58214666666666"><ele>4</ele></trkpt><trkpt lat="-27.03316333333333" lon="-48.58214666666666"><ele>4</ele></trkpt><trkpt lat="-27.03316333333333" lon="-48.58214666666666"><ele>4</ele></trkpt><trkpt lat="-27.03316333333333" lon="-48.58214666666666"><ele>4</ele></trkpt><trkpt lat="-27.03316333333333" lon="-48.58214666666666"><ele>4</ele></trkpt><trkpt lat="-27.03316333333333" lon="-48.58214666666666"><ele>4</ele></trkpt><trkpt lat="-27.03316333333333" lon="-48.58214666666666"><ele>4</ele></trkpt><trkpt lat="-27.03316333333333" lon="-48.58214666666666"><ele>4</ele></trkpt><trkpt lat="-27.03316333333333" lon="-48.58214666666666"><ele>4</ele></trkpt><trkpt lat="-27.03316333333333" lon="-48.58214666666666"><ele>4</ele></trkpt><trkpt lat="-27.03316333333333" lon="-48.58214666666666"><ele>4</ele></trkpt><trkpt lat="-27.03316333333333" lon="-48.58214666666666"><ele>4</ele></trkpt><trkpt lat="-27.03316333333333" lon="-48.58214666666666"><ele>4</ele></trkpt><trkpt lat="-27.03316333333333" lon="-48.58214666666666"><ele>4</ele></trkpt><trkpt lat="-27.03316333333333" lon="-48.58214666666666"><ele>4</ele></trkpt><trkpt lat="-27.03316333333333" lon="-48.58214666666666"><ele>4</ele></trkpt><trkpt lat="-27.03316333333333" lon="-48.58214666666666"><ele>4</ele></trkpt><trkpt lat="-27.03316333333333" lon="-48.58214666666666"><ele>4</ele></trkpt><trkpt lat="-27.03316333333333" lon="-48.58214666666666"><ele>4</ele></trkpt><trkpt lat="-27.03315166666666" lon="-48.58212"><ele>4.5</ele></trkpt><trkpt lat="-27.033153333333335" lon="-48.58210833333332"><ele>4.5</ele></trkpt><trkpt lat="-27.03315" lon="-48.582094999999995"><ele>4.300000000000001</ele></trkpt><trkpt lat="-27.033153333333335" lon="-48.58208"><ele>4.2</ele></trkpt><trkpt lat="-27.033153333333335" lon="-48.58208"><ele>4.2</ele></trkpt><trkpt lat="-27.03316333333333" lon="-48.582073333333334"><ele>4.4</ele></trkpt><trkpt lat="-27.033170000000002" lon="-48.58207000000001"><ele>4.800000000000001</ele></trkpt><trkpt lat="-27.03318" lon="-48.582071666666664"><ele>5.2</ele></trkpt><trkpt lat="-27.033191666666667" lon="-48.58206666666667"><ele>5.699999999999999</ele></trkpt><trkpt lat="-27.03320833333333" lon="-48.582053333333334"><ele>5.800000000000001</ele></trkpt><trkpt lat="-27.033216666666664" lon="-48.582040000000006"><ele>6.199999999999999</ele></trkpt><trkpt lat="-27.033200000000004" lon="-48.58203666666667"><ele>6.300000000000001</ele></trkpt><trkpt lat="-27.033173333333334" lon="-48.58203833333334"><ele>6.1</ele></trkpt><trkpt lat="-27.033146666666667" lon="-48.58203833333334"><ele>6.1</ele></trkpt><trkpt lat="-27.03311833333333" lon="-48.582035"><ele>6.1</ele></trkpt><trkpt lat="-27.03308666666667" lon="-48.58203"><ele>6.300000000000001</ele></trkpt><trkpt lat="-27.03305833333333" lon="-48.58203"><ele>6.4</ele></trkpt><trkpt lat="-27.03305833333333" lon="-48.58203"><ele>6.4</ele></trkpt><trkpt lat="-27.03303" lon="-48.58203"><ele>6.699999999999999</ele></trkpt><trkpt lat="-27.03300166666667" lon="-48.582026666666664"><ele>7</ele></trkpt><trkpt lat="-27.032971666666672" lon="-48.582028333333334"><ele>6.9</ele></trkpt><trkpt lat="-27.03294166666667" lon="-48.582026666666664"><ele>7.199999999999999</ele></trkpt><trkpt lat="-27.03290833333333" lon="-48.582026666666664"><ele>7.4</ele></trkpt><trkpt lat="-27.032883333333334" lon="-48.58202500000001"><ele>7.5</ele></trkpt><trkpt lat="-27.032856666666664" lon="-48.58201833333332"><ele>7.300000000000001</ele></trkpt><trkpt lat="-27.032856666666664" lon="-48.58201833333332"><ele>7.300000000000001</ele></trkpt><trkpt lat="-27.032831666666667" lon="-48.58201833333332"><ele>7.4</ele></trkpt><trkpt lat="-27.03280833333333" lon="-48.582015"><ele>7.699999999999999</ele></trkpt><trkpt lat="-27.03277666666667" lon="-48.582015"><ele>8.9</ele></trkpt><trkpt lat="-27.032748333333334" lon="-48.58201333333333"><ele>9</ele></trkpt><trkpt lat="-27.032735000000002" lon="-48.582008333333334"><ele>9.4</ele></trkpt><trkpt lat="-27.032739999999997" lon="-48.58200166666667"><ele>9.2</ele></trkpt><trkpt lat="-27.032739999999997" lon="-48.58200166666667"><ele>8.7</ele></trkpt><trkpt lat="-27.032741666666666" lon="-48.582003333333326"><ele>8.4</ele></trkpt><trkpt lat="-27.032741666666666" lon="-48.582004999999995"><ele>7.9</ele></trkpt><trkpt lat="-27.032741666666666" lon="-48.582003333333326"><ele>7.6</ele></trkpt><trkpt lat="-27.032745" lon="-48.582003333333326"><ele>7.1</ele></trkpt><trkpt lat="-27.032750000000004" lon="-48.58200166666667"><ele>6.9</ele></trkpt><trkpt lat="-27.032756666666668" lon="-48.58200166666667"><ele>6.9</ele></trkpt><trkpt lat="-27.03276" lon="-48.58200166666667"><ele>6.699999999999999</ele></trkpt><trkpt lat="-27.03276333333333" lon="-48.582"><ele>6.6</ele></trkpt><trkpt lat="-27.03276333333333" lon="-48.58199833333333"><ele>6.300000000000001</ele></trkpt><trkpt lat="-27.032753333333336" lon="-48.582"><ele>6.5</ele></trkpt><trkpt lat="-27.032745" lon="-48.582004999999995"><ele>6.1</ele></trkpt><trkpt lat="-27.032739999999997" lon="-48.582008333333334"><ele>6.1</ele></trkpt><trkpt lat="-27.032738333333334" lon="-48.58201166666666"><ele>6</ele></trkpt><trkpt lat="-27.032738333333334" lon="-48.58201333333333"><ele>6.1</ele></trkpt><trkpt lat="-27.032736666666665" lon="-48.58201333333333"><ele>5.9</ele></trkpt><trkpt lat="-27.03273166666667" lon="-48.582010000000004"><ele>5.800000000000001</ele></trkpt><trkpt lat="-27.03273166666667" lon="-48.58201166666666"><ele>5.5</ele></trkpt><trkpt lat="-27.03273" lon="-48.58201166666666"><ele>5.1</ele></trkpt><trkpt lat="-27.03273" lon="-48.582010000000004"><ele>5</ele></trkpt><trkpt lat="-27.032736666666665" lon="-48.58201999999999"><ele>5.300000000000001</ele></trkpt><trkpt lat="-27.032736666666665" lon="-48.58201999999999"><ele>5.300000000000001</ele></trkpt><trkpt lat="-27.032736666666665" lon="-48.58201999999999"><ele>5.300000000000001</ele></trkpt><trkpt lat="-27.032736666666665" lon="-48.58201999999999"><ele>5.300000000000001</ele></trkpt><trkpt lat="-27.032736666666665" lon="-48.58201999999999"><ele>5.300000000000001</ele></trkpt><trkpt lat="-27.032736666666665" lon="-48.58201999999999"><ele>5.300000000000001</ele></trkpt><trkpt lat="-27.032736666666665" lon="-48.58201999999999"><ele>5.300000000000001</ele></trkpt><trkpt lat="-27.032736666666665" lon="-48.58201999999999"><ele>5.300000000000001</ele></trkpt><trkpt lat="-27.032736666666665" lon="-48.58201999999999"><ele>5.300000000000001</ele></trkpt><trkpt lat="-27.032736666666665" lon="-48.58201999999999"><ele>5.300000000000001</ele></trkpt><trkpt lat="-27.032736666666665" lon="-48.58201999999999"><ele>5.300000000000001</ele></trkpt><trkpt lat="-27.032736666666665" lon="-48.58201999999999"><ele>5.300000000000001</ele></trkpt><trkpt lat="-27.032736666666665" lon="-48.58201999999999"><ele>5.300000000000001</ele></trkpt><trkpt lat="-27.032736666666665" lon="-48.58201999999999"><ele>5.300000000000001</ele></trkpt><trkpt lat="-27.032736666666665" lon="-48.58201999999999"><ele>5.300000000000001</ele></trkpt><trkpt lat="-27.032736666666665" lon="-48.58201999999999"><ele>5.300000000000001</ele></trkpt><trkpt lat="-27.032736666666665" lon="-48.58201999999999"><ele>5.300000000000001</ele></trkpt><trkpt lat="-27.032736666666665" lon="-48.58201999999999"><ele>5.300000000000001</ele></trkpt><trkpt lat="-27.032736666666665" lon="-48.58201999999999"><ele>5.300000000000001</ele></trkpt><trkpt lat="-27.032736666666665" lon="-48.58201999999999"><ele>5.300000000000001</ele></trkpt><trkpt lat="-27.032736666666665" lon="-48.58201999999999"><ele>5.300000000000001</ele></trkpt><trkpt lat="-27.032736666666665" lon="-48.58201999999999"><ele>5.300000000000001</ele></trkpt><trkpt lat="-27.032736666666665" lon="-48.58201999999999"><ele>5.300000000000001</ele></trkpt><trkpt lat="-27.032736666666665" lon="-48.58201999999999"><ele>5.300000000000001</ele></trkpt><trkpt lat="-27.032736666666665" lon="-48.58201999999999"><ele>5.300000000000001</ele></trkpt><trkpt lat="-27.032736666666665" lon="-48.58201999999999"><ele>5.300000000000001</ele></trkpt><trkpt lat="-27.032736666666665" lon="-48.58201999999999"><ele>5.300000000000001</ele></trkpt><trkpt lat="-27.032736666666665" lon="-48.58201999999999"><ele>5.300000000000001</ele></trkpt><trkpt lat="-27.032736666666665" lon="-48.58201999999999"><ele>5.300000000000001</ele></trkpt><trkpt lat="-27.032721666666664" lon="-48.582004999999995"><ele>3</ele></trkpt><trkpt lat="-27.03272666666667" lon="-48.58199166666667"><ele>2.7</ele></trkpt><trkpt lat="-27.03273" lon="-48.58198666666667"><ele>2.7</ele></trkpt><trkpt lat="-27.032735000000002" lon="-48.58198666666667"><ele>2.8</ele></trkpt><trkpt lat="-27.032736666666665" lon="-48.58199333333334"><ele>2.6</ele></trkpt><trkpt lat="-27.032736666666665" lon="-48.58199333333334"><ele>2.6</ele></trkpt><trkpt lat="-27.032736666666665" lon="-48.58199333333334"><ele>2.6</ele></trkpt><trkpt lat="-27.032736666666665" lon="-48.58199333333334"><ele>2.6</ele></trkpt><trkpt lat="-27.032736666666665" lon="-48.58199333333334"><ele>2.6</ele></trkpt><trkpt lat="-27.032736666666665" lon="-48.58199333333334"><ele>2.6</ele></trkpt><trkpt lat="-27.032736666666665" lon="-48.58199333333334"><ele>2.6</ele></trkpt><trkpt lat="-27.032736666666665" lon="-48.58199333333334"><ele>2.6</ele></trkpt><trkpt lat="-27.032736666666665" lon="-48.58199333333334"><ele>2.6</ele></trkpt><trkpt lat="-27.032736666666665" lon="-48.58199333333334"><ele>2.6</ele></trkpt><trkpt lat="-27.032736666666665" lon="-48.58199333333334"><ele>2.6</ele></trkpt><trkpt lat="-27.032736666666665" lon="-48.58199333333334"><ele>2.6</ele></trkpt><trkpt lat="-27.032736666666665" lon="-48.58199333333334"><ele>2.6</ele></trkpt><trkpt lat="-27.032736666666665" lon="-48.58199333333334"><ele>2.6</ele></trkpt><trkpt lat="-27.032736666666665" lon="-48.58199333333334"><ele>2.6</ele></trkpt><trkpt lat="-27.032736666666665" lon="-48.58199333333334"><ele>2.6</ele></trkpt><trkpt lat="-27.032736666666665" lon="-48.58199333333334"><ele>2.6</ele></trkpt><trkpt lat="-27.032736666666665" lon="-48.58199333333334"><ele>2.6</ele></trkpt><trkpt lat="-27.032736666666665" lon="-48.58199333333334"><ele>2.6</ele></trkpt><trkpt lat="-27.032736666666665" lon="-48.58199333333334"><ele>2.6</ele></trkpt><trkpt lat="-27.032736666666665" lon="-48.58199333333334"><ele>2.6</ele></trkpt><trkpt lat="-27.032736666666665" lon="-48.58199333333334"><ele>2.6</ele></trkpt><trkpt lat="-27.032736666666665" lon="-48.58199333333334"><ele>2.6</ele></trkpt><trkpt lat="-27.032736666666665" lon="-48.58199333333334"><ele>2.6</ele></trkpt><trkpt lat="-27.032736666666665" lon="-48.58199333333334"><ele>2.6</ele></trkpt><trkpt lat="-27.032736666666665" lon="-48.58199333333334"><ele>2.6</ele></trkpt><trkpt lat="-27.032736666666665" lon="-48.58199333333334"><ele>2.6</ele></trkpt><trkpt lat="-27.032736666666665" lon="-48.58199333333334"><ele>2.6</ele></trkpt><trkpt lat="-27.032736666666665" lon="-48.58199333333334"><ele>2.6</ele></trkpt><trkpt lat="-27.032736666666665" lon="-48.58199333333334"><ele>2.6</ele></trkpt><trkpt lat="-27.032736666666665" lon="-48.58199333333334"><ele>2.6</ele></trkpt><trkpt lat="-27.032736666666665" lon="-48.58199333333334"><ele>2.6</ele></trkpt><trkpt lat="-27.032736666666665" lon="-48.58199333333334"><ele>2.6</ele></trkpt><trkpt lat="-27.032736666666665" lon="-48.58199333333334"><ele>2.6</ele></trkpt><trkpt lat="-27.032736666666665" lon="-48.58199333333334"><ele>2.6</ele></trkpt><trkpt lat="-27.032736666666665" lon="-48.58199333333334"><ele>2.6</ele></trkpt><trkpt lat="-27.032736666666665" lon="-48.58199333333334"><ele>2.6</ele></trkpt><trkpt lat="-27.032736666666665" lon="-48.58199333333334"><ele>2.6</ele></trkpt><trkpt lat="-27.032736666666665" lon="-48.58199333333334"><ele>2.6</ele></trkpt><trkpt lat="-27.032736666666665" lon="-48.58199333333334"><ele>2.6</ele></trkpt><trkpt lat="-27.032736666666665" lon="-48.58199333333334"><ele>2.6</ele></trkpt><trkpt lat="-27.032736666666665" lon="-48.58199333333334"><ele>2.6</ele></trkpt><trkpt lat="-27.032736666666665" lon="-48.58199333333334"><ele>2.6</ele></trkpt><trkpt lat="-27.032736666666665" lon="-48.58199333333334"><ele>2.6</ele></trkpt><trkpt lat="-27.032736666666665" lon="-48.58199333333334"><ele>2.6</ele></trkpt><trkpt lat="-27.032736666666665" lon="-48.58199333333334"><ele>2.6</ele></trkpt><trkpt lat="-27.032736666666665" lon="-48.58199333333334"><ele>2.6</ele></trkpt><trkpt lat="-27.032736666666665" lon="-48.58199333333334"><ele>2.6</ele></trkpt><trkpt lat="-27.032738333333334" lon="-48.582"><ele>5.4</ele></trkpt><trkpt lat="-27.032735000000002" lon="-48.58199833333333"><ele>5.5</ele></trkpt><trkpt lat="-27.032735000000002" lon="-48.58200166666667"><ele>5.300000000000001</ele></trkpt><trkpt lat="-27.03273166666667" lon="-48.582004999999995"><ele>5</ele></trkpt><trkpt lat="-27.03273" lon="-48.582006666666665"><ele>4.9</ele></trkpt><trkpt lat="-27.03273" lon="-48.582006666666665"><ele>4.9</ele></trkpt><trkpt lat="-27.03273" lon="-48.582006666666665"><ele>4.9</ele></trkpt><trkpt lat="-27.032715" lon="-48.58201833333332"><ele>4.7</ele></trkpt><trkpt lat="-27.032703333333334" lon="-48.582028333333334"><ele>4.6</ele></trkpt><trkpt lat="-27.03268666666667" lon="-48.582035"><ele>4.4</ele></trkpt><trkpt lat="-27.032663333333335" lon="-48.58203666666667"><ele>4.300000000000001</ele></trkpt><trkpt lat="-27.032646666666665" lon="-48.58203333333333"><ele>4.5</ele></trkpt><trkpt lat="-27.032631666666664" lon="-48.58203"><ele>4.5</ele></trkpt><trkpt lat="-27.03261166666667" lon="-48.582026666666664"><ele>4.7</ele></trkpt><trkpt lat="-27.032588333333333" lon="-48.582028333333334"><ele>5.1</ele></trkpt><trkpt lat="-27.03256666666667" lon="-48.582028333333334"><ele>5.6</ele></trkpt><trkpt lat="-27.03256666666667" lon="-48.582028333333334"><ele>5.6</ele></trkpt><trkpt lat="-27.032556666666665" lon="-48.582028333333334"><ele>6.4</ele></trkpt><trkpt lat="-27.03253833333333" lon="-48.582026666666664"><ele>6.699999999999999</ele></trkpt><trkpt lat="-27.032514999999997" lon="-48.58202166666667"><ele>6.4</ele></trkpt><trkpt lat="-27.032499999999995" lon="-48.58202166666667"><ele>6.1</ele></trkpt><trkpt lat="-27.03249333333333" lon="-48.58202166666667"><ele>5.699999999999999</ele></trkpt><trkpt lat="-27.032488333333337" lon="-48.58202166666667"><ele>5.2</ele></trkpt><trkpt lat="-27.032481666666666" lon="-48.58202500000001"><ele>4.800000000000001</ele></trkpt><trkpt lat="-27.032481666666666" lon="-48.582028333333334"><ele>4.7</ele></trkpt><trkpt lat="-27.032481666666666" lon="-48.58203166666667"><ele>4.9</ele></trkpt><trkpt lat="-27.032478333333334" lon="-48.58204166666666"><ele>5.300000000000001</ele></trkpt><trkpt lat="-27.032480000000003" lon="-48.582045"><ele>5.9</ele></trkpt><trkpt lat="-27.032480000000003" lon="-48.582045"><ele>5.9</ele></trkpt><trkpt lat="-27.032474999999998" lon="-48.582051666666665"><ele>6.6</ele></trkpt><trkpt lat="-27.032466666666664" lon="-48.58206333333332"><ele>6.5</ele></trkpt><trkpt lat="-27.032465000000002" lon="-48.58209"><ele>6.4</ele></trkpt><trkpt lat="-27.032458333333338" lon="-48.582125"><ele>6.1</ele></trkpt><trkpt lat="-27.032451666666663" lon="-48.58215833333334"><ele>6.300000000000001</ele></trkpt><trkpt lat="-27.032445" lon="-48.58219166666666"><ele>6.4</ele></trkpt><trkpt lat="-27.032443333333337" lon="-48.582225"><ele>6.699999999999999</ele></trkpt><trkpt lat="-27.032443333333337" lon="-48.582225"><ele>6.699999999999999</ele></trkpt><trkpt lat="-27.032438333333335" lon="-48.58225833333333"><ele>6.800000000000001</ele></trkpt><trkpt lat="-27.032433333333334" lon="-48.58229166666667"><ele>7</ele></trkpt><trkpt lat="-27.032428333333336" lon="-48.582319999999996"><ele>7.300000000000001</ele></trkpt><trkpt lat="-27.032424999999996" lon="-48.582345000000004"><ele>7.199999999999999</ele></trkpt><trkpt lat="-27.032426666666666" lon="-48.58236"><ele>7.6</ele></trkpt><trkpt lat="-27.032428333333336" lon="-48.582375"><ele>8.3</ele></trkpt><trkpt lat="-27.032428333333336" lon="-48.582388333333334"><ele>8.9</ele></trkpt><trkpt lat="-27.032421666666664" lon="-48.58240000000001"><ele>9.5</ele></trkpt><trkpt lat="-27.03241666666667" lon="-48.582411666666665"><ele>9.799999999999999</ele></trkpt><trkpt lat="-27.032409999999995" lon="-48.58241666666666"><ele>10.1</ele></trkpt><trkpt lat="-27.032409999999995" lon="-48.58241666666666"><ele>10.1</ele></trkpt><trkpt lat="-27.032405" lon="-48.58242"><ele>10</ele></trkpt><trkpt lat="-27.032398333333337" lon="-48.582423333333324"><ele>10.1</ele></trkpt><trkpt lat="-27.032396666666667" lon="-48.58242166666667"><ele>10.4</ele></trkpt><trkpt lat="-27.032396666666667" lon="-48.58242166666667"><ele>10.299999999999999</ele></trkpt><trkpt lat="-27.032396666666667" lon="-48.58242166666667"><ele>10</ele></trkpt><trkpt lat="-27.0324" lon="-48.58242"><ele>9.7</ele></trkpt><trkpt lat="-27.0324" lon="-48.58242"><ele>9.7</ele></trkpt><trkpt lat="-27.03240166666667" lon="-48.58242"><ele>9.2</ele></trkpt><trkpt lat="-27.03240166666667" lon="-48.58242"><ele>9</ele></trkpt><trkpt lat="-27.03240166666667" lon="-48.582423333333324"><ele>8.9</ele></trkpt><trkpt lat="-27.03240333333333" lon="-48.582433333333334"><ele>8.7</ele></trkpt><trkpt lat="-27.03240166666667" lon="-48.58245"><ele>8.7</ele></trkpt><trkpt lat="-27.0324" lon="-48.58247500000001"><ele>8.6</ele></trkpt><trkpt lat="-27.032396666666667" lon="-48.58249666666667"><ele>8.7</ele></trkpt><trkpt lat="-27.032388333333333" lon="-48.582523333333334"><ele>8.8</ele></trkpt><trkpt lat="-27.032379999999996" lon="-48.58255333333333"><ele>9</ele></trkpt><trkpt lat="-27.032375000000002" lon="-48.58258166666666"><ele>9.1</ele></trkpt><trkpt lat="-27.032366666666668" lon="-48.582611666666665"><ele>9.3</ele></trkpt><trkpt lat="-27.032353333333337" lon="-48.582648333333324"><ele>9.3</ele></trkpt><trkpt lat="-27.032346666666665" lon="-48.58267666666667"><ele>10.2</ele></trkpt><trkpt lat="-27.032338333333335" lon="-48.582705000000004"><ele>10.299999999999999</ele></trkpt><trkpt lat="-27.032328333333332" lon="-48.58273166666666"><ele>10.4</ele></trkpt><trkpt lat="-27.03231166666667" lon="-48.58275833333334"><ele>11</ele></trkpt><trkpt lat="-27.032306666666667" lon="-48.58278"><ele>11.9</ele></trkpt><trkpt lat="-27.032306666666667" lon="-48.58278"><ele>11.9</ele></trkpt><trkpt lat="-27.032298333333333" lon="-48.58280166666667"><ele>12.1</ele></trkpt><trkpt lat="-27.03229666666667" lon="-48.582816666666666"><ele>12.299999999999999</ele></trkpt><trkpt lat="-27.032294999999998" lon="-48.582829999999994"><ele>12.4</ele></trkpt><trkpt lat="-27.032291666666666" lon="-48.582834999999996"><ele>12.6</ele></trkpt><trkpt lat="-27.032285" lon="-48.582836666666665"><ele>12.6</ele></trkpt><trkpt lat="-27.032283333333332" lon="-48.582836666666665"><ele>12.299999999999999</ele></trkpt><trkpt lat="-27.032286666666664" lon="-48.582838333333335"><ele>11.9</ele></trkpt><trkpt lat="-27.032286666666664" lon="-48.582838333333335"><ele>11.9</ele></trkpt><trkpt lat="-27.032286666666664" lon="-48.582836666666665"><ele>11.4</ele></trkpt><trkpt lat="-27.032285" lon="-48.582836666666665"><ele>10.6</ele></trkpt><trkpt lat="-27.032283333333332" lon="-48.582834999999996"><ele>9.7</ele></trkpt><trkpt lat="-27.03228" lon="-48.58283333333334"><ele>9.2</ele></trkpt><trkpt lat="-27.032278333333338" lon="-48.58283166666667"><ele>8.7</ele></trkpt><trkpt lat="-27.03228" lon="-48.58283166666667"><ele>8.7</ele></trkpt><trkpt lat="-27.03228166666667" lon="-48.582840000000004"><ele>8.7</ele></trkpt><trkpt lat="-27.03228" lon="-48.58284833333334"><ele>8.8</ele></trkpt><trkpt lat="-27.03228166666667" lon="-48.582855"><ele>9.1</ele></trkpt><trkpt lat="-27.032276666666668" lon="-48.582874999999994"><ele>9.1</ele></trkpt><trkpt lat="-27.032271666666663" lon="-48.58290166666667"><ele>9</ele></trkpt><trkpt lat="-27.03226666666667" lon="-48.582924999999996"><ele>9</ele></trkpt><trkpt lat="-27.032265" lon="-48.58294333333333"><ele>9.2</ele></trkpt><trkpt lat="-27.032265" lon="-48.58294333333333"><ele>9.2</ele></trkpt><trkpt lat="-27.032263333333336" lon="-48.58295833333333"><ele>9.6</ele></trkpt><trkpt lat="-27.032259999999997" lon="-48.582969999999996"><ele>9.9</ele></trkpt><trkpt lat="-27.032259999999997" lon="-48.582971666666666"><ele>10.2</ele></trkpt><trkpt lat="-27.032258333333335" lon="-48.582973333333335"><ele>10.4</ele></trkpt><trkpt lat="-27.032256666666665" lon="-48.582969999999996"><ele>10.799999999999999</ele></trkpt><trkpt lat="-27.032255000000003" lon="-48.582971666666666"><ele>10.7</ele></trkpt><trkpt lat="-27.032258333333335" lon="-48.582969999999996"><ele>10.4</ele></trkpt><trkpt lat="-27.032261666666667" lon="-48.582971666666666"><ele>10.299999999999999</ele></trkpt><trkpt lat="-27.032271666666663" lon="-48.582973333333335"><ele>10</ele></trkpt><trkpt lat="-27.03228" lon="-48.582975000000005"><ele>9.2</ele></trkpt><trkpt lat="-27.03228166666667" lon="-48.58296833333334"><ele>8.9</ele></trkpt><trkpt lat="-27.032285" lon="-48.582963333333325"><ele>9.2</ele></trkpt><trkpt lat="-27.032283333333332" lon="-48.58296"><ele>9.5</ele></trkpt><trkpt lat="-27.03228166666667" lon="-48.58296"><ele>10.1</ele></trkpt><trkpt lat="-27.032278333333338" lon="-48.58296"><ele>10.4</ele></trkpt><trkpt lat="-27.032283333333332" lon="-48.58295666666666"><ele>10.5</ele></trkpt><trkpt lat="-27.032285" lon="-48.58295666666666"><ele>10.6</ele></trkpt><trkpt lat="-27.032285" lon="-48.58295499999999"><ele>10.5</ele></trkpt><trkpt lat="-27.032285" lon="-48.58295499999999"><ele>10.4</ele></trkpt><trkpt lat="-27.032285" lon="-48.582951666666666"><ele>10.5</ele></trkpt><trkpt lat="-27.032286666666664" lon="-48.582945"><ele>10.799999999999999</ele></trkpt><trkpt lat="-27.032288333333334" lon="-48.58294166666666"><ele>11</ele></trkpt><trkpt lat="-27.032291666666666" lon="-48.582939999999994"><ele>11.2</ele></trkpt><trkpt lat="-27.032294999999998" lon="-48.582939999999994"><ele>11.4</ele></trkpt><trkpt lat="-27.03229666666667" lon="-48.582939999999994"><ele>11.6</ele></trkpt><trkpt lat="-27.03229666666667" lon="-48.582939999999994"><ele>11.9</ele></trkpt><trkpt lat="-27.032303333333335" lon="-48.58293333333333"><ele>12.1</ele></trkpt><trkpt lat="-27.03231" lon="-48.582928333333335"><ele>12.4</ele></trkpt><trkpt lat="-27.03231166666667" lon="-48.582926666666665"><ele>12.7</ele></trkpt><trkpt lat="-27.03231" lon="-48.582928333333335"><ele>13</ele></trkpt><trkpt lat="-27.03231" lon="-48.582928333333335"><ele>13</ele></trkpt><trkpt lat="-27.03231166666667" lon="-48.58293333333333"><ele>13.5</ele></trkpt><trkpt lat="-27.032304999999997" lon="-48.58294333333333"><ele>13.6</ele></trkpt><trkpt lat="-27.032303333333335" lon="-48.582951666666666"><ele>13.6</ele></trkpt><trkpt lat="-27.03231" lon="-48.58295666666666"><ele>13.2</ele></trkpt><trkpt lat="-27.032306666666667" lon="-48.58296"><ele>13</ele></trkpt><trkpt lat="-27.032304999999997" lon="-48.58295833333333"><ele>13.1</ele></trkpt><trkpt lat="-27.032304999999997" lon="-48.58295666666666"><ele>13.1</ele></trkpt><trkpt lat="-27.032304999999997" lon="-48.58295666666666"><ele>13.1</ele></trkpt><trkpt lat="-27.032304999999997" lon="-48.58295666666666"><ele>13.1</ele></trkpt><trkpt lat="-27.032304999999997" lon="-48.58295666666666"><ele>13.1</ele></trkpt><trkpt lat="-27.032304999999997" lon="-48.58295666666666"><ele>13.1</ele></trkpt><trkpt lat="-27.032304999999997" lon="-48.58295666666666"><ele>13.1</ele></trkpt><trkpt lat="-27.032304999999997" lon="-48.58295666666666"><ele>13.1</ele></trkpt><trkpt lat="-27.032304999999997" lon="-48.58295666666666"><ele>13.1</ele></trkpt><trkpt lat="-27.032304999999997" lon="-48.58295666666666"><ele>13.1</ele></trkpt><trkpt lat="-27.032304999999997" lon="-48.58295666666666"><ele>13.1</ele></trkpt><trkpt lat="-27.032304999999997" lon="-48.58295666666666"><ele>13.1</ele></trkpt><trkpt lat="-27.032304999999997" lon="-48.58295666666666"><ele>13.1</ele></trkpt><trkpt lat="-27.032304999999997" lon="-48.58295666666666"><ele>13.1</ele></trkpt><trkpt lat="-27.032304999999997" lon="-48.58295666666666"><ele>13.1</ele></trkpt><trkpt lat="-27.032304999999997" lon="-48.58295666666666"><ele>13.1</ele></trkpt><trkpt lat="-27.032304999999997" lon="-48.58295666666666"><ele>13.1</ele></trkpt><trkpt lat="-27.032304999999997" lon="-48.58295666666666"><ele>13.1</ele></trkpt><trkpt lat="-27.032304999999997" lon="-48.58295666666666"><ele>13.1</ele></trkpt><trkpt lat="-27.032304999999997" lon="-48.58295666666666"><ele>13.1</ele></trkpt><trkpt lat="-27.032304999999997" lon="-48.58295666666666"><ele>13.1</ele></trkpt><trkpt lat="-27.03231166666667" lon="-48.582915"><ele>11</ele></trkpt><trkpt lat="-27.032316666666663" lon="-48.582906666666666"><ele>10.9</ele></trkpt><trkpt lat="-27.032325" lon="-48.58289333333334"><ele>10.5</ele></trkpt><trkpt lat="-27.032328333333332" lon="-48.582879999999996"><ele>10.1</ele></trkpt><trkpt lat="-27.032334999999996" lon="-48.58286666666666"><ele>9.9</ele></trkpt><trkpt lat="-27.032338333333335" lon="-48.582855"><ele>9.7</ele></trkpt><trkpt lat="-27.032338333333335" lon="-48.582841666666674"><ele>9.5</ele></trkpt><trkpt lat="-27.032338333333335" lon="-48.582838333333335"><ele>9.1</ele></trkpt><trkpt lat="-27.032339999999998" lon="-48.582845"><ele>8.8</ele></trkpt><trkpt lat="-27.032336666666666" lon="-48.58285333333333"><ele>8.8</ele></trkpt><trkpt lat="-27.032333333333334" lon="-48.58285666666667"><ele>9</ele></trkpt><trkpt lat="-27.03232666666667" lon="-48.582863333333336"><ele>9</ele></trkpt><trkpt lat="-27.032325" lon="-48.58286833333333"><ele>8.9</ele></trkpt><trkpt lat="-27.032323333333338" lon="-48.58286833333333"><ele>9</ele></trkpt><trkpt lat="-27.032315" lon="-48.58287166666667"><ele>8.9</ele></trkpt><trkpt lat="-27.032315" lon="-48.58287"><ele>8.7</ele></trkpt><trkpt lat="-27.03231166666667" lon="-48.582873333333325"><ele>8.6</ele></trkpt><trkpt lat="-27.032301666666665" lon="-48.582874999999994"><ele>8.7</ele></trkpt><trkpt lat="-27.032294999999998" lon="-48.58287833333334"><ele>8.4</ele></trkpt><trkpt lat="-27.032289999999996" lon="-48.582879999999996"><ele>7.800000000000001</ele></trkpt><trkpt lat="-27.032293333333335" lon="-48.582879999999996"><ele>7.800000000000001</ele></trkpt><trkpt lat="-27.032293333333335" lon="-48.582879999999996"><ele>7.800000000000001</ele></trkpt><trkpt lat="-27.032294999999998" lon="-48.582881666666665"><ele>7.800000000000001</ele></trkpt><trkpt lat="-27.032294999999998" lon="-48.582881666666665"><ele>7.800000000000001</ele></trkpt><trkpt lat="-27.032294999999998" lon="-48.582881666666665"><ele>7.800000000000001</ele></trkpt><trkpt lat="-27.032294999999998" lon="-48.582881666666665"><ele>7.800000000000001</ele></trkpt><trkpt lat="-27.032294999999998" lon="-48.582881666666665"><ele>7.800000000000001</ele></trkpt><trkpt lat="-27.032294999999998" lon="-48.582881666666665"><ele>7.800000000000001</ele></trkpt><trkpt lat="-27.032294999999998" lon="-48.582881666666665"><ele>7.800000000000001</ele></trkpt><trkpt lat="-27.032294999999998" lon="-48.582881666666665"><ele>7.800000000000001</ele></trkpt><trkpt lat="-27.032294999999998" lon="-48.582881666666665"><ele>7.800000000000001</ele></trkpt><trkpt lat="-27.032294999999998" lon="-48.582881666666665"><ele>7.800000000000001</ele></trkpt><trkpt lat="-27.032294999999998" lon="-48.582881666666665"><ele>7.800000000000001</ele></trkpt><trkpt lat="-27.032294999999998" lon="-48.582881666666665"><ele>7.800000000000001</ele></trkpt><trkpt lat="-27.032294999999998" lon="-48.582881666666665"><ele>7.800000000000001</ele></trkpt><trkpt lat="-27.03231" lon="-48.58285333333333"><ele>8.1</ele></trkpt><trkpt lat="-27.03231" lon="-48.58284666666667"><ele>8.2</ele></trkpt><trkpt lat="-27.03231166666667" lon="-48.582841666666674"><ele>8.3</ele></trkpt><trkpt lat="-27.032315" lon="-48.582840000000004"><ele>8.4</ele></trkpt><trkpt lat="-27.032316666666663" lon="-48.58283333333334"><ele>8.4</ele></trkpt><trkpt lat="-27.032316666666663" lon="-48.58283166666667"><ele>8.4</ele></trkpt><trkpt lat="-27.032318333333333" lon="-48.582829999999994"><ele>8.4</ele></trkpt><trkpt lat="-27.03231333333333" lon="-48.582828333333325"><ele>8.4</ele></trkpt><trkpt lat="-27.032304999999997" lon="-48.58282333333333"><ele>8.4</ele></trkpt><trkpt lat="-27.03231166666667" lon="-48.58281999999999"><ele>8.4</ele></trkpt><trkpt lat="-27.032306666666667" lon="-48.58282166666666"><ele>8.3</ele></trkpt><trkpt lat="-27.032304999999997" lon="-48.582834999999996"><ele>8.2</ele></trkpt><trkpt lat="-27.032303333333335" lon="-48.582836666666665"><ele>8.1</ele></trkpt><trkpt lat="-27.032298333333333" lon="-48.582840000000004"><ele>8</ele></trkpt><trkpt lat="-27.032291666666666" lon="-48.58285166666666"><ele>7.699999999999999</ele></trkpt><trkpt lat="-27.032298333333333" lon="-48.58286499999999"><ele>7.5</ele></trkpt><trkpt lat="-27.032300000000003" lon="-48.58286833333333"><ele>7.5</ele></trkpt><trkpt lat="-27.03229666666667" lon="-48.58286666666666"><ele>7.4</ele></trkpt><trkpt lat="-27.032285" lon="-48.58287"><ele>7.1</ele></trkpt><trkpt lat="-27.03228" lon="-48.582881666666665"><ele>6.9</ele></trkpt><trkpt lat="-27.032273333333332" lon="-48.582886666666674"><ele>6.6</ele></trkpt><trkpt lat="-27.032261666666667" lon="-48.58289499999999"><ele>6.1</ele></trkpt><trkpt lat="-27.032256666666665" lon="-48.58289833333333"><ele>5.1</ele></trkpt><trkpt lat="-27.032256666666665" lon="-48.58289833333333"><ele>5.1</ele></trkpt><trkpt lat="-27.032244999999996" lon="-48.58290333333333"><ele>4.300000000000001</ele></trkpt><trkpt lat="-27.032244999999996" lon="-48.58290333333333"><ele>4.300000000000001</ele></trkpt><trkpt lat="-27.032235" lon="-48.58290999999999"><ele>3.9</ele></trkpt><trkpt lat="-27.032225" lon="-48.582915"><ele>3.8000000000000003</ele></trkpt><trkpt lat="-27.03222166666667" lon="-48.582918333333325"><ele>3.8000000000000003</ele></trkpt><trkpt lat="-27.03222333333333" lon="-48.582924999999996"><ele>3.7</ele></trkpt><trkpt lat="-27.032231666666668" lon="-48.582931666666674"><ele>3.9</ele></trkpt><trkpt lat="-27.032241666666664" lon="-48.58293666666667"><ele>4</ele></trkpt><trkpt lat="-27.032255000000003" lon="-48.582939999999994"><ele>4.300000000000001</ele></trkpt><trkpt lat="-27.032265" lon="-48.58294666666667"><ele>4.2</ele></trkpt><trkpt lat="-27.03227" lon="-48.58295499999999"><ele>4.300000000000001</ele></trkpt><trkpt lat="-27.032271666666663" lon="-48.58296166666667"><ele>4.2</ele></trkpt><trkpt lat="-27.032274999999995" lon="-48.58296666666667"><ele>4.5</ele></trkpt><trkpt lat="-27.03228166666667" lon="-48.58296666666667"><ele>4.800000000000001</ele></trkpt><trkpt lat="-27.032286666666664" lon="-48.58296833333334"><ele>5.2</ele></trkpt><trkpt lat="-27.032289999999996" lon="-48.582971666666666"><ele>5.699999999999999</ele></trkpt><trkpt lat="-27.032293333333335" lon="-48.58298166666667"><ele>6.1</ele></trkpt><trkpt lat="-27.032293333333335" lon="-48.582995"><ele>6.6</ele></trkpt><trkpt lat="-27.032293333333335" lon="-48.58301333333334"><ele>6.9</ele></trkpt><trkpt lat="-27.032289999999996" lon="-48.58303333333333"><ele>7</ele></trkpt><trkpt lat="-27.032286666666664" lon="-48.583053333333325"><ele>7.1</ele></trkpt><trkpt lat="-27.03228" lon="-48.583074999999994"><ele>7.1</ele></trkpt><trkpt lat="-27.03227" lon="-48.58309666666667"><ele>7.1</ele></trkpt><trkpt lat="-27.03226833333333" lon="-48.583115"><ele>6.9</ele></trkpt><trkpt lat="-27.032265" lon="-48.58313666666666"><ele>7.1</ele></trkpt><trkpt lat="-27.032259999999997" lon="-48.58316"><ele>7.1</ele></trkpt><trkpt lat="-27.03225166666667" lon="-48.58317999999999"><ele>7.5</ele></trkpt><trkpt lat="-27.032241666666664" lon="-48.583205"><ele>8.1</ele></trkpt><trkpt lat="-27.032241666666664" lon="-48.583205"><ele>8.1</ele></trkpt><trkpt lat="-27.032238333333332" lon="-48.58322833333333"><ele>8.4</ele></trkpt><trkpt lat="-27.032238333333332" lon="-48.58325166666667"><ele>8.8</ele></trkpt><trkpt lat="-27.03223666666667" lon="-48.58326999999999"><ele>9.1</ele></trkpt><trkpt lat="-27.03223666666667" lon="-48.583278333333325"><ele>9.4</ele></trkpt><trkpt lat="-27.032241666666664" lon="-48.583285"><ele>10</ele></trkpt><trkpt lat="-27.032241666666664" lon="-48.583286666666666"><ele>10.7</ele></trkpt><trkpt lat="-27.032241666666664" lon="-48.583285"><ele>11.1</ele></trkpt><trkpt lat="-27.03223666666667" lon="-48.58328333333334"><ele>11.4</ele></trkpt><trkpt lat="-27.032228333333332" lon="-48.583279999999995"><ele>11.7</ele></trkpt><trkpt lat="-27.032228333333332" lon="-48.583279999999995"><ele>11.7</ele></trkpt><trkpt lat="-27.03222166666667" lon="-48.583286666666666"><ele>12.2</ele></trkpt><trkpt lat="-27.032218333333336" lon="-48.583299999999994"><ele>12.299999999999999</ele></trkpt><trkpt lat="-27.032210000000003" lon="-48.58332166666667"><ele>12.6</ele></trkpt><trkpt lat="-27.032203333333335" lon="-48.58335"><ele>13</ele></trkpt><trkpt lat="-27.032196666666664" lon="-48.583375"><ele>12.9</ele></trkpt><trkpt lat="-27.032195" lon="-48.58340166666667"><ele>12.6</ele></trkpt><trkpt lat="-27.03219" lon="-48.58343"><ele>11.9</ele></trkpt><trkpt lat="-27.03217833333333" lon="-48.58346333333334"><ele>11.9</ele></trkpt><trkpt lat="-27.032169999999997" lon="-48.58349333333334"><ele>11.799999999999999</ele></trkpt><trkpt lat="-27.032166666666665" lon="-48.58352333333334"><ele>11.2</ele></trkpt><trkpt lat="-27.032159999999998" lon="-48.58355166666667"><ele>10.799999999999999</ele></trkpt><trkpt lat="-27.032166666666665" lon="-48.58358"><ele>10.6</ele></trkpt><trkpt lat="-27.03217666666667" lon="-48.583614999999995"><ele>10.6</ele></trkpt><trkpt lat="-27.032186666666668" lon="-48.58364166666667"><ele>10.4</ele></trkpt><trkpt lat="-27.032183333333332" lon="-48.58366666666667"><ele>10.1</ele></trkpt><trkpt lat="-27.03217666666667" lon="-48.583684999999996"><ele>9.799999999999999</ele></trkpt><trkpt lat="-27.032169999999997" lon="-48.58371166666667"><ele>9</ele></trkpt><trkpt lat="-27.032158333333335" lon="-48.58374333333333"><ele>8.9</ele></trkpt><trkpt lat="-27.032148333333332" lon="-48.58377833333334"><ele>8.8</ele></trkpt><trkpt lat="-27.032139999999995" lon="-48.583815"><ele>8.9</ele></trkpt><trkpt lat="-27.032138333333332" lon="-48.583845000000004"><ele>8.6</ele></trkpt><trkpt lat="-27.032138333333332" lon="-48.583845000000004"><ele>8.6</ele></trkpt><trkpt lat="-27.03213" lon="-48.58387333333334"><ele>8.3</ele></trkpt><trkpt lat="-27.03211666666667" lon="-48.58390666666666"><ele>8.3</ele></trkpt><trkpt lat="-27.03210166666667" lon="-48.58394166666667"><ele>8.6</ele></trkpt><trkpt lat="-27.032094999999995" lon="-48.58397166666667"><ele>8.6</ele></trkpt><trkpt lat="-27.03208833333333" lon="-48.58400166666667"><ele>8.5</ele></trkpt><trkpt lat="-27.032083333333336" lon="-48.58402833333333"><ele>8.6</ele></trkpt><trkpt lat="-27.03207166666667" lon="-48.58405166666667"><ele>8.3</ele></trkpt><trkpt lat="-27.03206" lon="-48.58407333333333"><ele>8.1</ele></trkpt><trkpt lat="-27.03206" lon="-48.58407333333333"><ele>8.1</ele></trkpt><trkpt lat="-27.032049999999995" lon="-48.584085"><ele>7.800000000000001</ele></trkpt><trkpt lat="-27.03204333333333" lon="-48.58410833333334"><ele>7.800000000000001</ele></trkpt><trkpt lat="-27.03204333333333" lon="-48.58412833333333"><ele>7.5</ele></trkpt><trkpt lat="-27.032049999999995" lon="-48.58414500000001"><ele>8.2</ele></trkpt><trkpt lat="-27.03206" lon="-48.58413666666667"><ele>8.5</ele></trkpt><trkpt lat="-27.032069999999997" lon="-48.584115000000004"><ele>8.7</ele></trkpt><trkpt lat="-27.032068333333335" lon="-48.58409333333334"><ele>8.6</ele></trkpt><trkpt lat="-27.032063333333333" lon="-48.58407666666667"><ele>8.4</ele></trkpt><trkpt lat="-27.03205666666667" lon="-48.58405666666666"><ele>8.2</ele></trkpt><trkpt lat="-27.03205833333333" lon="-48.58403333333334"><ele>8.1</ele></trkpt><trkpt lat="-27.032063333333333" lon="-48.58400333333334"><ele>8.1</ele></trkpt><trkpt lat="-27.03207166666667" lon="-48.583980000000004"><ele>8.1</ele></trkpt><trkpt lat="-27.032075000000003" lon="-48.583954999999996"><ele>8.4</ele></trkpt><trkpt lat="-27.032076666666665" lon="-48.583931666666665"><ele>8.6</ele></trkpt><trkpt lat="-27.032079999999997" lon="-48.583925"><ele>9.3</ele></trkpt><trkpt lat="-27.032081666666667" lon="-48.58392833333334"><ele>9.7</ele></trkpt><trkpt lat="-27.032079999999997" lon="-48.583933333333334"><ele>10.1</ele></trkpt><trkpt lat="-27.032079999999997" lon="-48.583935000000004"><ele>10.1</ele></trkpt><trkpt lat="-27.032079999999997" lon="-48.583935000000004"><ele>10</ele></trkpt><trkpt lat="-27.032081666666667" lon="-48.583935000000004"><ele>10.2</ele></trkpt><trkpt lat="-27.032081666666667" lon="-48.583933333333334"><ele>10.5</ele></trkpt><trkpt lat="-27.032076666666665" lon="-48.583935000000004"><ele>10.4</ele></trkpt><trkpt lat="-27.032075000000003" lon="-48.583935000000004"><ele>10.6</ele></trkpt><trkpt lat="-27.032075000000003" lon="-48.58393666666666"><ele>10.7</ele></trkpt><trkpt lat="-27.032075000000003" lon="-48.58393666666666"><ele>10.7</ele></trkpt><trkpt lat="-27.032076666666665" lon="-48.583935000000004"><ele>11</ele></trkpt><trkpt lat="-27.032076666666665" lon="-48.583935000000004"><ele>11</ele></trkpt><trkpt lat="-27.032076666666665" lon="-48.583935000000004"><ele>11</ele></trkpt><trkpt lat="-27.032076666666665" lon="-48.583935000000004"><ele>11</ele></trkpt><trkpt lat="-27.032076666666665" lon="-48.583935000000004"><ele>11</ele></trkpt><trkpt lat="-27.032076666666665" lon="-48.583935000000004"><ele>11</ele></trkpt><trkpt lat="-27.032076666666665" lon="-48.583935000000004"><ele>11</ele></trkpt><trkpt lat="-27.032076666666665" lon="-48.583935000000004"><ele>11</ele></trkpt><trkpt lat="-27.032076666666665" lon="-48.583935000000004"><ele>11</ele></trkpt><trkpt lat="-27.032076666666665" lon="-48.583935000000004"><ele>11</ele></trkpt><trkpt lat="-27.032076666666665" lon="-48.583935000000004"><ele>11</ele></trkpt><trkpt lat="-27.032076666666665" lon="-48.583935000000004"><ele>11</ele></trkpt><trkpt lat="-27.032076666666665" lon="-48.583935000000004"><ele>11</ele></trkpt><trkpt lat="-27.032076666666665" lon="-48.583935000000004"><ele>11</ele></trkpt><trkpt lat="-27.032076666666665" lon="-48.583935000000004"><ele>11</ele></trkpt><trkpt lat="-27.032076666666665" lon="-48.583935000000004"><ele>11</ele></trkpt><trkpt lat="-27.032076666666665" lon="-48.583935000000004"><ele>11</ele></trkpt><trkpt lat="-27.032076666666665" lon="-48.583935000000004"><ele>11</ele></trkpt><trkpt lat="-27.032076666666665" lon="-48.583935000000004"><ele>11</ele></trkpt><trkpt lat="-27.032076666666665" lon="-48.583935000000004"><ele>11</ele></trkpt><trkpt lat="-27.032076666666665" lon="-48.583935000000004"><ele>11</ele></trkpt><trkpt lat="-27.032076666666665" lon="-48.583935000000004"><ele>11</ele></trkpt><trkpt lat="-27.032076666666665" lon="-48.583935000000004"><ele>11</ele></trkpt><trkpt lat="-27.032076666666665" lon="-48.583935000000004"><ele>11</ele></trkpt><trkpt lat="-27.032076666666665" lon="-48.583935000000004"><ele>11</ele></trkpt><trkpt lat="-27.032076666666665" lon="-48.583935000000004"><ele>11</ele></trkpt><trkpt lat="-27.032076666666665" lon="-48.583935000000004"><ele>11</ele></trkpt><trkpt lat="-27.032076666666665" lon="-48.583935000000004"><ele>11</ele></trkpt><trkpt lat="-27.032076666666665" lon="-48.583935000000004"><ele>11</ele></trkpt><trkpt lat="-27.032076666666665" lon="-48.583935000000004"><ele>11</ele></trkpt><trkpt lat="-27.032076666666665" lon="-48.583935000000004"><ele>11</ele></trkpt><trkpt lat="-27.032076666666665" lon="-48.583935000000004"><ele>11</ele></trkpt><trkpt lat="-27.032076666666665" lon="-48.583935000000004"><ele>11</ele></trkpt><trkpt lat="-27.032076666666665" lon="-48.583935000000004"><ele>11</ele></trkpt><trkpt lat="-27.032076666666665" lon="-48.583935000000004"><ele>11</ele></trkpt><trkpt lat="-27.032076666666665" lon="-48.583935000000004"><ele>11</ele></trkpt><trkpt lat="-27.032076666666665" lon="-48.583935000000004"><ele>11</ele></trkpt><trkpt lat="-27.032076666666665" lon="-48.583935000000004"><ele>11</ele></trkpt><trkpt lat="-27.032076666666665" lon="-48.583935000000004"><ele>11</ele></trkpt><trkpt lat="-27.032076666666665" lon="-48.583935000000004"><ele>11</ele></trkpt><trkpt lat="-27.032076666666665" lon="-48.583935000000004"><ele>11</ele></trkpt><trkpt lat="-27.032076666666665" lon="-48.583935000000004"><ele>11</ele></trkpt><trkpt lat="-27.032076666666665" lon="-48.583935000000004"><ele>11</ele></trkpt><trkpt lat="-27.032076666666665" lon="-48.583935000000004"><ele>11</ele></trkpt><trkpt lat="-27.032076666666665" lon="-48.583935000000004"><ele>11</ele></trkpt><trkpt lat="-27.032076666666665" lon="-48.583935000000004"><ele>11</ele></trkpt><trkpt lat="-27.032076666666665" lon="-48.583935000000004"><ele>11</ele></trkpt><trkpt lat="-27.032076666666665" lon="-48.583935000000004"><ele>11</ele></trkpt><trkpt lat="-27.032076666666665" lon="-48.583935000000004"><ele>11</ele></trkpt><trkpt lat="-27.032076666666665" lon="-48.583935000000004"><ele>11</ele></trkpt><trkpt lat="-27.032076666666665" lon="-48.583935000000004"><ele>11</ele></trkpt><trkpt lat="-27.032076666666665" lon="-48.583935000000004"><ele>11</ele></trkpt><trkpt lat="-27.032076666666665" lon="-48.583935000000004"><ele>11</ele></trkpt><trkpt lat="-27.032076666666665" lon="-48.583935000000004"><ele>11</ele></trkpt><trkpt lat="-27.032076666666665" lon="-48.583935000000004"><ele>11</ele></trkpt><trkpt lat="-27.032076666666665" lon="-48.583935000000004"><ele>11</ele></trkpt><trkpt lat="-27.032076666666665" lon="-48.583935000000004"><ele>11</ele></trkpt><trkpt lat="-27.032076666666665" lon="-48.583935000000004"><ele>11</ele></trkpt><trkpt lat="-27.032076666666665" lon="-48.583935000000004"><ele>11</ele></trkpt><trkpt lat="-27.032076666666665" lon="-48.583935000000004"><ele>11</ele></trkpt><trkpt lat="-27.032076666666665" lon="-48.583935000000004"><ele>11</ele></trkpt><trkpt lat="-27.032076666666665" lon="-48.583935000000004"><ele>11</ele></trkpt><trkpt lat="-27.032076666666665" lon="-48.583935000000004"><ele>11</ele></trkpt><trkpt lat="-27.032076666666665" lon="-48.583935000000004"><ele>11</ele></trkpt><trkpt lat="-27.032076666666665" lon="-48.583935000000004"><ele>11</ele></trkpt><trkpt lat="-27.032076666666665" lon="-48.583935000000004"><ele>11</ele></trkpt><trkpt lat="-27.032076666666665" lon="-48.583935000000004"><ele>11</ele></trkpt><trkpt lat="-27.032076666666665" lon="-48.583935000000004"><ele>11</ele></trkpt><trkpt lat="-27.032076666666665" lon="-48.583935000000004"><ele>11</ele></trkpt><trkpt lat="-27.032076666666665" lon="-48.583935000000004"><ele>11</ele></trkpt><trkpt lat="-27.032076666666665" lon="-48.583935000000004"><ele>11</ele></trkpt><trkpt lat="-27.032076666666665" lon="-48.583935000000004"><ele>11</ele></trkpt><trkpt lat="-27.032076666666665" lon="-48.583935000000004"><ele>11</ele></trkpt><trkpt lat="-27.032076666666665" lon="-48.583935000000004"><ele>11</ele></trkpt><trkpt lat="-27.032076666666665" lon="-48.583935000000004"><ele>11</ele></trkpt><trkpt lat="-27.032076666666665" lon="-48.583935000000004"><ele>11</ele></trkpt><trkpt lat="-27.032076666666665" lon="-48.583935000000004"><ele>11</ele></trkpt><trkpt lat="-27.032076666666665" lon="-48.583935000000004"><ele>11</ele></trkpt><trkpt lat="-27.032076666666665" lon="-48.583935000000004"><ele>11</ele></trkpt><trkpt lat="-27.032076666666665" lon="-48.583935000000004"><ele>11</ele></trkpt><trkpt lat="-27.032076666666665" lon="-48.583935000000004"><ele>11</ele></trkpt><trkpt lat="-27.032076666666665" lon="-48.583935000000004"><ele>11</ele></trkpt><trkpt lat="-27.032076666666665" lon="-48.583935000000004"><ele>11</ele></trkpt><trkpt lat="-27.032076666666665" lon="-48.583935000000004"><ele>11</ele></trkpt><trkpt lat="-27.032076666666665" lon="-48.583935000000004"><ele>11</ele></trkpt><trkpt lat="-27.032076666666665" lon="-48.583935000000004"><ele>11</ele></trkpt><trkpt lat="-27.032076666666665" lon="-48.583935000000004"><ele>11</ele></trkpt><trkpt lat="-27.032076666666665" lon="-48.583935000000004"><ele>11</ele></trkpt><trkpt lat="-27.032076666666665" lon="-48.583935000000004"><ele>11</ele></trkpt><trkpt lat="-27.032076666666665" lon="-48.583935000000004"><ele>11</ele></trkpt><trkpt lat="-27.032076666666665" lon="-48.583935000000004"><ele>11</ele></trkpt><trkpt lat="-27.032076666666665" lon="-48.583935000000004"><ele>11</ele></trkpt><trkpt lat="-27.032076666666665" lon="-48.583935000000004"><ele>11</ele></trkpt><trkpt lat="-27.032076666666665" lon="-48.583935000000004"><ele>11</ele></trkpt><trkpt lat="-27.032076666666665" lon="-48.583935000000004"><ele>11</ele></trkpt><trkpt lat="-27.032076666666665" lon="-48.583935000000004"><ele>11</ele></trkpt><trkpt lat="-27.032076666666665" lon="-48.583935000000004"><ele>11</ele></trkpt><trkpt lat="-27.032076666666665" lon="-48.583935000000004"><ele>11</ele></trkpt><trkpt lat="-27.032076666666665" lon="-48.583935000000004"><ele>11</ele></trkpt><trkpt lat="-27.032076666666665" lon="-48.583935000000004"><ele>11</ele></trkpt><trkpt lat="-27.032076666666665" lon="-48.583935000000004"><ele>11</ele></trkpt><trkpt lat="-27.032076666666665" lon="-48.583935000000004"><ele>11</ele></trkpt><trkpt lat="-27.032076666666665" lon="-48.583935000000004"><ele>11</ele></trkpt><trkpt lat="-27.032076666666665" lon="-48.583935000000004"><ele>11</ele></trkpt><trkpt lat="-27.032076666666665" lon="-48.583935000000004"><ele>11</ele></trkpt><trkpt lat="-27.032076666666665" lon="-48.583935000000004"><ele>11</ele></trkpt><trkpt lat="-27.032076666666665" lon="-48.583935000000004"><ele>11</ele></trkpt><trkpt lat="-27.032076666666665" lon="-48.583935000000004"><ele>11</ele></trkpt><trkpt lat="-27.032076666666665" lon="-48.583935000000004"><ele>11</ele></trkpt><trkpt lat="-27.032076666666665" lon="-48.583935000000004"><ele>11</ele></trkpt><trkpt lat="-27.032076666666665" lon="-48.583935000000004"><ele>11</ele></trkpt><trkpt lat="-27.032076666666665" lon="-48.583935000000004"><ele>11</ele></trkpt><trkpt lat="-27.032076666666665" lon="-48.583935000000004"><ele>11</ele></trkpt><trkpt lat="-27.032076666666665" lon="-48.583935000000004"><ele>11</ele></trkpt><trkpt lat="-27.032076666666665" lon="-48.583935000000004"><ele>11</ele></trkpt><trkpt lat="-27.032076666666665" lon="-48.583935000000004"><ele>11</ele></trkpt><trkpt lat="-27.032076666666665" lon="-48.583935000000004"><ele>11</ele></trkpt><trkpt lat="-27.032076666666665" lon="-48.583935000000004"><ele>11</ele></trkpt><trkpt lat="-27.032076666666665" lon="-48.583935000000004"><ele>11</ele></trkpt><trkpt lat="-27.032076666666665" lon="-48.583935000000004"><ele>11</ele></trkpt><trkpt lat="-27.032076666666665" lon="-48.583935000000004"><ele>11</ele></trkpt><trkpt lat="-27.032076666666665" lon="-48.583935000000004"><ele>11</ele></trkpt><trkpt lat="-27.032076666666665" lon="-48.583935000000004"><ele>11</ele></trkpt><trkpt lat="-27.032076666666665" lon="-48.583935000000004"><ele>11</ele></trkpt><trkpt lat="-27.032076666666665" lon="-48.583935000000004"><ele>11</ele></trkpt><trkpt lat="-27.032076666666665" lon="-48.583935000000004"><ele>11</ele></trkpt><trkpt lat="-27.032076666666665" lon="-48.583935000000004"><ele>11</ele></trkpt><trkpt lat="-27.032076666666665" lon="-48.583935000000004"><ele>11</ele></trkpt><trkpt lat="-27.032076666666665" lon="-48.583935000000004"><ele>11</ele></trkpt><trkpt lat="-27.032076666666665" lon="-48.583935000000004"><ele>11</ele></trkpt><trkpt lat="-27.032076666666665" lon="-48.583935000000004"><ele>11</ele></trkpt><trkpt lat="-27.032076666666665" lon="-48.583935000000004"><ele>11</ele></trkpt><trkpt lat="-27.032076666666665" lon="-48.583935000000004"><ele>11</ele></trkpt><trkpt lat="-27.032076666666665" lon="-48.583935000000004"><ele>11</ele></trkpt><trkpt lat="-27.032076666666665" lon="-48.583935000000004"><ele>11</ele></trkpt><trkpt lat="-27.032076666666665" lon="-48.583935000000004"><ele>11</ele></trkpt><trkpt lat="-27.032076666666665" lon="-48.583935000000004"><ele>11</ele></trkpt><trkpt lat="-27.032076666666665" lon="-48.583935000000004"><ele>11</ele></trkpt><trkpt lat="-27.032076666666665" lon="-48.583935000000004"><ele>11</ele></trkpt><trkpt lat="-27.032076666666665" lon="-48.583935000000004"><ele>11</ele></trkpt><trkpt lat="-27.032076666666665" lon="-48.583935000000004"><ele>11</ele></trkpt><trkpt lat="-27.032076666666665" lon="-48.583935000000004"><ele>11</ele></trkpt><trkpt lat="-27.032076666666665" lon="-48.583935000000004"><ele>11</ele></trkpt><trkpt lat="-27.032076666666665" lon="-48.583935000000004"><ele>11</ele></trkpt><trkpt lat="-27.032076666666665" lon="-48.583935000000004"><ele>11</ele></trkpt><trkpt lat="-27.032076666666665" lon="-48.583935000000004"><ele>11</ele></trkpt><trkpt lat="-27.032076666666665" lon="-48.583935000000004"><ele>11</ele></trkpt><trkpt lat="-27.032076666666665" lon="-48.583935000000004"><ele>11</ele></trkpt><trkpt lat="-27.032076666666665" lon="-48.583935000000004"><ele>11</ele></trkpt><trkpt lat="-27.032076666666665" lon="-48.583935000000004"><ele>11</ele></trkpt><trkpt lat="-27.032076666666665" lon="-48.583935000000004"><ele>11</ele></trkpt><trkpt lat="-27.032076666666665" lon="-48.583935000000004"><ele>11</ele></trkpt><trkpt lat="-27.032076666666665" lon="-48.583935000000004"><ele>11</ele></trkpt><trkpt lat="-27.032076666666665" lon="-48.583935000000004"><ele>11</ele></trkpt><trkpt lat="-27.032076666666665" lon="-48.583935000000004"><ele>11</ele></trkpt><trkpt lat="-27.032076666666665" lon="-48.583935000000004"><ele>11</ele></trkpt><trkpt lat="-27.032076666666665" lon="-48.583935000000004"><ele>11</ele></trkpt><trkpt lat="-27.032076666666665" lon="-48.583935000000004"><ele>11</ele></trkpt><trkpt lat="-27.032076666666665" lon="-48.583935000000004"><ele>11</ele></trkpt><trkpt lat="-27.032076666666665" lon="-48.583935000000004"><ele>11</ele></trkpt><trkpt lat="-27.032076666666665" lon="-48.583935000000004"><ele>11</ele></trkpt><trkpt lat="-27.032076666666665" lon="-48.583935000000004"><ele>11</ele></trkpt><trkpt lat="-27.032076666666665" lon="-48.583935000000004"><ele>11</ele></trkpt><trkpt lat="-27.032076666666665" lon="-48.583935000000004"><ele>11</ele></trkpt><trkpt lat="-27.032076666666665" lon="-48.583935000000004"><ele>11</ele></trkpt><trkpt lat="-27.032076666666665" lon="-48.583935000000004"><ele>11</ele></trkpt><trkpt lat="-27.032076666666665" lon="-48.583935000000004"><ele>11</ele></trkpt><trkpt lat="-27.032076666666665" lon="-48.583935000000004"><ele>11</ele></trkpt><trkpt lat="-27.032076666666665" lon="-48.583935000000004"><ele>11</ele></trkpt><trkpt lat="-27.032076666666665" lon="-48.583935000000004"><ele>11</ele></trkpt><trkpt lat="-27.032076666666665" lon="-48.583935000000004"><ele>11</ele></trkpt><trkpt lat="-27.032076666666665" lon="-48.583935000000004"><ele>11</ele></trkpt><trkpt lat="-27.032076666666665" lon="-48.583935000000004"><ele>11</ele></trkpt><trkpt lat="-27.032076666666665" lon="-48.583935000000004"><ele>11</ele></trkpt><trkpt lat="-27.032076666666665" lon="-48.583935000000004"><ele>11</ele></trkpt><trkpt lat="-27.032076666666665" lon="-48.583935000000004"><ele>11</ele></trkpt><trkpt lat="-27.032076666666665" lon="-48.583935000000004"><ele>11</ele></trkpt><trkpt lat="-27.032076666666665" lon="-48.583935000000004"><ele>11</ele></trkpt><trkpt lat="-27.032076666666665" lon="-48.583935000000004"><ele>11</ele></trkpt><trkpt lat="-27.032076666666665" lon="-48.583935000000004"><ele>11</ele></trkpt><trkpt lat="-27.032076666666665" lon="-48.583935000000004"><ele>11</ele></trkpt><trkpt lat="-27.032076666666665" lon="-48.583935000000004"><ele>11</ele></trkpt><trkpt lat="-27.032076666666665" lon="-48.583935000000004"><ele>11</ele></trkpt><trkpt lat="-27.032076666666665" lon="-48.583935000000004"><ele>11</ele></trkpt><trkpt lat="-27.032076666666665" lon="-48.583935000000004"><ele>11</ele></trkpt><trkpt lat="-27.032076666666665" lon="-48.583935000000004"><ele>11</ele></trkpt><trkpt lat="-27.032076666666665" lon="-48.583935000000004"><ele>11</ele></trkpt><trkpt lat="-27.032076666666665" lon="-48.583935000000004"><ele>11</ele></trkpt><trkpt lat="-27.032091666666663" lon="-48.58391833333334"><ele>12.2</ele></trkpt><trkpt lat="-27.032098333333337" lon="-48.58389999999999"><ele>12</ele></trkpt><trkpt lat="-27.032109999999996" lon="-48.583875000000006"><ele>11.799999999999999</ele></trkpt><trkpt lat="-27.032120000000003" lon="-48.583845000000004"><ele>11.9</ele></trkpt><trkpt lat="-27.032128333333336" lon="-48.58381333333333"><ele>11.799999999999999</ele></trkpt><trkpt lat="-27.032135" lon="-48.58377833333334"><ele>11.6</ele></trkpt><trkpt lat="-27.032139999999995" lon="-48.583741666666675"><ele>11.6</ele></trkpt><trkpt lat="-27.03214666666667" lon="-48.583704999999995"><ele>11.299999999999999</ele></trkpt><trkpt lat="-27.032153333333333" lon="-48.58367166666667"><ele>10.799999999999999</ele></trkpt><trkpt lat="-27.032159999999998" lon="-48.58363333333333"><ele>10.2</ele></trkpt><trkpt lat="-27.032165000000003" lon="-48.58359666666667"><ele>9.3</ele></trkpt><trkpt lat="-27.032169999999997" lon="-48.58355666666667"><ele>8.3</ele></trkpt><trkpt lat="-27.03217666666667" lon="-48.58351833333333"><ele>7.4</ele></trkpt><trkpt lat="-27.032183333333332" lon="-48.583481666666664"><ele>6</ele></trkpt><trkpt lat="-27.03219166666667" lon="-48.583436666666664"><ele>5.2</ele></trkpt><trkpt lat="-27.032196666666664" lon="-48.58339333333333"><ele>4.2</ele></trkpt><trkpt lat="-27.032204999999998" lon="-48.583346666666664"><ele>3.3</ele></trkpt><trkpt lat="-27.032218333333336" lon="-48.58329833333334"><ele>3</ele></trkpt><trkpt lat="-27.032228333333332" lon="-48.583245000000005"><ele>2.2</ele></trkpt><trkpt lat="-27.032235" lon="-48.583189999999995"><ele>1.8</ele></trkpt><trkpt lat="-27.032244999999996" lon="-48.58313166666667"><ele>1.2000000000000002</ele></trkpt><trkpt lat="-27.032253333333333" lon="-48.58307"><ele>0.8</ele></trkpt><trkpt lat="-27.03226666666667" lon="-48.58301333333334"><ele>0.30000000000000004</ele></trkpt><trkpt lat="-27.03228" lon="-48.58296"><ele>-0.3999999999999999</ele></trkpt><trkpt lat="-27.032289999999996" lon="-48.58290166666667"><ele>-1</ele></trkpt><trkpt lat="-27.032304999999997" lon="-48.582841666666674"><ele>-1.1999999999999997</ele></trkpt><trkpt lat="-27.032319999999995" lon="-48.582783333333325"><ele>-1.2999999999999998</ele></trkpt><trkpt lat="-27.032334999999996" lon="-48.582728333333336"><ele>-1.4</ele></trkpt><trkpt lat="-27.032346666666665" lon="-48.58267000000001"><ele>-1.2999999999999998</ele></trkpt><trkpt lat="-27.03235666666667" lon="-48.582616666666674"><ele>-1.2999999999999998</ele></trkpt><trkpt lat="-27.03236" lon="-48.582571666666674"><ele>-1.7999999999999998</ele></trkpt><trkpt lat="-27.03237" lon="-48.58252666666667"><ele>-1.9</ele></trkpt><trkpt lat="-27.032384999999998" lon="-48.58247500000001"><ele>-1.7999999999999998</ele></trkpt><trkpt lat="-27.032405" lon="-48.58242499999999"><ele>-1.2999999999999998</ele></trkpt><trkpt lat="-27.032418333333332" lon="-48.582378333333324"><ele>-0.6999999999999997</ele></trkpt><trkpt lat="-27.032426666666666" lon="-48.58233666666667"><ele>-0.5</ele></trkpt><trkpt lat="-27.032438333333335" lon="-48.58229166666667"><ele>-0.2999999999999998</ele></trkpt><trkpt lat="-27.03244666666667" lon="-48.58224666666667"><ele>-0.09999999999999987</ele></trkpt><trkpt lat="-27.032463333333332" lon="-48.582198333333324"><ele>0.5</ele></trkpt><trkpt lat="-27.032454999999995" lon="-48.58216000000001"><ele>-0.7999999999999998</ele></trkpt><trkpt lat="-27.032465000000002" lon="-48.58211500000001"><ele>-0.6000000000000001</ele></trkpt><trkpt lat="-27.032474999999998" lon="-48.582075"><ele>-0.6000000000000001</ele></trkpt><trkpt lat="-27.03249" lon="-48.58203833333334"><ele>-0.6000000000000001</ele></trkpt><trkpt lat="-27.032516666666666" lon="-48.582035"><ele>-0.8999999999999999</ele></trkpt><trkpt lat="-27.032543333333333" lon="-48.58203"><ele>-1</ele></trkpt><trkpt lat="-27.03256333333333" lon="-48.582026666666664"><ele>-1</ele></trkpt><trkpt lat="-27.03258333333333" lon="-48.58202333333334"><ele>-1.2999999999999998</ele></trkpt><trkpt lat="-27.032604999999997" lon="-48.58203166666667"><ele>-0.3999999999999999</ele></trkpt><trkpt lat="-27.03262333333333" lon="-48.582035"><ele>0.9000000000000001</ele></trkpt><trkpt lat="-27.03263666666667" lon="-48.582028333333334"><ele>1.4000000000000001</ele></trkpt><trkpt lat="-27.032651666666666" lon="-48.582026666666664"><ele>1.6</ele></trkpt><trkpt lat="-27.032663333333335" lon="-48.58202500000001"><ele>2.1</ele></trkpt><trkpt lat="-27.03267166666667" lon="-48.58202333333334"><ele>2.6</ele></trkpt><trkpt lat="-27.03267166666667" lon="-48.58201833333332"><ele>2.6</ele></trkpt><trkpt lat="-27.032664999999998" lon="-48.582015"><ele>2.3</ele></trkpt><trkpt lat="-27.032666666666668" lon="-48.58201166666666"><ele>2.7</ele></trkpt><trkpt lat="-27.03267" lon="-48.582010000000004"><ele>3.3</ele></trkpt><trkpt lat="-27.03267" lon="-48.58201166666666"><ele>4.1</ele></trkpt><trkpt lat="-27.03267166666667" lon="-48.58201166666666"><ele>4.6</ele></trkpt><trkpt lat="-27.03267" lon="-48.58201166666666"><ele>4.9</ele></trkpt><trkpt lat="-27.03267" lon="-48.58201166666666"><ele>5</ele></trkpt><trkpt lat="-27.03266833333333" lon="-48.58201166666666"><ele>5.2</ele></trkpt><trkpt lat="-27.032666666666668" lon="-48.58201333333333"><ele>5.300000000000001</ele></trkpt><trkpt lat="-27.032666666666668" lon="-48.58201333333333"><ele>5.300000000000001</ele></trkpt><trkpt lat="-27.032666666666668" lon="-48.58201333333333"><ele>5.300000000000001</ele></trkpt><trkpt lat="-27.032666666666668" lon="-48.58201333333333"><ele>5.300000000000001</ele></trkpt><trkpt lat="-27.032666666666668" lon="-48.58201333333333"><ele>5.300000000000001</ele></trkpt><trkpt lat="-27.032666666666668" lon="-48.58201333333333"><ele>5.300000000000001</ele></trkpt><trkpt lat="-27.032666666666668" lon="-48.58201333333333"><ele>5.300000000000001</ele></trkpt><trkpt lat="-27.032666666666668" lon="-48.58201333333333"><ele>5.300000000000001</ele></trkpt><trkpt lat="-27.032666666666668" lon="-48.58201333333333"><ele>5.300000000000001</ele></trkpt><trkpt lat="-27.032666666666668" lon="-48.58201333333333"><ele>5.300000000000001</ele></trkpt><trkpt lat="-27.032666666666668" lon="-48.58201333333333"><ele>5.300000000000001</ele></trkpt><trkpt lat="-27.032666666666668" lon="-48.58201333333333"><ele>5.300000000000001</ele></trkpt><trkpt lat="-27.032666666666668" lon="-48.58201333333333"><ele>5.300000000000001</ele></trkpt><trkpt lat="-27.032666666666668" lon="-48.58201333333333"><ele>5.300000000000001</ele></trkpt><trkpt lat="-27.032666666666668" lon="-48.58201333333333"><ele>5.300000000000001</ele></trkpt><trkpt lat="-27.032666666666668" lon="-48.58201333333333"><ele>5.300000000000001</ele></trkpt><trkpt lat="-27.032666666666668" lon="-48.58201333333333"><ele>5.300000000000001</ele></trkpt><trkpt lat="-27.032666666666668" lon="-48.58201333333333"><ele>5.300000000000001</ele></trkpt><trkpt lat="-27.032666666666668" lon="-48.58201333333333"><ele>5.300000000000001</ele></trkpt><trkpt lat="-27.032666666666668" lon="-48.58201333333333"><ele>5.300000000000001</ele></trkpt><trkpt lat="-27.032666666666668" lon="-48.58201333333333"><ele>5.300000000000001</ele></trkpt><trkpt lat="-27.032666666666668" lon="-48.58201333333333"><ele>5.300000000000001</ele></trkpt><trkpt lat="-27.032666666666668" lon="-48.58201333333333"><ele>5.300000000000001</ele></trkpt><trkpt lat="-27.032666666666668" lon="-48.58201333333333"><ele>5.300000000000001</ele></trkpt><trkpt lat="-27.032666666666668" lon="-48.58201333333333"><ele>5.300000000000001</ele></trkpt><trkpt lat="-27.032666666666668" lon="-48.58201333333333"><ele>5.300000000000001</ele></trkpt><trkpt lat="-27.032666666666668" lon="-48.58201333333333"><ele>5.300000000000001</ele></trkpt><trkpt lat="-27.032666666666668" lon="-48.58201333333333"><ele>5.300000000000001</ele></trkpt><trkpt lat="-27.032666666666668" lon="-48.58201333333333"><ele>5.300000000000001</ele></trkpt><trkpt lat="-27.032666666666668" lon="-48.58201333333333"><ele>5.300000000000001</ele></trkpt><trkpt lat="-27.032666666666668" lon="-48.58201333333333"><ele>5.300000000000001</ele></trkpt><trkpt lat="-27.032666666666668" lon="-48.58201333333333"><ele>5.300000000000001</ele></trkpt><trkpt lat="-27.032666666666668" lon="-48.58201333333333"><ele>5.300000000000001</ele></trkpt><trkpt lat="-27.032666666666668" lon="-48.58201333333333"><ele>5.300000000000001</ele></trkpt><trkpt lat="-27.032666666666668" lon="-48.58201333333333"><ele>5.300000000000001</ele></trkpt><trkpt lat="-27.032666666666668" lon="-48.58201333333333"><ele>5.300000000000001</ele></trkpt><trkpt lat="-27.032666666666668" lon="-48.58201333333333"><ele>5.300000000000001</ele></trkpt><trkpt lat="-27.032666666666668" lon="-48.58201333333333"><ele>5.300000000000001</ele></trkpt><trkpt lat="-27.032666666666668" lon="-48.58201333333333"><ele>5.300000000000001</ele></trkpt><trkpt lat="-27.032666666666668" lon="-48.58201333333333"><ele>5.300000000000001</ele></trkpt><trkpt lat="-27.032666666666668" lon="-48.58201333333333"><ele>5.300000000000001</ele></trkpt><trkpt lat="-27.032666666666668" lon="-48.58201333333333"><ele>5.300000000000001</ele></trkpt><trkpt lat="-27.032666666666668" lon="-48.58201333333333"><ele>5.300000000000001</ele></trkpt><trkpt lat="-27.032666666666668" lon="-48.58201333333333"><ele>5.300000000000001</ele></trkpt><trkpt lat="-27.032666666666668" lon="-48.58201333333333"><ele>5.300000000000001</ele></trkpt><trkpt lat="-27.032666666666668" lon="-48.58201333333333"><ele>5.300000000000001</ele></trkpt><trkpt lat="-27.032666666666668" lon="-48.58201333333333"><ele>5.300000000000001</ele></trkpt><trkpt lat="-27.032666666666668" lon="-48.58201333333333"><ele>5.300000000000001</ele></trkpt><trkpt lat="-27.032666666666668" lon="-48.58201333333333"><ele>5.300000000000001</ele></trkpt><trkpt lat="-27.032666666666668" lon="-48.58201333333333"><ele>5.300000000000001</ele></trkpt><trkpt lat="-27.032666666666668" lon="-48.58201333333333"><ele>5.300000000000001</ele></trkpt><trkpt lat="-27.032666666666668" lon="-48.58201333333333"><ele>5.300000000000001</ele></trkpt><trkpt lat="-27.032666666666668" lon="-48.58201333333333"><ele>5.300000000000001</ele></trkpt><trkpt lat="-27.032666666666668" lon="-48.58201333333333"><ele>5.300000000000001</ele></trkpt><trkpt lat="-27.032666666666668" lon="-48.58201333333333"><ele>5.300000000000001</ele></trkpt><trkpt lat="-27.032666666666668" lon="-48.58201333333333"><ele>5.300000000000001</ele></trkpt><trkpt lat="-27.032666666666668" lon="-48.58201333333333"><ele>5.300000000000001</ele></trkpt><trkpt lat="-27.032666666666668" lon="-48.58201333333333"><ele>5.300000000000001</ele></trkpt><trkpt lat="-27.032666666666668" lon="-48.58201333333333"><ele>5.300000000000001</ele></trkpt><trkpt lat="-27.032666666666668" lon="-48.58201333333333"><ele>5.300000000000001</ele></trkpt><trkpt lat="-27.032666666666668" lon="-48.58201333333333"><ele>5.300000000000001</ele></trkpt><trkpt lat="-27.032666666666668" lon="-48.58201333333333"><ele>5.300000000000001</ele></trkpt><trkpt lat="-27.032666666666668" lon="-48.58201333333333"><ele>5.300000000000001</ele></trkpt><trkpt lat="-27.032666666666668" lon="-48.58201333333333"><ele>5.300000000000001</ele></trkpt></trkseg></trk></gpx>