<?xml version="1.0" encoding="UTF-8"?>
<gpx xmlns="http://www.topografix.com/GPX/1/1" version="1.1" creator="@dwayneparton/geojson-to-gpx"><wpt lat="-27.006618333333336" lon="-48.62222833333333"><ele>46.1</ele><name>2 faixas</name></wpt><wpt lat="-27.00631166666667" lon="-48.62204"><ele>2.6</ele><name>24</name></wpt><wpt lat="-27.00629666666667" lon="-48.62204"><ele>3.4000000000000004</ele><name>85</name></wpt><wpt lat="-27.00607166666667" lon="-48.621900000000004"><ele>6.1</ele><name>A ciclo é completamente reta.</name></wpt><wpt lat="-27.006093333333336" lon="-48.621896666666665"><ele>1.6</ele><name>A pintura é MUITO falha, mostrando muito asfalto</name></wpt><wpt lat="-27.00607166666667" lon="-48.621900000000004"><ele>6.1</ele><name>Ambas: Alguns trechos sem segregadores. Automóvel consegue passar por entre estes com facilidade</name></wpt><wpt lat="-27.006618333333336" lon="-48.62222833333333"><ele>46.1</ele><name>Apenas faixas vermelhas nas bordas</name></wpt><wpt lat="-27.00631166666667" lon="-48.62204"><ele>2.6</ele><name>Área de amortecimento da ciclo (cm)</name></wpt><wpt lat="-27.006646666666665" lon="-48.62224833333333"><ele>6.800000000000001</ele><name>Área transitável da ciclo (cm)</name></wpt><wpt lat="-27.00629666666667" lon="-48.62204"><ele>3.4000000000000004</ele><name>Área transitável da ciclo (cm)</name></wpt><wpt lat="-27.006618333333336" lon="-48.62222833333333"><ele>46.1</ele><name>Asfalto</name></wpt><wpt lat="-27.006618333333336" lon="-48.62222833333333"><ele>46.1</ele><name>Ausência de conexão entre ciclos.</name></wpt><wpt lat="-27.006618333333336" lon="-48.62222833333333"><ele>46.1</ele><name>Bidirecional</name></wpt><wpt lat="-27.0061" lon="-48.62189333333334"><ele>1.6</ele><name>Bom estado</name></wpt><wpt lat="-27.006618333333336" lon="-48.62222833333333"><ele>46.1</ele><name>Em bordo de Via de Mão Dupla</name></wpt><wpt lat="-27.006618333333336" lon="-48.62222833333333"><ele>46.1</ele><name>Estacionamento proibido na via</name></wpt><wpt lat="-27.006196666666664" lon="-48.62192833333334"><ele>30.6</ele><name>Fim</name></wpt><wpt lat="-27.006581666666662" lon="-48.62229000000001"><ele>34.1</ele><name>Foto</name></wpt><wpt lat="-27.006606666666666" lon="-48.62222499999999"><ele>13</ele><name>Foto</name></wpt><wpt lat="-27.006555000000002" lon="-48.62211166666666"><ele>6.5</ele><name>Foto</name></wpt><wpt lat="-27.006445" lon="-48.62204666666666"><ele>7.1</ele><name>Foto</name></wpt><wpt lat="-27.006393333333335" lon="-48.62201"><ele>9.1</ele><name>Foto</name></wpt><wpt lat="-27.00639833333333" lon="-48.62197833333333"><ele>9.6</ele><name>Foto</name></wpt><wpt lat="-27.00619166666667" lon="-48.62191666666666"><ele>30</ele><name>Foto</name></wpt><wpt lat="-27.006033333333335" lon="-48.62187833333334"><ele>24.6</ele><name>Foto</name></wpt><wpt lat="-27.006075000000003" lon="-48.62190333333333"><ele>19.6</ele><name>Foto</name></wpt><wpt lat="-27.006136666666666" lon="-48.62195833333333"><ele>9.9</ele><name>Foto</name></wpt><wpt lat="-27.006120000000003" lon="-48.621943333333334"><ele>10.1</ele><name>Foto</name></wpt><wpt lat="-27.006076666666665" lon="-48.62195333333334"><ele>7.4</ele><name>Foto</name></wpt><wpt lat="-27.006076666666665" lon="-48.62195833333333"><ele>7.6</ele><name>Foto</name></wpt><wpt lat="-27.006618333333336" lon="-48.62222833333333"><ele>46.1</ele><name>Gravação de voz</name></wpt><wpt lat="-27.006045000000004" lon="-48.62187000000001"><ele>22.1</ele><name>Início</name></wpt><wpt lat="-27.006618333333336" lon="-48.62222833333333"><ele>46.1</ele><name>Mão Dupla</name></wpt><wpt lat="-27.00607166666667" lon="-48.621900000000004"><ele>6.1</ele><name>Não há árvores nem mudas</name></wpt><wpt lat="-27.006618333333336" lon="-48.62222833333333"><ele>46.1</ele><name>Nenhum elemento de controle de velocidade na via</name></wpt><wpt lat="-27.00610166666667" lon="-48.62189166666667"><ele>2.2</ele><name>Iluminação: SEM iluminação</name></wpt><wpt lat="-27.006618333333336" lon="-48.62222833333333"><ele>46.1</ele><name>Tachões</name></wpt><wpt lat="-27.006633333333337" lon="-48.62229000000001"><ele>6.9</ele><name>Total da via (incluindo a ciclo) (cm)</name></wpt><wpt lat="-27.006676" lon="-48.622105"><name>Ciclofaixa compartilhada (não é na calçada)</name></wpt><wpt lat="-27.006106" lon="-48.621905"><name>Aproximadamente 70 m extenção</name></wpt><wpt lat="-27.006403" lon="-48.622"><name>Faixa de carros logo ao lado da ciclo (cm)</name></wpt><wpt lat="-27.006411" lon="-48.621999"><name>300</name></wpt><wpt lat="-27.006418" lon="-48.622015"><name>Total da via (incluindo a ciclo) (cm)</name></wpt><wpt lat="-27.006434" lon="-48.622007"><name>850</name></wpt><trk><name>Compart. Pass. Pte. Rio Camboriú BR 101 - BC</name><trkseg><trkpt lat="-27.006606666666666" lon="-48.62224166666667"><ele>51.1</ele></trkpt><trkpt lat="-27.006616666666666" lon="-48.622258333333335"><ele>50.300000000000004</ele></trkpt><trkpt lat="-27.006596666666663" lon="-48.622285"><ele>50.300000000000004</ele></trkpt><trkpt lat="-27.006601666666665" lon="-48.622370000000004"><ele>48.800000000000004</ele></trkpt><trkpt lat="-27.006601666666665" lon="-48.62235666666667"><ele>48.9</ele></trkpt><trkpt lat="-27.006606666666666" lon="-48.62235333333333"><ele>48.7</ele></trkpt><trkpt lat="-27.00660833333333" lon="-48.622350000000004"><ele>48.5</ele></trkpt><trkpt lat="-27.006618333333336" lon="-48.62235833333334"><ele>48.2</ele></trkpt><trkpt lat="-27.006621666666668" lon="-48.622355"><ele>48.4</ele></trkpt><trkpt lat="-27.00662833333333" lon="-48.622350000000004"><ele>48.300000000000004</ele></trkpt><trkpt lat="-27.00666833333333" lon="-48.62236166666666"><ele>47.6</ele></trkpt><trkpt lat="-27.006661666666666" lon="-48.622344999999996"><ele>47</ele></trkpt><trkpt lat="-27.006656666666665" lon="-48.62233166666667"><ele>46.800000000000004</ele></trkpt><trkpt lat="-27.006656666666665" lon="-48.622323333333334"><ele>46.7</ele></trkpt><trkpt lat="-27.006651666666667" lon="-48.62231"><ele>46.6</ele></trkpt><trkpt lat="-27.006651666666667" lon="-48.62229000000001"><ele>46.5</ele></trkpt><trkpt lat="-27.006651666666667" lon="-48.62228"><ele>46.5</ele></trkpt><trkpt lat="-27.006648333333334" lon="-48.62227500000001"><ele>46.4</ele></trkpt><trkpt lat="-27.006643333333333" lon="-48.62226833333334"><ele>46.4</ele></trkpt><trkpt lat="-27.00664" lon="-48.622265"><ele>46.2</ele></trkpt><trkpt lat="-27.006633333333337" lon="-48.622260000000004"><ele>46.300000000000004</ele></trkpt><trkpt lat="-27.00662833333333" lon="-48.622254999999996"><ele>46.2</ele></trkpt><trkpt lat="-27.00662333333333" lon="-48.62225"><ele>46.1</ele></trkpt><trkpt lat="-27.006626666666662" lon="-48.62225333333334"><ele>46</ele></trkpt><trkpt lat="-27.006630000000005" lon="-48.62225333333334"><ele>46.1</ele></trkpt><trkpt lat="-27.006631666666667" lon="-48.62225166666667"><ele>46.1</ele></trkpt><trkpt lat="-27.006633333333337" lon="-48.62225166666667"><ele>46.2</ele></trkpt><trkpt lat="-27.006633333333337" lon="-48.62224833333333"><ele>46.1</ele></trkpt><trkpt lat="-27.006635" lon="-48.62224500000001"><ele>46.2</ele></trkpt><trkpt lat="-27.006633333333337" lon="-48.62224166666667"><ele>46.2</ele></trkpt><trkpt lat="-27.006630000000005" lon="-48.62224"><ele>46.300000000000004</ele></trkpt><trkpt lat="-27.00662833333333" lon="-48.62223833333334"><ele>46.300000000000004</ele></trkpt><trkpt lat="-27.00662833333333" lon="-48.62223833333334"><ele>46.300000000000004</ele></trkpt><trkpt lat="-27.006625" lon="-48.622235"><ele>46.4</ele></trkpt><trkpt lat="-27.006621666666668" lon="-48.62223166666666"><ele>46.300000000000004</ele></trkpt><trkpt lat="-27.006618333333336" lon="-48.62222833333333"><ele>46.1</ele></trkpt><trkpt lat="-27.006618333333336" lon="-48.62222833333333"><ele>46.1</ele></trkpt><trkpt lat="-27.006618333333336" lon="-48.62222833333333"><ele>46.1</ele></trkpt><trkpt lat="-27.006618333333336" lon="-48.62222833333333"><ele>46.1</ele></trkpt><trkpt lat="-27.006618333333336" lon="-48.62222833333333"><ele>46.1</ele></trkpt><trkpt lat="-27.006618333333336" lon="-48.62222833333333"><ele>46.1</ele></trkpt><trkpt lat="-27.006618333333336" lon="-48.62222833333333"><ele>46.1</ele></trkpt><trkpt lat="-27.006618333333336" lon="-48.62222833333333"><ele>46.1</ele></trkpt><trkpt lat="-27.006618333333336" lon="-48.62222833333333"><ele>46.1</ele></trkpt><trkpt lat="-27.006618333333336" lon="-48.62222833333333"><ele>46.1</ele></trkpt><trkpt lat="-27.006618333333336" lon="-48.62222833333333"><ele>46.1</ele></trkpt><trkpt lat="-27.006618333333336" lon="-48.62222833333333"><ele>46.1</ele></trkpt><trkpt lat="-27.006618333333336" lon="-48.62222833333333"><ele>46.1</ele></trkpt><trkpt lat="-27.006618333333336" lon="-48.62222833333333"><ele>46.1</ele></trkpt><trkpt lat="-27.006618333333336" lon="-48.62222833333333"><ele>46.1</ele></trkpt><trkpt lat="-27.006618333333336" lon="-48.62222833333333"><ele>46.1</ele></trkpt><trkpt lat="-27.006618333333336" lon="-48.62222833333333"><ele>46.1</ele></trkpt><trkpt lat="-27.006618333333336" lon="-48.62222833333333"><ele>46.1</ele></trkpt><trkpt lat="-27.006618333333336" lon="-48.62222833333333"><ele>46.1</ele></trkpt><trkpt lat="-27.006618333333336" lon="-48.62222833333333"><ele>46.1</ele></trkpt><trkpt lat="-27.006618333333336" lon="-48.62222833333333"><ele>46.1</ele></trkpt><trkpt lat="-27.006618333333336" lon="-48.62222833333333"><ele>46.1</ele></trkpt><trkpt lat="-27.006618333333336" lon="-48.62222833333333"><ele>46.1</ele></trkpt><trkpt lat="-27.006618333333336" lon="-48.62222833333333"><ele>46.1</ele></trkpt><trkpt lat="-27.006618333333336" lon="-48.62222833333333"><ele>46.1</ele></trkpt><trkpt lat="-27.006618333333336" lon="-48.62222833333333"><ele>46.1</ele></trkpt><trkpt lat="-27.006618333333336" lon="-48.62222833333333"><ele>46.1</ele></trkpt><trkpt lat="-27.006618333333336" lon="-48.62222833333333"><ele>46.1</ele></trkpt><trkpt lat="-27.006618333333336" lon="-48.62222833333333"><ele>46.1</ele></trkpt><trkpt lat="-27.006618333333336" lon="-48.62222833333333"><ele>46.1</ele></trkpt><trkpt lat="-27.006618333333336" lon="-48.62222833333333"><ele>46.1</ele></trkpt><trkpt lat="-27.006618333333336" lon="-48.62222833333333"><ele>46.1</ele></trkpt><trkpt lat="-27.006618333333336" lon="-48.62222833333333"><ele>46.1</ele></trkpt><trkpt lat="-27.006618333333336" lon="-48.62222833333333"><ele>46.1</ele></trkpt><trkpt lat="-27.006618333333336" lon="-48.62222833333333"><ele>46.1</ele></trkpt><trkpt lat="-27.006618333333336" lon="-48.62222833333333"><ele>46.1</ele></trkpt><trkpt lat="-27.006618333333336" lon="-48.62222833333333"><ele>46.1</ele></trkpt><trkpt lat="-27.006618333333336" lon="-48.62222833333333"><ele>46.1</ele></trkpt><trkpt lat="-27.006618333333336" lon="-48.62222833333333"><ele>46.1</ele></trkpt><trkpt lat="-27.006618333333336" lon="-48.62222833333333"><ele>46.1</ele></trkpt><trkpt lat="-27.006618333333336" lon="-48.62222833333333"><ele>46.1</ele></trkpt><trkpt lat="-27.006618333333336" lon="-48.62222833333333"><ele>46.1</ele></trkpt><trkpt lat="-27.006618333333336" lon="-48.62222833333333"><ele>46.1</ele></trkpt><trkpt lat="-27.006618333333336" lon="-48.62222833333333"><ele>46.1</ele></trkpt><trkpt lat="-27.006618333333336" lon="-48.62222833333333"><ele>46.1</ele></trkpt><trkpt lat="-27.006618333333336" lon="-48.62222833333333"><ele>46.1</ele></trkpt><trkpt lat="-27.006618333333336" lon="-48.62222833333333"><ele>46.1</ele></trkpt><trkpt lat="-27.006618333333336" lon="-48.62222833333333"><ele>46.1</ele></trkpt><trkpt lat="-27.006618333333336" lon="-48.62222833333333"><ele>46.1</ele></trkpt><trkpt lat="-27.006618333333336" lon="-48.62222833333333"><ele>46.1</ele></trkpt><trkpt lat="-27.006618333333336" lon="-48.62222833333333"><ele>46.1</ele></trkpt><trkpt lat="-27.006618333333336" lon="-48.62222833333333"><ele>46.1</ele></trkpt><trkpt lat="-27.006618333333336" lon="-48.62222833333333"><ele>46.1</ele></trkpt><trkpt lat="-27.006618333333336" lon="-48.62222833333333"><ele>46.1</ele></trkpt><trkpt lat="-27.006618333333336" lon="-48.62222833333333"><ele>46.1</ele></trkpt><trkpt lat="-27.006618333333336" lon="-48.62222833333333"><ele>46.1</ele></trkpt><trkpt lat="-27.006618333333336" lon="-48.62222833333333"><ele>46.1</ele></trkpt><trkpt lat="-27.006618333333336" lon="-48.62222833333333"><ele>46.1</ele></trkpt><trkpt lat="-27.006618333333336" lon="-48.62222833333333"><ele>46.1</ele></trkpt><trkpt lat="-27.006618333333336" lon="-48.62222833333333"><ele>46.1</ele></trkpt><trkpt lat="-27.006618333333336" lon="-48.62222833333333"><ele>46.1</ele></trkpt><trkpt lat="-27.006618333333336" lon="-48.62222833333333"><ele>46.1</ele></trkpt><trkpt lat="-27.006618333333336" lon="-48.62222833333333"><ele>46.1</ele></trkpt><trkpt lat="-27.006618333333336" lon="-48.62222833333333"><ele>46.1</ele></trkpt><trkpt lat="-27.006618333333336" lon="-48.62222833333333"><ele>46.1</ele></trkpt><trkpt lat="-27.006618333333336" lon="-48.62222833333333"><ele>46.1</ele></trkpt><trkpt lat="-27.006618333333336" lon="-48.62222833333333"><ele>46.1</ele></trkpt><trkpt lat="-27.006618333333336" lon="-48.62222833333333"><ele>46.1</ele></trkpt><trkpt lat="-27.006618333333336" lon="-48.62222833333333"><ele>46.1</ele></trkpt><trkpt lat="-27.006618333333336" lon="-48.62222833333333"><ele>46.1</ele></trkpt><trkpt lat="-27.006618333333336" lon="-48.62222833333333"><ele>46.1</ele></trkpt><trkpt lat="-27.006618333333336" lon="-48.62222833333333"><ele>46.1</ele></trkpt><trkpt lat="-27.006618333333336" lon="-48.62222833333333"><ele>46.1</ele></trkpt><trkpt lat="-27.006618333333336" lon="-48.62222833333333"><ele>46.1</ele></trkpt><trkpt lat="-27.006618333333336" lon="-48.62222833333333"><ele>46.1</ele></trkpt><trkpt lat="-27.006618333333336" lon="-48.62222833333333"><ele>46.1</ele></trkpt><trkpt lat="-27.006618333333336" lon="-48.62222833333333"><ele>46.1</ele></trkpt><trkpt lat="-27.006618333333336" lon="-48.62222833333333"><ele>46.1</ele></trkpt><trkpt lat="-27.006618333333336" lon="-48.62222833333333"><ele>46.1</ele></trkpt><trkpt lat="-27.006618333333336" lon="-48.62222833333333"><ele>46.1</ele></trkpt><trkpt lat="-27.006618333333336" lon="-48.62222833333333"><ele>46.1</ele></trkpt><trkpt lat="-27.006618333333336" lon="-48.62222833333333"><ele>46.1</ele></trkpt><trkpt lat="-27.006618333333336" lon="-48.62222833333333"><ele>46.1</ele></trkpt><trkpt lat="-27.006618333333336" lon="-48.62222833333333"><ele>46.1</ele></trkpt><trkpt lat="-27.006618333333336" lon="-48.62222833333333"><ele>46.1</ele></trkpt><trkpt lat="-27.006618333333336" lon="-48.62222833333333"><ele>46.1</ele></trkpt><trkpt lat="-27.006618333333336" lon="-48.62222833333333"><ele>46.1</ele></trkpt><trkpt lat="-27.006618333333336" lon="-48.62222833333333"><ele>46.1</ele></trkpt><trkpt lat="-27.006618333333336" lon="-48.62222833333333"><ele>46.1</ele></trkpt><trkpt lat="-27.006618333333336" lon="-48.62222833333333"><ele>46.1</ele></trkpt><trkpt lat="-27.006618333333336" lon="-48.62222833333333"><ele>46.1</ele></trkpt><trkpt lat="-27.006618333333336" lon="-48.62222833333333"><ele>46.1</ele></trkpt><trkpt lat="-27.006618333333336" lon="-48.62222833333333"><ele>46.1</ele></trkpt><trkpt lat="-27.006618333333336" lon="-48.62222833333333"><ele>46.1</ele></trkpt><trkpt lat="-27.006618333333336" lon="-48.62222833333333"><ele>46.1</ele></trkpt><trkpt lat="-27.006618333333336" lon="-48.62222833333333"><ele>46.1</ele></trkpt><trkpt lat="-27.006618333333336" lon="-48.62222833333333"><ele>46.1</ele></trkpt><trkpt lat="-27.006618333333336" lon="-48.62222833333333"><ele>46.1</ele></trkpt><trkpt lat="-27.006618333333336" lon="-48.62222833333333"><ele>46.1</ele></trkpt><trkpt lat="-27.006618333333336" lon="-48.62222833333333"><ele>46.1</ele></trkpt><trkpt lat="-27.006618333333336" lon="-48.62222833333333"><ele>46.1</ele></trkpt><trkpt lat="-27.006618333333336" lon="-48.62222833333333"><ele>46.1</ele></trkpt><trkpt lat="-27.006618333333336" lon="-48.62222833333333"><ele>46.1</ele></trkpt><trkpt lat="-27.006618333333336" lon="-48.62222833333333"><ele>46.1</ele></trkpt><trkpt lat="-27.006618333333336" lon="-48.62222833333333"><ele>46.1</ele></trkpt><trkpt lat="-27.006618333333336" lon="-48.62222833333333"><ele>46.1</ele></trkpt><trkpt lat="-27.006618333333336" lon="-48.62222833333333"><ele>46.1</ele></trkpt><trkpt lat="-27.006618333333336" lon="-48.62222833333333"><ele>46.1</ele></trkpt><trkpt lat="-27.006618333333336" lon="-48.62222833333333"><ele>46.1</ele></trkpt><trkpt lat="-27.006618333333336" lon="-48.62222833333333"><ele>46.1</ele></trkpt><trkpt lat="-27.006618333333336" lon="-48.62222833333333"><ele>46.1</ele></trkpt><trkpt lat="-27.006618333333336" lon="-48.62222833333333"><ele>46.1</ele></trkpt><trkpt lat="-27.006618333333336" lon="-48.62222833333333"><ele>46.1</ele></trkpt><trkpt lat="-27.006618333333336" lon="-48.62222833333333"><ele>46.1</ele></trkpt><trkpt lat="-27.006618333333336" lon="-48.62222833333333"><ele>46.1</ele></trkpt><trkpt lat="-27.006618333333336" lon="-48.62222833333333"><ele>46.1</ele></trkpt><trkpt lat="-27.006618333333336" lon="-48.62222833333333"><ele>46.1</ele></trkpt><trkpt lat="-27.006618333333336" lon="-48.62222833333333"><ele>46.1</ele></trkpt><trkpt lat="-27.006618333333336" lon="-48.62222833333333"><ele>46.1</ele></trkpt><trkpt lat="-27.006618333333336" lon="-48.62222833333333"><ele>46.1</ele></trkpt><trkpt lat="-27.006618333333336" lon="-48.62222833333333"><ele>46.1</ele></trkpt><trkpt lat="-27.006618333333336" lon="-48.62222833333333"><ele>46.1</ele></trkpt><trkpt lat="-27.006618333333336" lon="-48.62222833333333"><ele>46.1</ele></trkpt><trkpt lat="-27.006618333333336" lon="-48.62222833333333"><ele>46.1</ele></trkpt><trkpt lat="-27.006618333333336" lon="-48.62222833333333"><ele>46.1</ele></trkpt><trkpt lat="-27.006618333333336" lon="-48.62222833333333"><ele>46.1</ele></trkpt><trkpt lat="-27.006618333333336" lon="-48.62222833333333"><ele>46.1</ele></trkpt><trkpt lat="-27.006618333333336" lon="-48.62222833333333"><ele>46.1</ele></trkpt><trkpt lat="-27.006618333333336" lon="-48.62222833333333"><ele>46.1</ele></trkpt><trkpt lat="-27.006618333333336" lon="-48.62222833333333"><ele>46.1</ele></trkpt><trkpt lat="-27.006618333333336" lon="-48.62222833333333"><ele>46.1</ele></trkpt><trkpt lat="-27.006618333333336" lon="-48.62222833333333"><ele>46.1</ele></trkpt><trkpt lat="-27.006618333333336" lon="-48.62222833333333"><ele>46.1</ele></trkpt><trkpt lat="-27.006618333333336" lon="-48.62222833333333"><ele>46.1</ele></trkpt><trkpt lat="-27.006618333333336" lon="-48.62222833333333"><ele>46.1</ele></trkpt><trkpt lat="-27.006618333333336" lon="-48.62222833333333"><ele>46.1</ele></trkpt><trkpt lat="-27.006618333333336" lon="-48.62222833333333"><ele>46.1</ele></trkpt><trkpt lat="-27.006618333333336" lon="-48.62222833333333"><ele>46.1</ele></trkpt><trkpt lat="-27.006618333333336" lon="-48.62222833333333"><ele>46.1</ele></trkpt><trkpt lat="-27.006618333333336" lon="-48.62222833333333"><ele>46.1</ele></trkpt><trkpt lat="-27.006618333333336" lon="-48.62222833333333"><ele>46.1</ele></trkpt><trkpt lat="-27.006618333333336" lon="-48.62222833333333"><ele>46.1</ele></trkpt><trkpt lat="-27.006618333333336" lon="-48.62222833333333"><ele>46.1</ele></trkpt><trkpt lat="-27.006618333333336" lon="-48.62222833333333"><ele>46.1</ele></trkpt><trkpt lat="-27.006618333333336" lon="-48.62222833333333"><ele>46.1</ele></trkpt><trkpt lat="-27.006618333333336" lon="-48.62222833333333"><ele>46.1</ele></trkpt><trkpt lat="-27.006618333333336" lon="-48.62222833333333"><ele>46.1</ele></trkpt><trkpt lat="-27.006618333333336" lon="-48.62222833333333"><ele>46.1</ele></trkpt><trkpt lat="-27.006618333333336" lon="-48.62222833333333"><ele>46.1</ele></trkpt><trkpt lat="-27.006618333333336" lon="-48.62222833333333"><ele>46.1</ele></trkpt><trkpt lat="-27.006618333333336" lon="-48.62222833333333"><ele>46.1</ele></trkpt><trkpt lat="-27.006618333333336" lon="-48.62222833333333"><ele>46.1</ele></trkpt><trkpt lat="-27.006618333333336" lon="-48.62222833333333"><ele>46.1</ele></trkpt><trkpt lat="-27.006618333333336" lon="-48.62222833333333"><ele>46.1</ele></trkpt><trkpt lat="-27.006618333333336" lon="-48.62222833333333"><ele>46.1</ele></trkpt><trkpt lat="-27.006618333333336" lon="-48.62222833333333"><ele>46.1</ele></trkpt><trkpt lat="-27.006618333333336" lon="-48.62222833333333"><ele>46.1</ele></trkpt><trkpt lat="-27.006618333333336" lon="-48.62222833333333"><ele>46.1</ele></trkpt><trkpt lat="-27.006618333333336" lon="-48.62222833333333"><ele>46.1</ele></trkpt><trkpt lat="-27.006618333333336" lon="-48.62222833333333"><ele>46.1</ele></trkpt><trkpt lat="-27.006618333333336" lon="-48.62222833333333"><ele>46.1</ele></trkpt><trkpt lat="-27.006618333333336" lon="-48.62222833333333"><ele>46.1</ele></trkpt><trkpt lat="-27.006618333333336" lon="-48.62222833333333"><ele>46.1</ele></trkpt><trkpt lat="-27.006618333333336" lon="-48.62222833333333"><ele>46.1</ele></trkpt><trkpt lat="-27.006618333333336" lon="-48.62222833333333"><ele>46.1</ele></trkpt><trkpt lat="-27.006618333333336" lon="-48.62222833333333"><ele>46.1</ele></trkpt><trkpt lat="-27.006660000000004" lon="-48.62225333333334"><ele>7.9</ele></trkpt><trkpt lat="-27.006656666666665" lon="-48.62224833333333"><ele>7.6</ele></trkpt><trkpt lat="-27.006651666666667" lon="-48.62224833333333"><ele>7.199999999999999</ele></trkpt><trkpt lat="-27.006646666666665" lon="-48.62224833333333"><ele>6.800000000000001</ele></trkpt><trkpt lat="-27.006646666666665" lon="-48.62224833333333"><ele>6.800000000000001</ele></trkpt><trkpt lat="-27.006646666666665" lon="-48.62224833333333"><ele>6.800000000000001</ele></trkpt><trkpt lat="-27.006646666666665" lon="-48.62224833333333"><ele>6.800000000000001</ele></trkpt><trkpt lat="-27.006646666666665" lon="-48.62224833333333"><ele>6.800000000000001</ele></trkpt><trkpt lat="-27.006646666666665" lon="-48.62224833333333"><ele>6.800000000000001</ele></trkpt><trkpt lat="-27.006646666666665" lon="-48.62224833333333"><ele>6.800000000000001</ele></trkpt><trkpt lat="-27.006646666666665" lon="-48.62224833333333"><ele>6.800000000000001</ele></trkpt><trkpt lat="-27.006646666666665" lon="-48.62224833333333"><ele>6.800000000000001</ele></trkpt><trkpt lat="-27.006646666666665" lon="-48.62224833333333"><ele>6.800000000000001</ele></trkpt><trkpt lat="-27.006646666666665" lon="-48.62224833333333"><ele>6.800000000000001</ele></trkpt><trkpt lat="-27.006646666666665" lon="-48.62224833333333"><ele>6.800000000000001</ele></trkpt><trkpt lat="-27.006646666666665" lon="-48.62224833333333"><ele>6.800000000000001</ele></trkpt><trkpt lat="-27.006646666666665" lon="-48.62224833333333"><ele>6.800000000000001</ele></trkpt><trkpt lat="-27.006646666666665" lon="-48.62224833333333"><ele>6.800000000000001</ele></trkpt><trkpt lat="-27.006646666666665" lon="-48.62224833333333"><ele>6.800000000000001</ele></trkpt><trkpt lat="-27.006646666666665" lon="-48.62224833333333"><ele>6.800000000000001</ele></trkpt><trkpt lat="-27.006646666666665" lon="-48.62224833333333"><ele>6.800000000000001</ele></trkpt><trkpt lat="-27.006646666666665" lon="-48.62224833333333"><ele>6.800000000000001</ele></trkpt><trkpt lat="-27.006646666666665" lon="-48.62224833333333"><ele>6.800000000000001</ele></trkpt><trkpt lat="-27.006646666666665" lon="-48.62224833333333"><ele>6.800000000000001</ele></trkpt><trkpt lat="-27.006646666666665" lon="-48.62224833333333"><ele>6.800000000000001</ele></trkpt><trkpt lat="-27.006646666666665" lon="-48.62224833333333"><ele>6.800000000000001</ele></trkpt><trkpt lat="-27.006646666666665" lon="-48.62224833333333"><ele>6.800000000000001</ele></trkpt><trkpt lat="-27.006646666666665" lon="-48.62224833333333"><ele>6.800000000000001</ele></trkpt><trkpt lat="-27.006646666666665" lon="-48.62224833333333"><ele>6.800000000000001</ele></trkpt><trkpt lat="-27.006646666666665" lon="-48.62224833333333"><ele>6.800000000000001</ele></trkpt><trkpt lat="-27.006646666666665" lon="-48.62224833333333"><ele>6.800000000000001</ele></trkpt><trkpt lat="-27.006646666666665" lon="-48.62224833333333"><ele>6.800000000000001</ele></trkpt><trkpt lat="-27.006646666666665" lon="-48.62224833333333"><ele>6.800000000000001</ele></trkpt><trkpt lat="-27.006646666666665" lon="-48.62224833333333"><ele>6.800000000000001</ele></trkpt><trkpt lat="-27.006646666666665" lon="-48.62224833333333"><ele>6.800000000000001</ele></trkpt><trkpt lat="-27.006646666666665" lon="-48.62224833333333"><ele>6.800000000000001</ele></trkpt><trkpt lat="-27.006646666666665" lon="-48.62224833333333"><ele>6.800000000000001</ele></trkpt><trkpt lat="-27.006646666666665" lon="-48.62224833333333"><ele>6.800000000000001</ele></trkpt><trkpt lat="-27.006646666666665" lon="-48.62224833333333"><ele>6.800000000000001</ele></trkpt><trkpt lat="-27.006646666666665" lon="-48.62224833333333"><ele>6.800000000000001</ele></trkpt><trkpt lat="-27.006646666666665" lon="-48.62224833333333"><ele>6.800000000000001</ele></trkpt><trkpt lat="-27.006646666666665" lon="-48.62224833333333"><ele>6.800000000000001</ele></trkpt><trkpt lat="-27.006646666666665" lon="-48.62224833333333"><ele>6.800000000000001</ele></trkpt><trkpt lat="-27.006646666666665" lon="-48.62224833333333"><ele>6.800000000000001</ele></trkpt><trkpt lat="-27.006646666666665" lon="-48.62224833333333"><ele>6.800000000000001</ele></trkpt><trkpt lat="-27.006646666666665" lon="-48.62224833333333"><ele>6.800000000000001</ele></trkpt><trkpt lat="-27.006646666666665" lon="-48.62224833333333"><ele>6.800000000000001</ele></trkpt><trkpt lat="-27.006646666666665" lon="-48.62224833333333"><ele>6.800000000000001</ele></trkpt><trkpt lat="-27.006646666666665" lon="-48.62224833333333"><ele>6.800000000000001</ele></trkpt><trkpt lat="-27.006646666666665" lon="-48.62224833333333"><ele>6.800000000000001</ele></trkpt><trkpt lat="-27.006646666666665" lon="-48.62224833333333"><ele>6.800000000000001</ele></trkpt><trkpt lat="-27.006646666666665" lon="-48.62224833333333"><ele>6.800000000000001</ele></trkpt><trkpt lat="-27.006646666666665" lon="-48.62224833333333"><ele>6.800000000000001</ele></trkpt><trkpt lat="-27.006646666666665" lon="-48.62224833333333"><ele>6.800000000000001</ele></trkpt><trkpt lat="-27.006646666666665" lon="-48.62224833333333"><ele>6.800000000000001</ele></trkpt><trkpt lat="-27.006646666666665" lon="-48.62224833333333"><ele>6.800000000000001</ele></trkpt><trkpt lat="-27.006646666666665" lon="-48.62224833333333"><ele>6.800000000000001</ele></trkpt><trkpt lat="-27.006646666666665" lon="-48.62224833333333"><ele>6.800000000000001</ele></trkpt><trkpt lat="-27.006646666666665" lon="-48.62224833333333"><ele>6.800000000000001</ele></trkpt><trkpt lat="-27.006646666666665" lon="-48.62224833333333"><ele>6.800000000000001</ele></trkpt><trkpt lat="-27.006646666666665" lon="-48.62224833333333"><ele>6.800000000000001</ele></trkpt><trkpt lat="-27.006646666666665" lon="-48.62224833333333"><ele>6.800000000000001</ele></trkpt><trkpt lat="-27.006646666666665" lon="-48.62224833333333"><ele>6.800000000000001</ele></trkpt><trkpt lat="-27.006646666666665" lon="-48.62224833333333"><ele>6.800000000000001</ele></trkpt><trkpt lat="-27.006646666666665" lon="-48.62224833333333"><ele>6.800000000000001</ele></trkpt><trkpt lat="-27.006646666666665" lon="-48.62224833333333"><ele>6.800000000000001</ele></trkpt><trkpt lat="-27.006646666666665" lon="-48.62224833333333"><ele>6.800000000000001</ele></trkpt><trkpt lat="-27.006646666666665" lon="-48.62224833333333"><ele>6.800000000000001</ele></trkpt><trkpt lat="-27.006646666666665" lon="-48.62224833333333"><ele>6.800000000000001</ele></trkpt><trkpt lat="-27.006646666666665" lon="-48.62224833333333"><ele>6.800000000000001</ele></trkpt><trkpt lat="-27.006646666666665" lon="-48.62224833333333"><ele>6.800000000000001</ele></trkpt><trkpt lat="-27.006646666666665" lon="-48.62224833333333"><ele>6.800000000000001</ele></trkpt><trkpt lat="-27.006646666666665" lon="-48.62224833333333"><ele>6.800000000000001</ele></trkpt><trkpt lat="-27.006646666666665" lon="-48.62224833333333"><ele>6.800000000000001</ele></trkpt><trkpt lat="-27.006646666666665" lon="-48.62224833333333"><ele>6.800000000000001</ele></trkpt><trkpt lat="-27.006646666666665" lon="-48.62224833333333"><ele>6.800000000000001</ele></trkpt><trkpt lat="-27.006646666666665" lon="-48.62224833333333"><ele>6.800000000000001</ele></trkpt><trkpt lat="-27.006646666666665" lon="-48.62224833333333"><ele>6.800000000000001</ele></trkpt><trkpt lat="-27.006646666666665" lon="-48.62224833333333"><ele>6.800000000000001</ele></trkpt><trkpt lat="-27.006646666666665" lon="-48.62224833333333"><ele>6.800000000000001</ele></trkpt><trkpt lat="-27.00665333333333" lon="-48.62227500000001"><ele>7</ele></trkpt><trkpt lat="-27.006643333333333" lon="-48.62228"><ele>7.1</ele></trkpt><trkpt lat="-27.006633333333337" lon="-48.62229000000001"><ele>6.9</ele></trkpt><trkpt lat="-27.006633333333337" lon="-48.62229000000001"><ele>6.9</ele></trkpt><trkpt lat="-27.006626666666662" lon="-48.622299999999996"><ele>6.800000000000001</ele></trkpt><trkpt lat="-27.006621666666668" lon="-48.62231166666667"><ele>6.699999999999999</ele></trkpt><trkpt lat="-27.006611666666664" lon="-48.622323333333334"><ele>7.199999999999999</ele></trkpt><trkpt lat="-27.006606666666666" lon="-48.62233"><ele>7.199999999999999</ele></trkpt><trkpt lat="-27.006603333333334" lon="-48.62234"><ele>7.4</ele></trkpt><trkpt lat="-27.006601666666665" lon="-48.622350000000004"><ele>7.6</ele></trkpt><trkpt lat="-27.006600000000002" lon="-48.62235833333334"><ele>7.800000000000001</ele></trkpt><trkpt lat="-27.006596666666663" lon="-48.62236666666666"><ele>7.800000000000001</ele></trkpt><trkpt lat="-27.00659333333333" lon="-48.62237166666667"><ele>7.9</ele></trkpt><trkpt lat="-27.006595" lon="-48.62237333333334"><ele>8.3</ele></trkpt><trkpt lat="-27.00659333333333" lon="-48.62237333333334"><ele>8.6</ele></trkpt><trkpt lat="-27.006596666666663" lon="-48.62237833333334"><ele>8.9</ele></trkpt><trkpt lat="-27.006596666666663" lon="-48.62238666666667"><ele>9.2</ele></trkpt><trkpt lat="-27.006581666666662" lon="-48.62228666666667"><ele>33.4</ele></trkpt><trkpt lat="-27.006581666666662" lon="-48.62229000000001"><ele>34.1</ele></trkpt><trkpt lat="-27.006581666666662" lon="-48.62229000000001"><ele>34.1</ele></trkpt><trkpt lat="-27.00657833333333" lon="-48.62229000000001"><ele>33.9</ele></trkpt><trkpt lat="-27.006573333333336" lon="-48.62229166666666"><ele>32.6</ele></trkpt><trkpt lat="-27.006568333333334" lon="-48.62229000000001"><ele>30.900000000000002</ele></trkpt><trkpt lat="-27.006568333333334" lon="-48.62229000000001"><ele>30.900000000000002</ele></trkpt><trkpt lat="-27.006568333333334" lon="-48.62229000000001"><ele>30.900000000000002</ele></trkpt><trkpt lat="-27.006568333333334" lon="-48.62229000000001"><ele>30.900000000000002</ele></trkpt><trkpt lat="-27.006568333333334" lon="-48.62229000000001"><ele>30.900000000000002</ele></trkpt><trkpt lat="-27.006568333333334" lon="-48.62229000000001"><ele>30.900000000000002</ele></trkpt><trkpt lat="-27.006573333333336" lon="-48.62226999999999"><ele>20.200000000000003</ele></trkpt><trkpt lat="-27.006576666666668" lon="-48.622265"><ele>19</ele></trkpt><trkpt lat="-27.00658333333333" lon="-48.622258333333335"><ele>17.6</ele></trkpt><trkpt lat="-27.006585000000005" lon="-48.62225"><ele>16.7</ele></trkpt><trkpt lat="-27.006588333333337" lon="-48.62223833333334"><ele>15.9</ele></trkpt><trkpt lat="-27.006595" lon="-48.62223000000001"><ele>15</ele></trkpt><trkpt lat="-27.006603333333334" lon="-48.62222666666666"><ele>14.1</ele></trkpt><trkpt lat="-27.006606666666666" lon="-48.62222499999999"><ele>13.5</ele></trkpt><trkpt lat="-27.006606666666666" lon="-48.62222499999999"><ele>13</ele></trkpt><trkpt lat="-27.006606666666666" lon="-48.62222499999999"><ele>13</ele></trkpt><trkpt lat="-27.006606666666666" lon="-48.62222"><ele>12.6</ele></trkpt><trkpt lat="-27.006601666666665" lon="-48.62221666666666"><ele>12.299999999999999</ele></trkpt><trkpt lat="-27.006595" lon="-48.622209999999995"><ele>11.7</ele></trkpt><trkpt lat="-27.00659" lon="-48.62219833333334"><ele>11.1</ele></trkpt><trkpt lat="-27.006585000000005" lon="-48.622188333333334"><ele>10.4</ele></trkpt><trkpt lat="-27.006585000000005" lon="-48.622175"><ele>10</ele></trkpt><trkpt lat="-27.00658333333333" lon="-48.62215833333333"><ele>10.2</ele></trkpt><trkpt lat="-27.00657833333333" lon="-48.62214666666667"><ele>9.799999999999999</ele></trkpt><trkpt lat="-27.006573333333336" lon="-48.62213666666666"><ele>9</ele></trkpt><trkpt lat="-27.006568333333334" lon="-48.62212666666666"><ele>8.4</ele></trkpt><trkpt lat="-27.006561666666666" lon="-48.622121666666665"><ele>7.800000000000001</ele></trkpt><trkpt lat="-27.006558333333334" lon="-48.62211666666667"><ele>7.1</ele></trkpt><trkpt lat="-27.006558333333334" lon="-48.62211666666667"><ele>6.6</ele></trkpt><trkpt lat="-27.006558333333334" lon="-48.62211666666667"><ele>6.4</ele></trkpt><trkpt lat="-27.006555000000002" lon="-48.62211333333333"><ele>6.300000000000001</ele></trkpt><trkpt lat="-27.006556666666665" lon="-48.62211166666666"><ele>6.4</ele></trkpt><trkpt lat="-27.006555000000002" lon="-48.62211166666666"><ele>6.5</ele></trkpt><trkpt lat="-27.006555000000002" lon="-48.62211166666666"><ele>6.5</ele></trkpt><trkpt lat="-27.006551666666663" lon="-48.62210833333334"><ele>6.9</ele></trkpt><trkpt lat="-27.00654666666667" lon="-48.62210333333334"><ele>6.699999999999999</ele></trkpt><trkpt lat="-27.006541666666667" lon="-48.62209666666666"><ele>6.699999999999999</ele></trkpt><trkpt lat="-27.006535" lon="-48.62209166666666"><ele>6.5</ele></trkpt><trkpt lat="-27.006525000000003" lon="-48.62208833333334"><ele>6.699999999999999</ele></trkpt><trkpt lat="-27.006514999999997" lon="-48.622085"><ele>6.6</ele></trkpt><trkpt lat="-27.006505" lon="-48.622080000000004"><ele>6.699999999999999</ele></trkpt><trkpt lat="-27.006498333333337" lon="-48.622074999999995"><ele>6.9</ele></trkpt><trkpt lat="-27.00648833333333" lon="-48.62207166666667"><ele>6.9</ele></trkpt><trkpt lat="-27.00647666666667" lon="-48.62206666666666"><ele>6.9</ele></trkpt><trkpt lat="-27.006463333333333" lon="-48.62206333333334"><ele>7</ele></trkpt><trkpt lat="-27.006453333333337" lon="-48.62205833333334"><ele>6.9</ele></trkpt><trkpt lat="-27.00644833333333" lon="-48.622053333333334"><ele>7</ele></trkpt><trkpt lat="-27.00644333333333" lon="-48.622053333333334"><ele>7</ele></trkpt><trkpt lat="-27.006445" lon="-48.62205000000001"><ele>7.1</ele></trkpt><trkpt lat="-27.006445" lon="-48.62204666666666"><ele>7.1</ele></trkpt><trkpt lat="-27.006445" lon="-48.62204666666666"><ele>7.1</ele></trkpt><trkpt lat="-27.00644333333333" lon="-48.62204166666667"><ele>7.1</ele></trkpt><trkpt lat="-27.00644666666667" lon="-48.622033333333334"><ele>7.5</ele></trkpt><trkpt lat="-27.00644333333333" lon="-48.62201833333334"><ele>7.4</ele></trkpt><trkpt lat="-27.006435000000003" lon="-48.62201666666667"><ele>8.1</ele></trkpt><trkpt lat="-27.00643" lon="-48.62201333333334"><ele>8.5</ele></trkpt><trkpt lat="-27.00642833333333" lon="-48.622015"><ele>8.7</ele></trkpt><trkpt lat="-27.00642833333333" lon="-48.62201333333334"><ele>8.9</ele></trkpt><trkpt lat="-27.006421666666665" lon="-48.622015"><ele>9</ele></trkpt><trkpt lat="-27.006418333333333" lon="-48.62200666666666"><ele>9.1</ele></trkpt><trkpt lat="-27.00641" lon="-48.62200666666666"><ele>8.9</ele></trkpt><trkpt lat="-27.00640333333333" lon="-48.62200833333333"><ele>9.1</ele></trkpt><trkpt lat="-27.0064" lon="-48.62200666666666"><ele>9.1</ele></trkpt><trkpt lat="-27.006393333333335" lon="-48.62201"><ele>9.1</ele></trkpt><trkpt lat="-27.006393333333335" lon="-48.62201"><ele>9.1</ele></trkpt><trkpt lat="-27.0064" lon="-48.62201166666667"><ele>9.2</ele></trkpt><trkpt lat="-27.006394999999998" lon="-48.62201833333334"><ele>9.4</ele></trkpt><trkpt lat="-27.00640333333333" lon="-48.62201333333334"><ele>9.5</ele></trkpt><trkpt lat="-27.00640333333333" lon="-48.62200833333333"><ele>9.4</ele></trkpt><trkpt lat="-27.006405000000004" lon="-48.62199833333334"><ele>9.5</ele></trkpt><trkpt lat="-27.00641" lon="-48.62199333333333"><ele>9.4</ele></trkpt><trkpt lat="-27.006408333333336" lon="-48.62199166666666"><ele>9.4</ele></trkpt><trkpt lat="-27.006405000000004" lon="-48.621988333333334"><ele>9.5</ele></trkpt><trkpt lat="-27.006406666666667" lon="-48.621986666666665"><ele>9.5</ele></trkpt><trkpt lat="-27.0064" lon="-48.62198"><ele>9.7</ele></trkpt><trkpt lat="-27.00639833333333" lon="-48.62197833333333"><ele>9.6</ele></trkpt><trkpt lat="-27.00639833333333" lon="-48.62197833333333"><ele>9.6</ele></trkpt><trkpt lat="-27.006405000000004" lon="-48.621990000000004"><ele>10.1</ele></trkpt><trkpt lat="-27.00640333333333" lon="-48.62198166666667"><ele>10.5</ele></trkpt><trkpt lat="-27.00639833333333" lon="-48.62197833333333"><ele>10.299999999999999</ele></trkpt><trkpt lat="-27.00638333333333" lon="-48.62197833333333"><ele>10.4</ele></trkpt><trkpt lat="-27.00636833333333" lon="-48.62196666666667"><ele>10.6</ele></trkpt><trkpt lat="-27.00635666666667" lon="-48.62194666666666"><ele>11</ele></trkpt><trkpt lat="-27.006345000000003" lon="-48.62192833333334"><ele>11.6</ele></trkpt><trkpt lat="-27.00633833333333" lon="-48.62191166666666"><ele>12</ele></trkpt><trkpt lat="-27.00634" lon="-48.62191500000001"><ele>11.5</ele></trkpt><trkpt lat="-27.006346666666666" lon="-48.62192166666667"><ele>11.299999999999999</ele></trkpt><trkpt lat="-27.00637" lon="-48.621939999999995"><ele>10.7</ele></trkpt><trkpt lat="-27.006379999999996" lon="-48.62197166666667"><ele>8.8</ele></trkpt><trkpt lat="-27.006393333333335" lon="-48.62199999999999"><ele>8.6</ele></trkpt><trkpt lat="-27.006396666666667" lon="-48.62201666666667"><ele>8.6</ele></trkpt><trkpt lat="-27.00640166666667" lon="-48.622031666666665"><ele>8.2</ele></trkpt><trkpt lat="-27.006408333333336" lon="-48.62204333333334"><ele>7.6</ele></trkpt><trkpt lat="-27.006420000000002" lon="-48.62205000000001"><ele>6.9</ele></trkpt><trkpt lat="-27.00643" lon="-48.62206666666666"><ele>6.1</ele></trkpt><trkpt lat="-27.006433333333334" lon="-48.62206833333333"><ele>4.9</ele></trkpt><trkpt lat="-27.006436666666666" lon="-48.62207"><ele>4.300000000000001</ele></trkpt><trkpt lat="-27.006439999999998" lon="-48.62207333333334"><ele>4.1</ele></trkpt><trkpt lat="-27.006438333333335" lon="-48.622078333333334"><ele>3.8000000000000003</ele></trkpt><trkpt lat="-27.006435000000003" lon="-48.622085"><ele>3.8000000000000003</ele></trkpt><trkpt lat="-27.00642833333333" lon="-48.62208833333334"><ele>3.3</ele></trkpt><trkpt lat="-27.006423333333334" lon="-48.622085"><ele>3.2</ele></trkpt><trkpt lat="-27.006420000000002" lon="-48.62208166666666"><ele>3.3</ele></trkpt><trkpt lat="-27.006415" lon="-48.622076666666665"><ele>3.4000000000000004</ele></trkpt><trkpt lat="-27.00641" lon="-48.622074999999995"><ele>3.2</ele></trkpt><trkpt lat="-27.00640166666667" lon="-48.62207333333334"><ele>3.1</ele></trkpt><trkpt lat="-27.00639833333333" lon="-48.62207333333334"><ele>3.2</ele></trkpt><trkpt lat="-27.006393333333335" lon="-48.62207333333334"><ele>3.2</ele></trkpt><trkpt lat="-27.00638666666667" lon="-48.622076666666665"><ele>3.2</ele></trkpt><trkpt lat="-27.006373333333332" lon="-48.622078333333334"><ele>3.2</ele></trkpt><trkpt lat="-27.006361666666667" lon="-48.622080000000004"><ele>2.9000000000000004</ele></trkpt><trkpt lat="-27.006349999999998" lon="-48.622080000000004"><ele>2.8</ele></trkpt><trkpt lat="-27.00633833333333" lon="-48.622080000000004"><ele>4.4</ele></trkpt><trkpt lat="-27.00632666666667" lon="-48.62207166666667"><ele>4.5</ele></trkpt><trkpt lat="-27.00631333333333" lon="-48.62206833333333"><ele>4.5</ele></trkpt><trkpt lat="-27.006304999999998" lon="-48.62206333333334"><ele>4.300000000000001</ele></trkpt><trkpt lat="-27.006298333333334" lon="-48.62206166666667"><ele>4</ele></trkpt><trkpt lat="-27.00629666666667" lon="-48.62206166666667"><ele>3.8000000000000003</ele></trkpt><trkpt lat="-27.006295" lon="-48.62206"><ele>3.6</ele></trkpt><trkpt lat="-27.006291666666666" lon="-48.622055"><ele>3.4000000000000004</ele></trkpt><trkpt lat="-27.006291666666666" lon="-48.622055"><ele>3.5</ele></trkpt><trkpt lat="-27.00629333333333" lon="-48.62205666666667"><ele>3.4000000000000004</ele></trkpt><trkpt lat="-27.006295" lon="-48.62205666666667"><ele>3.4000000000000004</ele></trkpt><trkpt lat="-27.00629666666667" lon="-48.62206"><ele>3.4000000000000004</ele></trkpt><trkpt lat="-27.006300000000003" lon="-48.62205166666666"><ele>3.7</ele></trkpt><trkpt lat="-27.006298333333334" lon="-48.622053333333334"><ele>3.7</ele></trkpt><trkpt lat="-27.00629666666667" lon="-48.62205000000001"><ele>3.4000000000000004</ele></trkpt><trkpt lat="-27.00629666666667" lon="-48.62204"><ele>3.4000000000000004</ele></trkpt><trkpt lat="-27.00629666666667" lon="-48.62204"><ele>3.4000000000000004</ele></trkpt><trkpt lat="-27.00629666666667" lon="-48.62204"><ele>3.4000000000000004</ele></trkpt><trkpt lat="-27.006303333333335" lon="-48.622033333333334"><ele>3.5</ele></trkpt><trkpt lat="-27.006303333333335" lon="-48.622033333333334"><ele>3.5</ele></trkpt><trkpt lat="-27.006303333333335" lon="-48.622033333333334"><ele>3.5</ele></trkpt><trkpt lat="-27.006303333333335" lon="-48.62204"><ele>2.9000000000000004</ele></trkpt><trkpt lat="-27.006303333333335" lon="-48.62204"><ele>2.8</ele></trkpt><trkpt lat="-27.006306666666667" lon="-48.62204"><ele>2.7</ele></trkpt><trkpt lat="-27.00631166666667" lon="-48.62204"><ele>2.6</ele></trkpt><trkpt lat="-27.00631166666667" lon="-48.62204"><ele>2.6</ele></trkpt><trkpt lat="-27.00631166666667" lon="-48.62204"><ele>2.6</ele></trkpt><trkpt lat="-27.00631166666667" lon="-48.62204"><ele>2.6</ele></trkpt><trkpt lat="-27.00631166666667" lon="-48.62204"><ele>2.6</ele></trkpt><trkpt lat="-27.00631166666667" lon="-48.62204"><ele>2.6</ele></trkpt><trkpt lat="-27.00631166666667" lon="-48.62204"><ele>2.6</ele></trkpt><trkpt lat="-27.00631166666667" lon="-48.62204"><ele>2.6</ele></trkpt><trkpt lat="-27.00631166666667" lon="-48.62204"><ele>2.6</ele></trkpt><trkpt lat="-27.00631166666667" lon="-48.62204"><ele>2.6</ele></trkpt><trkpt lat="-27.00631166666667" lon="-48.62204"><ele>2.6</ele></trkpt><trkpt lat="-27.00631166666667" lon="-48.62204"><ele>2.6</ele></trkpt><trkpt lat="-27.00631166666667" lon="-48.62204"><ele>2.6</ele></trkpt><trkpt lat="-27.00631166666667" lon="-48.62204"><ele>2.6</ele></trkpt><trkpt lat="-27.00631166666667" lon="-48.62204"><ele>2.6</ele></trkpt><trkpt lat="-27.00631166666667" lon="-48.62204"><ele>2.6</ele></trkpt><trkpt lat="-27.00631166666667" lon="-48.62204"><ele>2.6</ele></trkpt><trkpt lat="-27.00631166666667" lon="-48.62204"><ele>2.6</ele></trkpt><trkpt lat="-27.006345000000003" lon="-48.62207166666667"><ele>2.9000000000000004</ele></trkpt><trkpt lat="-27.006351666666667" lon="-48.622085"><ele>2.9000000000000004</ele></trkpt><trkpt lat="-27.006351666666667" lon="-48.62210166666667"><ele>2.8</ele></trkpt><trkpt lat="-27.006349999999998" lon="-48.62210833333334"><ele>2.9000000000000004</ele></trkpt><trkpt lat="-27.006346666666666" lon="-48.622110000000006"><ele>3.4000000000000004</ele></trkpt><trkpt lat="-27.006346666666666" lon="-48.62210166666667"><ele>4</ele></trkpt><trkpt lat="-27.00634166666667" lon="-48.62210166666667"><ele>3.9</ele></trkpt><trkpt lat="-27.00634" lon="-48.62210166666667"><ele>4</ele></trkpt><trkpt lat="-27.00634166666667" lon="-48.62210166666667"><ele>4</ele></trkpt><trkpt lat="-27.00634" lon="-48.622098333333334"><ele>4</ele></trkpt><trkpt lat="-27.00633833333333" lon="-48.62209500000001"><ele>3.9</ele></trkpt><trkpt lat="-27.00633833333333" lon="-48.62209500000001"><ele>3.9</ele></trkpt><trkpt lat="-27.00633833333333" lon="-48.62209500000001"><ele>3.9</ele></trkpt><trkpt lat="-27.00633833333333" lon="-48.62209500000001"><ele>3.9</ele></trkpt><trkpt lat="-27.00633833333333" lon="-48.62209500000001"><ele>3.9</ele></trkpt><trkpt lat="-27.00633833333333" lon="-48.62209500000001"><ele>3.9</ele></trkpt><trkpt lat="-27.00633833333333" lon="-48.62209500000001"><ele>3.9</ele></trkpt><trkpt lat="-27.00633833333333" lon="-48.62209500000001"><ele>3.9</ele></trkpt><trkpt lat="-27.00633833333333" lon="-48.62209500000001"><ele>3.9</ele></trkpt><trkpt lat="-27.00633833333333" lon="-48.62209500000001"><ele>3.9</ele></trkpt><trkpt lat="-27.00633833333333" lon="-48.62209500000001"><ele>3.9</ele></trkpt><trkpt lat="-27.00633833333333" lon="-48.62209500000001"><ele>3.9</ele></trkpt><trkpt lat="-27.00633833333333" lon="-48.62209500000001"><ele>3.9</ele></trkpt><trkpt lat="-27.00633833333333" lon="-48.62209500000001"><ele>3.9</ele></trkpt><trkpt lat="-27.00633833333333" lon="-48.62209500000001"><ele>3.9</ele></trkpt><trkpt lat="-27.00633833333333" lon="-48.62209500000001"><ele>3.9</ele></trkpt><trkpt lat="-27.00633833333333" lon="-48.62209500000001"><ele>3.9</ele></trkpt><trkpt lat="-27.00633833333333" lon="-48.62209500000001"><ele>3.9</ele></trkpt><trkpt lat="-27.00633833333333" lon="-48.62209500000001"><ele>3.9</ele></trkpt><trkpt lat="-27.00633833333333" lon="-48.62209500000001"><ele>3.9</ele></trkpt><trkpt lat="-27.00633833333333" lon="-48.62209500000001"><ele>3.9</ele></trkpt><trkpt lat="-27.00633833333333" lon="-48.62209500000001"><ele>3.9</ele></trkpt><trkpt lat="-27.00633833333333" lon="-48.62209500000001"><ele>3.9</ele></trkpt><trkpt lat="-27.00633833333333" lon="-48.62209500000001"><ele>3.9</ele></trkpt><trkpt lat="-27.00632333333333" lon="-48.62210833333334"><ele>8.6</ele></trkpt><trkpt lat="-27.00632666666667" lon="-48.622115"><ele>8.8</ele></trkpt><trkpt lat="-27.006331666666664" lon="-48.622125000000004"><ele>8.8</ele></trkpt><trkpt lat="-27.006333333333334" lon="-48.62212833333333"><ele>9.4</ele></trkpt><trkpt lat="-27.006330000000002" lon="-48.62212833333333"><ele>9.799999999999999</ele></trkpt><trkpt lat="-27.006334999999996" lon="-48.622125000000004"><ele>10.2</ele></trkpt><trkpt lat="-27.006336666666666" lon="-48.622119999999995"><ele>10.7</ele></trkpt><trkpt lat="-27.006336666666666" lon="-48.62211833333334"><ele>11.1</ele></trkpt><trkpt lat="-27.00634166666667" lon="-48.622115"><ele>11.5</ele></trkpt><trkpt lat="-27.006345000000003" lon="-48.622110000000006"><ele>11.9</ele></trkpt><trkpt lat="-27.006355" lon="-48.62208833333334"><ele>12.2</ele></trkpt><trkpt lat="-27.006361666666667" lon="-48.622078333333334"><ele>12.5</ele></trkpt><trkpt lat="-27.006365" lon="-48.622074999999995"><ele>12.799999999999999</ele></trkpt><trkpt lat="-27.006365" lon="-48.62206666666666"><ele>13.1</ele></trkpt><trkpt lat="-27.00636833333333" lon="-48.62205000000001"><ele>13.5</ele></trkpt><trkpt lat="-27.00637166666667" lon="-48.62204"><ele>13.799999999999999</ele></trkpt><trkpt lat="-27.006373333333332" lon="-48.62205666666667"><ele>14.1</ele></trkpt><trkpt lat="-27.006376666666664" lon="-48.62205833333334"><ele>14.4</ele></trkpt><trkpt lat="-27.00638333333333" lon="-48.62204166666667"><ele>14.7</ele></trkpt><trkpt lat="-27.00638333333333" lon="-48.62202833333334"><ele>15</ele></trkpt><trkpt lat="-27.006388333333334" lon="-48.62202666666667"><ele>15</ele></trkpt><trkpt lat="-27.006393333333335" lon="-48.62202666666667"><ele>15.299999999999999</ele></trkpt><trkpt lat="-27.006393333333335" lon="-48.622031666666665"><ele>15.4</ele></trkpt><trkpt lat="-27.006393333333335" lon="-48.622029999999995"><ele>15.5</ele></trkpt><trkpt lat="-27.006388333333334" lon="-48.62204166666667"><ele>15.4</ele></trkpt><trkpt lat="-27.00638333333333" lon="-48.622055"><ele>15.4</ele></trkpt><trkpt lat="-27.00638333333333" lon="-48.62206"><ele>15.7</ele></trkpt><trkpt lat="-27.00638333333333" lon="-48.62206833333333"><ele>15.9</ele></trkpt><trkpt lat="-27.00638666666667" lon="-48.62206833333333"><ele>16.2</ele></trkpt><trkpt lat="-27.006385" lon="-48.62206333333334"><ele>16.400000000000002</ele></trkpt><trkpt lat="-27.006379999999996" lon="-48.62207"><ele>16.5</ele></trkpt><trkpt lat="-27.006379999999996" lon="-48.622076666666665"><ele>16.7</ele></trkpt><trkpt lat="-27.006378333333334" lon="-48.62208999999999"><ele>16.900000000000002</ele></trkpt><trkpt lat="-27.006375000000002" lon="-48.62210333333334"><ele>16.900000000000002</ele></trkpt><trkpt lat="-27.006375000000002" lon="-48.62210333333334"><ele>16.900000000000002</ele></trkpt><trkpt lat="-27.006375000000002" lon="-48.62210333333334"><ele>16.900000000000002</ele></trkpt><trkpt lat="-27.006375000000002" lon="-48.62210333333334"><ele>16.900000000000002</ele></trkpt><trkpt lat="-27.00635666666667" lon="-48.62208833333334"><ele>17.900000000000002</ele></trkpt><trkpt lat="-27.006349999999998" lon="-48.62207"><ele>18.1</ele></trkpt><trkpt lat="-27.006345000000003" lon="-48.62205833333334"><ele>18.400000000000002</ele></trkpt><trkpt lat="-27.00633833333333" lon="-48.622053333333334"><ele>18.3</ele></trkpt><trkpt lat="-27.006336666666666" lon="-48.62205166666666"><ele>18.1</ele></trkpt><trkpt lat="-27.006333333333334" lon="-48.622029999999995"><ele>18.5</ele></trkpt><trkpt lat="-27.006336666666666" lon="-48.622033333333334"><ele>18.6</ele></trkpt><trkpt lat="-27.00634" lon="-48.62204"><ele>18.5</ele></trkpt><trkpt lat="-27.00634" lon="-48.62204166666667"><ele>18.400000000000002</ele></trkpt><trkpt lat="-27.00633833333333" lon="-48.62204166666667"><ele>18.400000000000002</ele></trkpt><trkpt lat="-27.00633833333333" lon="-48.62204166666667"><ele>18.3</ele></trkpt><trkpt lat="-27.006343333333334" lon="-48.62204"><ele>18.3</ele></trkpt><trkpt lat="-27.006343333333334" lon="-48.62204666666666"><ele>18</ele></trkpt><trkpt lat="-27.006343333333334" lon="-48.62204166666667"><ele>17.700000000000003</ele></trkpt><trkpt lat="-27.00634" lon="-48.62204166666667"><ele>17.3</ele></trkpt><trkpt lat="-27.006333333333334" lon="-48.62204833333333"><ele>17.3</ele></trkpt><trkpt lat="-27.00632666666667" lon="-48.622055"><ele>17.3</ele></trkpt><trkpt lat="-27.00632666666667" lon="-48.622055"><ele>17.3</ele></trkpt><trkpt lat="-27.00632666666667" lon="-48.622055"><ele>17.3</ele></trkpt><trkpt lat="-27.00632666666667" lon="-48.622055"><ele>17.3</ele></trkpt><trkpt lat="-27.00632666666667" lon="-48.622055"><ele>17.3</ele></trkpt><trkpt lat="-27.00632666666667" lon="-48.622055"><ele>17.3</ele></trkpt><trkpt lat="-27.00632666666667" lon="-48.622055"><ele>17.3</ele></trkpt><trkpt lat="-27.00632666666667" lon="-48.622055"><ele>17.3</ele></trkpt><trkpt lat="-27.00632666666667" lon="-48.622055"><ele>17.3</ele></trkpt><trkpt lat="-27.00632666666667" lon="-48.622055"><ele>17.3</ele></trkpt><trkpt lat="-27.00632666666667" lon="-48.622055"><ele>17.3</ele></trkpt><trkpt lat="-27.00632666666667" lon="-48.622055"><ele>17.3</ele></trkpt><trkpt lat="-27.00632666666667" lon="-48.622055"><ele>17.3</ele></trkpt><trkpt lat="-27.00632666666667" lon="-48.622055"><ele>17.3</ele></trkpt><trkpt lat="-27.00632666666667" lon="-48.622055"><ele>17.3</ele></trkpt><trkpt lat="-27.006361666666667" lon="-48.62205833333334"><ele>17.3</ele></trkpt><trkpt lat="-27.006363333333336" lon="-48.622055"><ele>17.3</ele></trkpt><trkpt lat="-27.006365" lon="-48.62205000000001"><ele>17.2</ele></trkpt><trkpt lat="-27.006363333333336" lon="-48.62204666666666"><ele>17.2</ele></trkpt><trkpt lat="-27.006363333333336" lon="-48.62205166666666"><ele>17.3</ele></trkpt><trkpt lat="-27.006363333333336" lon="-48.62204833333333"><ele>17.5</ele></trkpt><trkpt lat="-27.00635833333333" lon="-48.622033333333334"><ele>17.700000000000003</ele></trkpt><trkpt lat="-27.00635833333333" lon="-48.622033333333334"><ele>17.700000000000003</ele></trkpt><trkpt lat="-27.00635833333333" lon="-48.622033333333334"><ele>17.700000000000003</ele></trkpt><trkpt lat="-27.00635833333333" lon="-48.622033333333334"><ele>17.700000000000003</ele></trkpt><trkpt lat="-27.00635833333333" lon="-48.622033333333334"><ele>17.700000000000003</ele></trkpt><trkpt lat="-27.006365" lon="-48.62205833333334"><ele>18.3</ele></trkpt><trkpt lat="-27.006363333333336" lon="-48.62204666666666"><ele>18.8</ele></trkpt><trkpt lat="-27.00635833333333" lon="-48.62202333333333"><ele>19.400000000000002</ele></trkpt><trkpt lat="-27.006355" lon="-48.622015"><ele>20</ele></trkpt><trkpt lat="-27.006355" lon="-48.62202166666666"><ele>20.1</ele></trkpt><trkpt lat="-27.006351666666667" lon="-48.62201833333334"><ele>20.200000000000003</ele></trkpt><trkpt lat="-27.006351666666667" lon="-48.62202666666667"><ele>19.200000000000003</ele></trkpt><trkpt lat="-27.00635833333333" lon="-48.62204166666667"><ele>19</ele></trkpt><trkpt lat="-27.006365" lon="-48.62206"><ele>18.400000000000002</ele></trkpt><trkpt lat="-27.006375000000002" lon="-48.62207166666667"><ele>18.200000000000003</ele></trkpt><trkpt lat="-27.00638666666667" lon="-48.62207166666667"><ele>17.400000000000002</ele></trkpt><trkpt lat="-27.006388333333334" lon="-48.62207333333334"><ele>17.400000000000002</ele></trkpt><trkpt lat="-27.006381666666666" lon="-48.622078333333334"><ele>17.700000000000003</ele></trkpt><trkpt lat="-27.006379999999996" lon="-48.62208333333333"><ele>17.400000000000002</ele></trkpt><trkpt lat="-27.006381666666666" lon="-48.622080000000004"><ele>16.1</ele></trkpt><trkpt lat="-27.00638666666667" lon="-48.622080000000004"><ele>15</ele></trkpt><trkpt lat="-27.006391666666666" lon="-48.62208333333333"><ele>14.7</ele></trkpt><trkpt lat="-27.006396666666667" lon="-48.62208666666667"><ele>14.5</ele></trkpt><trkpt lat="-27.0064" lon="-48.62208833333334"><ele>14.299999999999999</ele></trkpt><trkpt lat="-27.006406666666667" lon="-48.62209166666666"><ele>14.2</ele></trkpt><trkpt lat="-27.00641166666667" lon="-48.62209333333333"><ele>14</ele></trkpt><trkpt lat="-27.006418333333333" lon="-48.62209666666666"><ele>13.799999999999999</ele></trkpt><trkpt lat="-27.006424999999997" lon="-48.62209666666666"><ele>13.799999999999999</ele></trkpt><trkpt lat="-27.006426666666666" lon="-48.6221"><ele>14</ele></trkpt><trkpt lat="-27.00642833333333" lon="-48.62210666666667"><ele>14.2</ele></trkpt><trkpt lat="-27.006435000000003" lon="-48.62211333333333"><ele>13.9</ele></trkpt><trkpt lat="-27.006441666666667" lon="-48.622115"><ele>13.9</ele></trkpt><trkpt lat="-27.006439999999998" lon="-48.62211666666667"><ele>13.799999999999999</ele></trkpt><trkpt lat="-27.006433333333334" lon="-48.62211333333333"><ele>13.299999999999999</ele></trkpt><trkpt lat="-27.00642833333333" lon="-48.62211333333333"><ele>13</ele></trkpt><trkpt lat="-27.006424999999997" lon="-48.622110000000006"><ele>12.5</ele></trkpt><trkpt lat="-27.006424999999997" lon="-48.6221"><ele>11.2</ele></trkpt><trkpt lat="-27.006424999999997" lon="-48.62208999999999"><ele>10.6</ele></trkpt><trkpt lat="-27.006424999999997" lon="-48.622085"><ele>10.4</ele></trkpt><trkpt lat="-27.006423333333334" lon="-48.622080000000004"><ele>10.4</ele></trkpt><trkpt lat="-27.006420000000002" lon="-48.62208166666666"><ele>10.4</ele></trkpt><trkpt lat="-27.00641166666667" lon="-48.622080000000004"><ele>10</ele></trkpt><trkpt lat="-27.006405000000004" lon="-48.622076666666665"><ele>9.6</ele></trkpt><trkpt lat="-27.00640333333333" lon="-48.622074999999995"><ele>9.4</ele></trkpt><trkpt lat="-27.006396666666667" lon="-48.622074999999995"><ele>9.4</ele></trkpt><trkpt lat="-27.006396666666667" lon="-48.622078333333334"><ele>9.5</ele></trkpt><trkpt lat="-27.00639833333333" lon="-48.622080000000004"><ele>9.6</ele></trkpt><trkpt lat="-27.0064" lon="-48.622080000000004"><ele>9.7</ele></trkpt><trkpt lat="-27.00640333333333" lon="-48.622078333333334"><ele>10</ele></trkpt><trkpt lat="-27.00641" lon="-48.622074999999995"><ele>10.2</ele></trkpt><trkpt lat="-27.00641166666667" lon="-48.62207333333334"><ele>10.299999999999999</ele></trkpt><trkpt lat="-27.00641333333333" lon="-48.622078333333334"><ele>10.299999999999999</ele></trkpt><trkpt lat="-27.00641" lon="-48.62207"><ele>10.5</ele></trkpt><trkpt lat="-27.006405000000004" lon="-48.62206"><ele>10.6</ele></trkpt><trkpt lat="-27.006405000000004" lon="-48.62204499999999"><ele>10.9</ele></trkpt><trkpt lat="-27.0064" lon="-48.62202166666666"><ele>11.1</ele></trkpt><trkpt lat="-27.006390000000003" lon="-48.62201166666667"><ele>11.5</ele></trkpt><trkpt lat="-27.006379999999996" lon="-48.62200833333333"><ele>11.7</ele></trkpt><trkpt lat="-27.006381666666666" lon="-48.62199666666667"><ele>12.1</ele></trkpt><trkpt lat="-27.006385" lon="-48.62199999999999"><ele>12.2</ele></trkpt><trkpt lat="-27.006393333333335" lon="-48.62197833333333"><ele>12.5</ele></trkpt><trkpt lat="-27.0064" lon="-48.62194666666666"><ele>13</ele></trkpt><trkpt lat="-27.006406666666667" lon="-48.62192666666667"><ele>13.5</ele></trkpt><trkpt lat="-27.00641166666667" lon="-48.621900000000004"><ele>14.1</ele></trkpt><trkpt lat="-27.00641" lon="-48.62190333333333"><ele>14.9</ele></trkpt><trkpt lat="-27.006415" lon="-48.621894999999995"><ele>15.5</ele></trkpt><trkpt lat="-27.006415" lon="-48.621896666666665"><ele>15.9</ele></trkpt><trkpt lat="-27.00641" lon="-48.62189333333334"><ele>16.8</ele></trkpt><trkpt lat="-27.006406666666667" lon="-48.621894999999995"><ele>17.900000000000002</ele></trkpt><trkpt lat="-27.006405000000004" lon="-48.621896666666665"><ele>18.200000000000003</ele></trkpt><trkpt lat="-27.00640333333333" lon="-48.621896666666665"><ele>18.6</ele></trkpt><trkpt lat="-27.006393333333335" lon="-48.621905"><ele>19.1</ele></trkpt><trkpt lat="-27.006391666666666" lon="-48.62190833333334"><ele>19.1</ele></trkpt><trkpt lat="-27.006390000000003" lon="-48.62190999999999"><ele>19.400000000000002</ele></trkpt><trkpt lat="-27.006385" lon="-48.62191333333333"><ele>19.700000000000003</ele></trkpt><trkpt lat="-27.006385" lon="-48.62191333333333"><ele>19.700000000000003</ele></trkpt><trkpt lat="-27.006385" lon="-48.62191333333333"><ele>19.700000000000003</ele></trkpt><trkpt lat="-27.006385" lon="-48.62191333333333"><ele>19.700000000000003</ele></trkpt><trkpt lat="-27.006385" lon="-48.62191333333333"><ele>19.700000000000003</ele></trkpt><trkpt lat="-27.006385" lon="-48.62191333333333"><ele>19.700000000000003</ele></trkpt><trkpt lat="-27.006385" lon="-48.62191333333333"><ele>19.700000000000003</ele></trkpt><trkpt lat="-27.006385" lon="-48.62191333333333"><ele>19.700000000000003</ele></trkpt><trkpt lat="-27.006385" lon="-48.62191333333333"><ele>19.700000000000003</ele></trkpt><trkpt lat="-27.006385" lon="-48.62191333333333"><ele>19.700000000000003</ele></trkpt><trkpt lat="-27.006385" lon="-48.62191333333333"><ele>19.700000000000003</ele></trkpt><trkpt lat="-27.006385" lon="-48.62191333333333"><ele>19.700000000000003</ele></trkpt><trkpt lat="-27.006385" lon="-48.62191333333333"><ele>19.700000000000003</ele></trkpt><trkpt lat="-27.006385" lon="-48.62191333333333"><ele>19.700000000000003</ele></trkpt><trkpt lat="-27.006385" lon="-48.62191333333333"><ele>19.700000000000003</ele></trkpt><trkpt lat="-27.006385" lon="-48.62191333333333"><ele>19.700000000000003</ele></trkpt><trkpt lat="-27.006385" lon="-48.62191333333333"><ele>19.700000000000003</ele></trkpt><trkpt lat="-27.006385" lon="-48.62191333333333"><ele>19.700000000000003</ele></trkpt><trkpt lat="-27.006385" lon="-48.62191333333333"><ele>19.700000000000003</ele></trkpt><trkpt lat="-27.006385" lon="-48.62191333333333"><ele>19.700000000000003</ele></trkpt><trkpt lat="-27.006385" lon="-48.62191333333333"><ele>19.700000000000003</ele></trkpt><trkpt lat="-27.006385" lon="-48.62191333333333"><ele>19.700000000000003</ele></trkpt><trkpt lat="-27.006385" lon="-48.62191333333333"><ele>19.700000000000003</ele></trkpt><trkpt lat="-27.006385" lon="-48.62191333333333"><ele>19.700000000000003</ele></trkpt><trkpt lat="-27.006385" lon="-48.62191333333333"><ele>19.700000000000003</ele></trkpt><trkpt lat="-27.006385" lon="-48.62191333333333"><ele>19.700000000000003</ele></trkpt><trkpt lat="-27.006385" lon="-48.62191333333333"><ele>19.700000000000003</ele></trkpt><trkpt lat="-27.006385" lon="-48.62191333333333"><ele>19.700000000000003</ele></trkpt><trkpt lat="-27.006385" lon="-48.62191333333333"><ele>19.700000000000003</ele></trkpt><trkpt lat="-27.006385" lon="-48.62191333333333"><ele>19.700000000000003</ele></trkpt><trkpt lat="-27.006385" lon="-48.62191333333333"><ele>19.700000000000003</ele></trkpt><trkpt lat="-27.006385" lon="-48.62191333333333"><ele>19.700000000000003</ele></trkpt><trkpt lat="-27.006385" lon="-48.62191333333333"><ele>19.700000000000003</ele></trkpt><trkpt lat="-27.006385" lon="-48.62191333333333"><ele>19.700000000000003</ele></trkpt><trkpt lat="-27.006385" lon="-48.62191333333333"><ele>19.700000000000003</ele></trkpt><trkpt lat="-27.006385" lon="-48.62191333333333"><ele>19.700000000000003</ele></trkpt><trkpt lat="-27.006385" lon="-48.62191333333333"><ele>19.700000000000003</ele></trkpt><trkpt lat="-27.006385" lon="-48.62191333333333"><ele>19.700000000000003</ele></trkpt><trkpt lat="-27.006385" lon="-48.62191333333333"><ele>19.700000000000003</ele></trkpt><trkpt lat="-27.006385" lon="-48.62191333333333"><ele>19.700000000000003</ele></trkpt><trkpt lat="-27.006385" lon="-48.62191333333333"><ele>19.700000000000003</ele></trkpt><trkpt lat="-27.006385" lon="-48.62191333333333"><ele>19.700000000000003</ele></trkpt><trkpt lat="-27.006385" lon="-48.62191333333333"><ele>19.700000000000003</ele></trkpt><trkpt lat="-27.006385" lon="-48.62191333333333"><ele>19.700000000000003</ele></trkpt><trkpt lat="-27.006385" lon="-48.62191333333333"><ele>19.700000000000003</ele></trkpt><trkpt lat="-27.006385" lon="-48.62191333333333"><ele>19.700000000000003</ele></trkpt><trkpt lat="-27.006385" lon="-48.62191333333333"><ele>19.700000000000003</ele></trkpt><trkpt lat="-27.006385" lon="-48.62191333333333"><ele>19.700000000000003</ele></trkpt><trkpt lat="-27.006385" lon="-48.62191333333333"><ele>19.700000000000003</ele></trkpt><trkpt lat="-27.006385" lon="-48.62191333333333"><ele>19.700000000000003</ele></trkpt><trkpt lat="-27.006385" lon="-48.62191333333333"><ele>19.700000000000003</ele></trkpt><trkpt lat="-27.006385" lon="-48.62191333333333"><ele>19.700000000000003</ele></trkpt><trkpt lat="-27.006385" lon="-48.62191333333333"><ele>19.700000000000003</ele></trkpt><trkpt lat="-27.006385" lon="-48.62191333333333"><ele>19.700000000000003</ele></trkpt><trkpt lat="-27.006385" lon="-48.62191333333333"><ele>19.700000000000003</ele></trkpt><trkpt lat="-27.006385" lon="-48.62191333333333"><ele>19.700000000000003</ele></trkpt><trkpt lat="-27.006385" lon="-48.62191333333333"><ele>19.700000000000003</ele></trkpt><trkpt lat="-27.006385" lon="-48.62191333333333"><ele>19.700000000000003</ele></trkpt><trkpt lat="-27.006385" lon="-48.62191333333333"><ele>19.700000000000003</ele></trkpt><trkpt lat="-27.006385" lon="-48.62191333333333"><ele>19.700000000000003</ele></trkpt><trkpt lat="-27.006385" lon="-48.62191333333333"><ele>19.700000000000003</ele></trkpt><trkpt lat="-27.006385" lon="-48.62191333333333"><ele>19.700000000000003</ele></trkpt><trkpt lat="-27.006385" lon="-48.62191333333333"><ele>19.700000000000003</ele></trkpt><trkpt lat="-27.006315000000004" lon="-48.621900000000004"><ele>29.5</ele></trkpt><trkpt lat="-27.00631" lon="-48.621898333333334"><ele>29.3</ele></trkpt><trkpt lat="-27.006304999999998" lon="-48.621896666666665"><ele>29.200000000000003</ele></trkpt><trkpt lat="-27.00629666666667" lon="-48.62189166666667"><ele>28.6</ele></trkpt><trkpt lat="-27.006288333333334" lon="-48.621894999999995"><ele>28.8</ele></trkpt><trkpt lat="-27.006286666666664" lon="-48.62188166666667"><ele>29.700000000000003</ele></trkpt><trkpt lat="-27.006273333333336" lon="-48.62189"><ele>30.200000000000003</ele></trkpt><trkpt lat="-27.006265" lon="-48.62189"><ele>30.3</ele></trkpt><trkpt lat="-27.006253333333333" lon="-48.62188166666667"><ele>30.200000000000003</ele></trkpt><trkpt lat="-27.006241666666664" lon="-48.62188166666667"><ele>30.200000000000003</ele></trkpt><trkpt lat="-27.00623333333333" lon="-48.621875"><ele>30.5</ele></trkpt><trkpt lat="-27.006225000000004" lon="-48.62188"><ele>30.3</ele></trkpt><trkpt lat="-27.006211666666665" lon="-48.62188833333333"><ele>30.5</ele></trkpt><trkpt lat="-27.006195" lon="-48.62189"><ele>30.700000000000003</ele></trkpt><trkpt lat="-27.00619" lon="-48.621900000000004"><ele>30.400000000000002</ele></trkpt><trkpt lat="-27.00619" lon="-48.62190333333333"><ele>30.1</ele></trkpt><trkpt lat="-27.006185" lon="-48.62190333333333"><ele>29.900000000000002</ele></trkpt><trkpt lat="-27.00619" lon="-48.62191166666666"><ele>29.900000000000002</ele></trkpt><trkpt lat="-27.00619166666667" lon="-48.62191666666666"><ele>30</ele></trkpt><trkpt lat="-27.00619166666667" lon="-48.62191666666666"><ele>30</ele></trkpt><trkpt lat="-27.006195" lon="-48.62192166666667"><ele>30.200000000000003</ele></trkpt><trkpt lat="-27.006198333333334" lon="-48.62192833333334"><ele>30.3</ele></trkpt><trkpt lat="-27.006196666666664" lon="-48.62192833333334"><ele>30.6</ele></trkpt><trkpt lat="-27.006196666666664" lon="-48.62192833333334"><ele>30.6</ele></trkpt><trkpt lat="-27.006195" lon="-48.62192833333334"><ele>31</ele></trkpt><trkpt lat="-27.00619" lon="-48.62192333333334"><ele>31.900000000000002</ele></trkpt><trkpt lat="-27.006183333333336" lon="-48.62191666666666"><ele>32.4</ele></trkpt><trkpt lat="-27.006180000000004" lon="-48.621905"><ele>32.6</ele></trkpt><trkpt lat="-27.006175" lon="-48.621896666666665"><ele>32.7</ele></trkpt><trkpt lat="-27.006163333333333" lon="-48.621898333333334"><ele>32.9</ele></trkpt><trkpt lat="-27.006154999999996" lon="-48.621896666666665"><ele>33</ele></trkpt><trkpt lat="-27.00614" lon="-48.621898333333334"><ele>33.1</ele></trkpt><trkpt lat="-27.00612833333333" lon="-48.62190333333333"><ele>33.5</ele></trkpt><trkpt lat="-27.006123333333335" lon="-48.62190166666666"><ele>33.7</ele></trkpt><trkpt lat="-27.00611666666667" lon="-48.621900000000004"><ele>34</ele></trkpt><trkpt lat="-27.006111666666666" lon="-48.621896666666665"><ele>33.9</ele></trkpt><trkpt lat="-27.006105" lon="-48.621894999999995"><ele>33.7</ele></trkpt><trkpt lat="-27.00609833333333" lon="-48.62189166666667"><ele>33.2</ele></trkpt><trkpt lat="-27.006091666666666" lon="-48.62188666666666"><ele>32.7</ele></trkpt><trkpt lat="-27.00608666666667" lon="-48.62188166666667"><ele>32.3</ele></trkpt><trkpt lat="-27.006078333333335" lon="-48.62187666666667"><ele>31.8</ele></trkpt><trkpt lat="-27.00607166666667" lon="-48.62187166666666"><ele>31.5</ele></trkpt><trkpt lat="-27.006064999999996" lon="-48.62186666666666"><ele>31.1</ele></trkpt><trkpt lat="-27.00605666666667" lon="-48.62186333333334"><ele>30.6</ele></trkpt><trkpt lat="-27.006048333333336" lon="-48.62186333333334"><ele>29.900000000000002</ele></trkpt><trkpt lat="-27.00604333333333" lon="-48.62186499999999"><ele>29.400000000000002</ele></trkpt><trkpt lat="-27.00603833333333" lon="-48.62187333333333"><ele>28.200000000000003</ele></trkpt><trkpt lat="-27.00603833333333" lon="-48.62187000000001"><ele>27.8</ele></trkpt><trkpt lat="-27.006036666666667" lon="-48.62186666666666"><ele>27</ele></trkpt><trkpt lat="-27.006034999999997" lon="-48.62186666666666"><ele>25.8</ele></trkpt><trkpt lat="-27.006033333333335" lon="-48.62186833333333"><ele>25.5</ele></trkpt><trkpt lat="-27.006031666666665" lon="-48.62187333333333"><ele>25.1</ele></trkpt><trkpt lat="-27.006033333333335" lon="-48.62187666666667"><ele>24.900000000000002</ele></trkpt><trkpt lat="-27.006033333333335" lon="-48.62187833333334"><ele>24.6</ele></trkpt><trkpt lat="-27.006033333333335" lon="-48.62187833333334"><ele>24.6</ele></trkpt><trkpt lat="-27.006030000000003" lon="-48.62187833333334"><ele>24.200000000000003</ele></trkpt><trkpt lat="-27.006028333333333" lon="-48.62187833333334"><ele>24</ele></trkpt><trkpt lat="-27.006030000000003" lon="-48.621875"><ele>23.8</ele></trkpt><trkpt lat="-27.006030000000003" lon="-48.621875"><ele>23.8</ele></trkpt><trkpt lat="-27.006030000000003" lon="-48.621875"><ele>23.8</ele></trkpt><trkpt lat="-27.006036666666667" lon="-48.62186833333333"><ele>22.400000000000002</ele></trkpt><trkpt lat="-27.006045000000004" lon="-48.62187000000001"><ele>22.1</ele></trkpt><trkpt lat="-27.006045000000004" lon="-48.62187000000001"><ele>22.1</ele></trkpt><trkpt lat="-27.006051666666668" lon="-48.621875"><ele>21.6</ele></trkpt><trkpt lat="-27.006058333333332" lon="-48.62188"><ele>21</ele></trkpt><trkpt lat="-27.006064999999996" lon="-48.62188666666666"><ele>20.700000000000003</ele></trkpt><trkpt lat="-27.006064999999996" lon="-48.62188833333333"><ele>20.700000000000003</ele></trkpt><trkpt lat="-27.006063333333334" lon="-48.62189"><ele>20.700000000000003</ele></trkpt><trkpt lat="-27.006066666666666" lon="-48.62189333333334"><ele>20.400000000000002</ele></trkpt><trkpt lat="-27.00607" lon="-48.621898333333334"><ele>20</ele></trkpt><trkpt lat="-27.006073333333333" lon="-48.62190166666666"><ele>19.6</ele></trkpt><trkpt lat="-27.006075000000003" lon="-48.62190333333333"><ele>19.6</ele></trkpt><trkpt lat="-27.006075000000003" lon="-48.62190333333333"><ele>19.6</ele></trkpt><trkpt lat="-27.006075000000003" lon="-48.62190333333333"><ele>19.700000000000003</ele></trkpt><trkpt lat="-27.006076666666665" lon="-48.621905"><ele>19.3</ele></trkpt><trkpt lat="-27.006073333333333" lon="-48.62190166666666"><ele>18.8</ele></trkpt><trkpt lat="-27.006068333333328" lon="-48.621900000000004"><ele>18.900000000000002</ele></trkpt><trkpt lat="-27.006063333333334" lon="-48.62189333333334"><ele>18.6</ele></trkpt><trkpt lat="-27.006061666666664" lon="-48.621898333333334"><ele>18.400000000000002</ele></trkpt><trkpt lat="-27.006064999999996" lon="-48.62190333333333"><ele>16.900000000000002</ele></trkpt><trkpt lat="-27.006064999999996" lon="-48.62190333333333"><ele>16.900000000000002</ele></trkpt><trkpt lat="-27.006064999999996" lon="-48.62190333333333"><ele>16.900000000000002</ele></trkpt><trkpt lat="-27.006064999999996" lon="-48.62190333333333"><ele>16.900000000000002</ele></trkpt><trkpt lat="-27.006064999999996" lon="-48.62190333333333"><ele>16.900000000000002</ele></trkpt><trkpt lat="-27.006064999999996" lon="-48.62190333333333"><ele>16.900000000000002</ele></trkpt><trkpt lat="-27.006064999999996" lon="-48.62190333333333"><ele>16.900000000000002</ele></trkpt><trkpt lat="-27.006064999999996" lon="-48.62190333333333"><ele>16.900000000000002</ele></trkpt><trkpt lat="-27.006064999999996" lon="-48.62190333333333"><ele>16.900000000000002</ele></trkpt><trkpt lat="-27.006064999999996" lon="-48.62190333333333"><ele>16.900000000000002</ele></trkpt><trkpt lat="-27.006064999999996" lon="-48.62190333333333"><ele>16.900000000000002</ele></trkpt><trkpt lat="-27.006064999999996" lon="-48.62190333333333"><ele>16.900000000000002</ele></trkpt><trkpt lat="-27.006064999999996" lon="-48.62190333333333"><ele>16.900000000000002</ele></trkpt><trkpt lat="-27.006064999999996" lon="-48.62190333333333"><ele>16.900000000000002</ele></trkpt><trkpt lat="-27.006064999999996" lon="-48.62190333333333"><ele>16.900000000000002</ele></trkpt><trkpt lat="-27.006079999999997" lon="-48.62193166666666"><ele>9.4</ele></trkpt><trkpt lat="-27.00608833333333" lon="-48.62193666666667"><ele>9.5</ele></trkpt><trkpt lat="-27.006096666666668" lon="-48.621939999999995"><ele>9.6</ele></trkpt><trkpt lat="-27.006103333333332" lon="-48.621943333333334"><ele>9.7</ele></trkpt><trkpt lat="-27.006105" lon="-48.621943333333334"><ele>9.7</ele></trkpt><trkpt lat="-27.006109999999996" lon="-48.62194833333333"><ele>9.7</ele></trkpt><trkpt lat="-27.00611666666667" lon="-48.62194833333333"><ele>9.799999999999999</ele></trkpt><trkpt lat="-27.006121666666665" lon="-48.62195166666667"><ele>9.9</ele></trkpt><trkpt lat="-27.006126666666667" lon="-48.62195499999999"><ele>10</ele></trkpt><trkpt lat="-27.00613" lon="-48.62195833333333"><ele>10</ele></trkpt><trkpt lat="-27.00613333333333" lon="-48.62196000000001"><ele>10</ele></trkpt><trkpt lat="-27.006136666666666" lon="-48.62195833333333"><ele>9.9</ele></trkpt><trkpt lat="-27.006136666666666" lon="-48.62195833333333"><ele>9.9</ele></trkpt><trkpt lat="-27.006136666666666" lon="-48.62195666666666"><ele>9.799999999999999</ele></trkpt><trkpt lat="-27.00613333333333" lon="-48.62195333333334"><ele>9.9</ele></trkpt><trkpt lat="-27.006124999999997" lon="-48.62195166666667"><ele>10</ele></trkpt><trkpt lat="-27.00611666666667" lon="-48.62195"><ele>10.5</ele></trkpt><trkpt lat="-27.006113333333328" lon="-48.62195"><ele>10.5</ele></trkpt><trkpt lat="-27.006113333333328" lon="-48.62195166666667"><ele>10.4</ele></trkpt><trkpt lat="-27.006113333333328" lon="-48.62194833333333"><ele>10.299999999999999</ele></trkpt><trkpt lat="-27.006115" lon="-48.62194666666666"><ele>10.2</ele></trkpt><trkpt lat="-27.006120000000003" lon="-48.621943333333334"><ele>10.1</ele></trkpt><trkpt lat="-27.006120000000003" lon="-48.621943333333334"><ele>10.1</ele></trkpt><trkpt lat="-27.006120000000003" lon="-48.621939999999995"><ele>9.9</ele></trkpt><trkpt lat="-27.006120000000003" lon="-48.621939999999995"><ele>9.7</ele></trkpt><trkpt lat="-27.006120000000003" lon="-48.621939999999995"><ele>9.7</ele></trkpt><trkpt lat="-27.006120000000003" lon="-48.621939999999995"><ele>9.7</ele></trkpt><trkpt lat="-27.006120000000003" lon="-48.621939999999995"><ele>9.7</ele></trkpt><trkpt lat="-27.006120000000003" lon="-48.621939999999995"><ele>9.7</ele></trkpt><trkpt lat="-27.006120000000003" lon="-48.621939999999995"><ele>9.7</ele></trkpt><trkpt lat="-27.006120000000003" lon="-48.621939999999995"><ele>9.7</ele></trkpt><trkpt lat="-27.006120000000003" lon="-48.621939999999995"><ele>9.7</ele></trkpt><trkpt lat="-27.006120000000003" lon="-48.621939999999995"><ele>9.7</ele></trkpt><trkpt lat="-27.006120000000003" lon="-48.621939999999995"><ele>9.7</ele></trkpt><trkpt lat="-27.006081666666667" lon="-48.621945000000004"><ele>7.199999999999999</ele></trkpt><trkpt lat="-27.006079999999997" lon="-48.62194833333333"><ele>7.4</ele></trkpt><trkpt lat="-27.006076666666665" lon="-48.62195333333334"><ele>7.4</ele></trkpt><trkpt lat="-27.006076666666665" lon="-48.62195333333334"><ele>7.4</ele></trkpt><trkpt lat="-27.006076666666665" lon="-48.62195833333333"><ele>7.6</ele></trkpt><trkpt lat="-27.006076666666665" lon="-48.62195833333333"><ele>7.6</ele></trkpt><trkpt lat="-27.006076666666665" lon="-48.62195833333333"><ele>7.6</ele></trkpt><trkpt lat="-27.006076666666665" lon="-48.62195833333333"><ele>7.6</ele></trkpt><trkpt lat="-27.006076666666665" lon="-48.62195833333333"><ele>7.6</ele></trkpt><trkpt lat="-27.006076666666665" lon="-48.62195833333333"><ele>7.6</ele></trkpt><trkpt lat="-27.006076666666665" lon="-48.62195833333333"><ele>7.6</ele></trkpt><trkpt lat="-27.006076666666665" lon="-48.62195833333333"><ele>7.6</ele></trkpt><trkpt lat="-27.006076666666665" lon="-48.62195833333333"><ele>7.6</ele></trkpt><trkpt lat="-27.006076666666665" lon="-48.62195833333333"><ele>7.6</ele></trkpt><trkpt lat="-27.006076666666665" lon="-48.62195833333333"><ele>7.6</ele></trkpt><trkpt lat="-27.006076666666665" lon="-48.62195833333333"><ele>7.6</ele></trkpt><trkpt lat="-27.006076666666665" lon="-48.62195833333333"><ele>7.6</ele></trkpt><trkpt lat="-27.006076666666665" lon="-48.62195833333333"><ele>7.6</ele></trkpt><trkpt lat="-27.006076666666665" lon="-48.62195833333333"><ele>7.6</ele></trkpt><trkpt lat="-27.006076666666665" lon="-48.62195833333333"><ele>7.6</ele></trkpt><trkpt lat="-27.006076666666665" lon="-48.62195833333333"><ele>7.6</ele></trkpt><trkpt lat="-27.006076666666665" lon="-48.62195833333333"><ele>7.6</ele></trkpt><trkpt lat="-27.006076666666665" lon="-48.62195833333333"><ele>7.6</ele></trkpt><trkpt lat="-27.006076666666665" lon="-48.62195833333333"><ele>7.6</ele></trkpt><trkpt lat="-27.006076666666665" lon="-48.62195833333333"><ele>7.6</ele></trkpt><trkpt lat="-27.00610166666667" lon="-48.62189333333334"><ele>8.1</ele></trkpt><trkpt lat="-27.00609833333333" lon="-48.621896666666665"><ele>7</ele></trkpt><trkpt lat="-27.006093333333336" lon="-48.62190666666667"><ele>6.1</ele></trkpt><trkpt lat="-27.006090000000004" lon="-48.62191166666666"><ele>5.699999999999999</ele></trkpt><trkpt lat="-27.00608833333333" lon="-48.62191166666666"><ele>5.4</ele></trkpt><trkpt lat="-27.006085" lon="-48.62190999999999"><ele>5.300000000000001</ele></trkpt><trkpt lat="-27.00608333333333" lon="-48.62191333333333"><ele>5.2</ele></trkpt><trkpt lat="-27.006078333333335" lon="-48.62191166666666"><ele>5.2</ele></trkpt><trkpt lat="-27.006076666666665" lon="-48.62190999999999"><ele>5.2</ele></trkpt><trkpt lat="-27.006075000000003" lon="-48.62190666666667"><ele>5.300000000000001</ele></trkpt><trkpt lat="-27.006073333333333" lon="-48.62190333333333"><ele>5.699999999999999</ele></trkpt><trkpt lat="-27.00607166666667" lon="-48.621900000000004"><ele>6.1</ele></trkpt><trkpt lat="-27.00607166666667" lon="-48.621900000000004"><ele>6.1</ele></trkpt><trkpt lat="-27.00607166666667" lon="-48.621900000000004"><ele>6.1</ele></trkpt><trkpt lat="-27.00607166666667" lon="-48.621900000000004"><ele>6.1</ele></trkpt><trkpt lat="-27.00607166666667" lon="-48.621900000000004"><ele>6.1</ele></trkpt><trkpt lat="-27.00607166666667" lon="-48.621900000000004"><ele>6.1</ele></trkpt><trkpt lat="-27.00607166666667" lon="-48.621900000000004"><ele>6.1</ele></trkpt><trkpt lat="-27.00607166666667" lon="-48.621900000000004"><ele>6.1</ele></trkpt><trkpt lat="-27.00607166666667" lon="-48.621900000000004"><ele>6.1</ele></trkpt><trkpt lat="-27.00607166666667" lon="-48.621900000000004"><ele>6.1</ele></trkpt><trkpt lat="-27.00607166666667" lon="-48.621900000000004"><ele>6.1</ele></trkpt><trkpt lat="-27.00607166666667" lon="-48.621900000000004"><ele>6.1</ele></trkpt><trkpt lat="-27.00607166666667" lon="-48.621900000000004"><ele>6.1</ele></trkpt><trkpt lat="-27.00607166666667" lon="-48.621900000000004"><ele>6.1</ele></trkpt><trkpt lat="-27.00607166666667" lon="-48.621900000000004"><ele>6.1</ele></trkpt><trkpt lat="-27.00607166666667" lon="-48.621900000000004"><ele>6.1</ele></trkpt><trkpt lat="-27.00607166666667" lon="-48.621900000000004"><ele>6.1</ele></trkpt><trkpt lat="-27.00607166666667" lon="-48.621900000000004"><ele>6.1</ele></trkpt><trkpt lat="-27.00607166666667" lon="-48.621900000000004"><ele>6.1</ele></trkpt><trkpt lat="-27.00607166666667" lon="-48.621900000000004"><ele>6.1</ele></trkpt><trkpt lat="-27.00607166666667" lon="-48.621900000000004"><ele>6.1</ele></trkpt><trkpt lat="-27.00607166666667" lon="-48.621900000000004"><ele>6.1</ele></trkpt><trkpt lat="-27.00607166666667" lon="-48.621900000000004"><ele>6.1</ele></trkpt><trkpt lat="-27.00607166666667" lon="-48.621900000000004"><ele>6.1</ele></trkpt><trkpt lat="-27.00607166666667" lon="-48.621900000000004"><ele>6.1</ele></trkpt><trkpt lat="-27.00607166666667" lon="-48.621900000000004"><ele>6.1</ele></trkpt><trkpt lat="-27.00607166666667" lon="-48.621900000000004"><ele>6.1</ele></trkpt><trkpt lat="-27.00607166666667" lon="-48.621900000000004"><ele>6.1</ele></trkpt><trkpt lat="-27.00607166666667" lon="-48.621900000000004"><ele>6.1</ele></trkpt><trkpt lat="-27.00607166666667" lon="-48.621900000000004"><ele>6.1</ele></trkpt><trkpt lat="-27.00607166666667" lon="-48.621900000000004"><ele>6.1</ele></trkpt><trkpt lat="-27.00607166666667" lon="-48.621900000000004"><ele>6.1</ele></trkpt><trkpt lat="-27.00607166666667" lon="-48.621900000000004"><ele>6.1</ele></trkpt><trkpt lat="-27.00607166666667" lon="-48.621900000000004"><ele>6.1</ele></trkpt><trkpt lat="-27.00607166666667" lon="-48.621900000000004"><ele>6.1</ele></trkpt><trkpt lat="-27.00607166666667" lon="-48.621900000000004"><ele>6.1</ele></trkpt><trkpt lat="-27.006093333333336" lon="-48.621896666666665"><ele>1.6</ele></trkpt><trkpt lat="-27.006093333333336" lon="-48.621896666666665"><ele>1.6</ele></trkpt><trkpt lat="-27.006095" lon="-48.62190166666666"><ele>1.6</ele></trkpt><trkpt lat="-27.0061" lon="-48.621898333333334"><ele>1.7000000000000002</ele></trkpt><trkpt lat="-27.0061" lon="-48.62189333333334"><ele>1.6</ele></trkpt><trkpt lat="-27.0061" lon="-48.62189333333334"><ele>1.6</ele></trkpt><trkpt lat="-27.0061" lon="-48.62189333333334"><ele>1.6</ele></trkpt><trkpt lat="-27.0061" lon="-48.62189333333334"><ele>1.6</ele></trkpt><trkpt lat="-27.0061" lon="-48.62189333333334"><ele>1.6</ele></trkpt><trkpt lat="-27.0061" lon="-48.62189333333334"><ele>1.6</ele></trkpt><trkpt lat="-27.0061" lon="-48.62189333333334"><ele>1.6</ele></trkpt><trkpt lat="-27.0061" lon="-48.62189333333334"><ele>1.6</ele></trkpt><trkpt lat="-27.0061" lon="-48.62189333333334"><ele>1.6</ele></trkpt><trkpt lat="-27.0061" lon="-48.62189333333334"><ele>1.6</ele></trkpt><trkpt lat="-27.0061" lon="-48.62189333333334"><ele>1.6</ele></trkpt><trkpt lat="-27.0061" lon="-48.62189333333334"><ele>1.6</ele></trkpt><trkpt lat="-27.0061" lon="-48.62189333333334"><ele>1.6</ele></trkpt><trkpt lat="-27.0061" lon="-48.62189333333334"><ele>1.6</ele></trkpt><trkpt lat="-27.0061" lon="-48.62189333333334"><ele>1.6</ele></trkpt><trkpt lat="-27.0061" lon="-48.62189333333334"><ele>1.6</ele></trkpt><trkpt lat="-27.0061" lon="-48.62189333333334"><ele>1.6</ele></trkpt><trkpt lat="-27.0061" lon="-48.62189333333334"><ele>1.6</ele></trkpt><trkpt lat="-27.0061" lon="-48.62189333333334"><ele>1.6</ele></trkpt><trkpt lat="-27.0061" lon="-48.62189333333334"><ele>1.6</ele></trkpt><trkpt lat="-27.0061" lon="-48.62189333333334"><ele>1.6</ele></trkpt><trkpt lat="-27.0061" lon="-48.62189333333334"><ele>1.6</ele></trkpt><trkpt lat="-27.0061" lon="-48.62189333333334"><ele>1.6</ele></trkpt><trkpt lat="-27.006106666666664" lon="-48.62189333333334"><ele>2.6</ele></trkpt><trkpt lat="-27.006106666666664" lon="-48.62189166666667"><ele>2.4000000000000004</ele></trkpt><trkpt lat="-27.006105" lon="-48.62189166666667"><ele>2.4000000000000004</ele></trkpt><trkpt lat="-27.00610166666667" lon="-48.62189166666667"><ele>2.2</ele></trkpt><trkpt lat="-27.00610166666667" lon="-48.62189166666667"><ele>2.2</ele></trkpt><trkpt lat="-27.00610166666667" lon="-48.62189166666667"><ele>2.2</ele></trkpt><trkpt lat="-27.00610166666667" lon="-48.62189166666667"><ele>2.2</ele></trkpt><trkpt lat="-27.00610166666667" lon="-48.62189166666667"><ele>2.2</ele></trkpt><trkpt lat="-27.00610166666667" lon="-48.62189166666667"><ele>2.2</ele></trkpt><trkpt lat="-27.00610166666667" lon="-48.62189166666667"><ele>2.2</ele></trkpt><trkpt lat="-27.00610166666667" lon="-48.62189166666667"><ele>2.2</ele></trkpt><trkpt lat="-27.00610166666667" lon="-48.62189166666667"><ele>2.2</ele></trkpt><trkpt lat="-27.00610166666667" lon="-48.62189166666667"><ele>2.2</ele></trkpt><trkpt lat="-27.00610166666667" lon="-48.62189166666667"><ele>2.2</ele></trkpt><trkpt lat="-27.00610166666667" lon="-48.62189166666667"><ele>2.2</ele></trkpt><trkpt lat="-27.00610166666667" lon="-48.62189166666667"><ele>2.2</ele></trkpt><trkpt lat="-27.00610166666667" lon="-48.62189166666667"><ele>2.2</ele></trkpt><trkpt lat="-27.00610166666667" lon="-48.62189166666667"><ele>2.2</ele></trkpt><trkpt lat="-27.00610166666667" lon="-48.62189166666667"><ele>2.2</ele></trkpt><trkpt lat="-27.00610166666667" lon="-48.62189166666667"><ele>2.2</ele></trkpt><trkpt lat="-27.00610166666667" lon="-48.62189166666667"><ele>2.2</ele></trkpt><trkpt lat="-27.00610166666667" lon="-48.62189166666667"><ele>2.2</ele></trkpt><trkpt lat="-27.00610166666667" lon="-48.62189166666667"><ele>2.2</ele></trkpt><trkpt lat="-27.00610166666667" lon="-48.62189166666667"><ele>2.2</ele></trkpt><trkpt lat="-27.00610166666667" lon="-48.62189166666667"><ele>2.2</ele></trkpt><trkpt lat="-27.00610166666667" lon="-48.62189166666667"><ele>2.2</ele></trkpt><trkpt lat="-27.00610166666667" lon="-48.62189166666667"><ele>2.2</ele></trkpt><trkpt lat="-27.00610166666667" lon="-48.62189166666667"><ele>2.2</ele></trkpt></trkseg></trk></gpx>