<?xml version="1.0" encoding="UTF-8"?>
<gpx xmlns="http://www.topografix.com/GPX/1/1" version="1.1" creator="@dwayneparton/geojson-to-gpx"><wpt lat="-26.991937" lon="-48.644995"><ele>21.8</ele><name>50km/h</name></wpt><wpt lat="-26.991912" lon="-48.645042"><ele>24.7</ele><name>350</name></wpt><wpt lat="-26.991912" lon="-48.645042"><ele>24.7</ele><name>1450</name></wpt><wpt lat="-26.99089" lon="-48.646108"><ele>9.6</ele><name>A ciclo é completamente reta.</name></wpt><wpt lat="-26.991912" lon="-48.645042"><ele>24.7</ele><name>Área transitável da ciclo (cm)</name></wpt><wpt lat="-26.99089" lon="-48.646108"><ele>9.6</ele><name>Ausência de conexão entre ciclos.</name></wpt><wpt lat="-26.992015" lon="-48.644687"><ele>19.9</ele><name>Bidirecional</name></wpt><wpt lat="-26.99089" lon="-48.646108"><ele>9.6</ele><name>Bom estado</name></wpt><wpt lat="-26.992048" lon="-48.644712"><ele>20.2</ele><name>Calçada compartilhada</name></wpt><wpt lat="-26.991988" lon="-48.644737"><ele>16</ele><name>Concreto</name></wpt><wpt lat="-26.991988" lon="-48.644737"><ele>16</ele><name>Estacionamento proibido na via</name></wpt><wpt lat="-26.991988" lon="-48.644737"><ele>16</ele><name>Foto</name></wpt><wpt lat="-26.992192" lon="-48.644617"><ele>54</ele><name>Foto</name></wpt><wpt lat="-26.992223" lon="-48.64479"><ele>52.4</ele><name>Foto</name></wpt><wpt lat="-26.992027" lon="-48.644713"><ele>27.5</ele><name>Foto</name></wpt><wpt lat="-26.992035" lon="-48.644718"><ele>16.5</ele><name>Foto</name></wpt><wpt lat="-26.991935" lon="-48.645008"><ele>21.7</ele><name>Foto</name></wpt><wpt lat="-26.991937" lon="-48.644995"><ele>21.8</ele><name>Foto</name></wpt><wpt lat="-26.991893" lon="-48.644932"><ele>26.9</ele><name>Foto</name></wpt><wpt lat="-26.9917" lon="-48.645218"><ele>20.6</ele><name>Foto</name></wpt><wpt lat="-26.991555" lon="-48.645482"><ele>39.1</ele><name>Foto</name></wpt><wpt lat="-26.991453" lon="-48.645885"><ele>22</ele><name>Foto</name></wpt><wpt lat="-26.991423" lon="-48.645923"><ele>23.2</ele><name>Foto</name></wpt><wpt lat="-26.991473" lon="-48.64548"><ele>20.4</ele><name>Foto</name></wpt><wpt lat="-26.99126" lon="-48.645722"><ele>20</ele><name>Foto</name></wpt><wpt lat="-26.99114" lon="-48.645742"><ele>18.4</ele><name>Foto</name></wpt><wpt lat="-26.991053" lon="-48.645735"><ele>17.8</ele><name>Foto</name></wpt><wpt lat="-26.991053" lon="-48.645735"><ele>17.8</ele><name>Foto</name></wpt><wpt lat="-26.99089" lon="-48.646108"><ele>9.6</ele><name>Foto</name></wpt><wpt lat="-26.99089" lon="-48.646108"><ele>9.6</ele><name>Foto</name></wpt><wpt lat="-26.99089" lon="-48.646108"><ele>9.6</ele><name>Foto</name></wpt><wpt lat="-26.991073" lon="-48.645732"><ele>21.4</ele><name>Gravação de voz</name></wpt><wpt lat="-26.99089" lon="-48.646108"><ele>9.6</ele><name>Iluminação geral dos dois lados da via</name></wpt><wpt lat="-26.991987" lon="-48.644717"><ele>17.5</ele><name>Mão Única</name></wpt><wpt lat="-26.99089" lon="-48.646108"><ele>9.6</ele><name>Não há árvores nem mudas</name></wpt><wpt lat="-26.99089" lon="-48.646108"><ele>9.6</ele><name>Nenhum elemento de controle de velocidade na via</name></wpt><wpt lat="-26.991988" lon="-48.644737"><ele>16</ele><name>Outro segregador</name></wpt><wpt lat="-26.992125" lon="-48.644707"><ele>39.7</ele><name>Em cruzamento MÁ condição</name></wpt><wpt lat="-26.990927" lon="-48.646098"><ele>11.6</ele><name>R-34</name></wpt><wpt lat="-26.991988" lon="-48.644737"><ele>16</ele><name>R-36</name></wpt><wpt lat="-26.991937" lon="-48.644995"><ele>21.8</ele><name>R-36</name></wpt><wpt lat="-26.991988" lon="-48.644737"><ele>16</ele><name>Padrão de pintura: sem pintura </name></wpt><wpt lat="-26.991053" lon="-48.645735"><ele>17.8</ele><name>SEM pintura no cruzamento</name></wpt><wpt lat="-26.99089" lon="-48.646108"><ele>9.6</ele><name>SEM pintura no cruzamento</name></wpt><wpt lat="-26.991988" lon="-48.644737"><ele>16</ele><name>sem segredador, sobre calçada </name></wpt><wpt lat="-26.990992" lon="-48.645883"><ele>13.8</ele><name>SEM Semáforo exclusivo</name></wpt><wpt lat="-26.990985" lon="-48.645882"><ele>14</ele><name>Semáforo para motorizado</name></wpt><wpt lat="-26.990988" lon="-48.645882"><ele>13.9</ele><name>Semáforo para pedestres</name></wpt><wpt lat="-26.992007" lon="-48.644722"><ele>17.8</ele><name>Sobre calçada</name></wpt><wpt lat="-26.991912" lon="-48.645042"><ele>24.7</ele><name>Total da via (incluindo a ciclo) (cm)</name></wpt><wpt lat="-26.991998" lon="-48.644678"><name>Cruzamento perigoso. EXPLIQUE.</name></wpt><wpt lat="-26.992028" lon="-48.644685"><name>Cruzamento sobre avenida larga com semáforo distante, que abre para grande fluxo de carros</name></wpt><trk><name>Compart. Av. Flores T1 e R. Aqueduto - BC</name><trkseg><trkpt lat="-26.991972" lon="-48.644717"><ele>20.8</ele></trkpt><trkpt lat="-26.991983" lon="-48.644722"><ele>20.9</ele></trkpt><trkpt lat="-26.991998" lon="-48.644715"><ele>23.3</ele></trkpt><trkpt lat="-26.991975" lon="-48.644713"><ele>23.2</ele></trkpt><trkpt lat="-26.991973" lon="-48.644712"><ele>23</ele></trkpt><trkpt lat="-26.991975" lon="-48.644713"><ele>23.7</ele></trkpt><trkpt lat="-26.991977" lon="-48.644712"><ele>23.8</ele></trkpt><trkpt lat="-26.991977" lon="-48.644712"><ele>23.8</ele></trkpt><trkpt lat="-26.991977" lon="-48.644712"><ele>23.8</ele></trkpt><trkpt lat="-26.991985" lon="-48.6447"><ele>21.2</ele></trkpt><trkpt lat="-26.991992" lon="-48.644705"><ele>21.6</ele></trkpt><trkpt lat="-26.99199" lon="-48.644702"><ele>21.5</ele></trkpt><trkpt lat="-26.991987" lon="-48.6447"><ele>21.7</ele></trkpt><trkpt lat="-26.991985" lon="-48.644697"><ele>21.2</ele></trkpt><trkpt lat="-26.992028" lon="-48.644675"><ele>21.2</ele></trkpt><trkpt lat="-26.992" lon="-48.644698"><ele>21.2</ele></trkpt><trkpt lat="-26.992023" lon="-48.644692"><ele>20.9</ele></trkpt><trkpt lat="-26.992035" lon="-48.644708"><ele>20.8</ele></trkpt><trkpt lat="-26.99204" lon="-48.644715"><ele>20.7</ele></trkpt><trkpt lat="-26.99204" lon="-48.644722"><ele>20.6</ele></trkpt><trkpt lat="-26.992045" lon="-48.644732"><ele>20.5</ele></trkpt><trkpt lat="-26.992057" lon="-48.644732"><ele>20.6</ele></trkpt><trkpt lat="-26.992063" lon="-48.64473"><ele>20.6</ele></trkpt><trkpt lat="-26.992057" lon="-48.644722"><ele>20.5</ele></trkpt><trkpt lat="-26.992048" lon="-48.644712"><ele>20.2</ele></trkpt><trkpt lat="-26.992048" lon="-48.644712"><ele>20.2</ele></trkpt><trkpt lat="-26.992038" lon="-48.644703"><ele>20</ele></trkpt><trkpt lat="-26.992025" lon="-48.644692"><ele>19.9</ele></trkpt><trkpt lat="-26.992015" lon="-48.644687"><ele>19.9</ele></trkpt><trkpt lat="-26.992015" lon="-48.644687"><ele>19.9</ele></trkpt><trkpt lat="-26.99201" lon="-48.644683"><ele>19.8</ele></trkpt><trkpt lat="-26.992007" lon="-48.644683"><ele>19.7</ele></trkpt><trkpt lat="-26.992007" lon="-48.644688"><ele>19.5</ele></trkpt><trkpt lat="-26.992007" lon="-48.644693"><ele>19.3</ele></trkpt><trkpt lat="-26.99201" lon="-48.644697"><ele>19.1</ele></trkpt><trkpt lat="-26.992013" lon="-48.644705"><ele>18.9</ele></trkpt><trkpt lat="-26.992015" lon="-48.644708"><ele>18.7</ele></trkpt><trkpt lat="-26.99202" lon="-48.644717"><ele>18.4</ele></trkpt><trkpt lat="-26.99202" lon="-48.644722"><ele>18.3</ele></trkpt><trkpt lat="-26.992023" lon="-48.644723"><ele>18.1</ele></trkpt><trkpt lat="-26.992023" lon="-48.644723"><ele>18</ele></trkpt><trkpt lat="-26.99202" lon="-48.644723"><ele>17.9</ele></trkpt><trkpt lat="-26.992017" lon="-48.644722"><ele>17.8</ele></trkpt><trkpt lat="-26.992012" lon="-48.64472"><ele>17.8</ele></trkpt><trkpt lat="-26.992007" lon="-48.644722"><ele>17.8</ele></trkpt><trkpt lat="-26.992007" lon="-48.644722"><ele>17.8</ele></trkpt><trkpt lat="-26.992002" lon="-48.644722"><ele>17.8</ele></trkpt><trkpt lat="-26.991998" lon="-48.644723"><ele>17.7</ele></trkpt><trkpt lat="-26.991993" lon="-48.644722"><ele>17.7</ele></trkpt><trkpt lat="-26.99199" lon="-48.64472"><ele>17.6</ele></trkpt><trkpt lat="-26.991987" lon="-48.644717"><ele>17.5</ele></trkpt><trkpt lat="-26.991987" lon="-48.644717"><ele>17.5</ele></trkpt><trkpt lat="-26.991988" lon="-48.644713"><ele>17.5</ele></trkpt><trkpt lat="-26.99199" lon="-48.644712"><ele>17.4</ele></trkpt><trkpt lat="-26.99199" lon="-48.644712"><ele>17.4</ele></trkpt><trkpt lat="-26.99199" lon="-48.644712"><ele>17.4</ele></trkpt><trkpt lat="-26.99199" lon="-48.644712"><ele>17.4</ele></trkpt><trkpt lat="-26.991995" lon="-48.644722"><ele>16.7</ele></trkpt><trkpt lat="-26.991995" lon="-48.64473"><ele>16.6</ele></trkpt><trkpt lat="-26.991995" lon="-48.644733"><ele>16.5</ele></trkpt><trkpt lat="-26.991993" lon="-48.644737"><ele>16.4</ele></trkpt><trkpt lat="-26.991993" lon="-48.644738"><ele>16.2</ele></trkpt><trkpt lat="-26.991988" lon="-48.644737"><ele>16</ele></trkpt><trkpt lat="-26.991988" lon="-48.644737"><ele>16</ele></trkpt><trkpt lat="-26.991988" lon="-48.644737"><ele>16</ele></trkpt><trkpt lat="-26.991988" lon="-48.644737"><ele>16</ele></trkpt><trkpt lat="-26.991988" lon="-48.644737"><ele>16</ele></trkpt><trkpt lat="-26.991988" lon="-48.644737"><ele>16</ele></trkpt><trkpt lat="-26.991988" lon="-48.644737"><ele>16</ele></trkpt><trkpt lat="-26.991988" lon="-48.644737"><ele>16</ele></trkpt><trkpt lat="-26.991988" lon="-48.644737"><ele>16</ele></trkpt><trkpt lat="-26.991988" lon="-48.644737"><ele>16</ele></trkpt><trkpt lat="-26.991988" lon="-48.644737"><ele>16</ele></trkpt><trkpt lat="-26.991988" lon="-48.644737"><ele>16</ele></trkpt><trkpt lat="-26.991988" lon="-48.644737"><ele>16</ele></trkpt><trkpt lat="-26.991988" lon="-48.644737"><ele>16</ele></trkpt><trkpt lat="-26.991988" lon="-48.644737"><ele>16</ele></trkpt><trkpt lat="-26.991988" lon="-48.644737"><ele>16</ele></trkpt><trkpt lat="-26.991988" lon="-48.644737"><ele>16</ele></trkpt><trkpt lat="-26.991988" lon="-48.644737"><ele>16</ele></trkpt><trkpt lat="-26.991988" lon="-48.644737"><ele>16</ele></trkpt><trkpt lat="-26.991988" lon="-48.644737"><ele>16</ele></trkpt><trkpt lat="-26.991988" lon="-48.644737"><ele>16</ele></trkpt><trkpt lat="-26.991988" lon="-48.644737"><ele>16</ele></trkpt><trkpt lat="-26.991988" lon="-48.644737"><ele>16</ele></trkpt><trkpt lat="-26.991988" lon="-48.644737"><ele>16</ele></trkpt><trkpt lat="-26.991988" lon="-48.644737"><ele>16</ele></trkpt><trkpt lat="-26.991988" lon="-48.644737"><ele>16</ele></trkpt><trkpt lat="-26.991988" lon="-48.644737"><ele>16</ele></trkpt><trkpt lat="-26.991988" lon="-48.644737"><ele>16</ele></trkpt><trkpt lat="-26.991988" lon="-48.644737"><ele>16</ele></trkpt><trkpt lat="-26.991988" lon="-48.644737"><ele>16</ele></trkpt><trkpt lat="-26.991988" lon="-48.644737"><ele>16</ele></trkpt><trkpt lat="-26.991988" lon="-48.644737"><ele>16</ele></trkpt><trkpt lat="-26.991988" lon="-48.644737"><ele>16</ele></trkpt><trkpt lat="-26.991988" lon="-48.644737"><ele>16</ele></trkpt><trkpt lat="-26.991988" lon="-48.644737"><ele>16</ele></trkpt><trkpt lat="-26.991988" lon="-48.644737"><ele>16</ele></trkpt><trkpt lat="-26.991988" lon="-48.644737"><ele>16</ele></trkpt><trkpt lat="-26.991988" lon="-48.644737"><ele>16</ele></trkpt><trkpt lat="-26.991988" lon="-48.644737"><ele>16</ele></trkpt><trkpt lat="-26.991988" lon="-48.644737"><ele>16</ele></trkpt><trkpt lat="-26.991988" lon="-48.644737"><ele>16</ele></trkpt><trkpt lat="-26.991988" lon="-48.644737"><ele>16</ele></trkpt><trkpt lat="-26.991988" lon="-48.644737"><ele>16</ele></trkpt><trkpt lat="-26.991988" lon="-48.644737"><ele>16</ele></trkpt><trkpt lat="-26.991988" lon="-48.644737"><ele>16</ele></trkpt><trkpt lat="-26.991988" lon="-48.644737"><ele>16</ele></trkpt><trkpt lat="-26.991988" lon="-48.644737"><ele>16</ele></trkpt><trkpt lat="-26.991988" lon="-48.644737"><ele>16</ele></trkpt><trkpt lat="-26.991988" lon="-48.644737"><ele>16</ele></trkpt><trkpt lat="-26.991988" lon="-48.644737"><ele>16</ele></trkpt><trkpt lat="-26.991988" lon="-48.644737"><ele>16</ele></trkpt><trkpt lat="-26.991988" lon="-48.644737"><ele>16</ele></trkpt><trkpt lat="-26.991988" lon="-48.644737"><ele>16</ele></trkpt><trkpt lat="-26.991988" lon="-48.644737"><ele>16</ele></trkpt><trkpt lat="-26.991988" lon="-48.644737"><ele>16</ele></trkpt><trkpt lat="-26.991988" lon="-48.644737"><ele>16</ele></trkpt><trkpt lat="-26.991988" lon="-48.644737"><ele>16</ele></trkpt><trkpt lat="-26.991988" lon="-48.644737"><ele>16</ele></trkpt><trkpt lat="-26.991988" lon="-48.644737"><ele>16</ele></trkpt><trkpt lat="-26.991988" lon="-48.644737"><ele>16</ele></trkpt><trkpt lat="-26.991988" lon="-48.644737"><ele>16</ele></trkpt><trkpt lat="-26.991988" lon="-48.644737"><ele>16</ele></trkpt><trkpt lat="-26.991988" lon="-48.644737"><ele>16</ele></trkpt><trkpt lat="-26.991988" lon="-48.644737"><ele>16</ele></trkpt><trkpt lat="-26.991988" lon="-48.644737"><ele>16</ele></trkpt><trkpt lat="-26.991988" lon="-48.644737"><ele>16</ele></trkpt><trkpt lat="-26.991988" lon="-48.644737"><ele>16</ele></trkpt><trkpt lat="-26.991988" lon="-48.644737"><ele>16</ele></trkpt><trkpt lat="-26.991988" lon="-48.644737"><ele>16</ele></trkpt><trkpt lat="-26.991988" lon="-48.644737"><ele>16</ele></trkpt><trkpt lat="-26.991988" lon="-48.644737"><ele>16</ele></trkpt><trkpt lat="-26.991988" lon="-48.644737"><ele>16</ele></trkpt><trkpt lat="-26.991988" lon="-48.644737"><ele>16</ele></trkpt><trkpt lat="-26.991988" lon="-48.644737"><ele>16</ele></trkpt><trkpt lat="-26.991988" lon="-48.644737"><ele>16</ele></trkpt><trkpt lat="-26.991988" lon="-48.644737"><ele>16</ele></trkpt><trkpt lat="-26.991988" lon="-48.644737"><ele>16</ele></trkpt><trkpt lat="-26.991988" lon="-48.644737"><ele>16</ele></trkpt><trkpt lat="-26.991988" lon="-48.644737"><ele>16</ele></trkpt><trkpt lat="-26.991988" lon="-48.644737"><ele>16</ele></trkpt><trkpt lat="-26.991988" lon="-48.644737"><ele>16</ele></trkpt><trkpt lat="-26.991988" lon="-48.644737"><ele>16</ele></trkpt><trkpt lat="-26.991988" lon="-48.644737"><ele>16</ele></trkpt><trkpt lat="-26.991988" lon="-48.644737"><ele>16</ele></trkpt><trkpt lat="-26.991988" lon="-48.644737"><ele>16</ele></trkpt><trkpt lat="-26.991988" lon="-48.644737"><ele>16</ele></trkpt><trkpt lat="-26.991988" lon="-48.644737"><ele>16</ele></trkpt><trkpt lat="-26.991988" lon="-48.644737"><ele>16</ele></trkpt><trkpt lat="-26.991988" lon="-48.644737"><ele>16</ele></trkpt><trkpt lat="-26.991988" lon="-48.644737"><ele>16</ele></trkpt><trkpt lat="-26.991988" lon="-48.644737"><ele>16</ele></trkpt><trkpt lat="-26.991988" lon="-48.644737"><ele>16</ele></trkpt><trkpt lat="-26.991988" lon="-48.644737"><ele>16</ele></trkpt><trkpt lat="-26.991988" lon="-48.644737"><ele>16</ele></trkpt><trkpt lat="-26.991988" lon="-48.644737"><ele>16</ele></trkpt><trkpt lat="-26.991988" lon="-48.644737"><ele>16</ele></trkpt><trkpt lat="-26.991988" lon="-48.644737"><ele>16</ele></trkpt><trkpt lat="-26.991988" lon="-48.644737"><ele>16</ele></trkpt><trkpt lat="-26.991988" lon="-48.644737"><ele>16</ele></trkpt><trkpt lat="-26.991988" lon="-48.644737"><ele>16</ele></trkpt><trkpt lat="-26.991988" lon="-48.644737"><ele>16</ele></trkpt><trkpt lat="-26.991988" lon="-48.644737"><ele>16</ele></trkpt><trkpt lat="-26.991988" lon="-48.644737"><ele>16</ele></trkpt><trkpt lat="-26.991988" lon="-48.644737"><ele>16</ele></trkpt><trkpt lat="-26.991988" lon="-48.644737"><ele>16</ele></trkpt><trkpt lat="-26.991988" lon="-48.644737"><ele>16</ele></trkpt><trkpt lat="-26.991988" lon="-48.644737"><ele>16</ele></trkpt><trkpt lat="-26.991988" lon="-48.644737"><ele>16</ele></trkpt><trkpt lat="-26.991988" lon="-48.644737"><ele>16</ele></trkpt><trkpt lat="-26.991988" lon="-48.644737"><ele>16</ele></trkpt><trkpt lat="-26.991988" lon="-48.644737"><ele>16</ele></trkpt><trkpt lat="-26.991988" lon="-48.644737"><ele>16</ele></trkpt><trkpt lat="-26.991988" lon="-48.644737"><ele>16</ele></trkpt><trkpt lat="-26.992137" lon="-48.644598"><ele>50.9</ele></trkpt><trkpt lat="-26.992167" lon="-48.644602"><ele>52.4</ele></trkpt><trkpt lat="-26.992183" lon="-48.64461"><ele>53</ele></trkpt><trkpt lat="-26.992192" lon="-48.644617"><ele>54</ele></trkpt><trkpt lat="-26.992192" lon="-48.644617"><ele>54</ele></trkpt><trkpt lat="-26.992192" lon="-48.644617"><ele>54</ele></trkpt><trkpt lat="-26.992192" lon="-48.644617"><ele>54</ele></trkpt><trkpt lat="-26.992333" lon="-48.644665"><ele>65.6</ele></trkpt><trkpt lat="-26.992325" lon="-48.64467"><ele>65.9</ele></trkpt><trkpt lat="-26.992325" lon="-48.644695"><ele>64.7</ele></trkpt><trkpt lat="-26.992308" lon="-48.64472"><ele>62.9</ele></trkpt><trkpt lat="-26.992302" lon="-48.644735"><ele>61.4</ele></trkpt><trkpt lat="-26.992302" lon="-48.644735"><ele>61.4</ele></trkpt><trkpt lat="-26.992302" lon="-48.644735"><ele>61.4</ele></trkpt><trkpt lat="-26.992302" lon="-48.644735"><ele>61.4</ele></trkpt><trkpt lat="-26.992302" lon="-48.644735"><ele>61.4</ele></trkpt><trkpt lat="-26.992302" lon="-48.644735"><ele>61.4</ele></trkpt><trkpt lat="-26.992302" lon="-48.644735"><ele>61.4</ele></trkpt><trkpt lat="-26.992302" lon="-48.644735"><ele>61.4</ele></trkpt><trkpt lat="-26.992223" lon="-48.64479"><ele>52.4</ele></trkpt><trkpt lat="-26.992223" lon="-48.64479"><ele>52.4</ele></trkpt><trkpt lat="-26.992197" lon="-48.64476"><ele>49.4</ele></trkpt><trkpt lat="-26.992192" lon="-48.644768"><ele>48.3</ele></trkpt><trkpt lat="-26.99219" lon="-48.644772"><ele>47.6</ele></trkpt><trkpt lat="-26.992167" lon="-48.644752"><ele>46.4</ele></trkpt><trkpt lat="-26.99215" lon="-48.644732"><ele>44.7</ele></trkpt><trkpt lat="-26.992137" lon="-48.644718"><ele>42.3</ele></trkpt><trkpt lat="-26.992125" lon="-48.644707"><ele>39.7</ele></trkpt><trkpt lat="-26.992125" lon="-48.644707"><ele>39.7</ele></trkpt><trkpt lat="-26.992107" lon="-48.644705"><ele>37.2</ele></trkpt><trkpt lat="-26.992087" lon="-48.644702"><ele>35.2</ele></trkpt><trkpt lat="-26.992073" lon="-48.644702"><ele>33.5</ele></trkpt><trkpt lat="-26.992062" lon="-48.6447"><ele>32.1</ele></trkpt><trkpt lat="-26.992057" lon="-48.644702"><ele>31</ele></trkpt><trkpt lat="-26.992055" lon="-48.644702"><ele>30.1</ele></trkpt><trkpt lat="-26.992048" lon="-48.644702"><ele>29.6</ele></trkpt><trkpt lat="-26.992043" lon="-48.644707"><ele>28.5</ele></trkpt><trkpt lat="-26.992035" lon="-48.64471"><ele>28</ele></trkpt><trkpt lat="-26.992027" lon="-48.644713"><ele>27.5</ele></trkpt><trkpt lat="-26.992027" lon="-48.644713"><ele>27.5</ele></trkpt><trkpt lat="-26.992027" lon="-48.644713"><ele>27.5</ele></trkpt><trkpt lat="-26.992027" lon="-48.644713"><ele>27.5</ele></trkpt><trkpt lat="-26.992027" lon="-48.644713"><ele>27.5</ele></trkpt><trkpt lat="-26.992027" lon="-48.644713"><ele>27.5</ele></trkpt><trkpt lat="-26.992027" lon="-48.644713"><ele>27.5</ele></trkpt><trkpt lat="-26.992027" lon="-48.644713"><ele>27.5</ele></trkpt><trkpt lat="-26.992027" lon="-48.644713"><ele>27.5</ele></trkpt><trkpt lat="-26.992027" lon="-48.644713"><ele>27.5</ele></trkpt><trkpt lat="-26.992027" lon="-48.644713"><ele>27.5</ele></trkpt><trkpt lat="-26.992027" lon="-48.644713"><ele>27.5</ele></trkpt><trkpt lat="-26.992027" lon="-48.644713"><ele>27.5</ele></trkpt><trkpt lat="-26.992027" lon="-48.644713"><ele>27.5</ele></trkpt><trkpt lat="-26.992027" lon="-48.644713"><ele>27.5</ele></trkpt><trkpt lat="-26.992027" lon="-48.644713"><ele>27.5</ele></trkpt><trkpt lat="-26.992027" lon="-48.644713"><ele>27.5</ele></trkpt><trkpt lat="-26.992027" lon="-48.644713"><ele>27.5</ele></trkpt><trkpt lat="-26.992027" lon="-48.644713"><ele>27.5</ele></trkpt><trkpt lat="-26.992023" lon="-48.644718"><ele>18.9</ele></trkpt><trkpt lat="-26.992023" lon="-48.644722"><ele>18.2</ele></trkpt><trkpt lat="-26.992023" lon="-48.644723"><ele>18</ele></trkpt><trkpt lat="-26.992027" lon="-48.644723"><ele>17.6</ele></trkpt><trkpt lat="-26.992032" lon="-48.64472"><ele>17.3</ele></trkpt><trkpt lat="-26.992035" lon="-48.644718"><ele>16.5</ele></trkpt><trkpt lat="-26.992035" lon="-48.644718"><ele>16.5</ele></trkpt><trkpt lat="-26.992035" lon="-48.644718"><ele>16.5</ele></trkpt><trkpt lat="-26.992035" lon="-48.644718"><ele>16.5</ele></trkpt><trkpt lat="-26.992038" lon="-48.644705"><ele>15.7</ele></trkpt><trkpt lat="-26.992043" lon="-48.644697"><ele>15.6</ele></trkpt><trkpt lat="-26.992043" lon="-48.644687"><ele>15.6</ele></trkpt><trkpt lat="-26.99204" lon="-48.64468"><ele>15.6</ele></trkpt><trkpt lat="-26.992037" lon="-48.644675"><ele>15.8</ele></trkpt><trkpt lat="-26.992035" lon="-48.644668"><ele>15.8</ele></trkpt><trkpt lat="-26.992032" lon="-48.644668"><ele>16</ele></trkpt><trkpt lat="-26.992033" lon="-48.64467"><ele>16</ele></trkpt><trkpt lat="-26.992035" lon="-48.644672"><ele>16.2</ele></trkpt><trkpt lat="-26.992035" lon="-48.644672"><ele>16.4</ele></trkpt><trkpt lat="-26.992035" lon="-48.644675"><ele>16.6</ele></trkpt><trkpt lat="-26.992037" lon="-48.64469"><ele>16.9</ele></trkpt><trkpt lat="-26.992037" lon="-48.644695"><ele>17.2</ele></trkpt><trkpt lat="-26.992038" lon="-48.644693"><ele>17.6</ele></trkpt><trkpt lat="-26.992033" lon="-48.644688"><ele>17.3</ele></trkpt><trkpt lat="-26.992033" lon="-48.644688"><ele>17.3</ele></trkpt><trkpt lat="-26.99203" lon="-48.644697"><ele>18.1</ele></trkpt><trkpt lat="-26.992022" lon="-48.644703"><ele>17.8</ele></trkpt><trkpt lat="-26.992008" lon="-48.644717"><ele>17.4</ele></trkpt><trkpt lat="-26.992" lon="-48.644733"><ele>17.3</ele></trkpt><trkpt lat="-26.991997" lon="-48.644745"><ele>17.4</ele></trkpt><trkpt lat="-26.991998" lon="-48.644763"><ele>18</ele></trkpt><trkpt lat="-26.991998" lon="-48.644782"><ele>18.1</ele></trkpt><trkpt lat="-26.991998" lon="-48.64479"><ele>18.2</ele></trkpt><trkpt lat="-26.991998" lon="-48.6448"><ele>18.4</ele></trkpt><trkpt lat="-26.99199" lon="-48.644817"><ele>18.3</ele></trkpt><trkpt lat="-26.991983" lon="-48.64483"><ele>18.2</ele></trkpt><trkpt lat="-26.99198" lon="-48.644838"><ele>18.2</ele></trkpt><trkpt lat="-26.991978" lon="-48.644847"><ele>18.3</ele></trkpt><trkpt lat="-26.991968" lon="-48.644858"><ele>18</ele></trkpt><trkpt lat="-26.991965" lon="-48.644865"><ele>17.7</ele></trkpt><trkpt lat="-26.991963" lon="-48.644877"><ele>17.7</ele></trkpt><trkpt lat="-26.991958" lon="-48.64489"><ele>17.5</ele></trkpt><trkpt lat="-26.991957" lon="-48.644903"><ele>17.3</ele></trkpt><trkpt lat="-26.991952" lon="-48.64492"><ele>17.2</ele></trkpt><trkpt lat="-26.99195" lon="-48.644933"><ele>17.3</ele></trkpt><trkpt lat="-26.991947" lon="-48.644948"><ele>17.5</ele></trkpt><trkpt lat="-26.991947" lon="-48.64496"><ele>17.9</ele></trkpt><trkpt lat="-26.991943" lon="-48.64497"><ele>18.2</ele></trkpt><trkpt lat="-26.991938" lon="-48.644983"><ele>17.8</ele></trkpt><trkpt lat="-26.991935" lon="-48.64499"><ele>17.8</ele></trkpt><trkpt lat="-26.99193" lon="-48.644995"><ele>18.3</ele></trkpt><trkpt lat="-26.991925" lon="-48.645002"><ele>19</ele></trkpt><trkpt lat="-26.991922" lon="-48.645005"><ele>19.7</ele></trkpt><trkpt lat="-26.991915" lon="-48.64501"><ele>19.9</ele></trkpt><trkpt lat="-26.991915" lon="-48.645013"><ele>20</ele></trkpt><trkpt lat="-26.991913" lon="-48.645017"><ele>20.2</ele></trkpt><trkpt lat="-26.991917" lon="-48.64502"><ele>20.4</ele></trkpt><trkpt lat="-26.991922" lon="-48.645023"><ele>20.7</ele></trkpt><trkpt lat="-26.991923" lon="-48.645023"><ele>20.7</ele></trkpt><trkpt lat="-26.991928" lon="-48.645025"><ele>21</ele></trkpt><trkpt lat="-26.991933" lon="-48.645022"><ele>21.3</ele></trkpt><trkpt lat="-26.991935" lon="-48.645017"><ele>21.5</ele></trkpt><trkpt lat="-26.991935" lon="-48.645008"><ele>21.7</ele></trkpt><trkpt lat="-26.991935" lon="-48.645008"><ele>21.7</ele></trkpt><trkpt lat="-26.991935" lon="-48.644998"><ele>21.7</ele></trkpt><trkpt lat="-26.991937" lon="-48.644995"><ele>21.8</ele></trkpt><trkpt lat="-26.991937" lon="-48.644995"><ele>21.8</ele></trkpt><trkpt lat="-26.991937" lon="-48.644995"><ele>21.8</ele></trkpt><trkpt lat="-26.991937" lon="-48.644995"><ele>21.8</ele></trkpt><trkpt lat="-26.991937" lon="-48.644995"><ele>21.8</ele></trkpt><trkpt lat="-26.991937" lon="-48.644995"><ele>21.8</ele></trkpt><trkpt lat="-26.991937" lon="-48.644995"><ele>21.8</ele></trkpt><trkpt lat="-26.991937" lon="-48.644995"><ele>21.8</ele></trkpt><trkpt lat="-26.991937" lon="-48.644995"><ele>21.8</ele></trkpt><trkpt lat="-26.991937" lon="-48.644995"><ele>21.8</ele></trkpt><trkpt lat="-26.991937" lon="-48.644995"><ele>21.8</ele></trkpt><trkpt lat="-26.991937" lon="-48.644995"><ele>21.8</ele></trkpt><trkpt lat="-26.991937" lon="-48.644995"><ele>21.8</ele></trkpt><trkpt lat="-26.991937" lon="-48.644995"><ele>21.8</ele></trkpt><trkpt lat="-26.991937" lon="-48.644995"><ele>21.8</ele></trkpt><trkpt lat="-26.991937" lon="-48.644995"><ele>21.8</ele></trkpt><trkpt lat="-26.991937" lon="-48.644995"><ele>21.8</ele></trkpt><trkpt lat="-26.991937" lon="-48.644995"><ele>21.8</ele></trkpt><trkpt lat="-26.991937" lon="-48.644995"><ele>21.8</ele></trkpt><trkpt lat="-26.991937" lon="-48.644995"><ele>21.8</ele></trkpt><trkpt lat="-26.991937" lon="-48.644995"><ele>21.8</ele></trkpt><trkpt lat="-26.991915" lon="-48.644952"><ele>25.2</ele></trkpt><trkpt lat="-26.991917" lon="-48.644943"><ele>25.8</ele></trkpt><trkpt lat="-26.991918" lon="-48.644935"><ele>26.4</ele></trkpt><trkpt lat="-26.991915" lon="-48.644928"><ele>26.9</ele></trkpt><trkpt lat="-26.991915" lon="-48.644928"><ele>26.9</ele></trkpt><trkpt lat="-26.991915" lon="-48.644928"><ele>26.9</ele></trkpt><trkpt lat="-26.991915" lon="-48.644928"><ele>26.9</ele></trkpt><trkpt lat="-26.991915" lon="-48.644928"><ele>26.9</ele></trkpt><trkpt lat="-26.991915" lon="-48.644928"><ele>26.9</ele></trkpt><trkpt lat="-26.991915" lon="-48.644928"><ele>26.9</ele></trkpt><trkpt lat="-26.991915" lon="-48.644928"><ele>26.9</ele></trkpt><trkpt lat="-26.991915" lon="-48.644928"><ele>26.9</ele></trkpt><trkpt lat="-26.991915" lon="-48.644928"><ele>26.9</ele></trkpt><trkpt lat="-26.991915" lon="-48.644928"><ele>26.9</ele></trkpt><trkpt lat="-26.991915" lon="-48.644928"><ele>26.9</ele></trkpt><trkpt lat="-26.991882" lon="-48.644932"><ele>27</ele></trkpt><trkpt lat="-26.991875" lon="-48.644935"><ele>26.8</ele></trkpt><trkpt lat="-26.991868" lon="-48.64494"><ele>26.4</ele></trkpt><trkpt lat="-26.99186" lon="-48.644947"><ele>26.1</ele></trkpt><trkpt lat="-26.991855" lon="-48.64495"><ele>25.6</ele></trkpt><trkpt lat="-26.991858" lon="-48.644948"><ele>25.3</ele></trkpt><trkpt lat="-26.991865" lon="-48.644948"><ele>25.1</ele></trkpt><trkpt lat="-26.991873" lon="-48.644945"><ele>24.9</ele></trkpt><trkpt lat="-26.99188" lon="-48.644942"><ele>24.7</ele></trkpt><trkpt lat="-26.991888" lon="-48.644938"><ele>24.6</ele></trkpt><trkpt lat="-26.991897" lon="-48.644935"><ele>24.9</ele></trkpt><trkpt lat="-26.991903" lon="-48.644932"><ele>25.2</ele></trkpt><trkpt lat="-26.991907" lon="-48.644925"><ele>25.6</ele></trkpt><trkpt lat="-26.991907" lon="-48.644922"><ele>26.1</ele></trkpt><trkpt lat="-26.991907" lon="-48.64492"><ele>26.5</ele></trkpt><trkpt lat="-26.991903" lon="-48.644918"><ele>26.7</ele></trkpt><trkpt lat="-26.991902" lon="-48.644918"><ele>26.8</ele></trkpt><trkpt lat="-26.991898" lon="-48.644925"><ele>26.7</ele></trkpt><trkpt lat="-26.991893" lon="-48.644932"><ele>26.9</ele></trkpt><trkpt lat="-26.991893" lon="-48.644932"><ele>26.9</ele></trkpt><trkpt lat="-26.991888" lon="-48.644937"><ele>27</ele></trkpt><trkpt lat="-26.991887" lon="-48.644938"><ele>27.3</ele></trkpt><trkpt lat="-26.991888" lon="-48.64494"><ele>27.4</ele></trkpt><trkpt lat="-26.99189" lon="-48.644938"><ele>27.5</ele></trkpt><trkpt lat="-26.991893" lon="-48.644937"><ele>27.5</ele></trkpt><trkpt lat="-26.991897" lon="-48.644937"><ele>27.6</ele></trkpt><trkpt lat="-26.991898" lon="-48.64494"><ele>27.6</ele></trkpt><trkpt lat="-26.991905" lon="-48.644945"><ele>27.9</ele></trkpt><trkpt lat="-26.991908" lon="-48.644948"><ele>28.1</ele></trkpt><trkpt lat="-26.991915" lon="-48.644958"><ele>28.1</ele></trkpt><trkpt lat="-26.99192" lon="-48.64497"><ele>27.9</ele></trkpt><trkpt lat="-26.99192" lon="-48.64497"><ele>27.9</ele></trkpt><trkpt lat="-26.99192" lon="-48.64497"><ele>27.9</ele></trkpt><trkpt lat="-26.99192" lon="-48.64497"><ele>27.9</ele></trkpt><trkpt lat="-26.992042" lon="-48.645015"><ele>65.6</ele></trkpt><trkpt lat="-26.992048" lon="-48.645017"><ele>67.8</ele></trkpt><trkpt lat="-26.992045" lon="-48.645023"><ele>69.2</ele></trkpt><trkpt lat="-26.992113" lon="-48.645202"><ele>97</ele></trkpt><trkpt lat="-26.992113" lon="-48.645202"><ele>97</ele></trkpt><trkpt lat="-26.992113" lon="-48.645202"><ele>97</ele></trkpt><trkpt lat="-26.992113" lon="-48.645202"><ele>97</ele></trkpt><trkpt lat="-26.992113" lon="-48.645202"><ele>97</ele></trkpt><trkpt lat="-26.992113" lon="-48.645202"><ele>97</ele></trkpt><trkpt lat="-26.992113" lon="-48.645202"><ele>97</ele></trkpt><trkpt lat="-26.992113" lon="-48.645202"><ele>97</ele></trkpt><trkpt lat="-26.992113" lon="-48.645202"><ele>97</ele></trkpt><trkpt lat="-26.992113" lon="-48.645202"><ele>97</ele></trkpt><trkpt lat="-26.992113" lon="-48.645202"><ele>97</ele></trkpt><trkpt lat="-26.992113" lon="-48.645202"><ele>97</ele></trkpt><trkpt lat="-26.992113" lon="-48.645202"><ele>97</ele></trkpt><trkpt lat="-26.992092" lon="-48.645032"><ele>86.4</ele></trkpt><trkpt lat="-26.992087" lon="-48.645"><ele>84.5</ele></trkpt><trkpt lat="-26.992078" lon="-48.64501"><ele>83.4</ele></trkpt><trkpt lat="-26.992073" lon="-48.645017"><ele>82.1</ele></trkpt><trkpt lat="-26.992073" lon="-48.645017"><ele>82.1</ele></trkpt><trkpt lat="-26.992073" lon="-48.645017"><ele>82.1</ele></trkpt><trkpt lat="-26.992073" lon="-48.645017"><ele>82.1</ele></trkpt><trkpt lat="-26.992073" lon="-48.645017"><ele>82.1</ele></trkpt><trkpt lat="-26.992073" lon="-48.645017"><ele>82.1</ele></trkpt><trkpt lat="-26.992073" lon="-48.645017"><ele>82.1</ele></trkpt><trkpt lat="-26.992073" lon="-48.645017"><ele>82.1</ele></trkpt><trkpt lat="-26.992073" lon="-48.645017"><ele>82.1</ele></trkpt><trkpt lat="-26.992073" lon="-48.645017"><ele>82.1</ele></trkpt><trkpt lat="-26.992073" lon="-48.645017"><ele>82.1</ele></trkpt><trkpt lat="-26.992073" lon="-48.645017"><ele>82.1</ele></trkpt><trkpt lat="-26.992073" lon="-48.645017"><ele>82.1</ele></trkpt><trkpt lat="-26.992073" lon="-48.645017"><ele>82.1</ele></trkpt><trkpt lat="-26.992073" lon="-48.645017"><ele>82.1</ele></trkpt><trkpt lat="-26.992073" lon="-48.645017"><ele>82.1</ele></trkpt><trkpt lat="-26.992073" lon="-48.645017"><ele>82.1</ele></trkpt><trkpt lat="-26.992073" lon="-48.645017"><ele>82.1</ele></trkpt><trkpt lat="-26.992073" lon="-48.645017"><ele>82.1</ele></trkpt><trkpt lat="-26.992073" lon="-48.645017"><ele>82.1</ele></trkpt><trkpt lat="-26.992073" lon="-48.645017"><ele>82.1</ele></trkpt><trkpt lat="-26.992073" lon="-48.645017"><ele>82.1</ele></trkpt><trkpt lat="-26.992005" lon="-48.64508"><ele>58.5</ele></trkpt><trkpt lat="-26.991998" lon="-48.645085"><ele>57.3</ele></trkpt><trkpt lat="-26.991988" lon="-48.645088"><ele>56.1</ele></trkpt><trkpt lat="-26.99198" lon="-48.64509"><ele>54.7</ele></trkpt><trkpt lat="-26.991972" lon="-48.645092"><ele>53.2</ele></trkpt><trkpt lat="-26.99197" lon="-48.645095"><ele>52.4</ele></trkpt><trkpt lat="-26.991968" lon="-48.645088"><ele>51.1</ele></trkpt><trkpt lat="-26.991965" lon="-48.645078"><ele>49.6</ele></trkpt><trkpt lat="-26.991972" lon="-48.645067"><ele>48.6</ele></trkpt><trkpt lat="-26.991977" lon="-48.64506"><ele>47.9</ele></trkpt><trkpt lat="-26.99198" lon="-48.645055"><ele>47.3</ele></trkpt><trkpt lat="-26.991985" lon="-48.645058"><ele>46.6</ele></trkpt><trkpt lat="-26.99199" lon="-48.645058"><ele>45</ele></trkpt><trkpt lat="-26.991995" lon="-48.645058"><ele>44.6</ele></trkpt><trkpt lat="-26.992002" lon="-48.64505"><ele>43.1</ele></trkpt><trkpt lat="-26.991998" lon="-48.645047"><ele>42.6</ele></trkpt><trkpt lat="-26.991997" lon="-48.645043"><ele>42.5</ele></trkpt><trkpt lat="-26.99199" lon="-48.645038"><ele>41.7</ele></trkpt><trkpt lat="-26.991985" lon="-48.64503"><ele>41.2</ele></trkpt><trkpt lat="-26.991982" lon="-48.64502"><ele>40.6</ele></trkpt><trkpt lat="-26.991977" lon="-48.645013"><ele>39.7</ele></trkpt><trkpt lat="-26.991977" lon="-48.645013"><ele>39.7</ele></trkpt><trkpt lat="-26.991977" lon="-48.645013"><ele>39.7</ele></trkpt><trkpt lat="-26.991977" lon="-48.645013"><ele>39.7</ele></trkpt><trkpt lat="-26.991977" lon="-48.645013"><ele>39.7</ele></trkpt><trkpt lat="-26.991977" lon="-48.645013"><ele>39.7</ele></trkpt><trkpt lat="-26.991977" lon="-48.645013"><ele>39.7</ele></trkpt><trkpt lat="-26.991977" lon="-48.645013"><ele>39.7</ele></trkpt><trkpt lat="-26.991977" lon="-48.645013"><ele>39.7</ele></trkpt><trkpt lat="-26.991977" lon="-48.645013"><ele>39.7</ele></trkpt><trkpt lat="-26.991977" lon="-48.645013"><ele>39.7</ele></trkpt><trkpt lat="-26.991977" lon="-48.645013"><ele>39.7</ele></trkpt><trkpt lat="-26.991977" lon="-48.645013"><ele>39.7</ele></trkpt><trkpt lat="-26.991977" lon="-48.645013"><ele>39.7</ele></trkpt><trkpt lat="-26.991977" lon="-48.645013"><ele>39.7</ele></trkpt><trkpt lat="-26.991977" lon="-48.645013"><ele>39.7</ele></trkpt><trkpt lat="-26.991977" lon="-48.645013"><ele>39.7</ele></trkpt><trkpt lat="-26.99189" lon="-48.644973"><ele>33.7</ele></trkpt><trkpt lat="-26.991885" lon="-48.64498"><ele>34</ele></trkpt><trkpt lat="-26.991882" lon="-48.644987"><ele>34</ele></trkpt><trkpt lat="-26.991877" lon="-48.644993"><ele>34.1</ele></trkpt><trkpt lat="-26.991872" lon="-48.645002"><ele>34.1</ele></trkpt><trkpt lat="-26.991872" lon="-48.645008"><ele>34</ele></trkpt><trkpt lat="-26.991875" lon="-48.645017"><ele>33.8</ele></trkpt><trkpt lat="-26.991877" lon="-48.645018"><ele>33.6</ele></trkpt><trkpt lat="-26.99188" lon="-48.645022"><ele>33.6</ele></trkpt><trkpt lat="-26.99188" lon="-48.645023"><ele>33.5</ele></trkpt><trkpt lat="-26.991882" lon="-48.645027"><ele>33.5</ele></trkpt><trkpt lat="-26.991883" lon="-48.64503"><ele>33.7</ele></trkpt><trkpt lat="-26.991888" lon="-48.645032"><ele>33.6</ele></trkpt><trkpt lat="-26.991888" lon="-48.645032"><ele>33.6</ele></trkpt><trkpt lat="-26.991887" lon="-48.645032"><ele>33.5</ele></trkpt><trkpt lat="-26.991887" lon="-48.645032"><ele>33.5</ele></trkpt><trkpt lat="-26.991887" lon="-48.645032"><ele>33.5</ele></trkpt><trkpt lat="-26.991887" lon="-48.645032"><ele>33.5</ele></trkpt><trkpt lat="-26.991887" lon="-48.645032"><ele>33.5</ele></trkpt><trkpt lat="-26.991887" lon="-48.645032"><ele>33.5</ele></trkpt><trkpt lat="-26.991887" lon="-48.645032"><ele>33.5</ele></trkpt><trkpt lat="-26.991887" lon="-48.645032"><ele>33.5</ele></trkpt><trkpt lat="-26.991887" lon="-48.645032"><ele>33.5</ele></trkpt><trkpt lat="-26.991887" lon="-48.645032"><ele>33.5</ele></trkpt><trkpt lat="-26.991887" lon="-48.645032"><ele>33.5</ele></trkpt><trkpt lat="-26.991887" lon="-48.645032"><ele>33.5</ele></trkpt><trkpt lat="-26.991887" lon="-48.645032"><ele>33.5</ele></trkpt><trkpt lat="-26.991887" lon="-48.645032"><ele>33.5</ele></trkpt><trkpt lat="-26.991887" lon="-48.645032"><ele>33.5</ele></trkpt><trkpt lat="-26.991887" lon="-48.645032"><ele>33.5</ele></trkpt><trkpt lat="-26.991887" lon="-48.645032"><ele>33.5</ele></trkpt><trkpt lat="-26.991887" lon="-48.645032"><ele>33.5</ele></trkpt><trkpt lat="-26.991887" lon="-48.645032"><ele>33.5</ele></trkpt><trkpt lat="-26.991887" lon="-48.645032"><ele>33.5</ele></trkpt><trkpt lat="-26.991887" lon="-48.645032"><ele>33.5</ele></trkpt><trkpt lat="-26.991887" lon="-48.645032"><ele>33.5</ele></trkpt><trkpt lat="-26.991887" lon="-48.645032"><ele>33.5</ele></trkpt><trkpt lat="-26.991887" lon="-48.645032"><ele>33.5</ele></trkpt><trkpt lat="-26.991887" lon="-48.645032"><ele>33.5</ele></trkpt><trkpt lat="-26.991887" lon="-48.645032"><ele>33.5</ele></trkpt><trkpt lat="-26.991887" lon="-48.645032"><ele>33.5</ele></trkpt><trkpt lat="-26.991887" lon="-48.645032"><ele>33.5</ele></trkpt><trkpt lat="-26.991887" lon="-48.645032"><ele>33.5</ele></trkpt><trkpt lat="-26.991887" lon="-48.645032"><ele>33.5</ele></trkpt><trkpt lat="-26.991887" lon="-48.645032"><ele>33.5</ele></trkpt><trkpt lat="-26.991918" lon="-48.645087"><ele>25.8</ele></trkpt><trkpt lat="-26.991917" lon="-48.645082"><ele>25.5</ele></trkpt><trkpt lat="-26.991917" lon="-48.645078"><ele>25.6</ele></trkpt><trkpt lat="-26.991917" lon="-48.645077"><ele>25.5</ele></trkpt><trkpt lat="-26.991917" lon="-48.645065"><ele>25.3</ele></trkpt><trkpt lat="-26.991915" lon="-48.645053"><ele>25.1</ele></trkpt><trkpt lat="-26.991912" lon="-48.645042"><ele>24.7</ele></trkpt><trkpt lat="-26.991912" lon="-48.645042"><ele>24.7</ele></trkpt><trkpt lat="-26.991912" lon="-48.645042"><ele>24.7</ele></trkpt><trkpt lat="-26.991912" lon="-48.645042"><ele>24.7</ele></trkpt><trkpt lat="-26.991912" lon="-48.645042"><ele>24.7</ele></trkpt><trkpt lat="-26.991912" lon="-48.645042"><ele>24.7</ele></trkpt><trkpt lat="-26.991912" lon="-48.645042"><ele>24.7</ele></trkpt><trkpt lat="-26.991912" lon="-48.645042"><ele>24.7</ele></trkpt><trkpt lat="-26.991912" lon="-48.645042"><ele>24.7</ele></trkpt><trkpt lat="-26.991912" lon="-48.645042"><ele>24.7</ele></trkpt><trkpt lat="-26.991912" lon="-48.645042"><ele>24.7</ele></trkpt><trkpt lat="-26.991912" lon="-48.645042"><ele>24.7</ele></trkpt><trkpt lat="-26.991912" lon="-48.645042"><ele>24.7</ele></trkpt><trkpt lat="-26.991912" lon="-48.645042"><ele>24.7</ele></trkpt><trkpt lat="-26.991912" lon="-48.645042"><ele>24.7</ele></trkpt><trkpt lat="-26.991912" lon="-48.645042"><ele>24.7</ele></trkpt><trkpt lat="-26.991912" lon="-48.645042"><ele>24.7</ele></trkpt><trkpt lat="-26.991912" lon="-48.645042"><ele>24.7</ele></trkpt><trkpt lat="-26.991912" lon="-48.645042"><ele>24.7</ele></trkpt><trkpt lat="-26.991912" lon="-48.645042"><ele>24.7</ele></trkpt><trkpt lat="-26.991912" lon="-48.645042"><ele>24.7</ele></trkpt><trkpt lat="-26.991912" lon="-48.645042"><ele>24.7</ele></trkpt><trkpt lat="-26.991912" lon="-48.645042"><ele>24.7</ele></trkpt><trkpt lat="-26.991912" lon="-48.645042"><ele>24.7</ele></trkpt><trkpt lat="-26.991912" lon="-48.645042"><ele>24.7</ele></trkpt><trkpt lat="-26.991912" lon="-48.645042"><ele>24.7</ele></trkpt><trkpt lat="-26.991912" lon="-48.645042"><ele>24.7</ele></trkpt><trkpt lat="-26.991912" lon="-48.645042"><ele>24.7</ele></trkpt><trkpt lat="-26.991912" lon="-48.645042"><ele>24.7</ele></trkpt><trkpt lat="-26.991912" lon="-48.645042"><ele>24.7</ele></trkpt><trkpt lat="-26.991912" lon="-48.645042"><ele>24.7</ele></trkpt><trkpt lat="-26.991912" lon="-48.645042"><ele>24.7</ele></trkpt><trkpt lat="-26.991912" lon="-48.645042"><ele>24.7</ele></trkpt><trkpt lat="-26.991912" lon="-48.645042"><ele>24.7</ele></trkpt><trkpt lat="-26.991912" lon="-48.645042"><ele>24.7</ele></trkpt><trkpt lat="-26.991912" lon="-48.645042"><ele>24.7</ele></trkpt><trkpt lat="-26.991912" lon="-48.645042"><ele>24.7</ele></trkpt><trkpt lat="-26.991912" lon="-48.645042"><ele>24.7</ele></trkpt><trkpt lat="-26.991912" lon="-48.645042"><ele>24.7</ele></trkpt><trkpt lat="-26.991912" lon="-48.645042"><ele>24.7</ele></trkpt><trkpt lat="-26.991912" lon="-48.645042"><ele>24.7</ele></trkpt><trkpt lat="-26.991912" lon="-48.645042"><ele>24.7</ele></trkpt><trkpt lat="-26.991912" lon="-48.645042"><ele>24.7</ele></trkpt><trkpt lat="-26.991912" lon="-48.645042"><ele>24.7</ele></trkpt><trkpt lat="-26.991912" lon="-48.645042"><ele>24.7</ele></trkpt><trkpt lat="-26.991912" lon="-48.645042"><ele>24.7</ele></trkpt><trkpt lat="-26.991912" lon="-48.645042"><ele>24.7</ele></trkpt><trkpt lat="-26.991912" lon="-48.645042"><ele>24.7</ele></trkpt><trkpt lat="-26.991912" lon="-48.645042"><ele>24.7</ele></trkpt><trkpt lat="-26.991912" lon="-48.645042"><ele>24.7</ele></trkpt><trkpt lat="-26.991912" lon="-48.645042"><ele>24.7</ele></trkpt><trkpt lat="-26.991912" lon="-48.645042"><ele>24.7</ele></trkpt><trkpt lat="-26.991912" lon="-48.645042"><ele>24.7</ele></trkpt><trkpt lat="-26.991912" lon="-48.645042"><ele>24.7</ele></trkpt><trkpt lat="-26.991912" lon="-48.645042"><ele>24.7</ele></trkpt><trkpt lat="-26.991912" lon="-48.645042"><ele>24.7</ele></trkpt><trkpt lat="-26.991912" lon="-48.645042"><ele>24.7</ele></trkpt><trkpt lat="-26.991912" lon="-48.645042"><ele>24.7</ele></trkpt><trkpt lat="-26.99192" lon="-48.645022"><ele>17.3</ele></trkpt><trkpt lat="-26.991925" lon="-48.645023"><ele>17</ele></trkpt><trkpt lat="-26.99193" lon="-48.645023"><ele>16.6</ele></trkpt><trkpt lat="-26.99193" lon="-48.645023"><ele>16.5</ele></trkpt><trkpt lat="-26.99193" lon="-48.645023"><ele>16.5</ele></trkpt><trkpt lat="-26.99193" lon="-48.645023"><ele>16.5</ele></trkpt><trkpt lat="-26.99193" lon="-48.645023"><ele>16.5</ele></trkpt><trkpt lat="-26.99193" lon="-48.645023"><ele>16.5</ele></trkpt><trkpt lat="-26.99193" lon="-48.645023"><ele>16.5</ele></trkpt><trkpt lat="-26.99193" lon="-48.645023"><ele>16.5</ele></trkpt><trkpt lat="-26.99193" lon="-48.645023"><ele>16.5</ele></trkpt><trkpt lat="-26.99193" lon="-48.645023"><ele>16.5</ele></trkpt><trkpt lat="-26.99193" lon="-48.645023"><ele>16.5</ele></trkpt><trkpt lat="-26.99193" lon="-48.645023"><ele>16.5</ele></trkpt><trkpt lat="-26.99193" lon="-48.645023"><ele>16.5</ele></trkpt><trkpt lat="-26.99193" lon="-48.645023"><ele>16.5</ele></trkpt><trkpt lat="-26.991918" lon="-48.644997"><ele>15.5</ele></trkpt><trkpt lat="-26.991908" lon="-48.644992"><ele>15.8</ele></trkpt><trkpt lat="-26.991907" lon="-48.644993"><ele>16</ele></trkpt><trkpt lat="-26.991908" lon="-48.644993"><ele>16</ele></trkpt><trkpt lat="-26.991903" lon="-48.644995"><ele>16.4</ele></trkpt><trkpt lat="-26.991903" lon="-48.644995"><ele>16.4</ele></trkpt><trkpt lat="-26.991903" lon="-48.644995"><ele>16.4</ele></trkpt><trkpt lat="-26.991903" lon="-48.644995"><ele>16.4</ele></trkpt><trkpt lat="-26.991903" lon="-48.644995"><ele>16.4</ele></trkpt><trkpt lat="-26.991875" lon="-48.645003"><ele>18</ele></trkpt><trkpt lat="-26.991865" lon="-48.645012"><ele>17.9</ele></trkpt><trkpt lat="-26.991852" lon="-48.645022"><ele>17.4</ele></trkpt><trkpt lat="-26.991838" lon="-48.645033"><ele>17.3</ele></trkpt><trkpt lat="-26.991822" lon="-48.645048"><ele>17.6</ele></trkpt><trkpt lat="-26.991807" lon="-48.645068"><ele>18.1</ele></trkpt><trkpt lat="-26.991793" lon="-48.645087"><ele>18.5</ele></trkpt><trkpt lat="-26.991782" lon="-48.645105"><ele>18.8</ele></trkpt><trkpt lat="-26.991773" lon="-48.645127"><ele>19.2</ele></trkpt><trkpt lat="-26.99177" lon="-48.64515"><ele>19.4</ele></trkpt><trkpt lat="-26.991757" lon="-48.645168"><ele>19.8</ele></trkpt><trkpt lat="-26.991735" lon="-48.645183"><ele>20.6</ele></trkpt><trkpt lat="-26.991715" lon="-48.645203"><ele>20.5</ele></trkpt><trkpt lat="-26.9917" lon="-48.645218"><ele>20.6</ele></trkpt><trkpt lat="-26.9917" lon="-48.645218"><ele>20.6</ele></trkpt><trkpt lat="-26.991678" lon="-48.645233"><ele>20.9</ele></trkpt><trkpt lat="-26.991658" lon="-48.645243"><ele>20.5</ele></trkpt><trkpt lat="-26.99164" lon="-48.645257"><ele>21.1</ele></trkpt><trkpt lat="-26.991617" lon="-48.645268"><ele>21.4</ele></trkpt><trkpt lat="-26.991597" lon="-48.645285"><ele>22</ele></trkpt><trkpt lat="-26.991582" lon="-48.645298"><ele>21.9</ele></trkpt><trkpt lat="-26.991563" lon="-48.645312"><ele>21.2</ele></trkpt><trkpt lat="-26.991548" lon="-48.645325"><ele>20.9</ele></trkpt><trkpt lat="-26.991532" lon="-48.645337"><ele>20.6</ele></trkpt><trkpt lat="-26.99152" lon="-48.645347"><ele>20.6</ele></trkpt><trkpt lat="-26.99151" lon="-48.645357"><ele>20.8</ele></trkpt><trkpt lat="-26.9915" lon="-48.645367"><ele>20.3</ele></trkpt><trkpt lat="-26.991488" lon="-48.645385"><ele>20.5</ele></trkpt><trkpt lat="-26.991478" lon="-48.645412"><ele>20.4</ele></trkpt><trkpt lat="-26.991472" lon="-48.64543"><ele>20.8</ele></trkpt><trkpt lat="-26.991463" lon="-48.645443"><ele>21.4</ele></trkpt><trkpt lat="-26.991457" lon="-48.645457"><ele>21.1</ele></trkpt><trkpt lat="-26.991442" lon="-48.645473"><ele>20.5</ele></trkpt><trkpt lat="-26.991425" lon="-48.645493"><ele>21.2</ele></trkpt><trkpt lat="-26.9914" lon="-48.645507"><ele>21.2</ele></trkpt><trkpt lat="-26.99138" lon="-48.645527"><ele>22</ele></trkpt><trkpt lat="-26.991363" lon="-48.645538"><ele>21.9</ele></trkpt><trkpt lat="-26.991342" lon="-48.645558"><ele>22.2</ele></trkpt><trkpt lat="-26.99132" lon="-48.645578"><ele>23.1</ele></trkpt><trkpt lat="-26.991297" lon="-48.645598"><ele>23.6</ele></trkpt><trkpt lat="-26.991283" lon="-48.645615"><ele>24.2</ele></trkpt><trkpt lat="-26.991268" lon="-48.64564"><ele>24.4</ele></trkpt><trkpt lat="-26.991257" lon="-48.645655"><ele>24.3</ele></trkpt><trkpt lat="-26.991247" lon="-48.645682"><ele>24.1</ele></trkpt><trkpt lat="-26.991233" lon="-48.645713"><ele>23.6</ele></trkpt><trkpt lat="-26.991212" lon="-48.645742"><ele>23.1</ele></trkpt><trkpt lat="-26.991187" lon="-48.645752"><ele>22.3</ele></trkpt><trkpt lat="-26.99116" lon="-48.645758"><ele>22.5</ele></trkpt><trkpt lat="-26.99114" lon="-48.645755"><ele>22.4</ele></trkpt><trkpt lat="-26.991123" lon="-48.645752"><ele>22.4</ele></trkpt><trkpt lat="-26.991113" lon="-48.645743"><ele>22.5</ele></trkpt><trkpt lat="-26.9911" lon="-48.645738"><ele>22.4</ele></trkpt><trkpt lat="-26.991088" lon="-48.645733"><ele>22.4</ele></trkpt><trkpt lat="-26.991077" lon="-48.645735"><ele>22.1</ele></trkpt><trkpt lat="-26.991073" lon="-48.645732"><ele>21.4</ele></trkpt><trkpt lat="-26.991073" lon="-48.645732"><ele>21.4</ele></trkpt><trkpt lat="-26.991063" lon="-48.645727"><ele>21.4</ele></trkpt><trkpt lat="-26.991055" lon="-48.645723"><ele>21.6</ele></trkpt><trkpt lat="-26.991047" lon="-48.645715"><ele>21.8</ele></trkpt><trkpt lat="-26.991048" lon="-48.645717"><ele>21.6</ele></trkpt><trkpt lat="-26.99105" lon="-48.645715"><ele>21</ele></trkpt><trkpt lat="-26.991052" lon="-48.645722"><ele>20.6</ele></trkpt><trkpt lat="-26.991048" lon="-48.645725"><ele>20.3</ele></trkpt><trkpt lat="-26.991048" lon="-48.645727"><ele>20.4</ele></trkpt><trkpt lat="-26.991047" lon="-48.64573"><ele>20.7</ele></trkpt><trkpt lat="-26.991045" lon="-48.645732"><ele>20.9</ele></trkpt><trkpt lat="-26.991045" lon="-48.645737"><ele>21</ele></trkpt><trkpt lat="-26.991043" lon="-48.645742"><ele>21.1</ele></trkpt><trkpt lat="-26.991045" lon="-48.645743"><ele>21</ele></trkpt><trkpt lat="-26.991047" lon="-48.645743"><ele>20.9</ele></trkpt><trkpt lat="-26.991047" lon="-48.645743"><ele>20.9</ele></trkpt><trkpt lat="-26.991047" lon="-48.645743"><ele>20.9</ele></trkpt><trkpt lat="-26.991047" lon="-48.645743"><ele>20.9</ele></trkpt><trkpt lat="-26.991047" lon="-48.645743"><ele>20.9</ele></trkpt><trkpt lat="-26.991047" lon="-48.645743"><ele>20.9</ele></trkpt><trkpt lat="-26.991047" lon="-48.645743"><ele>20.9</ele></trkpt><trkpt lat="-26.991047" lon="-48.645743"><ele>20.9</ele></trkpt><trkpt lat="-26.991047" lon="-48.645743"><ele>20.9</ele></trkpt><trkpt lat="-26.991047" lon="-48.645743"><ele>20.9</ele></trkpt><trkpt lat="-26.991047" lon="-48.645743"><ele>20.9</ele></trkpt><trkpt lat="-26.991047" lon="-48.645743"><ele>20.9</ele></trkpt><trkpt lat="-26.991047" lon="-48.645743"><ele>20.9</ele></trkpt><trkpt lat="-26.991018" lon="-48.645773"><ele>19.9</ele></trkpt><trkpt lat="-26.991027" lon="-48.645792"><ele>20.4</ele></trkpt><trkpt lat="-26.991042" lon="-48.645792"><ele>20.7</ele></trkpt><trkpt lat="-26.991058" lon="-48.645793"><ele>20.6</ele></trkpt><trkpt lat="-26.991075" lon="-48.645798"><ele>20.3</ele></trkpt><trkpt lat="-26.9911" lon="-48.645805"><ele>19.6</ele></trkpt><trkpt lat="-26.991125" lon="-48.645812"><ele>19</ele></trkpt><trkpt lat="-26.991147" lon="-48.645815"><ele>19.6</ele></trkpt><trkpt lat="-26.991168" lon="-48.645808"><ele>19.7</ele></trkpt><trkpt lat="-26.991192" lon="-48.645797"><ele>19.4</ele></trkpt><trkpt lat="-26.991213" lon="-48.645778"><ele>18.9</ele></trkpt><trkpt lat="-26.991233" lon="-48.645755"><ele>18.5</ele></trkpt><trkpt lat="-26.991257" lon="-48.645727"><ele>17.9</ele></trkpt><trkpt lat="-26.991282" lon="-48.645697"><ele>17.4</ele></trkpt><trkpt lat="-26.991307" lon="-48.645668"><ele>16.8</ele></trkpt><trkpt lat="-26.991328" lon="-48.645642"><ele>16.1</ele></trkpt><trkpt lat="-26.99135" lon="-48.645618"><ele>14.6</ele></trkpt><trkpt lat="-26.991372" lon="-48.645595"><ele>12.4</ele></trkpt><trkpt lat="-26.99139" lon="-48.645575"><ele>11.5</ele></trkpt><trkpt lat="-26.991408" lon="-48.645557"><ele>10.6</ele></trkpt><trkpt lat="-26.991428" lon="-48.645542"><ele>9.4</ele></trkpt><trkpt lat="-26.991453" lon="-48.645528"><ele>8.1</ele></trkpt><trkpt lat="-26.991478" lon="-48.64551"><ele>7</ele></trkpt><trkpt lat="-26.991502" lon="-48.645498"><ele>5.8</ele></trkpt><trkpt lat="-26.99152" lon="-48.645487"><ele>4.9</ele></trkpt><trkpt lat="-26.99153" lon="-48.645473"><ele>4</ele></trkpt><trkpt lat="-26.991542" lon="-48.645458"><ele>3.3</ele></trkpt><trkpt lat="-26.991553" lon="-48.645443"><ele>2.8</ele></trkpt><trkpt lat="-26.991565" lon="-48.645432"><ele>2.4</ele></trkpt><trkpt lat="-26.991562" lon="-48.64544"><ele>1.9</ele></trkpt><trkpt lat="-26.991552" lon="-48.645443"><ele>2</ele></trkpt><trkpt lat="-26.991548" lon="-48.645447"><ele>1.8</ele></trkpt><trkpt lat="-26.991543" lon="-48.64545"><ele>1.5</ele></trkpt><trkpt lat="-26.991542" lon="-48.645452"><ele>1.5</ele></trkpt><trkpt lat="-26.991545" lon="-48.645448"><ele>1.4</ele></trkpt><trkpt lat="-26.991548" lon="-48.645445"><ele>1.4</ele></trkpt><trkpt lat="-26.991548" lon="-48.64544"><ele>1.4</ele></trkpt><trkpt lat="-26.991547" lon="-48.645435"><ele>1.7</ele></trkpt><trkpt lat="-26.99155" lon="-48.645443"><ele>1.7</ele></trkpt><trkpt lat="-26.991548" lon="-48.645455"><ele>39.1</ele></trkpt><trkpt lat="-26.991552" lon="-48.645467"><ele>39.2</ele></trkpt><trkpt lat="-26.991555" lon="-48.645482"><ele>39.1</ele></trkpt><trkpt lat="-26.991555" lon="-48.645482"><ele>39.1</ele></trkpt><trkpt lat="-26.991555" lon="-48.645482"><ele>39.1</ele></trkpt><trkpt lat="-26.991555" lon="-48.645482"><ele>39.1</ele></trkpt><trkpt lat="-26.991555" lon="-48.645482"><ele>39.1</ele></trkpt><trkpt lat="-26.991555" lon="-48.645482"><ele>39.1</ele></trkpt><trkpt lat="-26.991555" lon="-48.645482"><ele>39.1</ele></trkpt><trkpt lat="-26.991555" lon="-48.645482"><ele>39.1</ele></trkpt><trkpt lat="-26.991555" lon="-48.645482"><ele>39.1</ele></trkpt><trkpt lat="-26.991555" lon="-48.645482"><ele>39.1</ele></trkpt><trkpt lat="-26.991555" lon="-48.645482"><ele>39.1</ele></trkpt><trkpt lat="-26.991555" lon="-48.645482"><ele>39.1</ele></trkpt><trkpt lat="-26.99152" lon="-48.645443"><ele>36.6</ele></trkpt><trkpt lat="-26.991522" lon="-48.645432"><ele>36</ele></trkpt><trkpt lat="-26.991523" lon="-48.64542"><ele>35.6</ele></trkpt><trkpt lat="-26.991525" lon="-48.64541"><ele>35</ele></trkpt><trkpt lat="-26.991525" lon="-48.645402"><ele>34.6</ele></trkpt><trkpt lat="-26.991525" lon="-48.645402"><ele>34.6</ele></trkpt><trkpt lat="-26.991525" lon="-48.645402"><ele>34.6</ele></trkpt><trkpt lat="-26.991525" lon="-48.645402"><ele>34.6</ele></trkpt><trkpt lat="-26.991525" lon="-48.645402"><ele>34.6</ele></trkpt><trkpt lat="-26.991525" lon="-48.645402"><ele>34.6</ele></trkpt><trkpt lat="-26.991525" lon="-48.645402"><ele>34.6</ele></trkpt><trkpt lat="-26.991525" lon="-48.645402"><ele>34.6</ele></trkpt><trkpt lat="-26.991525" lon="-48.645402"><ele>34.6</ele></trkpt><trkpt lat="-26.991525" lon="-48.645402"><ele>34.6</ele></trkpt><trkpt lat="-26.991525" lon="-48.645402"><ele>34.6</ele></trkpt><trkpt lat="-26.991525" lon="-48.645402"><ele>34.6</ele></trkpt><trkpt lat="-26.991525" lon="-48.645402"><ele>34.6</ele></trkpt><trkpt lat="-26.991525" lon="-48.645402"><ele>34.6</ele></trkpt><trkpt lat="-26.991525" lon="-48.645402"><ele>34.6</ele></trkpt><trkpt lat="-26.991525" lon="-48.645402"><ele>34.6</ele></trkpt><trkpt lat="-26.991525" lon="-48.645402"><ele>34.6</ele></trkpt><trkpt lat="-26.991525" lon="-48.645402"><ele>34.6</ele></trkpt><trkpt lat="-26.991525" lon="-48.645402"><ele>34.6</ele></trkpt><trkpt lat="-26.991525" lon="-48.645402"><ele>34.6</ele></trkpt><trkpt lat="-26.991525" lon="-48.645402"><ele>34.6</ele></trkpt><trkpt lat="-26.991525" lon="-48.645402"><ele>34.6</ele></trkpt><trkpt lat="-26.991525" lon="-48.645402"><ele>34.6</ele></trkpt><trkpt lat="-26.991525" lon="-48.645402"><ele>34.6</ele></trkpt><trkpt lat="-26.991525" lon="-48.645402"><ele>34.6</ele></trkpt><trkpt lat="-26.991525" lon="-48.645402"><ele>34.6</ele></trkpt><trkpt lat="-26.991525" lon="-48.645402"><ele>34.6</ele></trkpt><trkpt lat="-26.991525" lon="-48.645402"><ele>34.6</ele></trkpt><trkpt lat="-26.991525" lon="-48.645402"><ele>34.6</ele></trkpt><trkpt lat="-26.991525" lon="-48.645402"><ele>34.6</ele></trkpt><trkpt lat="-26.991525" lon="-48.645402"><ele>34.6</ele></trkpt><trkpt lat="-26.991525" lon="-48.645402"><ele>34.6</ele></trkpt><trkpt lat="-26.991525" lon="-48.645402"><ele>34.6</ele></trkpt><trkpt lat="-26.991525" lon="-48.645402"><ele>34.6</ele></trkpt><trkpt lat="-26.991525" lon="-48.645402"><ele>34.6</ele></trkpt><trkpt lat="-26.991525" lon="-48.645402"><ele>34.6</ele></trkpt><trkpt lat="-26.991525" lon="-48.645402"><ele>34.6</ele></trkpt><trkpt lat="-26.991525" lon="-48.645402"><ele>34.6</ele></trkpt><trkpt lat="-26.991525" lon="-48.645402"><ele>34.6</ele></trkpt><trkpt lat="-26.991525" lon="-48.645402"><ele>34.6</ele></trkpt><trkpt lat="-26.991525" lon="-48.645402"><ele>34.6</ele></trkpt><trkpt lat="-26.991525" lon="-48.645402"><ele>34.6</ele></trkpt><trkpt lat="-26.991525" lon="-48.645402"><ele>34.6</ele></trkpt><trkpt lat="-26.991525" lon="-48.645402"><ele>34.6</ele></trkpt><trkpt lat="-26.991525" lon="-48.645402"><ele>34.6</ele></trkpt><trkpt lat="-26.991525" lon="-48.645402"><ele>34.6</ele></trkpt><trkpt lat="-26.991525" lon="-48.645402"><ele>34.6</ele></trkpt><trkpt lat="-26.991525" lon="-48.645402"><ele>34.6</ele></trkpt><trkpt lat="-26.991525" lon="-48.645402"><ele>34.6</ele></trkpt><trkpt lat="-26.991525" lon="-48.645402"><ele>34.6</ele></trkpt><trkpt lat="-26.991525" lon="-48.645402"><ele>34.6</ele></trkpt><trkpt lat="-26.991525" lon="-48.645402"><ele>34.6</ele></trkpt><trkpt lat="-26.991525" lon="-48.645402"><ele>34.6</ele></trkpt><trkpt lat="-26.991525" lon="-48.645402"><ele>34.6</ele></trkpt><trkpt lat="-26.991525" lon="-48.645402"><ele>34.6</ele></trkpt><trkpt lat="-26.991525" lon="-48.645402"><ele>34.6</ele></trkpt><trkpt lat="-26.991525" lon="-48.645402"><ele>34.6</ele></trkpt><trkpt lat="-26.991525" lon="-48.645402"><ele>34.6</ele></trkpt><trkpt lat="-26.991525" lon="-48.645402"><ele>34.6</ele></trkpt><trkpt lat="-26.991525" lon="-48.645402"><ele>34.6</ele></trkpt><trkpt lat="-26.991525" lon="-48.645402"><ele>34.6</ele></trkpt><trkpt lat="-26.991525" lon="-48.645402"><ele>34.6</ele></trkpt><trkpt lat="-26.991525" lon="-48.645402"><ele>34.6</ele></trkpt><trkpt lat="-26.991525" lon="-48.645402"><ele>34.6</ele></trkpt><trkpt lat="-26.991525" lon="-48.645402"><ele>34.6</ele></trkpt><trkpt lat="-26.991525" lon="-48.645402"><ele>34.6</ele></trkpt><trkpt lat="-26.991525" lon="-48.645402"><ele>34.6</ele></trkpt><trkpt lat="-26.991525" lon="-48.645402"><ele>34.6</ele></trkpt><trkpt lat="-26.991525" lon="-48.645402"><ele>34.6</ele></trkpt><trkpt lat="-26.991525" lon="-48.645402"><ele>34.6</ele></trkpt><trkpt lat="-26.991525" lon="-48.645402"><ele>34.6</ele></trkpt><trkpt lat="-26.991525" lon="-48.645402"><ele>34.6</ele></trkpt><trkpt lat="-26.991525" lon="-48.645402"><ele>34.6</ele></trkpt><trkpt lat="-26.991525" lon="-48.645402"><ele>34.6</ele></trkpt><trkpt lat="-26.991525" lon="-48.645402"><ele>34.6</ele></trkpt><trkpt lat="-26.991525" lon="-48.645402"><ele>34.6</ele></trkpt><trkpt lat="-26.991525" lon="-48.645402"><ele>34.6</ele></trkpt><trkpt lat="-26.991525" lon="-48.645402"><ele>34.6</ele></trkpt><trkpt lat="-26.991525" lon="-48.645402"><ele>34.6</ele></trkpt><trkpt lat="-26.991525" lon="-48.645402"><ele>34.6</ele></trkpt><trkpt lat="-26.991525" lon="-48.645402"><ele>34.6</ele></trkpt><trkpt lat="-26.991525" lon="-48.645402"><ele>34.6</ele></trkpt><trkpt lat="-26.991525" lon="-48.645402"><ele>34.6</ele></trkpt><trkpt lat="-26.991525" lon="-48.645402"><ele>34.6</ele></trkpt><trkpt lat="-26.991525" lon="-48.645402"><ele>34.6</ele></trkpt><trkpt lat="-26.991525" lon="-48.645402"><ele>34.6</ele></trkpt><trkpt lat="-26.991525" lon="-48.645402"><ele>34.6</ele></trkpt><trkpt lat="-26.991545" lon="-48.64542"><ele>30.6</ele></trkpt><trkpt lat="-26.991543" lon="-48.645423"><ele>30.7</ele></trkpt><trkpt lat="-26.991537" lon="-48.645425"><ele>30.8</ele></trkpt><trkpt lat="-26.991533" lon="-48.645427"><ele>30.9</ele></trkpt><trkpt lat="-26.991527" lon="-48.645427"><ele>30.9</ele></trkpt><trkpt lat="-26.991523" lon="-48.645427"><ele>30.9</ele></trkpt><trkpt lat="-26.991523" lon="-48.645427"><ele>30.9</ele></trkpt><trkpt lat="-26.991523" lon="-48.645427"><ele>30.9</ele></trkpt><trkpt lat="-26.991522" lon="-48.645423"><ele>29.7</ele></trkpt><trkpt lat="-26.991522" lon="-48.645428"><ele>29.4</ele></trkpt><trkpt lat="-26.991525" lon="-48.645425"><ele>29</ele></trkpt><trkpt lat="-26.991528" lon="-48.645423"><ele>28.4</ele></trkpt><trkpt lat="-26.991528" lon="-48.645423"><ele>28.4</ele></trkpt><trkpt lat="-26.991528" lon="-48.645423"><ele>28.4</ele></trkpt><trkpt lat="-26.991532" lon="-48.645437"><ele>28.1</ele></trkpt><trkpt lat="-26.991548" lon="-48.645473"><ele>28.6</ele></trkpt><trkpt lat="-26.991538" lon="-48.645515"><ele>29.1</ele></trkpt><trkpt lat="-26.991522" lon="-48.645563"><ele>29.4</ele></trkpt><trkpt lat="-26.991507" lon="-48.645595"><ele>29.3</ele></trkpt><trkpt lat="-26.991498" lon="-48.645618"><ele>29.5</ele></trkpt><trkpt lat="-26.991488" lon="-48.645643"><ele>29.7</ele></trkpt><trkpt lat="-26.991473" lon="-48.645665"><ele>29.9</ele></trkpt><trkpt lat="-26.991458" lon="-48.645687"><ele>30.5</ele></trkpt><trkpt lat="-26.991455" lon="-48.645708"><ele>30.2</ele></trkpt><trkpt lat="-26.99145" lon="-48.645727"><ele>29.8</ele></trkpt><trkpt lat="-26.991443" lon="-48.645748"><ele>29.2</ele></trkpt><trkpt lat="-26.991438" lon="-48.64577"><ele>28.4</ele></trkpt><trkpt lat="-26.991435" lon="-48.645785"><ele>27.1</ele></trkpt><trkpt lat="-26.991432" lon="-48.6458"><ele>25.9</ele></trkpt><trkpt lat="-26.991423" lon="-48.645818"><ele>24.4</ele></trkpt><trkpt lat="-26.99142" lon="-48.645833"><ele>23.3</ele></trkpt><trkpt lat="-26.991418" lon="-48.645857"><ele>22.2</ele></trkpt><trkpt lat="-26.991415" lon="-48.645875"><ele>22.1</ele></trkpt><trkpt lat="-26.991417" lon="-48.645888"><ele>22.1</ele></trkpt><trkpt lat="-26.991417" lon="-48.645897"><ele>22</ele></trkpt><trkpt lat="-26.991413" lon="-48.645897"><ele>22</ele></trkpt><trkpt lat="-26.991412" lon="-48.645895"><ele>21.9</ele></trkpt><trkpt lat="-26.99141" lon="-48.645895"><ele>21.8</ele></trkpt><trkpt lat="-26.991408" lon="-48.645893"><ele>21.6</ele></trkpt><trkpt lat="-26.99141" lon="-48.64589"><ele>21.7</ele></trkpt><trkpt lat="-26.99141" lon="-48.645888"><ele>21.8</ele></trkpt><trkpt lat="-26.991413" lon="-48.645887"><ele>21.6</ele></trkpt><trkpt lat="-26.991415" lon="-48.645885"><ele>21.4</ele></trkpt><trkpt lat="-26.991425" lon="-48.645887"><ele>21.4</ele></trkpt><trkpt lat="-26.991432" lon="-48.645888"><ele>21.4</ele></trkpt><trkpt lat="-26.99144" lon="-48.645887"><ele>21.6</ele></trkpt><trkpt lat="-26.99145" lon="-48.645887"><ele>21.7</ele></trkpt><trkpt lat="-26.991453" lon="-48.645887"><ele>21.9</ele></trkpt><trkpt lat="-26.991453" lon="-48.645885"><ele>22</ele></trkpt><trkpt lat="-26.991453" lon="-48.645885"><ele>22</ele></trkpt><trkpt lat="-26.991453" lon="-48.645885"><ele>22</ele></trkpt><trkpt lat="-26.991453" lon="-48.645885"><ele>22</ele></trkpt><trkpt lat="-26.991453" lon="-48.645885"><ele>22</ele></trkpt><trkpt lat="-26.991453" lon="-48.645885"><ele>22</ele></trkpt><trkpt lat="-26.991453" lon="-48.645885"><ele>22</ele></trkpt><trkpt lat="-26.991453" lon="-48.645885"><ele>22</ele></trkpt><trkpt lat="-26.991453" lon="-48.645885"><ele>22</ele></trkpt><trkpt lat="-26.991453" lon="-48.645885"><ele>22</ele></trkpt><trkpt lat="-26.991453" lon="-48.645885"><ele>22</ele></trkpt><trkpt lat="-26.991453" lon="-48.645885"><ele>22</ele></trkpt><trkpt lat="-26.991453" lon="-48.645885"><ele>22</ele></trkpt><trkpt lat="-26.991453" lon="-48.645885"><ele>22</ele></trkpt><trkpt lat="-26.991453" lon="-48.645885"><ele>22</ele></trkpt><trkpt lat="-26.991453" lon="-48.645885"><ele>22</ele></trkpt><trkpt lat="-26.991453" lon="-48.645885"><ele>22</ele></trkpt><trkpt lat="-26.991453" lon="-48.645885"><ele>22</ele></trkpt><trkpt lat="-26.991453" lon="-48.645885"><ele>22</ele></trkpt><trkpt lat="-26.991453" lon="-48.645885"><ele>22</ele></trkpt><trkpt lat="-26.99143" lon="-48.645918"><ele>23.6</ele></trkpt><trkpt lat="-26.991423" lon="-48.645922"><ele>23.4</ele></trkpt><trkpt lat="-26.991423" lon="-48.645923"><ele>23.2</ele></trkpt><trkpt lat="-26.991423" lon="-48.645923"><ele>23.2</ele></trkpt><trkpt lat="-26.991422" lon="-48.645922"><ele>23.2</ele></trkpt><trkpt lat="-26.991422" lon="-48.645922"><ele>23.2</ele></trkpt><trkpt lat="-26.991422" lon="-48.645922"><ele>23.2</ele></trkpt><trkpt lat="-26.991422" lon="-48.645922"><ele>23.2</ele></trkpt><trkpt lat="-26.991422" lon="-48.645922"><ele>23.2</ele></trkpt><trkpt lat="-26.991422" lon="-48.645922"><ele>23.2</ele></trkpt><trkpt lat="-26.991422" lon="-48.645922"><ele>23.2</ele></trkpt><trkpt lat="-26.991422" lon="-48.645922"><ele>23.2</ele></trkpt><trkpt lat="-26.991422" lon="-48.645922"><ele>23.2</ele></trkpt><trkpt lat="-26.991422" lon="-48.645922"><ele>23.2</ele></trkpt><trkpt lat="-26.991422" lon="-48.645922"><ele>23.2</ele></trkpt><trkpt lat="-26.991422" lon="-48.645922"><ele>23.2</ele></trkpt><trkpt lat="-26.991422" lon="-48.645922"><ele>23.2</ele></trkpt><trkpt lat="-26.991422" lon="-48.645922"><ele>23.2</ele></trkpt><trkpt lat="-26.991422" lon="-48.645922"><ele>23.2</ele></trkpt><trkpt lat="-26.991422" lon="-48.645922"><ele>23.2</ele></trkpt><trkpt lat="-26.991422" lon="-48.645922"><ele>23.2</ele></trkpt><trkpt lat="-26.991422" lon="-48.645922"><ele>23.2</ele></trkpt><trkpt lat="-26.991422" lon="-48.645922"><ele>23.2</ele></trkpt><trkpt lat="-26.991422" lon="-48.645922"><ele>23.2</ele></trkpt><trkpt lat="-26.991422" lon="-48.645922"><ele>23.2</ele></trkpt><trkpt lat="-26.991422" lon="-48.645922"><ele>23.2</ele></trkpt><trkpt lat="-26.991422" lon="-48.645922"><ele>23.2</ele></trkpt><trkpt lat="-26.991422" lon="-48.645922"><ele>23.2</ele></trkpt><trkpt lat="-26.991422" lon="-48.645922"><ele>23.2</ele></trkpt><trkpt lat="-26.991422" lon="-48.645922"><ele>23.2</ele></trkpt><trkpt lat="-26.991422" lon="-48.645922"><ele>23.2</ele></trkpt><trkpt lat="-26.991422" lon="-48.645922"><ele>23.2</ele></trkpt><trkpt lat="-26.991422" lon="-48.645922"><ele>23.2</ele></trkpt><trkpt lat="-26.991422" lon="-48.645922"><ele>23.2</ele></trkpt><trkpt lat="-26.991422" lon="-48.645922"><ele>23.2</ele></trkpt><trkpt lat="-26.991495" lon="-48.645928"><ele>18.1</ele></trkpt><trkpt lat="-26.991508" lon="-48.645917"><ele>17.5</ele></trkpt><trkpt lat="-26.991517" lon="-48.645902"><ele>16.7</ele></trkpt><trkpt lat="-26.991513" lon="-48.645868"><ele>15.7</ele></trkpt><trkpt lat="-26.991503" lon="-48.645837"><ele>15.8</ele></trkpt><trkpt lat="-26.99149" lon="-48.645808"><ele>16.3</ele></trkpt><trkpt lat="-26.991483" lon="-48.645775"><ele>15.7</ele></trkpt><trkpt lat="-26.991478" lon="-48.64574"><ele>16</ele></trkpt><trkpt lat="-26.991483" lon="-48.64571"><ele>16.2</ele></trkpt><trkpt lat="-26.991485" lon="-48.645685"><ele>16.1</ele></trkpt><trkpt lat="-26.991493" lon="-48.645662"><ele>16.4</ele></trkpt><trkpt lat="-26.991502" lon="-48.645637"><ele>17.1</ele></trkpt><trkpt lat="-26.991513" lon="-48.64561"><ele>17.8</ele></trkpt><trkpt lat="-26.99153" lon="-48.645575"><ele>18.3</ele></trkpt><trkpt lat="-26.991543" lon="-48.645545"><ele>18.4</ele></trkpt><trkpt lat="-26.991557" lon="-48.645518"><ele>18.7</ele></trkpt><trkpt lat="-26.991577" lon="-48.645485"><ele>19.4</ele></trkpt><trkpt lat="-26.9916" lon="-48.645448"><ele>19.8</ele></trkpt><trkpt lat="-26.991618" lon="-48.64542"><ele>19.5</ele></trkpt><trkpt lat="-26.991617" lon="-48.645397"><ele>20</ele></trkpt><trkpt lat="-26.991602" lon="-48.645392"><ele>21.1</ele></trkpt><trkpt lat="-26.991583" lon="-48.645388"><ele>21.2</ele></trkpt><trkpt lat="-26.991583" lon="-48.645388"><ele>21.2</ele></trkpt><trkpt lat="-26.991575" lon="-48.645385"><ele>21.5</ele></trkpt><trkpt lat="-26.99157" lon="-48.645383"><ele>21.7</ele></trkpt><trkpt lat="-26.991565" lon="-48.645385"><ele>21.6</ele></trkpt><trkpt lat="-26.991558" lon="-48.645383"><ele>21.4</ele></trkpt><trkpt lat="-26.991552" lon="-48.645383"><ele>21.3</ele></trkpt><trkpt lat="-26.99155" lon="-48.645383"><ele>21.3</ele></trkpt><trkpt lat="-26.991547" lon="-48.645383"><ele>21.2</ele></trkpt><trkpt lat="-26.991543" lon="-48.645382"><ele>21</ele></trkpt><trkpt lat="-26.991542" lon="-48.645383"><ele>20.9</ele></trkpt><trkpt lat="-26.991542" lon="-48.645383"><ele>20.8</ele></trkpt><trkpt lat="-26.991542" lon="-48.645383"><ele>20.8</ele></trkpt><trkpt lat="-26.991542" lon="-48.645383"><ele>20.8</ele></trkpt><trkpt lat="-26.991537" lon="-48.645393"><ele>20.1</ele></trkpt><trkpt lat="-26.99153" lon="-48.645403"><ele>20.1</ele></trkpt><trkpt lat="-26.991523" lon="-48.645413"><ele>19.9</ele></trkpt><trkpt lat="-26.991513" lon="-48.64542"><ele>20</ele></trkpt><trkpt lat="-26.991502" lon="-48.645435"><ele>20</ele></trkpt><trkpt lat="-26.99149" lon="-48.645458"><ele>20.2</ele></trkpt><trkpt lat="-26.991473" lon="-48.64548"><ele>20.4</ele></trkpt><trkpt lat="-26.991473" lon="-48.64548"><ele>20.4</ele></trkpt><trkpt lat="-26.991457" lon="-48.645497"><ele>20.6</ele></trkpt><trkpt lat="-26.991443" lon="-48.645515"><ele>20.5</ele></trkpt><trkpt lat="-26.991418" lon="-48.645535"><ele>20</ele></trkpt><trkpt lat="-26.991397" lon="-48.645555"><ele>19.4</ele></trkpt><trkpt lat="-26.991372" lon="-48.64558"><ele>19.7</ele></trkpt><trkpt lat="-26.991358" lon="-48.645605"><ele>19.5</ele></trkpt><trkpt lat="-26.99134" lon="-48.64563"><ele>18.9</ele></trkpt><trkpt lat="-26.991327" lon="-48.645652"><ele>19.1</ele></trkpt><trkpt lat="-26.991307" lon="-48.645673"><ele>19.7</ele></trkpt><trkpt lat="-26.991293" lon="-48.645688"><ele>19.8</ele></trkpt><trkpt lat="-26.991277" lon="-48.645707"><ele>20.1</ele></trkpt><trkpt lat="-26.99126" lon="-48.645722"><ele>20</ele></trkpt><trkpt lat="-26.99126" lon="-48.645722"><ele>20</ele></trkpt><trkpt lat="-26.991252" lon="-48.645737"><ele>19.7</ele></trkpt><trkpt lat="-26.991237" lon="-48.645755"><ele>19.5</ele></trkpt><trkpt lat="-26.99122" lon="-48.645768"><ele>19.5</ele></trkpt><trkpt lat="-26.991207" lon="-48.645773"><ele>19.2</ele></trkpt><trkpt lat="-26.991188" lon="-48.64577"><ele>19.2</ele></trkpt><trkpt lat="-26.991168" lon="-48.645762"><ele>18.9</ele></trkpt><trkpt lat="-26.991152" lon="-48.645752"><ele>18.6</ele></trkpt><trkpt lat="-26.99114" lon="-48.645742"><ele>18.4</ele></trkpt><trkpt lat="-26.99114" lon="-48.645742"><ele>18.4</ele></trkpt><trkpt lat="-26.99113" lon="-48.645733"><ele>18.4</ele></trkpt><trkpt lat="-26.991122" lon="-48.645728"><ele>18.6</ele></trkpt><trkpt lat="-26.991112" lon="-48.645723"><ele>18.7</ele></trkpt><trkpt lat="-26.991095" lon="-48.645717"><ele>18.7</ele></trkpt><trkpt lat="-26.991078" lon="-48.645705"><ele>18.8</ele></trkpt><trkpt lat="-26.991068" lon="-48.645695"><ele>19</ele></trkpt><trkpt lat="-26.991058" lon="-48.645695"><ele>19.3</ele></trkpt><trkpt lat="-26.991055" lon="-48.645692"><ele>19.7</ele></trkpt><trkpt lat="-26.991055" lon="-48.645692"><ele>20</ele></trkpt><trkpt lat="-26.991058" lon="-48.645698"><ele>19.8</ele></trkpt><trkpt lat="-26.991057" lon="-48.645708"><ele>19.3</ele></trkpt><trkpt lat="-26.991058" lon="-48.645715"><ele>18.7</ele></trkpt><trkpt lat="-26.991057" lon="-48.645722"><ele>18.3</ele></trkpt><trkpt lat="-26.991055" lon="-48.645725"><ele>18</ele></trkpt><trkpt lat="-26.991053" lon="-48.645727"><ele>17.8</ele></trkpt><trkpt lat="-26.991053" lon="-48.64573"><ele>17.8</ele></trkpt><trkpt lat="-26.991053" lon="-48.64573"><ele>17.8</ele></trkpt><trkpt lat="-26.991053" lon="-48.645735"><ele>17.8</ele></trkpt><trkpt lat="-26.991053" lon="-48.645735"><ele>17.8</ele></trkpt><trkpt lat="-26.991053" lon="-48.645735"><ele>17.8</ele></trkpt><trkpt lat="-26.991053" lon="-48.645735"><ele>17.8</ele></trkpt><trkpt lat="-26.991053" lon="-48.645735"><ele>17.8</ele></trkpt><trkpt lat="-26.991053" lon="-48.645735"><ele>17.8</ele></trkpt><trkpt lat="-26.991053" lon="-48.645735"><ele>17.8</ele></trkpt><trkpt lat="-26.991053" lon="-48.645735"><ele>17.8</ele></trkpt><trkpt lat="-26.991053" lon="-48.645735"><ele>17.8</ele></trkpt><trkpt lat="-26.991053" lon="-48.645735"><ele>17.8</ele></trkpt><trkpt lat="-26.991053" lon="-48.645735"><ele>17.8</ele></trkpt><trkpt lat="-26.991053" lon="-48.645735"><ele>17.8</ele></trkpt><trkpt lat="-26.991053" lon="-48.645735"><ele>17.8</ele></trkpt><trkpt lat="-26.991053" lon="-48.645735"><ele>17.8</ele></trkpt><trkpt lat="-26.991053" lon="-48.645735"><ele>17.8</ele></trkpt><trkpt lat="-26.991053" lon="-48.645735"><ele>17.8</ele></trkpt><trkpt lat="-26.991053" lon="-48.645735"><ele>17.8</ele></trkpt><trkpt lat="-26.991053" lon="-48.645735"><ele>17.8</ele></trkpt><trkpt lat="-26.991053" lon="-48.645735"><ele>17.8</ele></trkpt><trkpt lat="-26.991053" lon="-48.645735"><ele>17.8</ele></trkpt><trkpt lat="-26.991053" lon="-48.645735"><ele>17.8</ele></trkpt><trkpt lat="-26.991053" lon="-48.645735"><ele>17.8</ele></trkpt><trkpt lat="-26.991053" lon="-48.645735"><ele>17.8</ele></trkpt><trkpt lat="-26.991053" lon="-48.645735"><ele>17.8</ele></trkpt><trkpt lat="-26.991053" lon="-48.645735"><ele>17.8</ele></trkpt><trkpt lat="-26.991053" lon="-48.645735"><ele>17.8</ele></trkpt><trkpt lat="-26.991053" lon="-48.645735"><ele>17.8</ele></trkpt><trkpt lat="-26.991053" lon="-48.645735"><ele>17.8</ele></trkpt><trkpt lat="-26.991053" lon="-48.645735"><ele>17.8</ele></trkpt><trkpt lat="-26.991053" lon="-48.645735"><ele>17.8</ele></trkpt><trkpt lat="-26.991053" lon="-48.645735"><ele>17.8</ele></trkpt><trkpt lat="-26.991053" lon="-48.645735"><ele>17.8</ele></trkpt><trkpt lat="-26.991053" lon="-48.645735"><ele>17.8</ele></trkpt><trkpt lat="-26.991053" lon="-48.645735"><ele>17.8</ele></trkpt><trkpt lat="-26.991053" lon="-48.645735"><ele>17.8</ele></trkpt><trkpt lat="-26.991053" lon="-48.645735"><ele>17.8</ele></trkpt><trkpt lat="-26.991053" lon="-48.645735"><ele>17.8</ele></trkpt><trkpt lat="-26.991053" lon="-48.645735"><ele>17.8</ele></trkpt><trkpt lat="-26.991053" lon="-48.645735"><ele>17.8</ele></trkpt><trkpt lat="-26.991053" lon="-48.645735"><ele>17.8</ele></trkpt><trkpt lat="-26.991057" lon="-48.645707"><ele>14.7</ele></trkpt><trkpt lat="-26.991053" lon="-48.645713"><ele>14.7</ele></trkpt><trkpt lat="-26.991053" lon="-48.645715"><ele>14.9</ele></trkpt><trkpt lat="-26.99105" lon="-48.645725"><ele>15.1</ele></trkpt><trkpt lat="-26.99105" lon="-48.645725"><ele>15.1</ele></trkpt><trkpt lat="-26.99105" lon="-48.645725"><ele>15.1</ele></trkpt><trkpt lat="-26.99105" lon="-48.645725"><ele>15.1</ele></trkpt><trkpt lat="-26.99105" lon="-48.645725"><ele>15.1</ele></trkpt><trkpt lat="-26.99105" lon="-48.645725"><ele>15.1</ele></trkpt><trkpt lat="-26.99102" lon="-48.645747"><ele>14.7</ele></trkpt><trkpt lat="-26.991012" lon="-48.645757"><ele>14.4</ele></trkpt><trkpt lat="-26.991002" lon="-48.645775"><ele>14.6</ele></trkpt><trkpt lat="-26.990998" lon="-48.6458"><ele>14.5</ele></trkpt><trkpt lat="-26.99099" lon="-48.645825"><ele>14.3</ele></trkpt><trkpt lat="-26.990985" lon="-48.645847"><ele>14.2</ele></trkpt><trkpt lat="-26.990977" lon="-48.645865"><ele>14.6</ele></trkpt><trkpt lat="-26.990973" lon="-48.645875"><ele>14.6</ele></trkpt><trkpt lat="-26.990975" lon="-48.645873"><ele>14.5</ele></trkpt><trkpt lat="-26.990977" lon="-48.645875"><ele>14.3</ele></trkpt><trkpt lat="-26.99098" lon="-48.645878"><ele>14.2</ele></trkpt><trkpt lat="-26.990985" lon="-48.645882"><ele>14</ele></trkpt><trkpt lat="-26.990985" lon="-48.645882"><ele>14</ele></trkpt><trkpt lat="-26.990988" lon="-48.645882"><ele>13.9</ele></trkpt><trkpt lat="-26.990988" lon="-48.645882"><ele>13.9</ele></trkpt><trkpt lat="-26.990992" lon="-48.645883"><ele>13.8</ele></trkpt><trkpt lat="-26.990992" lon="-48.645883"><ele>13.8</ele></trkpt><trkpt lat="-26.990993" lon="-48.645882"><ele>13.6</ele></trkpt><trkpt lat="-26.990998" lon="-48.645885"><ele>13.5</ele></trkpt><trkpt lat="-26.991005" lon="-48.645888"><ele>13.2</ele></trkpt><trkpt lat="-26.99101" lon="-48.645898"><ele>12.7</ele></trkpt><trkpt lat="-26.991025" lon="-48.645913"><ele>11.8</ele></trkpt><trkpt lat="-26.991042" lon="-48.645945"><ele>10</ele></trkpt><trkpt lat="-26.99104" lon="-48.64597"><ele>9.9</ele></trkpt><trkpt lat="-26.991015" lon="-48.645992"><ele>9.9</ele></trkpt><trkpt lat="-26.99099" lon="-48.646003"><ele>9.8</ele></trkpt><trkpt lat="-26.990972" lon="-48.646013"><ele>9.3</ele></trkpt><trkpt lat="-26.990957" lon="-48.64602"><ele>9.5</ele></trkpt><trkpt lat="-26.990938" lon="-48.64603"><ele>9.5</ele></trkpt><trkpt lat="-26.990928" lon="-48.646043"><ele>10</ele></trkpt><trkpt lat="-26.990918" lon="-48.646062"><ele>9.8</ele></trkpt><trkpt lat="-26.990915" lon="-48.646077"><ele>9.5</ele></trkpt><trkpt lat="-26.990922" lon="-48.646082"><ele>9.5</ele></trkpt><trkpt lat="-26.990923" lon="-48.646085"><ele>9.7</ele></trkpt><trkpt lat="-26.99092" lon="-48.646087"><ele>10.1</ele></trkpt><trkpt lat="-26.99092" lon="-48.64609"><ele>10.2</ele></trkpt><trkpt lat="-26.990927" lon="-48.64609"><ele>10.8</ele></trkpt><trkpt lat="-26.99093" lon="-48.646092"><ele>11.1</ele></trkpt><trkpt lat="-26.990933" lon="-48.646095"><ele>11.6</ele></trkpt><trkpt lat="-26.990932" lon="-48.646097"><ele>11.8</ele></trkpt><trkpt lat="-26.990928" lon="-48.646098"><ele>11.7</ele></trkpt><trkpt lat="-26.990927" lon="-48.646098"><ele>11.6</ele></trkpt><trkpt lat="-26.990927" lon="-48.646098"><ele>11.6</ele></trkpt><trkpt lat="-26.990923" lon="-48.646097"><ele>11.3</ele></trkpt><trkpt lat="-26.990923" lon="-48.646097"><ele>11.3</ele></trkpt><trkpt lat="-26.990923" lon="-48.646097"><ele>11.3</ele></trkpt><trkpt lat="-26.990923" lon="-48.646097"><ele>11.3</ele></trkpt><trkpt lat="-26.990923" lon="-48.646097"><ele>11.3</ele></trkpt><trkpt lat="-26.990923" lon="-48.646097"><ele>11.3</ele></trkpt><trkpt lat="-26.990923" lon="-48.646097"><ele>11.3</ele></trkpt><trkpt lat="-26.990923" lon="-48.646097"><ele>11.3</ele></trkpt><trkpt lat="-26.990918" lon="-48.646102"><ele>11.4</ele></trkpt><trkpt lat="-26.990912" lon="-48.6461"><ele>10.7</ele></trkpt><trkpt lat="-26.990903" lon="-48.646102"><ele>10.2</ele></trkpt><trkpt lat="-26.990898" lon="-48.646108"><ele>9.9</ele></trkpt><trkpt lat="-26.990893" lon="-48.646108"><ele>9.5</ele></trkpt><trkpt lat="-26.99089" lon="-48.646107"><ele>9.4</ele></trkpt><trkpt lat="-26.99089" lon="-48.646108"><ele>9.5</ele></trkpt><trkpt lat="-26.99089" lon="-48.646108"><ele>9.5</ele></trkpt><trkpt lat="-26.990888" lon="-48.646108"><ele>9.5</ele></trkpt><trkpt lat="-26.99089" lon="-48.646108"><ele>9.6</ele></trkpt><trkpt lat="-26.99089" lon="-48.646108"><ele>9.6</ele></trkpt><trkpt lat="-26.99089" lon="-48.646108"><ele>9.6</ele></trkpt><trkpt lat="-26.99089" lon="-48.646108"><ele>9.6</ele></trkpt><trkpt lat="-26.99089" lon="-48.646108"><ele>9.6</ele></trkpt><trkpt lat="-26.99089" lon="-48.646108"><ele>9.6</ele></trkpt><trkpt lat="-26.99089" lon="-48.646108"><ele>9.6</ele></trkpt><trkpt lat="-26.99089" lon="-48.646108"><ele>9.6</ele></trkpt><trkpt lat="-26.99089" lon="-48.646108"><ele>9.6</ele></trkpt><trkpt lat="-26.99089" lon="-48.646108"><ele>9.6</ele></trkpt><trkpt lat="-26.99089" lon="-48.646108"><ele>9.6</ele></trkpt><trkpt lat="-26.99089" lon="-48.646108"><ele>9.6</ele></trkpt><trkpt lat="-26.99089" lon="-48.646108"><ele>9.6</ele></trkpt><trkpt lat="-26.99089" lon="-48.646108"><ele>9.6</ele></trkpt><trkpt lat="-26.99089" lon="-48.646108"><ele>9.6</ele></trkpt><trkpt lat="-26.99089" lon="-48.646108"><ele>9.6</ele></trkpt><trkpt lat="-26.99089" lon="-48.646108"><ele>9.6</ele></trkpt><trkpt lat="-26.99089" lon="-48.646108"><ele>9.6</ele></trkpt><trkpt lat="-26.99089" lon="-48.646108"><ele>9.6</ele></trkpt><trkpt lat="-26.99089" lon="-48.646108"><ele>9.6</ele></trkpt><trkpt lat="-26.99089" lon="-48.646108"><ele>9.6</ele></trkpt><trkpt lat="-26.99089" lon="-48.646108"><ele>9.6</ele></trkpt><trkpt lat="-26.99089" lon="-48.646108"><ele>9.6</ele></trkpt><trkpt lat="-26.99089" lon="-48.646108"><ele>9.6</ele></trkpt><trkpt lat="-26.99089" lon="-48.646108"><ele>9.6</ele></trkpt><trkpt lat="-26.99089" lon="-48.646108"><ele>9.6</ele></trkpt><trkpt lat="-26.99089" lon="-48.646108"><ele>9.6</ele></trkpt><trkpt lat="-26.99089" lon="-48.646108"><ele>9.6</ele></trkpt><trkpt lat="-26.99089" lon="-48.646108"><ele>9.6</ele></trkpt><trkpt lat="-26.99089" lon="-48.646108"><ele>9.6</ele></trkpt><trkpt lat="-26.99089" lon="-48.646108"><ele>9.6</ele></trkpt><trkpt lat="-26.99089" lon="-48.646108"><ele>9.6</ele></trkpt><trkpt lat="-26.99089" lon="-48.646108"><ele>9.6</ele></trkpt><trkpt lat="-26.99089" lon="-48.646108"><ele>9.6</ele></trkpt><trkpt lat="-26.99089" lon="-48.646108"><ele>9.6</ele></trkpt><trkpt lat="-26.99089" lon="-48.646108"><ele>9.6</ele></trkpt><trkpt lat="-26.99089" lon="-48.646108"><ele>9.6</ele></trkpt><trkpt lat="-26.99089" lon="-48.646108"><ele>9.6</ele></trkpt><trkpt lat="-26.99089" lon="-48.646108"><ele>9.6</ele></trkpt><trkpt lat="-26.99089" lon="-48.646108"><ele>9.6</ele></trkpt><trkpt lat="-26.99089" lon="-48.646108"><ele>9.6</ele></trkpt><trkpt lat="-26.99089" lon="-48.646108"><ele>9.6</ele></trkpt><trkpt lat="-26.99089" lon="-48.646108"><ele>9.6</ele></trkpt><trkpt lat="-26.99089" lon="-48.646108"><ele>9.6</ele></trkpt><trkpt lat="-26.99089" lon="-48.646108"><ele>9.6</ele></trkpt><trkpt lat="-26.99089" lon="-48.646108"><ele>9.6</ele></trkpt><trkpt lat="-26.99089" lon="-48.646108"><ele>9.6</ele></trkpt><trkpt lat="-26.99089" lon="-48.646108"><ele>9.6</ele></trkpt><trkpt lat="-26.99089" lon="-48.646108"><ele>9.6</ele></trkpt><trkpt lat="-26.99089" lon="-48.646108"><ele>9.6</ele></trkpt><trkpt lat="-26.99089" lon="-48.646108"><ele>9.6</ele></trkpt><trkpt lat="-26.99089" lon="-48.646108"><ele>9.6</ele></trkpt><trkpt lat="-26.99089" lon="-48.646108"><ele>9.6</ele></trkpt><trkpt lat="-26.99089" lon="-48.646108"><ele>9.6</ele></trkpt><trkpt lat="-26.99089" lon="-48.646108"><ele>9.6</ele></trkpt><trkpt lat="-26.99089" lon="-48.646108"><ele>9.6</ele></trkpt><trkpt lat="-26.99089" lon="-48.646108"><ele>9.6</ele></trkpt><trkpt lat="-26.99089" lon="-48.646108"><ele>9.6</ele></trkpt><trkpt lat="-26.99089" lon="-48.646108"><ele>9.6</ele></trkpt><trkpt lat="-26.99089" lon="-48.646108"><ele>9.6</ele></trkpt><trkpt lat="-26.99089" lon="-48.646108"><ele>9.6</ele></trkpt><trkpt lat="-26.99089" lon="-48.646108"><ele>9.6</ele></trkpt><trkpt lat="-26.99089" lon="-48.646108"><ele>9.6</ele></trkpt><trkpt lat="-26.99089" lon="-48.646108"><ele>9.6</ele></trkpt><trkpt lat="-26.99089" lon="-48.646108"><ele>9.6</ele></trkpt><trkpt lat="-26.99089" lon="-48.646108"><ele>9.6</ele></trkpt><trkpt lat="-26.99089" lon="-48.646108"><ele>9.6</ele></trkpt><trkpt lat="-26.99089" lon="-48.646108"><ele>9.6</ele></trkpt><trkpt lat="-26.99089" lon="-48.646108"><ele>9.6</ele></trkpt><trkpt lat="-26.99089" lon="-48.646108"><ele>9.6</ele></trkpt><trkpt lat="-26.99089" lon="-48.646108"><ele>9.6</ele></trkpt><trkpt lat="-26.99089" lon="-48.646108"><ele>9.6</ele></trkpt><trkpt lat="-26.99089" lon="-48.646108"><ele>9.6</ele></trkpt><trkpt lat="-26.99089" lon="-48.646108"><ele>9.6</ele></trkpt><trkpt lat="-26.99089" lon="-48.646108"><ele>9.6</ele></trkpt><trkpt lat="-26.99089" lon="-48.646108"><ele>9.6</ele></trkpt><trkpt lat="-26.99089" lon="-48.646108"><ele>9.6</ele></trkpt><trkpt lat="-26.99089" lon="-48.646108"><ele>9.6</ele></trkpt><trkpt lat="-26.99089" lon="-48.646108"><ele>9.6</ele></trkpt><trkpt lat="-26.99089" lon="-48.646108"><ele>9.6</ele></trkpt><trkpt lat="-26.99089" lon="-48.646108"><ele>9.6</ele></trkpt><trkpt lat="-26.99089" lon="-48.646108"><ele>9.6</ele></trkpt><trkpt lat="-26.99089" lon="-48.646108"><ele>9.6</ele></trkpt><trkpt lat="-26.99089" lon="-48.646108"><ele>9.6</ele></trkpt><trkpt lat="-26.99089" lon="-48.646108"><ele>9.6</ele></trkpt><trkpt lat="-26.99089" lon="-48.646108"><ele>9.6</ele></trkpt><trkpt lat="-26.99089" lon="-48.646108"><ele>9.6</ele></trkpt><trkpt lat="-26.99089" lon="-48.646108"><ele>9.6</ele></trkpt><trkpt lat="-26.99089" lon="-48.646108"><ele>9.6</ele></trkpt><trkpt lat="-26.99089" lon="-48.646108"><ele>9.6</ele></trkpt><trkpt lat="-26.99089" lon="-48.646108"><ele>9.6</ele></trkpt><trkpt lat="-26.99089" lon="-48.646108"><ele>9.6</ele></trkpt><trkpt lat="-26.99089" lon="-48.646108"><ele>9.6</ele></trkpt><trkpt lat="-26.99089" lon="-48.646108"><ele>9.6</ele></trkpt><trkpt lat="-26.99089" lon="-48.646108"><ele>9.6</ele></trkpt><trkpt lat="-26.99089" lon="-48.646108"><ele>9.6</ele></trkpt><trkpt lat="-26.99089" lon="-48.646108"><ele>9.6</ele></trkpt></trkseg></trk></gpx>