<?xml version="1.0" encoding="UTF-8"?>
<gpx xmlns="http://www.topografix.com/GPX/1/1" version="1.1" creator="@dwayneparton/geojson-to-gpx"><wpt lat="-27.026599" lon="-48.659118"><ele>6.880005</ele><name>2 faixas</name></wpt><wpt lat="-27.021428" lon="-48.654216"><ele>10.712891</ele><name>A ciclo é completamente reta.</name></wpt><wpt lat="-27.021424" lon="-48.654228"><ele>10.608551</ele><name>A pintura está boa, mas FALHA em ALGUNS pontos</name></wpt><wpt lat="-27.021428" lon="-48.654216"><ele>10.689941</ele><name>AMBAS: Poucos trechos COM segregadores. Automóvel consegue passar POR ENTRE estes com facilidade.</name></wpt><wpt lat="-27.026589" lon="-48.659117"><ele>5.872437</ele><name>Apenas faixas vermelhas nas bordas, com travessias pintadas nos cruzamentos</name></wpt><wpt lat="-27.021428" lon="-48.654217"><ele>10.707947</ele><name>apenas uma curva</name></wpt><wpt lat="-27.0266" lon="-48.659119"><ele>6.958252</ele><name>Asfalto</name></wpt><wpt lat="-27.026588" lon="-48.659114"><ele>5.686768</ele><name>Bidirecional</name></wpt><wpt lat="-27.026212" lon="-48.659068"><ele>6.118774</ele><name>Bueiro</name></wpt><wpt lat="-27.025412" lon="-48.658892"><ele>4.5625</ele><name>Bueiro</name></wpt><wpt lat="-27.024632" lon="-48.658745"><ele>3.896118</ele><name>Bueiro</name></wpt><wpt lat="-27.022781" lon="-48.658389"><ele>6.622467</ele><name>Bueiro</name></wpt><wpt lat="-27.022087" lon="-48.658289"><ele>4.473694</ele><name>Bueiro</name></wpt><wpt lat="-27.021525" lon="-48.658167"><ele>5.22702</ele><name>Bueiro</name></wpt><wpt lat="-27.021303" lon="-48.65808"><ele>3.973328</ele><name>Bueiro</name></wpt><wpt lat="-27.021124" lon="-48.657844"><ele>3.875275</ele><name>Bueiro</name></wpt><wpt lat="-27.021134" lon="-48.656987"><ele>4.411591</ele><name>Bueiro</name></wpt><wpt lat="-27.021182" lon="-48.656663"><ele>5.738831</ele><name>Bueiro</name></wpt><wpt lat="-27.021199" lon="-48.65639"><ele>7.082092</ele><name>Bueiro</name></wpt><wpt lat="-27.021271" lon="-48.655673"><ele>7.658905</ele><name>Bueiro</name></wpt><wpt lat="-27.021296" lon="-48.655485"><ele>7.682983</ele><name>Bueiro</name></wpt><wpt lat="-27.021326" lon="-48.655066"><ele>5.580841</ele><name>Bueiro</name></wpt><wpt lat="-27.021355" lon="-48.654821"><ele>5.918976</ele><name>Bueiro</name></wpt><wpt lat="-27.021414" lon="-48.654273"><ele>10.696594</ele><name>Bueiro</name></wpt><wpt lat="-27.025437" lon="-48.658897"><ele>4.227173</ele><name>Buraco</name></wpt><wpt lat="-27.025061" lon="-48.658828"><ele>5.485596</ele><name>Buraco</name></wpt><wpt lat="-27.023358" lon="-48.658472"><ele>4.939545</ele><name>Buraco</name></wpt><wpt lat="-27.022555" lon="-48.658356"><ele>4.524139</ele><name>Buraco</name></wpt><wpt lat="-27.021283" lon="-48.65806"><ele>3.497284</ele><name>Buraco</name></wpt><wpt lat="-27.021124" lon="-48.657844"><ele>3.875275</ele><name>Buraco</name></wpt><wpt lat="-27.021133" lon="-48.657005"><ele>4.40509</ele><name>Buraco</name></wpt><wpt lat="-27.021182" lon="-48.656663"><ele>5.738831</ele><name>Buraco</name></wpt><wpt lat="-27.026588" lon="-48.659114"><ele>5.682281</ele><name>Ciclofaixa</name></wpt><wpt lat="-27.026599" lon="-48.659118"><ele>5.6633</ele><name>considerando apenas a pista ao lado da ciclo</name></wpt><wpt lat="-27.026553" lon="-48.659096"><ele>6.403168</ele><name>Desnível</name></wpt><wpt lat="-27.025462" lon="-48.658904"><ele>4.007202</ele><name>Desnível</name></wpt><wpt lat="-27.023127" lon="-48.658434"><ele>6.890472</ele><name>Desnível</name></wpt><wpt lat="-27.0213" lon="-48.655415"><ele>7.910309</ele><name>Desnível</name></wpt><wpt lat="-27.026588" lon="-48.659115"><ele>5.716827</ele><name>Em bordo de Via de Mão Dupla</name></wpt><wpt lat="-27.026597" lon="-48.659101"><ele>5.684845</ele><name>Estacionamento dedicado de um lado, segregado da circulação</name></wpt><wpt lat="-27.026598" lon="-48.659087"><ele>6.165344</ele><name>Estacionamento proibido na via</name></wpt><wpt lat="-27.026599" lon="-48.659107"><ele>5.435272</ele><name>Foto</name></wpt><wpt lat="-27.021423" lon="-48.654206"><ele>9.246185</ele><name>Foto</name></wpt><wpt lat="-27.021424" lon="-48.654236"><ele>11.776215</ele><name>Foto</name></wpt><wpt lat="-27.024624" lon="-48.658742"><ele>3.972687</ele><name>Grade alinhada ao pneu</name></wpt><wpt lat="-27.021134" lon="-48.656987"><ele>4.411591</ele><name>Grade alinhada ao pneu</name></wpt><wpt lat="-27.021149" lon="-48.656723"><name>Grade alinhada ao pneu</name></wpt><wpt lat="-27.021429" lon="-48.654231"><ele>10.780029</ele><name>Iluminação geral na via do outro lado da infraestrutura</name></wpt><wpt lat="-27.021313" lon="-48.655231"><ele>5.945282</ele><name>Lombadas físicas</name></wpt><wpt lat="-27.021422" lon="-48.654228"><ele>12.712402</ele><name>Não há árvores nem mudas</name></wpt><wpt lat="-27.021424" lon="-48.654228"><ele>10.608429</ele><name>Pequenas imperfeições, como fissuras</name></wpt><wpt lat="-27.026596" lon="-48.659113"><ele>7.043762</ele><name>Em cruzamento MÁ condição</name></wpt><wpt lat="-27.026588" lon="-48.659115"><ele>5.730774</ele><name>Pista dupla</name></wpt><wpt lat="-27.025669" lon="-48.658937"><ele>3.678436</ele><name>Ponto de embarque de ônibus interrompe a ciclo</name></wpt><wpt lat="-27.02392" lon="-48.65858"><ele>3.531311</ele><name>Ponto de embarque de ônibus interrompe a ciclo</name></wpt><wpt lat="-27.026599" lon="-48.659086"><ele>6.165436</ele><name>R3m0v3r Estacionamento 🗑️</name></wpt><wpt lat="-27.021422" lon="-48.6542"><ele>11.343872</ele><name>R3m0v3r Obstáculo 🗑️</name></wpt><wpt lat="-27.021428" lon="-48.654215"><ele>10.697418</ele><name>SE CICLOFAIXA: para invadir a ciclo parte do automóvel passa obrigatoriamente por cima de segregadores</name></wpt><wpt lat="-27.021428" lon="-48.654216"><ele>10.696381</ele><name>Segregadores NÃO DIFICULTAM o acesso de ciclistas</name></wpt><wpt lat="-27.026591" lon="-48.659109"><ele>6.746582</ele><name>SEM Semáforo exclusivo</name></wpt><wpt lat="-27.026593" lon="-48.659119"><ele>7.367584</ele><name>Tachões</name></wpt><wpt lat="-27.025128" lon="-48.658837"><ele>5.044586</ele><name>Travessia de pedestre em nível (lombofaixa)</name></wpt><wpt lat="-27.023697" lon="-48.658537"><ele>3.753845</ele><name>Travessia de pedestre em nível (lombofaixa)</name></wpt><wpt lat="-27.021119" lon="-48.657217"><ele>4.415314</ele><name>Travessia de pedestre em nível (lombofaixa)</name></wpt><wpt lat="-27.026636" lon="-48.659037"><name>Semáforo para motorizado</name></wpt><wpt lat="-27.021121" lon="-48.656857"><name>Outro risco. EXPLIQUE.</name></wpt><wpt lat="-27.021125" lon="-48.656847"><name>Risco: falta de segurança na rotatória, carros invadem, entrada de posto</name></wpt><wpt lat="-27.026496" lon="-48.659075"><name>Área de amortecimento da ciclo (cm)</name></wpt><wpt lat="-27.026501" lon="-48.65907"><name>22</name></wpt><wpt lat="-27.024936" lon="-48.658783"><name>Em cruzamento BOA condição</name></wpt><wpt lat="-27.024229" lon="-48.658647"><name>Em cruzamento BOA condição</name></wpt><wpt lat="-27.022935" lon="-48.658391"><name>Em cruzamento BOA condição</name></wpt><wpt lat="-27.022449" lon="-48.658341"><name>Em cruzamento BOA condição</name></wpt><wpt lat="-27.021086" lon="-48.657148"><name>Em cruzamento BOA condição</name></wpt><wpt lat="-27.02114" lon="-48.656448"><name>Em cruzamento BOA condição</name></wpt><wpt lat="-27.021211" lon="-48.655867"><name>Em cruzamento BOA condição</name></wpt><wpt lat="-27.02125" lon="-48.655386"><name>Em cruzamento BOA condição</name></wpt><wpt lat="-27.021338" lon="-48.65463"><name>Em cruzamento BOA condição</name></wpt><trk><name>Ciclofaixa Av. Minas Gerais T3 - Cb</name><trkseg><trkpt lat="-27.02679" lon="-48.659017"><ele>38.649292</ele></trkpt><trkpt lat="-27.026802" lon="-48.659049"><ele>2.062531</ele></trkpt><trkpt lat="-27.026822" lon="-48.65907"><ele>3.97757</ele></trkpt><trkpt lat="-27.026819" lon="-48.659079"><ele>8.046936</ele></trkpt><trkpt lat="-27.02681" lon="-48.659079"><ele>8.582397</ele></trkpt><trkpt lat="-27.026808" lon="-48.659096"><ele>9.253021</ele></trkpt><trkpt lat="-27.026811" lon="-48.659099"><ele>9.216431</ele></trkpt><trkpt lat="-27.026787" lon="-48.659106"><ele>8.28894</ele></trkpt><trkpt lat="-27.026775" lon="-48.659122"><ele>7.294403</ele></trkpt><trkpt lat="-27.02675" lon="-48.659134"><ele>7.90097</ele></trkpt><trkpt lat="-27.026725" lon="-48.659126"><ele>8.207611</ele></trkpt><trkpt lat="-27.026698" lon="-48.659121"><ele>7.785583</ele></trkpt><trkpt lat="-27.02667" lon="-48.659116"><ele>7.344238</ele></trkpt><trkpt lat="-27.026644" lon="-48.65912"><ele>6.558685</ele></trkpt><trkpt lat="-27.026624" lon="-48.659123"><ele>5.691772</ele></trkpt><trkpt lat="-27.026607" lon="-48.659124"><ele>5.575256</ele></trkpt><trkpt lat="-27.026594" lon="-48.659119"><ele>5.701569</ele></trkpt><trkpt lat="-27.026585" lon="-48.659113"><ele>6.072144</ele></trkpt><trkpt lat="-27.026587" lon="-48.659113"><ele>6.065338</ele></trkpt><trkpt lat="-27.026586" lon="-48.659109"><ele>6.12323</ele></trkpt><trkpt lat="-27.026584" lon="-48.659106"><ele>6.163208</ele></trkpt><trkpt lat="-27.026584" lon="-48.659107"><ele>5.709045</ele></trkpt><trkpt lat="-27.026586" lon="-48.65911"><ele>5.699005</ele></trkpt><trkpt lat="-27.026588" lon="-48.659111"><ele>5.749969</ele></trkpt><trkpt lat="-27.026588" lon="-48.659111"><ele>5.773407</ele></trkpt><trkpt lat="-27.026588" lon="-48.659112"><ele>6.258362</ele></trkpt><trkpt lat="-27.026587" lon="-48.659112"><ele>6.261597</ele></trkpt><trkpt lat="-27.026591" lon="-48.659114"><ele>5.537903</ele></trkpt><trkpt lat="-27.026591" lon="-48.659114"><ele>5.686676</ele></trkpt><trkpt lat="-27.026588" lon="-48.659114"><ele>5.676514</ele></trkpt><trkpt lat="-27.026588" lon="-48.659114"><ele>5.676849</ele></trkpt><trkpt lat="-27.026588" lon="-48.659114"><ele>5.678223</ele></trkpt><trkpt lat="-27.026588" lon="-48.659114"><ele>5.682281</ele></trkpt><trkpt lat="-27.026588" lon="-48.659114"><ele>5.682281</ele></trkpt><trkpt lat="-27.026588" lon="-48.659114"><ele>5.686768</ele></trkpt><trkpt lat="-27.026588" lon="-48.659114"><ele>5.686768</ele></trkpt><trkpt lat="-27.026588" lon="-48.659114"><ele>5.68988</ele></trkpt><trkpt lat="-27.026588" lon="-48.659114"><ele>5.693115</ele></trkpt><trkpt lat="-27.026588" lon="-48.659114"><ele>5.692932</ele></trkpt><trkpt lat="-27.026588" lon="-48.659114"><ele>5.691498</ele></trkpt><trkpt lat="-27.026588" lon="-48.659114"><ele>5.696686</ele></trkpt><trkpt lat="-27.026588" lon="-48.659114"><ele>5.700256</ele></trkpt><trkpt lat="-27.026588" lon="-48.659114"><ele>5.705811</ele></trkpt><trkpt lat="-27.026588" lon="-48.659114"><ele>5.709656</ele></trkpt><trkpt lat="-27.026588" lon="-48.659114"><ele>5.712646</ele></trkpt><trkpt lat="-27.026588" lon="-48.659115"><ele>5.711975</ele></trkpt><trkpt lat="-27.026588" lon="-48.659115"><ele>5.716827</ele></trkpt><trkpt lat="-27.026588" lon="-48.659115"><ele>5.716827</ele></trkpt><trkpt lat="-27.026588" lon="-48.659115"><ele>5.718964</ele></trkpt><trkpt lat="-27.026588" lon="-48.659115"><ele>5.721191</ele></trkpt><trkpt lat="-27.026588" lon="-48.659115"><ele>5.723938</ele></trkpt><trkpt lat="-27.026588" lon="-48.659115"><ele>5.723328</ele></trkpt><trkpt lat="-27.026588" lon="-48.659115"><ele>5.720795</ele></trkpt><trkpt lat="-27.026588" lon="-48.659115"><ele>5.718994</ele></trkpt><trkpt lat="-27.026588" lon="-48.659115"><ele>5.721008</ele></trkpt><trkpt lat="-27.026588" lon="-48.659115"><ele>5.723633</ele></trkpt><trkpt lat="-27.026588" lon="-48.659115"><ele>5.723663</ele></trkpt><trkpt lat="-27.026588" lon="-48.659115"><ele>5.729828</ele></trkpt><trkpt lat="-27.026588" lon="-48.659115"><ele>5.730774</ele></trkpt><trkpt lat="-27.026588" lon="-48.659115"><ele>5.730774</ele></trkpt><trkpt lat="-27.026589" lon="-48.659115"><ele>5.733917</ele></trkpt><trkpt lat="-27.026589" lon="-48.659115"><ele>5.735291</ele></trkpt><trkpt lat="-27.026589" lon="-48.659115"><ele>5.732727</ele></trkpt><trkpt lat="-27.026589" lon="-48.659115"><ele>5.731201</ele></trkpt><trkpt lat="-27.026589" lon="-48.659115"><ele>5.729675</ele></trkpt><trkpt lat="-27.026589" lon="-48.659115"><ele>5.721802</ele></trkpt><trkpt lat="-27.026589" lon="-48.659117"><ele>5.872437</ele></trkpt><trkpt lat="-27.026589" lon="-48.659117"><ele>5.872437</ele></trkpt><trkpt lat="-27.026588" lon="-48.659117"><ele>5.95282</ele></trkpt><trkpt lat="-27.02659" lon="-48.659118"><ele>6.02179</ele></trkpt><trkpt lat="-27.026592" lon="-48.659119"><ele>7.367706</ele></trkpt><trkpt lat="-27.026593" lon="-48.659119"><ele>7.367584</ele></trkpt><trkpt lat="-27.026593" lon="-48.659119"><ele>7.367584</ele></trkpt><trkpt lat="-27.026594" lon="-48.659118"><ele>7.258698</ele></trkpt><trkpt lat="-27.026596" lon="-48.659118"><ele>7.003876</ele></trkpt><trkpt lat="-27.026598" lon="-48.659118"><ele>6.996857</ele></trkpt><trkpt lat="-27.0266" lon="-48.659119"><ele>6.958252</ele></trkpt><trkpt lat="-27.0266" lon="-48.659119"><ele>6.958252</ele></trkpt><trkpt lat="-27.0266" lon="-48.65912"><ele>6.958771</ele></trkpt><trkpt lat="-27.0266" lon="-48.65912"><ele>6.954102</ele></trkpt><trkpt lat="-27.0266" lon="-48.65912"><ele>6.948639</ele></trkpt><trkpt lat="-27.0266" lon="-48.65912"><ele>6.947327</ele></trkpt><trkpt lat="-27.026601" lon="-48.659119"><ele>6.745758</ele></trkpt><trkpt lat="-27.0266" lon="-48.659118"><ele>6.788574</ele></trkpt><trkpt lat="-27.026599" lon="-48.659117"><ele>6.823273</ele></trkpt><trkpt lat="-27.026599" lon="-48.659117"><ele>6.820282</ele></trkpt><trkpt lat="-27.026599" lon="-48.659117"><ele>6.831116</ele></trkpt><trkpt lat="-27.026599" lon="-48.659117"><ele>6.83902</ele></trkpt><trkpt lat="-27.026599" lon="-48.659117"><ele>6.849152</ele></trkpt><trkpt lat="-27.026599" lon="-48.659117"><ele>6.864502</ele></trkpt><trkpt lat="-27.026599" lon="-48.659118"><ele>6.871429</ele></trkpt><trkpt lat="-27.026599" lon="-48.659118"><ele>6.874207</ele></trkpt><trkpt lat="-27.026599" lon="-48.659118"><ele>6.880005</ele></trkpt><trkpt lat="-27.026599" lon="-48.659118"><ele>6.880005</ele></trkpt><trkpt lat="-27.026599" lon="-48.659118"><ele>5.662903</ele></trkpt><trkpt lat="-27.026599" lon="-48.659118"><ele>5.664337</ele></trkpt><trkpt lat="-27.026599" lon="-48.659118"><ele>5.6633</ele></trkpt><trkpt lat="-27.026599" lon="-48.659118"><ele>5.6633</ele></trkpt><trkpt lat="-27.026599" lon="-48.659118"><ele>5.672394</ele></trkpt><trkpt lat="-27.026599" lon="-48.659118"><ele>5.681305</ele></trkpt><trkpt lat="-27.026599" lon="-48.659118"><ele>5.682526</ele></trkpt><trkpt lat="-27.026599" lon="-48.659118"><ele>5.690002</ele></trkpt><trkpt lat="-27.026598" lon="-48.659121"><ele>5.668518</ele></trkpt><trkpt lat="-27.026595" lon="-48.659122"><ele>5.584137</ele></trkpt><trkpt lat="-27.026592" lon="-48.659123"><ele>5.54306</ele></trkpt><trkpt lat="-27.026588" lon="-48.659123"><ele>5.545654</ele></trkpt><trkpt lat="-27.026587" lon="-48.659123"><ele>5.552246</ele></trkpt><trkpt lat="-27.026587" lon="-48.659125"><ele>5.74176</ele></trkpt><trkpt lat="-27.026587" lon="-48.659126"><ele>5.753479</ele></trkpt><trkpt lat="-27.026587" lon="-48.659126"><ele>5.753601</ele></trkpt><trkpt lat="-27.026587" lon="-48.659126"><ele>5.751953</ele></trkpt><trkpt lat="-27.026587" lon="-48.659124"><ele>5.631256</ele></trkpt><trkpt lat="-27.026586" lon="-48.659122"><ele>5.563751</ele></trkpt><trkpt lat="-27.026585" lon="-48.65912"><ele>5.565674</ele></trkpt><trkpt lat="-27.026585" lon="-48.659119"><ele>5.568176</ele></trkpt><trkpt lat="-27.026585" lon="-48.659119"><ele>5.563721</ele></trkpt><trkpt lat="-27.026585" lon="-48.659119"><ele>5.562561</ele></trkpt><trkpt lat="-27.026585" lon="-48.659117"><ele>5.058685</ele></trkpt><trkpt lat="-27.026586" lon="-48.659114"><ele>4.789124</ele></trkpt><trkpt lat="-27.026587" lon="-48.659109"><ele>4.789368</ele></trkpt><trkpt lat="-27.026587" lon="-48.659108"><ele>4.789276</ele></trkpt><trkpt lat="-27.026587" lon="-48.659108"><ele>4.791809</ele></trkpt><trkpt lat="-27.026587" lon="-48.659108"><ele>4.79303</ele></trkpt><trkpt lat="-27.026587" lon="-48.659108"><ele>4.788788</ele></trkpt><trkpt lat="-27.026587" lon="-48.659108"><ele>4.792267</ele></trkpt><trkpt lat="-27.026587" lon="-48.659108"><ele>4.794647</ele></trkpt><trkpt lat="-27.026587" lon="-48.659108"><ele>4.794952</ele></trkpt><trkpt lat="-27.026587" lon="-48.659108"><ele>4.792725</ele></trkpt><trkpt lat="-27.026588" lon="-48.659108"><ele>6.275391</ele></trkpt><trkpt lat="-27.026589" lon="-48.659108"><ele>6.346649</ele></trkpt><trkpt lat="-27.026589" lon="-48.659104"><ele>6.407928</ele></trkpt><trkpt lat="-27.02659" lon="-48.659102"><ele>6.191284</ele></trkpt><trkpt lat="-27.026591" lon="-48.659102"><ele>6.485504</ele></trkpt><trkpt lat="-27.02659" lon="-48.659101"><ele>6.375824</ele></trkpt><trkpt lat="-27.026589" lon="-48.659101"><ele>6.341736</ele></trkpt><trkpt lat="-27.026589" lon="-48.659101"><ele>6.343445</ele></trkpt><trkpt lat="-27.026589" lon="-48.659101"><ele>6.339874</ele></trkpt><trkpt lat="-27.026589" lon="-48.6591"><ele>6.302246</ele></trkpt><trkpt lat="-27.026589" lon="-48.659099"><ele>6.308868</ele></trkpt><trkpt lat="-27.026589" lon="-48.659099"><ele>6.317017</ele></trkpt><trkpt lat="-27.026589" lon="-48.659098"><ele>6.31134</ele></trkpt><trkpt lat="-27.026589" lon="-48.659097"><ele>6.316864</ele></trkpt><trkpt lat="-27.026591" lon="-48.659093"><ele>6.191101</ele></trkpt><trkpt lat="-27.026593" lon="-48.659091"><ele>6.280029</ele></trkpt><trkpt lat="-27.026596" lon="-48.659088"><ele>6.294617</ele></trkpt><trkpt lat="-27.026597" lon="-48.659087"><ele>6.288605</ele></trkpt><trkpt lat="-27.026598" lon="-48.659087"><ele>6.165344</ele></trkpt><trkpt lat="-27.026598" lon="-48.659087"><ele>6.165344</ele></trkpt><trkpt lat="-27.026599" lon="-48.659086"><ele>6.175171</ele></trkpt><trkpt lat="-27.026599" lon="-48.659086"><ele>6.16925</ele></trkpt><trkpt lat="-27.026599" lon="-48.659086"><ele>6.177917</ele></trkpt><trkpt lat="-27.026599" lon="-48.659086"><ele>6.167694</ele></trkpt><trkpt lat="-27.026599" lon="-48.659086"><ele>6.162659</ele></trkpt><trkpt lat="-27.026599" lon="-48.659086"><ele>6.165436</ele></trkpt><trkpt lat="-27.026599" lon="-48.659086"><ele>6.165436</ele></trkpt><trkpt lat="-27.026599" lon="-48.659086"><ele>6.170624</ele></trkpt><trkpt lat="-27.026599" lon="-48.659086"><ele>6.164063</ele></trkpt><trkpt lat="-27.026596" lon="-48.65909"><ele>5.621582</ele></trkpt><trkpt lat="-27.026596" lon="-48.659095"><ele>5.795929</ele></trkpt><trkpt lat="-27.026596" lon="-48.659098"><ele>5.819519</ele></trkpt><trkpt lat="-27.026597" lon="-48.659101"><ele>5.684845</ele></trkpt><trkpt lat="-27.026597" lon="-48.659101"><ele>5.684845</ele></trkpt><trkpt lat="-27.026598" lon="-48.659106"><ele>5.680511</ele></trkpt><trkpt lat="-27.026598" lon="-48.659108"><ele>5.673157</ele></trkpt><trkpt lat="-27.026599" lon="-48.659109"><ele>5.384766</ele></trkpt><trkpt lat="-27.026599" lon="-48.659111"><ele>5.378052</ele></trkpt><trkpt lat="-27.026599" lon="-48.659111"><ele>5.372803</ele></trkpt><trkpt lat="-27.026599" lon="-48.659111"><ele>5.367706</ele></trkpt><trkpt lat="-27.026599" lon="-48.659111"><ele>5.365234</ele></trkpt><trkpt lat="-27.026599" lon="-48.659109"><ele>5.073059</ele></trkpt><trkpt lat="-27.026598" lon="-48.659108"><ele>5.071564</ele></trkpt><trkpt lat="-27.026598" lon="-48.659107"><ele>5.078705</ele></trkpt><trkpt lat="-27.026598" lon="-48.659107"><ele>5.078217</ele></trkpt><trkpt lat="-27.026598" lon="-48.659107"><ele>5.081146</ele></trkpt><trkpt lat="-27.026598" lon="-48.659107"><ele>5.077637</ele></trkpt><trkpt lat="-27.026596" lon="-48.659106"><ele>4.97052</ele></trkpt><trkpt lat="-27.026596" lon="-48.659107"><ele>5.133148</ele></trkpt><trkpt lat="-27.026597" lon="-48.659107"><ele>5.157074</ele></trkpt><trkpt lat="-27.026597" lon="-48.65911"><ele>5.337402</ele></trkpt><trkpt lat="-27.026599" lon="-48.659107"><ele>5.435272</ele></trkpt><trkpt lat="-27.026599" lon="-48.659107"><ele>5.435272</ele></trkpt><trkpt lat="-27.026597" lon="-48.659102"><ele>5.572357</ele></trkpt><trkpt lat="-27.026598" lon="-48.659098"><ele>5.325043</ele></trkpt><trkpt lat="-27.026598" lon="-48.659097"><ele>4.906525</ele></trkpt><trkpt lat="-27.026596" lon="-48.659097"><ele>4.945648</ele></trkpt><trkpt lat="-27.026593" lon="-48.659096"><ele>5.331177</ele></trkpt><trkpt lat="-27.026592" lon="-48.659095"><ele>5.24585</ele></trkpt><trkpt lat="-27.026592" lon="-48.659095"><ele>5.248352</ele></trkpt><trkpt lat="-27.026592" lon="-48.659095"><ele>6.49408</ele></trkpt><trkpt lat="-27.026592" lon="-48.659095"><ele>6.454071</ele></trkpt><trkpt lat="-27.026592" lon="-48.659097"><ele>6.636414</ele></trkpt><trkpt lat="-27.026593" lon="-48.659099"><ele>6.852325</ele></trkpt><trkpt lat="-27.026594" lon="-48.659102"><ele>6.854034</ele></trkpt><trkpt lat="-27.026594" lon="-48.659103"><ele>6.856781</ele></trkpt><trkpt lat="-27.026594" lon="-48.659103"><ele>6.858673</ele></trkpt><trkpt lat="-27.026594" lon="-48.659104"><ele>6.886871</ele></trkpt><trkpt lat="-27.026594" lon="-48.659105"><ele>6.906036</ele></trkpt><trkpt lat="-27.026594" lon="-48.659105"><ele>6.907043</ele></trkpt><trkpt lat="-27.026594" lon="-48.659105"><ele>6.909302</ele></trkpt><trkpt lat="-27.026594" lon="-48.659107"><ele>6.94986</ele></trkpt><trkpt lat="-27.026594" lon="-48.659108"><ele>6.952271</ele></trkpt><trkpt lat="-27.026591" lon="-48.659109"><ele>6.850342</ele></trkpt><trkpt lat="-27.026591" lon="-48.659109"><ele>6.746582</ele></trkpt><trkpt lat="-27.026591" lon="-48.659109"><ele>6.746582</ele></trkpt><trkpt lat="-27.026593" lon="-48.659111"><ele>6.764984</ele></trkpt><trkpt lat="-27.026593" lon="-48.659112"><ele>6.766113</ele></trkpt><trkpt lat="-27.026593" lon="-48.659112"><ele>6.770874</ele></trkpt><trkpt lat="-27.026595" lon="-48.659112"><ele>7.000214</ele></trkpt><trkpt lat="-27.026596" lon="-48.659113"><ele>7.035675</ele></trkpt><trkpt lat="-27.026596" lon="-48.659113"><ele>7.039337</ele></trkpt><trkpt lat="-27.026596" lon="-48.659113"><ele>7.043762</ele></trkpt><trkpt lat="-27.026596" lon="-48.659113"><ele>7.043762</ele></trkpt><trkpt lat="-27.026596" lon="-48.659113"><ele>7.041962</ele></trkpt><trkpt lat="-27.026596" lon="-48.659113"><ele>7.037964</ele></trkpt><trkpt lat="-27.026596" lon="-48.659113"><ele>7.032379</ele></trkpt><trkpt lat="-27.026596" lon="-48.659113"><ele>7.03772</ele></trkpt><trkpt lat="-27.026596" lon="-48.659114"><ele>7.047089</ele></trkpt><trkpt lat="-27.026596" lon="-48.659114"><ele>7.060028</ele></trkpt><trkpt lat="-27.026596" lon="-48.659114"><ele>7.060425</ele></trkpt><trkpt lat="-27.026596" lon="-48.659114"><ele>7.060059</ele></trkpt><trkpt lat="-27.026595" lon="-48.659114"><ele>6.849213</ele></trkpt><trkpt lat="-27.026594" lon="-48.659114"><ele>5.622833</ele></trkpt><trkpt lat="-27.026594" lon="-48.659114"><ele>5.618713</ele></trkpt><trkpt lat="-27.026594" lon="-48.659114"><ele>5.704987</ele></trkpt><trkpt lat="-27.026595" lon="-48.659113"><ele>5.768311</ele></trkpt><trkpt lat="-27.026596" lon="-48.659113"><ele>5.772491</ele></trkpt><trkpt lat="-27.026596" lon="-48.659113"><ele>5.773315</ele></trkpt><trkpt lat="-27.026597" lon="-48.659113"><ele>5.769989</ele></trkpt><trkpt lat="-27.026596" lon="-48.659112"><ele>5.541992</ele></trkpt><trkpt lat="-27.026596" lon="-48.659111"><ele>5.50119</ele></trkpt><trkpt lat="-27.026595" lon="-48.659113"><ele>5.452606</ele></trkpt><trkpt lat="-27.026591" lon="-48.659121"><ele>5.273773</ele></trkpt><trkpt lat="-27.026584" lon="-48.659129"><ele>6.304626</ele></trkpt><trkpt lat="-27.026582" lon="-48.659135"><ele>5.907074</ele></trkpt><trkpt lat="-27.026582" lon="-48.659139"><ele>5.891388</ele></trkpt><trkpt lat="-27.026582" lon="-48.659139"><ele>5.892181</ele></trkpt><trkpt lat="-27.026585" lon="-48.659143"><ele>6.131622</ele></trkpt><trkpt lat="-27.026587" lon="-48.659143"><ele>6.192383</ele></trkpt><trkpt lat="-27.026588" lon="-48.659143"><ele>6.189728</ele></trkpt><trkpt lat="-27.026588" lon="-48.659143"><ele>6.18634</ele></trkpt><trkpt lat="-27.026582" lon="-48.659143"><ele>6.377869</ele></trkpt><trkpt lat="-27.026579" lon="-48.659141"><ele>6.710175</ele></trkpt><trkpt lat="-27.026578" lon="-48.65914"><ele>6.715668</ele></trkpt><trkpt lat="-27.026576" lon="-48.659142"><ele>6.614044</ele></trkpt><trkpt lat="-27.026574" lon="-48.659145"><ele>6.494995</ele></trkpt><trkpt lat="-27.026574" lon="-48.659147"><ele>6.219177</ele></trkpt><trkpt lat="-27.026573" lon="-48.659149"><ele>4.935791</ele></trkpt><trkpt lat="-27.026572" lon="-48.659149"><ele>4.916534</ele></trkpt><trkpt lat="-27.026571" lon="-48.659149"><ele>4.756378</ele></trkpt><trkpt lat="-27.026569" lon="-48.659145"><ele>4.421448</ele></trkpt><trkpt lat="-27.026569" lon="-48.659141"><ele>4.443451</ele></trkpt><trkpt lat="-27.026568" lon="-48.65914"><ele>4.443451</ele></trkpt><trkpt lat="-27.026569" lon="-48.659139"><ele>4.817291</ele></trkpt><trkpt lat="-27.026571" lon="-48.659135"><ele>5.1492</ele></trkpt><trkpt lat="-27.026575" lon="-48.659132"><ele>4.850067</ele></trkpt><trkpt lat="-27.026582" lon="-48.65913"><ele>4.612518</ele></trkpt><trkpt lat="-27.026592" lon="-48.659131"><ele>4.116211</ele></trkpt><trkpt lat="-27.0266" lon="-48.659137"><ele>4.031555</ele></trkpt><trkpt lat="-27.026599" lon="-48.659146"><ele>4.0513</ele></trkpt><trkpt lat="-27.02659" lon="-48.659148"><ele>4.065857</ele></trkpt><trkpt lat="-27.026585" lon="-48.659144"><ele>4.333862</ele></trkpt><trkpt lat="-27.026577" lon="-48.65913"><ele>4.411865</ele></trkpt><trkpt lat="-27.026575" lon="-48.659125"><ele>5.489319</ele></trkpt><trkpt lat="-27.026571" lon="-48.659114"><ele>5.607544</ele></trkpt><trkpt lat="-27.026571" lon="-48.659112"><ele>5.35257</ele></trkpt><trkpt lat="-27.02657" lon="-48.659111"><ele>5.258667</ele></trkpt><trkpt lat="-27.026568" lon="-48.659105"><ele>5.848969</ele></trkpt><trkpt lat="-27.026566" lon="-48.659102"><ele>6.15271</ele></trkpt><trkpt lat="-27.026563" lon="-48.6591"><ele>6.863281</ele></trkpt><trkpt lat="-27.026561" lon="-48.6591"><ele>6.653381</ele></trkpt><trkpt lat="-27.026553" lon="-48.659096"><ele>6.403168</ele></trkpt><trkpt lat="-27.026553" lon="-48.659096"><ele>6.403168</ele></trkpt><trkpt lat="-27.026548" lon="-48.659096"><ele>6.699554</ele></trkpt><trkpt lat="-27.026541" lon="-48.659101"><ele>5.758392</ele></trkpt><trkpt lat="-27.026532" lon="-48.659105"><ele>5.672638</ele></trkpt><trkpt lat="-27.026518" lon="-48.659106"><ele>5.831909</ele></trkpt><trkpt lat="-27.026497" lon="-48.659103"><ele>5.614685</ele></trkpt><trkpt lat="-27.026478" lon="-48.6591"><ele>5.683228</ele></trkpt><trkpt lat="-27.026456" lon="-48.659097"><ele>5.490997</ele></trkpt><trkpt lat="-27.02643" lon="-48.659093"><ele>5.663666</ele></trkpt><trkpt lat="-27.026403" lon="-48.659091"><ele>5.885925</ele></trkpt><trkpt lat="-27.026379" lon="-48.659089"><ele>5.975037</ele></trkpt><trkpt lat="-27.026355" lon="-48.659087"><ele>5.906708</ele></trkpt><trkpt lat="-27.026332" lon="-48.659085"><ele>6.035553</ele></trkpt><trkpt lat="-27.026308" lon="-48.659081"><ele>6.098602</ele></trkpt><trkpt lat="-27.026283" lon="-48.659076"><ele>6.243866</ele></trkpt><trkpt lat="-27.026258" lon="-48.659073"><ele>6.139374</ele></trkpt><trkpt lat="-27.026231" lon="-48.65907"><ele>6.133728</ele></trkpt><trkpt lat="-27.026212" lon="-48.659068"><ele>6.118774</ele></trkpt><trkpt lat="-27.026212" lon="-48.659068"><ele>6.118774</ele></trkpt><trkpt lat="-27.026193" lon="-48.659064"><ele>5.940216</ele></trkpt><trkpt lat="-27.026173" lon="-48.659058"><ele>5.869385</ele></trkpt><trkpt lat="-27.02615" lon="-48.659054"><ele>5.664001</ele></trkpt><trkpt lat="-27.026124" lon="-48.659051"><ele>5.418518</ele></trkpt><trkpt lat="-27.026094" lon="-48.659045"><ele>5.200928</ele></trkpt><trkpt lat="-27.026064" lon="-48.659039"><ele>5.163055</ele></trkpt><trkpt lat="-27.026035" lon="-48.659033"><ele>5.276154</ele></trkpt><trkpt lat="-27.026009" lon="-48.659028"><ele>5.220276</ele></trkpt><trkpt lat="-27.025981" lon="-48.659022"><ele>5.459381</ele></trkpt><trkpt lat="-27.025953" lon="-48.659016"><ele>8.359497</ele></trkpt><trkpt lat="-27.025924" lon="-48.659009"><ele>8.448334</ele></trkpt><trkpt lat="-27.025897" lon="-48.659005"><ele>5.150269</ele></trkpt><trkpt lat="-27.02587" lon="-48.658998"><ele>5.244812</ele></trkpt><trkpt lat="-27.025838" lon="-48.65899"><ele>5.255981</ele></trkpt><trkpt lat="-27.025809" lon="-48.658986"><ele>5.24231</ele></trkpt><trkpt lat="-27.025785" lon="-48.658979"><ele>5.302155</ele></trkpt><trkpt lat="-27.025763" lon="-48.658975"><ele>4.748199</ele></trkpt><trkpt lat="-27.025742" lon="-48.658971"><ele>4.773743</ele></trkpt><trkpt lat="-27.025715" lon="-48.658967"><ele>4.915771</ele></trkpt><trkpt lat="-27.02569" lon="-48.658962"><ele>4.885834</ele></trkpt><trkpt lat="-27.025665" lon="-48.658956"><ele>4.801025</ele></trkpt><trkpt lat="-27.025648" lon="-48.658951"><ele>4.635315</ele></trkpt><trkpt lat="-27.025643" lon="-48.658948"><ele>4.554443</ele></trkpt><trkpt lat="-27.025644" lon="-48.658947"><ele>4.741425</ele></trkpt><trkpt lat="-27.025646" lon="-48.658946"><ele>4.962524</ele></trkpt><trkpt lat="-27.025643" lon="-48.658949"><ele>5.028351</ele></trkpt><trkpt lat="-27.025642" lon="-48.658951"><ele>5.053314</ele></trkpt><trkpt lat="-27.025641" lon="-48.658953"><ele>5.097992</ele></trkpt><trkpt lat="-27.025641" lon="-48.658956"><ele>5.20343</ele></trkpt><trkpt lat="-27.025641" lon="-48.658956"><ele>5.294434</ele></trkpt><trkpt lat="-27.025639" lon="-48.658955"><ele>5.34967</ele></trkpt><trkpt lat="-27.025638" lon="-48.658954"><ele>5.37851</ele></trkpt><trkpt lat="-27.025636" lon="-48.658954"><ele>5.281586</ele></trkpt><trkpt lat="-27.025635" lon="-48.658955"><ele>5.595276</ele></trkpt><trkpt lat="-27.025637" lon="-48.658956"><ele>5.678253</ele></trkpt><trkpt lat="-27.025637" lon="-48.658956"><ele>5.678253</ele></trkpt><trkpt lat="-27.025638" lon="-48.658956"><ele>5.980499</ele></trkpt><trkpt lat="-27.025637" lon="-48.658959"><ele>5.964417</ele></trkpt><trkpt lat="-27.025637" lon="-48.658958"><ele>6.278076</ele></trkpt><trkpt lat="-27.025639" lon="-48.658951"><ele>6.361237</ele></trkpt><trkpt lat="-27.02564" lon="-48.658949"><ele>7.675934</ele></trkpt><trkpt lat="-27.02564" lon="-48.658951"><ele>7.881378</ele></trkpt><trkpt lat="-27.02564" lon="-48.65895"><ele>8.189453</ele></trkpt><trkpt lat="-27.025641" lon="-48.658949"><ele>8.266663</ele></trkpt><trkpt lat="-27.025641" lon="-48.658951"><ele>8.250793</ele></trkpt><trkpt lat="-27.025641" lon="-48.658954"><ele>8.188599</ele></trkpt><trkpt lat="-27.025643" lon="-48.658953"><ele>7.866302</ele></trkpt><trkpt lat="-27.025646" lon="-48.658951"><ele>7.487091</ele></trkpt><trkpt lat="-27.025648" lon="-48.658949"><ele>7.346527</ele></trkpt><trkpt lat="-27.025651" lon="-48.658946"><ele>6.797394</ele></trkpt><trkpt lat="-27.025653" lon="-48.658945"><ele>6.484222</ele></trkpt><trkpt lat="-27.025655" lon="-48.658944"><ele>6.391724</ele></trkpt><trkpt lat="-27.025658" lon="-48.658942"><ele>5.930176</ele></trkpt><trkpt lat="-27.02566" lon="-48.658942"><ele>5.541504</ele></trkpt><trkpt lat="-27.025663" lon="-48.658941"><ele>4.866577</ele></trkpt><trkpt lat="-27.025665" lon="-48.65894"><ele>4.65976</ele></trkpt><trkpt lat="-27.025667" lon="-48.65894"><ele>4.454498</ele></trkpt><trkpt lat="-27.025667" lon="-48.65894"><ele>4.350677</ele></trkpt><trkpt lat="-27.025667" lon="-48.65894"><ele>4.345581</ele></trkpt><trkpt lat="-27.025667" lon="-48.65894"><ele>4.352997</ele></trkpt><trkpt lat="-27.025667" lon="-48.65894"><ele>4.355682</ele></trkpt><trkpt lat="-27.025667" lon="-48.65894"><ele>3.406189</ele></trkpt><trkpt lat="-27.025667" lon="-48.65894"><ele>3.405396</ele></trkpt><trkpt lat="-27.025667" lon="-48.65894"><ele>3.404938</ele></trkpt><trkpt lat="-27.025667" lon="-48.65894"><ele>3.638123</ele></trkpt><trkpt lat="-27.025667" lon="-48.65894"><ele>3.711914</ele></trkpt><trkpt lat="-27.025669" lon="-48.658937"><ele>3.678436</ele></trkpt><trkpt lat="-27.025669" lon="-48.658937"><ele>3.678436</ele></trkpt><trkpt lat="-27.025668" lon="-48.658936"><ele>3.718719</ele></trkpt><trkpt lat="-27.025667" lon="-48.658935"><ele>3.61673</ele></trkpt><trkpt lat="-27.025666" lon="-48.658934"><ele>3.443787</ele></trkpt><trkpt lat="-27.025663" lon="-48.658935"><ele>3.335388</ele></trkpt><trkpt lat="-27.025662" lon="-48.658936"><ele>3.34903</ele></trkpt><trkpt lat="-27.025663" lon="-48.658935"><ele>2.964844</ele></trkpt><trkpt lat="-27.02566" lon="-48.658931"><ele>3.025635</ele></trkpt><trkpt lat="-27.025653" lon="-48.658932"><ele>3.217773</ele></trkpt><trkpt lat="-27.025639" lon="-48.658935"><ele>3.039948</ele></trkpt><trkpt lat="-27.025623" lon="-48.658934"><ele>2.662506</ele></trkpt><trkpt lat="-27.025607" lon="-48.658932"><ele>2.747803</ele></trkpt><trkpt lat="-27.025584" lon="-48.658929"><ele>3.881226</ele></trkpt><trkpt lat="-27.02556" lon="-48.658924"><ele>3.864136</ele></trkpt><trkpt lat="-27.025536" lon="-48.658919"><ele>3.88327</ele></trkpt><trkpt lat="-27.025509" lon="-48.658914"><ele>4.194244</ele></trkpt><trkpt lat="-27.025486" lon="-48.658909"><ele>4.476532</ele></trkpt><trkpt lat="-27.025462" lon="-48.658904"><ele>4.007202</ele></trkpt><trkpt lat="-27.025462" lon="-48.658904"><ele>4.007202</ele></trkpt><trkpt lat="-27.025437" lon="-48.658897"><ele>4.227173</ele></trkpt><trkpt lat="-27.025437" lon="-48.658897"><ele>4.227173</ele></trkpt><trkpt lat="-27.025412" lon="-48.658892"><ele>4.5625</ele></trkpt><trkpt lat="-27.025412" lon="-48.658892"><ele>4.5625</ele></trkpt><trkpt lat="-27.025388" lon="-48.658889"><ele>4.837555</ele></trkpt><trkpt lat="-27.025368" lon="-48.658884"><ele>4.893677</ele></trkpt><trkpt lat="-27.025343" lon="-48.658876"><ele>4.706146</ele></trkpt><trkpt lat="-27.025319" lon="-48.65887"><ele>4.840485</ele></trkpt><trkpt lat="-27.025294" lon="-48.658863"><ele>5.146973</ele></trkpt><trkpt lat="-27.02527" lon="-48.658858"><ele>5.141083</ele></trkpt><trkpt lat="-27.025245" lon="-48.658855"><ele>5.278839</ele></trkpt><trkpt lat="-27.025222" lon="-48.658851"><ele>5.054047</ele></trkpt><trkpt lat="-27.025194" lon="-48.658846"><ele>5.145203</ele></trkpt><trkpt lat="-27.025169" lon="-48.658841"><ele>5.131805</ele></trkpt><trkpt lat="-27.025146" lon="-48.658839"><ele>5.086517</ele></trkpt><trkpt lat="-27.025128" lon="-48.658837"><ele>5.044586</ele></trkpt><trkpt lat="-27.025128" lon="-48.658837"><ele>5.044586</ele></trkpt><trkpt lat="-27.025114" lon="-48.658834"><ele>4.81076</ele></trkpt><trkpt lat="-27.025095" lon="-48.65883"><ele>5.262512</ele></trkpt><trkpt lat="-27.025075" lon="-48.658828"><ele>5.501099</ele></trkpt><trkpt lat="-27.025064" lon="-48.658825"><ele>5.334015</ele></trkpt><trkpt lat="-27.02506" lon="-48.658825"><ele>5.071838</ele></trkpt><trkpt lat="-27.025061" lon="-48.658828"><ele>5.485596</ele></trkpt><trkpt lat="-27.025061" lon="-48.658828"><ele>5.485596</ele></trkpt><trkpt lat="-27.025068" lon="-48.658835"><ele>5.820892</ele></trkpt><trkpt lat="-27.02507" lon="-48.658835"><ele>6.179962</ele></trkpt><trkpt lat="-27.025065" lon="-48.658836"><ele>6.187378</ele></trkpt><trkpt lat="-27.025056" lon="-48.658834"><ele>6.023804</ele></trkpt><trkpt lat="-27.025042" lon="-48.658829"><ele>5.618134</ele></trkpt><trkpt lat="-27.025022" lon="-48.658821"><ele>5.5513</ele></trkpt><trkpt lat="-27.024998" lon="-48.658812"><ele>5.450256</ele></trkpt><trkpt lat="-27.024972" lon="-48.658804"><ele>5.60202</ele></trkpt><trkpt lat="-27.024946" lon="-48.658799"><ele>5.328705</ele></trkpt><trkpt lat="-27.024919" lon="-48.658795"><ele>5.677643</ele></trkpt><trkpt lat="-27.024889" lon="-48.658791"><ele>5.547729</ele></trkpt><trkpt lat="-27.024858" lon="-48.65879"><ele>5.469147</ele></trkpt><trkpt lat="-27.024828" lon="-48.658786"><ele>4.380249</ele></trkpt><trkpt lat="-27.024797" lon="-48.658779"><ele>4.492188</ele></trkpt><trkpt lat="-27.024767" lon="-48.658773"><ele>4.835236</ele></trkpt><trkpt lat="-27.024738" lon="-48.658769"><ele>7.626312</ele></trkpt><trkpt lat="-27.024708" lon="-48.658764"><ele>7.779388</ele></trkpt><trkpt lat="-27.024682" lon="-48.658757"><ele>4.353577</ele></trkpt><trkpt lat="-27.024664" lon="-48.658754"><ele>4.226776</ele></trkpt><trkpt lat="-27.024646" lon="-48.658749"><ele>4.039825</ele></trkpt><trkpt lat="-27.024632" lon="-48.658745"><ele>3.896118</ele></trkpt><trkpt lat="-27.024632" lon="-48.658745"><ele>3.896118</ele></trkpt><trkpt lat="-27.024624" lon="-48.658742"><ele>3.972687</ele></trkpt><trkpt lat="-27.024624" lon="-48.658742"><ele>3.972687</ele></trkpt><trkpt lat="-27.024622" lon="-48.658741"><ele>3.769867</ele></trkpt><trkpt lat="-27.024622" lon="-48.658737"><ele>3.983124</ele></trkpt><trkpt lat="-27.024615" lon="-48.658734"><ele>3.651459</ele></trkpt><trkpt lat="-27.024615" lon="-48.658734"><ele>3.651459</ele></trkpt><trkpt lat="-27.024603" lon="-48.658733"><ele>3.770996</ele></trkpt><trkpt lat="-27.024588" lon="-48.658731"><ele>3.519836</ele></trkpt><trkpt lat="-27.024566" lon="-48.658727"><ele>4.093048</ele></trkpt><trkpt lat="-27.024541" lon="-48.658723"><ele>3.655792</ele></trkpt><trkpt lat="-27.024512" lon="-48.658716"><ele>4.058533</ele></trkpt><trkpt lat="-27.024487" lon="-48.65871"><ele>4.346008</ele></trkpt><trkpt lat="-27.024462" lon="-48.658705"><ele>4.315765</ele></trkpt><trkpt lat="-27.024437" lon="-48.658698"><ele>4.015198</ele></trkpt><trkpt lat="-27.024409" lon="-48.658692"><ele>4.142212</ele></trkpt><trkpt lat="-27.024383" lon="-48.658686"><ele>4.142365</ele></trkpt><trkpt lat="-27.024353" lon="-48.658677"><ele>4.240936</ele></trkpt><trkpt lat="-27.024322" lon="-48.658668"><ele>4.577271</ele></trkpt><trkpt lat="-27.024291" lon="-48.658662"><ele>4.413147</ele></trkpt><trkpt lat="-27.024261" lon="-48.658656"><ele>5.675934</ele></trkpt><trkpt lat="-27.02423" lon="-48.65865"><ele>5.531525</ele></trkpt><trkpt lat="-27.024197" lon="-48.658645"><ele>5.625</ele></trkpt><trkpt lat="-27.024163" lon="-48.658637"><ele>7.82486</ele></trkpt><trkpt lat="-27.02413" lon="-48.658629"><ele>7.849518</ele></trkpt><trkpt lat="-27.024098" lon="-48.658623"><ele>6.132019</ele></trkpt><trkpt lat="-27.024067" lon="-48.658617"><ele>6.407928</ele></trkpt><trkpt lat="-27.024031" lon="-48.658609"><ele>5.560974</ele></trkpt><trkpt lat="-27.024006" lon="-48.658602"><ele>5.186371</ele></trkpt><trkpt lat="-27.023976" lon="-48.658595"><ele>5.173004</ele></trkpt><trkpt lat="-27.023948" lon="-48.65859"><ele>5.42157</ele></trkpt><trkpt lat="-27.023926" lon="-48.658589"><ele>5.20929</ele></trkpt><trkpt lat="-27.023914" lon="-48.658587"><ele>5.578918</ele></trkpt><trkpt lat="-27.023914" lon="-48.658587"><ele>5.66153</ele></trkpt><trkpt lat="-27.023914" lon="-48.658588"><ele>5.580902</ele></trkpt><trkpt lat="-27.023916" lon="-48.658583"><ele>5.409882</ele></trkpt><trkpt lat="-27.023917" lon="-48.658582"><ele>3.472046</ele></trkpt><trkpt lat="-27.023918" lon="-48.658581"><ele>3.483276</ele></trkpt><trkpt lat="-27.02392" lon="-48.65858"><ele>3.531311</ele></trkpt><trkpt lat="-27.02392" lon="-48.65858"><ele>3.531311</ele></trkpt><trkpt lat="-27.023921" lon="-48.658579"><ele>3.525787</ele></trkpt><trkpt lat="-27.023922" lon="-48.658578"><ele>3.436432</ele></trkpt><trkpt lat="-27.023924" lon="-48.658578"><ele>3.175781</ele></trkpt><trkpt lat="-27.023923" lon="-48.65858"><ele>3.423004</ele></trkpt><trkpt lat="-27.02392" lon="-48.65858"><ele>3.850647</ele></trkpt><trkpt lat="-27.023917" lon="-48.658578"><ele>3.702698</ele></trkpt><trkpt lat="-27.023915" lon="-48.658577"><ele>5.637177</ele></trkpt><trkpt lat="-27.023914" lon="-48.658577"><ele>6.266785</ele></trkpt><trkpt lat="-27.023914" lon="-48.658577"><ele>6.264679</ele></trkpt><trkpt lat="-27.023916" lon="-48.658576"><ele>5.9328</ele></trkpt><trkpt lat="-27.023915" lon="-48.658575"><ele>5.710785</ele></trkpt><trkpt lat="-27.023915" lon="-48.658575"><ele>5.701447</ele></trkpt><trkpt lat="-27.023915" lon="-48.658575"><ele>5.701996</ele></trkpt><trkpt lat="-27.023915" lon="-48.658575"><ele>5.511169</ele></trkpt><trkpt lat="-27.023915" lon="-48.658575"><ele>5.496643</ele></trkpt><trkpt lat="-27.023916" lon="-48.658575"><ele>5.497925</ele></trkpt><trkpt lat="-27.023913" lon="-48.658574"><ele>5.605927</ele></trkpt><trkpt lat="-27.023908" lon="-48.658574"><ele>5.83905</ele></trkpt><trkpt lat="-27.023905" lon="-48.658574"><ele>5.841736</ele></trkpt><trkpt lat="-27.023904" lon="-48.658574"><ele>5.71167</ele></trkpt><trkpt lat="-27.023902" lon="-48.658575"><ele>5.769989</ele></trkpt><trkpt lat="-27.023898" lon="-48.658579"><ele>5.784821</ele></trkpt><trkpt lat="-27.023896" lon="-48.658584"><ele>6.357208</ele></trkpt><trkpt lat="-27.023901" lon="-48.658594"><ele>5.810486</ele></trkpt><trkpt lat="-27.023902" lon="-48.658594"><ele>5.737518</ele></trkpt><trkpt lat="-27.023902" lon="-48.658589"><ele>4.961731</ele></trkpt><trkpt lat="-27.023903" lon="-48.658582"><ele>4.982697</ele></trkpt><trkpt lat="-27.023907" lon="-48.658586"><ele>4.795471</ele></trkpt><trkpt lat="-27.023908" lon="-48.658588"><ele>4.645905</ele></trkpt><trkpt lat="-27.02392" lon="-48.658581"><ele>3.908264</ele></trkpt><trkpt lat="-27.023926" lon="-48.658578"><ele>3.921265</ele></trkpt><trkpt lat="-27.023928" lon="-48.65858"><ele>3.959045</ele></trkpt><trkpt lat="-27.023931" lon="-48.658578"><ele>3.480499</ele></trkpt><trkpt lat="-27.023924" lon="-48.658578"><ele>3.728424</ele></trkpt><trkpt lat="-27.023917" lon="-48.658578"><ele>2.950439</ele></trkpt><trkpt lat="-27.023903" lon="-48.658577"><ele>3.727386</ele></trkpt><trkpt lat="-27.023889" lon="-48.658574"><ele>3.766968</ele></trkpt><trkpt lat="-27.023863" lon="-48.658572"><ele>4.581635</ele></trkpt><trkpt lat="-27.023839" lon="-48.658567"><ele>4.607971</ele></trkpt><trkpt lat="-27.02381" lon="-48.658564"><ele>4.608246</ele></trkpt><trkpt lat="-27.023785" lon="-48.658558"><ele>4.207092</ele></trkpt><trkpt lat="-27.023763" lon="-48.658555"><ele>4.128448</ele></trkpt><trkpt lat="-27.023739" lon="-48.658548"><ele>4.078552</ele></trkpt><trkpt lat="-27.023718" lon="-48.658542"><ele>4.100891</ele></trkpt><trkpt lat="-27.023697" lon="-48.658537"><ele>3.753845</ele></trkpt><trkpt lat="-27.023697" lon="-48.658537"><ele>3.753845</ele></trkpt><trkpt lat="-27.023676" lon="-48.658529"><ele>3.157562</ele></trkpt><trkpt lat="-27.023657" lon="-48.658525"><ele>3.323853</ele></trkpt><trkpt lat="-27.023642" lon="-48.658524"><ele>4.481964</ele></trkpt><trkpt lat="-27.023623" lon="-48.658524"><ele>4.196533</ele></trkpt><trkpt lat="-27.0236" lon="-48.658519"><ele>4.429718</ele></trkpt><trkpt lat="-27.023576" lon="-48.658511"><ele>4.786804</ele></trkpt><trkpt lat="-27.02355" lon="-48.658504"><ele>4.800171</ele></trkpt><trkpt lat="-27.023523" lon="-48.658499"><ele>4.250793</ele></trkpt><trkpt lat="-27.023494" lon="-48.658494"><ele>4.92215</ele></trkpt><trkpt lat="-27.023463" lon="-48.65849"><ele>5.505707</ele></trkpt><trkpt lat="-27.023435" lon="-48.658485"><ele>5.885681</ele></trkpt><trkpt lat="-27.023405" lon="-48.658482"><ele>5.625031</ele></trkpt><trkpt lat="-27.02338" lon="-48.658476"><ele>5.25882</ele></trkpt><trkpt lat="-27.023358" lon="-48.658472"><ele>4.939545</ele></trkpt><trkpt lat="-27.023358" lon="-48.658472"><ele>4.939545</ele></trkpt><trkpt lat="-27.023335" lon="-48.658469"><ele>4.990265</ele></trkpt><trkpt lat="-27.023312" lon="-48.658465"><ele>4.919952</ele></trkpt><trkpt lat="-27.023285" lon="-48.658459"><ele>4.339447</ele></trkpt><trkpt lat="-27.023256" lon="-48.658454"><ele>4.139709</ele></trkpt><trkpt lat="-27.023224" lon="-48.658449"><ele>4.347595</ele></trkpt><trkpt lat="-27.023189" lon="-48.658444"><ele>5.681152</ele></trkpt><trkpt lat="-27.023156" lon="-48.658438"><ele>5.597961</ele></trkpt><trkpt lat="-27.023127" lon="-48.658434"><ele>6.890472</ele></trkpt><trkpt lat="-27.023127" lon="-48.658434"><ele>6.890472</ele></trkpt><trkpt lat="-27.023094" lon="-48.658433"><ele>7.187073</ele></trkpt><trkpt lat="-27.023064" lon="-48.658432"><ele>5.378998</ele></trkpt><trkpt lat="-27.023032" lon="-48.658427"><ele>5.339386</ele></trkpt><trkpt lat="-27.023001" lon="-48.658424"><ele>5.465271</ele></trkpt><trkpt lat="-27.022967" lon="-48.658418"><ele>5.236237</ele></trkpt><trkpt lat="-27.02294" lon="-48.658416"><ele>5.592346</ele></trkpt><trkpt lat="-27.022908" lon="-48.658413"><ele>5.224426</ele></trkpt><trkpt lat="-27.022877" lon="-48.65841"><ele>4.413361</ele></trkpt><trkpt lat="-27.022845" lon="-48.658406"><ele>4.175385</ele></trkpt><trkpt lat="-27.022812" lon="-48.658397"><ele>6.667999</ele></trkpt><trkpt lat="-27.022781" lon="-48.658389"><ele>6.622467</ele></trkpt><trkpt lat="-27.022781" lon="-48.658389"><ele>6.622467</ele></trkpt><trkpt lat="-27.022747" lon="-48.658385"><ele>4.672272</ele></trkpt><trkpt lat="-27.022717" lon="-48.658382"><ele>4.307983</ele></trkpt><trkpt lat="-27.022681" lon="-48.658378"><ele>4.930969</ele></trkpt><trkpt lat="-27.022644" lon="-48.65837"><ele>4.708618</ele></trkpt><trkpt lat="-27.022615" lon="-48.658367"><ele>4.294769</ele></trkpt><trkpt lat="-27.022586" lon="-48.658362"><ele>4.716522</ele></trkpt><trkpt lat="-27.022555" lon="-48.658356"><ele>4.524139</ele></trkpt><trkpt lat="-27.022555" lon="-48.658356"><ele>4.524139</ele></trkpt><trkpt lat="-27.022526" lon="-48.65835"><ele>4.760437</ele></trkpt><trkpt lat="-27.022499" lon="-48.658346"><ele>4.904785</ele></trkpt><trkpt lat="-27.022468" lon="-48.658341"><ele>4.902161</ele></trkpt><trkpt lat="-27.022436" lon="-48.658337"><ele>5.187683</ele></trkpt><trkpt lat="-27.022401" lon="-48.658332"><ele>5.024048</ele></trkpt><trkpt lat="-27.022367" lon="-48.658327"><ele>5.524475</ele></trkpt><trkpt lat="-27.022333" lon="-48.658324"><ele>5.683685</ele></trkpt><trkpt lat="-27.022299" lon="-48.658321"><ele>5.29483</ele></trkpt><trkpt lat="-27.022265" lon="-48.658314"><ele>5.325531</ele></trkpt><trkpt lat="-27.022229" lon="-48.658308"><ele>5.799927</ele></trkpt><trkpt lat="-27.022192" lon="-48.658304"><ele>5.402039</ele></trkpt><trkpt lat="-27.022157" lon="-48.6583"><ele>5.350037</ele></trkpt><trkpt lat="-27.022121" lon="-48.658294"><ele>5.411804</ele></trkpt><trkpt lat="-27.022087" lon="-48.658289"><ele>4.473694</ele></trkpt><trkpt lat="-27.022087" lon="-48.658289"><ele>4.473694</ele></trkpt><trkpt lat="-27.022055" lon="-48.658283"><ele>4.399719</ele></trkpt><trkpt lat="-27.02202" lon="-48.658275"><ele>4.55777</ele></trkpt><trkpt lat="-27.021982" lon="-48.658269"><ele>5.302155</ele></trkpt><trkpt lat="-27.021939" lon="-48.658263"><ele>5.507996</ele></trkpt><trkpt lat="-27.021897" lon="-48.658259"><ele>6.109802</ele></trkpt><trkpt lat="-27.02186" lon="-48.658254"><ele>6.228699</ele></trkpt><trkpt lat="-27.021824" lon="-48.658243"><ele>6.204163</ele></trkpt><trkpt lat="-27.021785" lon="-48.658234"><ele>6.520538</ele></trkpt><trkpt lat="-27.021751" lon="-48.658227"><ele>6.221649</ele></trkpt><trkpt lat="-27.021718" lon="-48.65822"><ele>6.194</ele></trkpt><trkpt lat="-27.021686" lon="-48.658212"><ele>6.183655</ele></trkpt><trkpt lat="-27.021651" lon="-48.658204"><ele>6.280457</ele></trkpt><trkpt lat="-27.021616" lon="-48.658196"><ele>6.12915</ele></trkpt><trkpt lat="-27.021585" lon="-48.658187"><ele>6.35611</ele></trkpt><trkpt lat="-27.021555" lon="-48.658178"><ele>5.923431</ele></trkpt><trkpt lat="-27.021525" lon="-48.658167"><ele>5.22702</ele></trkpt><trkpt lat="-27.021525" lon="-48.658167"><ele>5.22702</ele></trkpt><trkpt lat="-27.021493" lon="-48.658155"><ele>5.253937</ele></trkpt><trkpt lat="-27.021457" lon="-48.658143"><ele>6.241699</ele></trkpt><trkpt lat="-27.021424" lon="-48.658137"><ele>5.45163</ele></trkpt><trkpt lat="-27.021391" lon="-48.65813"><ele>4.687378</ele></trkpt><trkpt lat="-27.02136" lon="-48.658117"><ele>4.777557</ele></trkpt><trkpt lat="-27.02133" lon="-48.658099"><ele>4.333923</ele></trkpt><trkpt lat="-27.021303" lon="-48.65808"><ele>3.973328</ele></trkpt><trkpt lat="-27.021303" lon="-48.65808"><ele>3.973328</ele></trkpt><trkpt lat="-27.021283" lon="-48.65806"><ele>3.497284</ele></trkpt><trkpt lat="-27.021283" lon="-48.65806"><ele>3.497284</ele></trkpt><trkpt lat="-27.021262" lon="-48.658042"><ele>3.534973</ele></trkpt><trkpt lat="-27.021238" lon="-48.658021"><ele>3.328644</ele></trkpt><trkpt lat="-27.021217" lon="-48.657997"><ele>3.606873</ele></trkpt><trkpt lat="-27.021196" lon="-48.65797"><ele>3.957184</ele></trkpt><trkpt lat="-27.021176" lon="-48.657939"><ele>4.03772</ele></trkpt><trkpt lat="-27.021157" lon="-48.657908"><ele>4.07132</ele></trkpt><trkpt lat="-27.021139" lon="-48.657877"><ele>3.987671</ele></trkpt><trkpt lat="-27.021124" lon="-48.657844"><ele>3.875275</ele></trkpt><trkpt lat="-27.021124" lon="-48.657844"><ele>3.875275</ele></trkpt><trkpt lat="-27.021124" lon="-48.657844"><ele>3.875275</ele></trkpt><trkpt lat="-27.021111" lon="-48.657813"><ele>4.008972</ele></trkpt><trkpt lat="-27.021099" lon="-48.65778"><ele>3.630127</ele></trkpt><trkpt lat="-27.021088" lon="-48.657746"><ele>4.078613</ele></trkpt><trkpt lat="-27.021079" lon="-48.657708"><ele>3.734772</ele></trkpt><trkpt lat="-27.021074" lon="-48.65767"><ele>4.236298</ele></trkpt><trkpt lat="-27.021073" lon="-48.657632"><ele>3.945953</ele></trkpt><trkpt lat="-27.021073" lon="-48.657593"><ele>4.31723</ele></trkpt><trkpt lat="-27.021075" lon="-48.657554"><ele>4.464142</ele></trkpt><trkpt lat="-27.021078" lon="-48.657514"><ele>4.256531</ele></trkpt><trkpt lat="-27.021082" lon="-48.657474"><ele>4.04129</ele></trkpt><trkpt lat="-27.021087" lon="-48.657435"><ele>4.420898</ele></trkpt><trkpt lat="-27.02109" lon="-48.657397"><ele>3.797577</ele></trkpt><trkpt lat="-27.021094" lon="-48.657361"><ele>4.291382</ele></trkpt><trkpt lat="-27.021099" lon="-48.657326"><ele>4.482544</ele></trkpt><trkpt lat="-27.021102" lon="-48.657297"><ele>4.616302</ele></trkpt><trkpt lat="-27.021106" lon="-48.65727"><ele>4.286072</ele></trkpt><trkpt lat="-27.02111" lon="-48.657245"><ele>4.604309</ele></trkpt><trkpt lat="-27.021113" lon="-48.65723"><ele>4.773376</ele></trkpt><trkpt lat="-27.021114" lon="-48.657227"><ele>4.409363</ele></trkpt><trkpt lat="-27.021114" lon="-48.657226"><ele>4.662201</ele></trkpt><trkpt lat="-27.021117" lon="-48.657222"><ele>4.407166</ele></trkpt><trkpt lat="-27.021119" lon="-48.65722"><ele>4.343872</ele></trkpt><trkpt lat="-27.021119" lon="-48.657217"><ele>4.415314</ele></trkpt><trkpt lat="-27.021119" lon="-48.657217"><ele>4.415314</ele></trkpt><trkpt lat="-27.021118" lon="-48.657216"><ele>4.479095</ele></trkpt><trkpt lat="-27.021119" lon="-48.657215"><ele>4.446716</ele></trkpt><trkpt lat="-27.021119" lon="-48.657213"><ele>4.5802</ele></trkpt><trkpt lat="-27.02112" lon="-48.657209"><ele>4.553711</ele></trkpt><trkpt lat="-27.021122" lon="-48.657198"><ele>4.364838</ele></trkpt><trkpt lat="-27.021124" lon="-48.657179"><ele>4.409393</ele></trkpt><trkpt lat="-27.021127" lon="-48.657155"><ele>4.706604</ele></trkpt><trkpt lat="-27.021131" lon="-48.65713"><ele>4.662628</ele></trkpt><trkpt lat="-27.021132" lon="-48.657103"><ele>4.48584</ele></trkpt><trkpt lat="-27.021129" lon="-48.65708"><ele>4.387268</ele></trkpt><trkpt lat="-27.021129" lon="-48.657053"><ele>4.193939</ele></trkpt><trkpt lat="-27.021132" lon="-48.657028"><ele>4.449951</ele></trkpt><trkpt lat="-27.021133" lon="-48.657005"><ele>4.40509</ele></trkpt><trkpt lat="-27.021133" lon="-48.657005"><ele>4.40509</ele></trkpt><trkpt lat="-27.021134" lon="-48.656987"><ele>4.411591</ele></trkpt><trkpt lat="-27.021134" lon="-48.656987"><ele>4.411591</ele></trkpt><trkpt lat="-27.021134" lon="-48.656987"><ele>4.411591</ele></trkpt><trkpt lat="-27.021136" lon="-48.65697"><ele>4.518616</ele></trkpt><trkpt lat="-27.021141" lon="-48.65695"><ele>4.520203</ele></trkpt><trkpt lat="-27.021148" lon="-48.656924"><ele>5.021973</ele></trkpt><trkpt lat="-27.021153" lon="-48.656892"><ele>5.018311</ele></trkpt><trkpt lat="-27.021157" lon="-48.656859"><ele>4.966217</ele></trkpt><trkpt lat="-27.02116" lon="-48.656824"><ele>5.262207</ele></trkpt><trkpt lat="-27.021164" lon="-48.656787"><ele>5.390015</ele></trkpt><trkpt lat="-27.021169" lon="-48.656753"><ele>5.542023</ele></trkpt><trkpt lat="-27.021174" lon="-48.656718"><ele>5.91394</ele></trkpt><trkpt lat="-27.021179" lon="-48.65669"><ele>5.312012</ele></trkpt><trkpt lat="-27.021182" lon="-48.656663"><ele>5.738831</ele></trkpt><trkpt lat="-27.021182" lon="-48.656663"><ele>5.738831</ele></trkpt><trkpt lat="-27.021182" lon="-48.656663"><ele>5.738831</ele></trkpt><trkpt lat="-27.021182" lon="-48.656663"><ele>5.738831</ele></trkpt><trkpt lat="-27.021184" lon="-48.656637"><ele>5.553009</ele></trkpt><trkpt lat="-27.021185" lon="-48.656612"><ele>5.721863</ele></trkpt><trkpt lat="-27.021188" lon="-48.656584"><ele>5.567902</ele></trkpt><trkpt lat="-27.021192" lon="-48.656553"><ele>6.735168</ele></trkpt><trkpt lat="-27.021188" lon="-48.656518"><ele>7.470886</ele></trkpt><trkpt lat="-27.021187" lon="-48.656487"><ele>7.327942</ele></trkpt><trkpt lat="-27.021191" lon="-48.656453"><ele>7.616241</ele></trkpt><trkpt lat="-27.021195" lon="-48.65642"><ele>7.373322</ele></trkpt><trkpt lat="-27.021199" lon="-48.65639"><ele>7.082092</ele></trkpt><trkpt lat="-27.021199" lon="-48.65639"><ele>7.082092</ele></trkpt><trkpt lat="-27.021201" lon="-48.65636"><ele>6.994415</ele></trkpt><trkpt lat="-27.021202" lon="-48.656332"><ele>7.128082</ele></trkpt><trkpt lat="-27.021205" lon="-48.6563"><ele>6.559784</ele></trkpt><trkpt lat="-27.02121" lon="-48.656267"><ele>6.891235</ele></trkpt><trkpt lat="-27.021216" lon="-48.65623"><ele>6.627838</ele></trkpt><trkpt lat="-27.02122" lon="-48.656194"><ele>6.840546</ele></trkpt><trkpt lat="-27.021225" lon="-48.656152"><ele>6.967346</ele></trkpt><trkpt lat="-27.021231" lon="-48.656109"><ele>6.766174</ele></trkpt><trkpt lat="-27.021236" lon="-48.656073"><ele>7.470184</ele></trkpt><trkpt lat="-27.021238" lon="-48.656038"><ele>7.891449</ele></trkpt><trkpt lat="-27.021238" lon="-48.656005"><ele>8.429688</ele></trkpt><trkpt lat="-27.021241" lon="-48.655972"><ele>8.180695</ele></trkpt><trkpt lat="-27.021247" lon="-48.655934"><ele>8.042328</ele></trkpt><trkpt lat="-27.021249" lon="-48.655893"><ele>8.062714</ele></trkpt><trkpt lat="-27.021253" lon="-48.655853"><ele>7.305389</ele></trkpt><trkpt lat="-27.021254" lon="-48.655838"><ele>6.633636</ele></trkpt><trkpt lat="-27.021254" lon="-48.655836"><ele>7.018097</ele></trkpt><trkpt lat="-27.021258" lon="-48.655816"><ele>7.129456</ele></trkpt><trkpt lat="-27.021259" lon="-48.655811"><ele>6.555145</ele></trkpt><trkpt lat="-27.021261" lon="-48.655807"><ele>7.663971</ele></trkpt><trkpt lat="-27.021262" lon="-48.655807"><ele>6.579742</ele></trkpt><trkpt lat="-27.02126" lon="-48.655809"><ele>6.632874</ele></trkpt><trkpt lat="-27.021253" lon="-48.655808"><ele>6.411041</ele></trkpt><trkpt lat="-27.021244" lon="-48.655802"><ele>6.736084</ele></trkpt><trkpt lat="-27.021244" lon="-48.655802"><ele>6.743896</ele></trkpt><trkpt lat="-27.021248" lon="-48.655806"><ele>6.743317</ele></trkpt><trkpt lat="-27.021248" lon="-48.655807"><ele>6.844788</ele></trkpt><trkpt lat="-27.021248" lon="-48.655808"><ele>6.990234</ele></trkpt><trkpt lat="-27.021248" lon="-48.655809"><ele>6.987762</ele></trkpt><trkpt lat="-27.021248" lon="-48.655809"><ele>6.988068</ele></trkpt><trkpt lat="-27.021248" lon="-48.655809"><ele>6.984985</ele></trkpt><trkpt lat="-27.021249" lon="-48.655809"><ele>6.685455</ele></trkpt><trkpt lat="-27.021251" lon="-48.655808"><ele>5.944031</ele></trkpt><trkpt lat="-27.021252" lon="-48.655807"><ele>5.372192</ele></trkpt><trkpt lat="-27.021256" lon="-48.655805"><ele>5.425659</ele></trkpt><trkpt lat="-27.021257" lon="-48.655808"><ele>5.215942</ele></trkpt><trkpt lat="-27.021254" lon="-48.655815"><ele>4.95108</ele></trkpt><trkpt lat="-27.021253" lon="-48.655822"><ele>4.836945</ele></trkpt><trkpt lat="-27.021254" lon="-48.655834"><ele>5.305084</ele></trkpt><trkpt lat="-27.021255" lon="-48.65584"><ele>5.346191</ele></trkpt><trkpt lat="-27.021255" lon="-48.655841"><ele>5.343231</ele></trkpt><trkpt lat="-27.021255" lon="-48.655842"><ele>6.19046</ele></trkpt><trkpt lat="-27.021254" lon="-48.655842"><ele>6.320953</ele></trkpt><trkpt lat="-27.021254" lon="-48.655838"><ele>6.614746</ele></trkpt><trkpt lat="-27.021255" lon="-48.655819"><ele>6.234039</ele></trkpt><trkpt lat="-27.021256" lon="-48.655809"><ele>6.991119</ele></trkpt><trkpt lat="-27.021259" lon="-48.655791"><ele>7.528839</ele></trkpt><trkpt lat="-27.021262" lon="-48.65577"><ele>7.733154</ele></trkpt><trkpt lat="-27.021265" lon="-48.655746"><ele>7.62796</ele></trkpt><trkpt lat="-27.021267" lon="-48.65572"><ele>7.451324</ele></trkpt><trkpt lat="-27.021269" lon="-48.655694"><ele>7.532776</ele></trkpt><trkpt lat="-27.021271" lon="-48.655673"><ele>7.658905</ele></trkpt><trkpt lat="-27.021271" lon="-48.655673"><ele>7.658905</ele></trkpt><trkpt lat="-27.021273" lon="-48.655652"><ele>7.24234</ele></trkpt><trkpt lat="-27.021275" lon="-48.655628"><ele>7.173828</ele></trkpt><trkpt lat="-27.021278" lon="-48.655602"><ele>7.286987</ele></trkpt><trkpt lat="-27.021283" lon="-48.655572"><ele>7.300476</ele></trkpt><trkpt lat="-27.021288" lon="-48.655541"><ele>7.125885</ele></trkpt><trkpt lat="-27.021292" lon="-48.655511"><ele>7.187317</ele></trkpt><trkpt lat="-27.021296" lon="-48.655485"><ele>7.682983</ele></trkpt><trkpt lat="-27.021296" lon="-48.655485"><ele>7.682983</ele></trkpt><trkpt lat="-27.021298" lon="-48.65546"><ele>7.976257</ele></trkpt><trkpt lat="-27.021299" lon="-48.655438"><ele>8.17392</ele></trkpt><trkpt lat="-27.0213" lon="-48.655415"><ele>7.910309</ele></trkpt><trkpt lat="-27.0213" lon="-48.655415"><ele>7.910309</ele></trkpt><trkpt lat="-27.021301" lon="-48.655388"><ele>7.892578</ele></trkpt><trkpt lat="-27.021302" lon="-48.655362"><ele>7.708191</ele></trkpt><trkpt lat="-27.021303" lon="-48.655333"><ele>7.396484</ele></trkpt><trkpt lat="-27.021304" lon="-48.655304"><ele>7.23584</ele></trkpt><trkpt lat="-27.021306" lon="-48.655277"><ele>6.327332</ele></trkpt><trkpt lat="-27.021311" lon="-48.655253"><ele>6.433624</ele></trkpt><trkpt lat="-27.021313" lon="-48.655231"><ele>5.945282</ele></trkpt><trkpt lat="-27.021313" lon="-48.655231"><ele>5.945282</ele></trkpt><trkpt lat="-27.021314" lon="-48.655214"><ele>5.71756</ele></trkpt><trkpt lat="-27.021315" lon="-48.655206"><ele>5.701904</ele></trkpt><trkpt lat="-27.021317" lon="-48.65518"><ele>5.341705</ele></trkpt><trkpt lat="-27.021321" lon="-48.655155"><ele>5.527649</ele></trkpt><trkpt lat="-27.021322" lon="-48.65513"><ele>5.508667</ele></trkpt><trkpt lat="-27.021323" lon="-48.655108"><ele>5.689056</ele></trkpt><trkpt lat="-27.021324" lon="-48.655086"><ele>5.510773</ele></trkpt><trkpt lat="-27.021326" lon="-48.655066"><ele>5.580841</ele></trkpt><trkpt lat="-27.021326" lon="-48.655066"><ele>5.580841</ele></trkpt><trkpt lat="-27.021328" lon="-48.655048"><ele>5.61264</ele></trkpt><trkpt lat="-27.02133" lon="-48.65503"><ele>5.650146</ele></trkpt><trkpt lat="-27.021337" lon="-48.65501"><ele>5.007538</ele></trkpt><trkpt lat="-27.021341" lon="-48.65498"><ele>6.193115</ele></trkpt><trkpt lat="-27.021345" lon="-48.654948"><ele>6.418823</ele></trkpt><trkpt lat="-27.021347" lon="-48.654916"><ele>6.604889</ele></trkpt><trkpt lat="-27.02135" lon="-48.654884"><ele>6.661041</ele></trkpt><trkpt lat="-27.021353" lon="-48.654853"><ele>5.879211</ele></trkpt><trkpt lat="-27.021355" lon="-48.654821"><ele>5.918976</ele></trkpt><trkpt lat="-27.021355" lon="-48.654821"><ele>5.918976</ele></trkpt><trkpt lat="-27.021357" lon="-48.654791"><ele>5.943634</ele></trkpt><trkpt lat="-27.02136" lon="-48.654761"><ele>5.702148</ele></trkpt><trkpt lat="-27.021364" lon="-48.65473"><ele>5.552124</ele></trkpt><trkpt lat="-27.021368" lon="-48.654699"><ele>5.526093</ele></trkpt><trkpt lat="-27.021372" lon="-48.654669"><ele>6.044861</ele></trkpt><trkpt lat="-27.021376" lon="-48.65464"><ele>6.412689</ele></trkpt><trkpt lat="-27.02138" lon="-48.654611"><ele>6.618042</ele></trkpt><trkpt lat="-27.021382" lon="-48.65458"><ele>6.68045</ele></trkpt><trkpt lat="-27.021383" lon="-48.654551"><ele>6.569977</ele></trkpt><trkpt lat="-27.021384" lon="-48.654524"><ele>6.429688</ele></trkpt><trkpt lat="-27.021387" lon="-48.654503"><ele>5.993317</ele></trkpt><trkpt lat="-27.021392" lon="-48.65448"><ele>6.010956</ele></trkpt><trkpt lat="-27.021395" lon="-48.654458"><ele>6.662231</ele></trkpt><trkpt lat="-27.021398" lon="-48.654434"><ele>6.995911</ele></trkpt><trkpt lat="-27.021401" lon="-48.65441"><ele>7.159851</ele></trkpt><trkpt lat="-27.021404" lon="-48.654385"><ele>7.430054</ele></trkpt><trkpt lat="-27.021407" lon="-48.65436"><ele>7.437866</ele></trkpt><trkpt lat="-27.02141" lon="-48.654335"><ele>7.750946</ele></trkpt><trkpt lat="-27.021413" lon="-48.654309"><ele>8.297516</ele></trkpt><trkpt lat="-27.021414" lon="-48.654289"><ele>10.047882</ele></trkpt><trkpt lat="-27.021414" lon="-48.65427"><ele>10.723724</ele></trkpt><trkpt lat="-27.021414" lon="-48.654272"><ele>10.6987</ele></trkpt><trkpt lat="-27.021414" lon="-48.654273"><ele>10.696594</ele></trkpt><trkpt lat="-27.021414" lon="-48.654273"><ele>10.696594</ele></trkpt><trkpt lat="-27.021414" lon="-48.654274"><ele>10.69693</ele></trkpt><trkpt lat="-27.021413" lon="-48.654272"><ele>10.85553</ele></trkpt><trkpt lat="-27.021412" lon="-48.654269"><ele>10.987335</ele></trkpt><trkpt lat="-27.021412" lon="-48.65426"><ele>10.906952</ele></trkpt><trkpt lat="-27.021415" lon="-48.654246"><ele>10.889496</ele></trkpt><trkpt lat="-27.021419" lon="-48.654232"><ele>11.118622</ele></trkpt><trkpt lat="-27.021421" lon="-48.654218"><ele>10.926605</ele></trkpt><trkpt lat="-27.021423" lon="-48.654205"><ele>11.061737</ele></trkpt><trkpt lat="-27.021422" lon="-48.654201"><ele>11.092285</ele></trkpt><trkpt lat="-27.021422" lon="-48.6542"><ele>11.343872</ele></trkpt><trkpt lat="-27.021422" lon="-48.6542"><ele>11.343872</ele></trkpt><trkpt lat="-27.021424" lon="-48.6542"><ele>11.11554</ele></trkpt><trkpt lat="-27.021425" lon="-48.6542"><ele>11.336426</ele></trkpt><trkpt lat="-27.021427" lon="-48.654205"><ele>10.946106</ele></trkpt><trkpt lat="-27.021428" lon="-48.654209"><ele>10.929108</ele></trkpt><trkpt lat="-27.021429" lon="-48.65421"><ele>10.931976</ele></trkpt><trkpt lat="-27.021429" lon="-48.65421"><ele>10.933746</ele></trkpt><trkpt lat="-27.021428" lon="-48.654211"><ele>10.887451</ele></trkpt><trkpt lat="-27.021423" lon="-48.654208"><ele>11.202118</ele></trkpt><trkpt lat="-27.021423" lon="-48.654207"><ele>11.163696</ele></trkpt><trkpt lat="-27.021422" lon="-48.654204"><ele>11.169586</ele></trkpt><trkpt lat="-27.021423" lon="-48.654203"><ele>11.210205</ele></trkpt><trkpt lat="-27.021424" lon="-48.654202"><ele>9.728821</ele></trkpt><trkpt lat="-27.021425" lon="-48.654203"><ele>9.404938</ele></trkpt><trkpt lat="-27.021426" lon="-48.654203"><ele>9.400146</ele></trkpt><trkpt lat="-27.021426" lon="-48.654204"><ele>9.660034</ele></trkpt><trkpt lat="-27.021425" lon="-48.654204"><ele>9.5466</ele></trkpt><trkpt lat="-27.021423" lon="-48.654206"><ele>9.506775</ele></trkpt><trkpt lat="-27.021422" lon="-48.654206"><ele>9.250793</ele></trkpt><trkpt lat="-27.021423" lon="-48.654206"><ele>9.246185</ele></trkpt><trkpt lat="-27.021423" lon="-48.654206"><ele>9.246185</ele></trkpt><trkpt lat="-27.021423" lon="-48.654206"><ele>9.241394</ele></trkpt><trkpt lat="-27.021424" lon="-48.654206"><ele>9.375885</ele></trkpt><trkpt lat="-27.021425" lon="-48.654202"><ele>8.899719</ele></trkpt><trkpt lat="-27.021425" lon="-48.6542"><ele>8.935303</ele></trkpt><trkpt lat="-27.021424" lon="-48.6542"><ele>8.93158</ele></trkpt><trkpt lat="-27.021424" lon="-48.6542"><ele>8.93692</ele></trkpt><trkpt lat="-27.021424" lon="-48.6542"><ele>8.933411</ele></trkpt><trkpt lat="-27.021424" lon="-48.654199"><ele>8.928375</ele></trkpt><trkpt lat="-27.021424" lon="-48.654199"><ele>8.929749</ele></trkpt><trkpt lat="-27.021427" lon="-48.654197"><ele>9.03009</ele></trkpt><trkpt lat="-27.021429" lon="-48.654197"><ele>9.716187</ele></trkpt><trkpt lat="-27.021434" lon="-48.654202"><ele>9.792175</ele></trkpt><trkpt lat="-27.021434" lon="-48.654205"><ele>9.922089</ele></trkpt><trkpt lat="-27.021436" lon="-48.654212"><ele>9.906219</ele></trkpt><trkpt lat="-27.021437" lon="-48.654217"><ele>9.930023</ele></trkpt><trkpt lat="-27.021435" lon="-48.654225"><ele>9.898621</ele></trkpt><trkpt lat="-27.021431" lon="-48.654232"><ele>10.181213</ele></trkpt><trkpt lat="-27.021428" lon="-48.654235"><ele>10.07431</ele></trkpt><trkpt lat="-27.021427" lon="-48.654238"><ele>12.140869</ele></trkpt><trkpt lat="-27.021422" lon="-48.654238"><ele>12.46759</ele></trkpt><trkpt lat="-27.021419" lon="-48.654239"><ele>12.385559</ele></trkpt><trkpt lat="-27.021418" lon="-48.654238"><ele>12.58728</ele></trkpt><trkpt lat="-27.021419" lon="-48.654238"><ele>12.30835</ele></trkpt><trkpt lat="-27.021422" lon="-48.654238"><ele>12.320862</ele></trkpt><trkpt lat="-27.021422" lon="-48.654238"><ele>12.31842</ele></trkpt><trkpt lat="-27.021421" lon="-48.654237"><ele>11.904449</ele></trkpt><trkpt lat="-27.02142" lon="-48.654236"><ele>11.898865</ele></trkpt><trkpt lat="-27.021424" lon="-48.654236"><ele>11.776215</ele></trkpt><trkpt lat="-27.021424" lon="-48.654236"><ele>11.776215</ele></trkpt><trkpt lat="-27.021428" lon="-48.654235"><ele>10.225342</ele></trkpt><trkpt lat="-27.021432" lon="-48.654228"><ele>10.4151</ele></trkpt><trkpt lat="-27.021434" lon="-48.654219"><ele>10.327911</ele></trkpt><trkpt lat="-27.02144" lon="-48.654208"><ele>10.110992</ele></trkpt><trkpt lat="-27.02144" lon="-48.654206"><ele>9.644806</ele></trkpt><trkpt lat="-27.021433" lon="-48.65421"><ele>10.029358</ele></trkpt><trkpt lat="-27.021433" lon="-48.654214"><ele>10.25824</ele></trkpt><trkpt lat="-27.021436" lon="-48.654214"><ele>10.522095</ele></trkpt><trkpt lat="-27.021444" lon="-48.654208"><ele>10.531067</ele></trkpt><trkpt lat="-27.021447" lon="-48.654214"><ele>10.574677</ele></trkpt><trkpt lat="-27.021441" lon="-48.654221"><ele>11.052704</ele></trkpt><trkpt lat="-27.021435" lon="-48.654224"><ele>11.041382</ele></trkpt><trkpt lat="-27.02143" lon="-48.654225"><ele>10.964355</ele></trkpt><trkpt lat="-27.021428" lon="-48.654228"><ele>10.902618</ele></trkpt><trkpt lat="-27.021423" lon="-48.654208"><ele>10.931763</ele></trkpt><trkpt lat="-27.021421" lon="-48.654209"><ele>11.15036</ele></trkpt><trkpt lat="-27.021422" lon="-48.654209"><ele>10.971619</ele></trkpt><trkpt lat="-27.021423" lon="-48.654207"><ele>10.959442</ele></trkpt><trkpt lat="-27.021424" lon="-48.654207"><ele>10.95932</ele></trkpt><trkpt lat="-27.021424" lon="-48.654206"><ele>10.960022</ele></trkpt><trkpt lat="-27.021423" lon="-48.654203"><ele>10.735504</ele></trkpt><trkpt lat="-27.021424" lon="-48.654203"><ele>10.358154</ele></trkpt><trkpt lat="-27.021427" lon="-48.654205"><ele>10.472778</ele></trkpt><trkpt lat="-27.021428" lon="-48.65421"><ele>10.473907</ele></trkpt><trkpt lat="-27.021428" lon="-48.654215"><ele>10.697418</ele></trkpt><trkpt lat="-27.021428" lon="-48.654215"><ele>10.697418</ele></trkpt><trkpt lat="-27.021428" lon="-48.654216"><ele>10.692566</ele></trkpt><trkpt lat="-27.021428" lon="-48.654216"><ele>10.688568</ele></trkpt><trkpt lat="-27.021428" lon="-48.654216"><ele>10.688477</ele></trkpt><trkpt lat="-27.021428" lon="-48.654216"><ele>10.692657</ele></trkpt><trkpt lat="-27.021428" lon="-48.654216"><ele>10.689941</ele></trkpt><trkpt lat="-27.021428" lon="-48.654216"><ele>10.689941</ele></trkpt><trkpt lat="-27.021428" lon="-48.654216"><ele>10.693329</ele></trkpt><trkpt lat="-27.021428" lon="-48.654216"><ele>10.693298</ele></trkpt><trkpt lat="-27.021428" lon="-48.654216"><ele>10.691254</ele></trkpt><trkpt lat="-27.021428" lon="-48.654216"><ele>10.696777</ele></trkpt><trkpt lat="-27.021428" lon="-48.654216"><ele>10.696381</ele></trkpt><trkpt lat="-27.021428" lon="-48.654216"><ele>10.696381</ele></trkpt><trkpt lat="-27.021428" lon="-48.654216"><ele>10.696991</ele></trkpt><trkpt lat="-27.021428" lon="-48.654216"><ele>10.699158</ele></trkpt><trkpt lat="-27.021428" lon="-48.654216"><ele>10.699646</ele></trkpt><trkpt lat="-27.021428" lon="-48.654216"><ele>10.706482</ele></trkpt><trkpt lat="-27.021428" lon="-48.654216"><ele>10.706146</ele></trkpt><trkpt lat="-27.021428" lon="-48.654216"><ele>10.712891</ele></trkpt><trkpt lat="-27.021428" lon="-48.654216"><ele>10.712891</ele></trkpt><trkpt lat="-27.021428" lon="-48.654217"><ele>10.715332</ele></trkpt><trkpt lat="-27.021428" lon="-48.654217"><ele>10.710083</ele></trkpt><trkpt lat="-27.021428" lon="-48.654217"><ele>10.708893</ele></trkpt><trkpt lat="-27.021428" lon="-48.654217"><ele>10.707764</ele></trkpt><trkpt lat="-27.021428" lon="-48.654217"><ele>10.69812</ele></trkpt><trkpt lat="-27.021428" lon="-48.654217"><ele>10.696747</ele></trkpt><trkpt lat="-27.021428" lon="-48.654217"><ele>10.707947</ele></trkpt><trkpt lat="-27.021428" lon="-48.654217"><ele>10.707947</ele></trkpt><trkpt lat="-27.021428" lon="-48.654217"><ele>10.712097</ele></trkpt><trkpt lat="-27.021428" lon="-48.654217"><ele>10.720703</ele></trkpt><trkpt lat="-27.021427" lon="-48.654219"><ele>10.848022</ele></trkpt><trkpt lat="-27.021427" lon="-48.654219"><ele>12.808289</ele></trkpt><trkpt lat="-27.021427" lon="-48.65422"><ele>12.747192</ele></trkpt><trkpt lat="-27.021427" lon="-48.65422"><ele>12.751099</ele></trkpt><trkpt lat="-27.021427" lon="-48.65422"><ele>12.75531</ele></trkpt><trkpt lat="-27.021427" lon="-48.65422"><ele>12.755066</ele></trkpt><trkpt lat="-27.021427" lon="-48.65422"><ele>12.762329</ele></trkpt><trkpt lat="-27.021427" lon="-48.65422"><ele>12.763672</ele></trkpt><trkpt lat="-27.021425" lon="-48.654221"><ele>12.918335</ele></trkpt><trkpt lat="-27.021425" lon="-48.654222"><ele>12.858215</ele></trkpt><trkpt lat="-27.021425" lon="-48.654222"><ele>12.858337</ele></trkpt><trkpt lat="-27.021424" lon="-48.654223"><ele>12.96814</ele></trkpt><trkpt lat="-27.021424" lon="-48.654223"><ele>12.954651</ele></trkpt><trkpt lat="-27.021424" lon="-48.654225"><ele>12.731934</ele></trkpt><trkpt lat="-27.021422" lon="-48.654227"><ele>12.693909</ele></trkpt><trkpt lat="-27.021422" lon="-48.654227"><ele>12.720764</ele></trkpt><trkpt lat="-27.021422" lon="-48.654228"><ele>12.717651</ele></trkpt><trkpt lat="-27.021422" lon="-48.654228"><ele>12.712402</ele></trkpt><trkpt lat="-27.021422" lon="-48.654228"><ele>12.712402</ele></trkpt><trkpt lat="-27.021423" lon="-48.654228"><ele>10.611572</ele></trkpt><trkpt lat="-27.021424" lon="-48.654228"><ele>10.602661</ele></trkpt><trkpt lat="-27.021424" lon="-48.654228"><ele>10.607178</ele></trkpt><trkpt lat="-27.021424" lon="-48.654228"><ele>10.608551</ele></trkpt><trkpt lat="-27.021424" lon="-48.654228"><ele>10.608551</ele></trkpt><trkpt lat="-27.021424" lon="-48.654228"><ele>10.609955</ele></trkpt><trkpt lat="-27.021424" lon="-48.654228"><ele>10.607422</ele></trkpt><trkpt lat="-27.021424" lon="-48.654228"><ele>10.603973</ele></trkpt><trkpt lat="-27.021424" lon="-48.654228"><ele>10.60733</ele></trkpt><trkpt lat="-27.021424" lon="-48.654228"><ele>10.608429</ele></trkpt><trkpt lat="-27.021424" lon="-48.654228"><ele>10.608429</ele></trkpt><trkpt lat="-27.021424" lon="-48.654228"><ele>10.61026</ele></trkpt><trkpt lat="-27.021424" lon="-48.654228"><ele>10.616913</ele></trkpt><trkpt lat="-27.021424" lon="-48.654228"><ele>10.620514</ele></trkpt><trkpt lat="-27.021424" lon="-48.654228"><ele>10.622223</ele></trkpt><trkpt lat="-27.021424" lon="-48.654228"><ele>10.624969</ele></trkpt><trkpt lat="-27.021425" lon="-48.654229"><ele>10.805328</ele></trkpt><trkpt lat="-27.021427" lon="-48.65423"><ele>10.773987</ele></trkpt><trkpt lat="-27.021428" lon="-48.654231"><ele>10.780029</ele></trkpt><trkpt lat="-27.021429" lon="-48.654231"><ele>10.780029</ele></trkpt><trkpt lat="-27.021429" lon="-48.654231"><ele>10.780029</ele></trkpt><trkpt lat="-27.021429" lon="-48.654231"><ele>10.781158</ele></trkpt><trkpt lat="-27.021429" lon="-48.654231"><ele>10.790131</ele></trkpt><trkpt lat="-27.021429" lon="-48.654231"><ele>10.78894</ele></trkpt><trkpt lat="-27.021429" lon="-48.654231"><ele>10.787628</ele></trkpt><trkpt lat="-27.021429" lon="-48.654231"><ele>10.788452</ele></trkpt><trkpt lat="-27.021429" lon="-48.654231"><ele>10.78714</ele></trkpt><trkpt lat="-27.021429" lon="-48.654231"><ele>10.778595</ele></trkpt><trkpt lat="-27.021429" lon="-48.654231"><ele>12.728027</ele></trkpt><trkpt lat="-27.021429" lon="-48.654231"><ele>12.659546</ele></trkpt><trkpt lat="-27.021429" lon="-48.654231"><ele>12.653687</ele></trkpt></trkseg></trk></gpx>