<?xml version="1.0" encoding="UTF-8"?>
<gpx xmlns="http://www.topografix.com/GPX/1/1" version="1.1" creator="@dwayneparton/geojson-to-gpx"><wpt lat="-27.028679" lon="-48.655553"><ele>13.169983</ele><name>1 faixa</name></wpt><wpt lat="-27.028717" lon="-48.655112"><ele>8.490082</ele><name>40km/h</name></wpt><wpt lat="-27.028874" lon="-48.653446"><ele>9.252197</ele><name>40km/h</name></wpt><wpt lat="-27.028969" lon="-48.652558"><ele>15.7146</ele><name>40km/h</name></wpt><wpt lat="-27.029124" lon="-48.65108"><ele>19.13031</ele><name>40km/h</name></wpt><wpt lat="-27.028754" lon="-48.655259"><ele>-10.231323</ele><name>117</name></wpt><wpt lat="-27.028766" lon="-48.655259"><ele>3.776703</ele><name>305</name></wpt><wpt lat="-27.028779" lon="-48.655254"><ele>1.080383</ele><name>691</name></wpt><wpt lat="-27.029208" lon="-48.650236"><ele>19.076294</ele><name>A ciclo é completamente reta.</name></wpt><wpt lat="-27.029183" lon="-48.650236"><ele>18.71814</ele><name>A pintura está boa, COMPLETA e visível</name></wpt><wpt lat="-27.02869" lon="-48.65558"><ele>16.355774</ele><name>Apenas faixas vermelhas nas bordas, com travessias pintadas nos cruzamentos</name></wpt><wpt lat="-27.028754" lon="-48.655259"><ele>-10.231323</ele><name>Área transitável da ciclo (cm)</name></wpt><wpt lat="-27.028677" lon="-48.655552"><ele>13.06134</ele><name>Asfalto</name></wpt><wpt lat="-27.028702" lon="-48.655591"><ele>16.707947</ele><name>Bidirecional</name></wpt><wpt lat="-27.02873" lon="-48.655339"><ele>9.106262</ele><name>Bueiro</name></wpt><wpt lat="-27.028741" lon="-48.65498"><ele>10.196503</ele><name>Bueiro</name></wpt><wpt lat="-27.028759" lon="-48.654664"><ele>9.971161</ele><name>Bueiro</name></wpt><wpt lat="-27.028762" lon="-48.654631"><ele>9.441986</ele><name>Bueiro</name></wpt><wpt lat="-27.028779" lon="-48.654438"><ele>9.603668</ele><name>Bueiro</name></wpt><wpt lat="-27.028817" lon="-48.654158"><ele>8.637421</ele><name>Bueiro</name></wpt><wpt lat="-27.028931" lon="-48.652926"><ele>14.183533</ele><name>Bueiro</name></wpt><wpt lat="-27.028968" lon="-48.652616"><ele>14.492188</ele><name>Bueiro</name></wpt><wpt lat="-27.029029" lon="-48.651881"><ele>14.086487</ele><name>Bueiro</name></wpt><wpt lat="-27.029041" lon="-48.651757"><ele>14.737854</ele><name>Bueiro</name></wpt><wpt lat="-27.029049" lon="-48.651526"><ele>17.21637</ele><name>Bueiro</name></wpt><wpt lat="-27.028817" lon="-48.654158"><ele>8.637421</ele><name>Buraco</name></wpt><wpt lat="-27.028931" lon="-48.652926"><ele>14.183533</ele><name>Buraco</name></wpt><wpt lat="-27.029158" lon="-48.650354"><ele>15.297058</ele><name>Buraco</name></wpt><wpt lat="-27.0287" lon="-48.655591"><ele>16.918457</ele><name>Ciclofaixa</name></wpt><wpt lat="-27.028707" lon="-48.65558"><ele>15.451111</ele><name>ciclofaixa termina com estreitamento em curva de via movimentada com pouca visibilidade para os motoristas </name></wpt><wpt lat="-27.028771" lon="-48.654617"><ele>10.035095</ele><name>Desnível</name></wpt><wpt lat="-27.02904" lon="-48.65172"><ele>14.991882</ele><name>Desnível</name></wpt><wpt lat="-27.029186" lon="-48.650246"><ele>16.783813</ele><name>Em cruzamento BOA condição</name></wpt><wpt lat="-27.028678" lon="-48.655553"><ele>13.119141</ele><name>Estacionamento dedicado de um lado, segregado da circulação</name></wpt><wpt lat="-27.028767" lon="-48.655261"><ele>3.728729</ele><name>Faixa de carros logo ao lado da ciclo (cm)</name></wpt><wpt lat="-27.028717" lon="-48.655563"><ele>13.121094</ele><name>Foto</name></wpt><wpt lat="-27.028718" lon="-48.655571"><ele>14.737427</ele><name>Foto</name></wpt><wpt lat="-27.028719" lon="-48.655102"><ele>8.017639</ele><name>Foto</name></wpt><wpt lat="-27.02877" lon="-48.654631"><ele>9.037994</ele><name>Foto</name></wpt><wpt lat="-27.028981" lon="-48.652263"><ele>16.112488</ele><name>Foto</name></wpt><wpt lat="-27.029161" lon="-48.650346"><ele>13.844177</ele><name>Foto</name></wpt><wpt lat="-27.029207" lon="-48.650257"><ele>18.149536</ele><name>Foto</name></wpt><wpt lat="-27.029212" lon="-48.650214"><ele>17.594788</ele><name>Iluminação geral na via do outro lado da infraestrutura</name></wpt><wpt lat="-27.02916" lon="-48.650307"><ele>13.366699</ele><name>Início</name></wpt><wpt lat="-27.029201" lon="-48.650223"><ele>17.956909</ele><name>Irregularidades que demandam desvio para circulação</name></wpt><wpt lat="-27.028692" lon="-48.655594"><ele>17.210327</ele><name>Mão Única</name></wpt><wpt lat="-27.029188" lon="-48.650237"><ele>18.973267</ele><name>Não há árvores nem mudas</name></wpt><wpt lat="-27.028698" lon="-48.655591"><ele>16.958618</ele><name>No bordo esquerdo de Via de Mão Única</name></wpt><wpt lat="-27.028798" lon="-48.654243"><ele>8.871185</ele><name>Outro obstáculo</name></wpt><wpt lat="-27.02872" lon="-48.655569"><ele>14.78125</ele><name>Outro risco. EXPLIQUE.</name></wpt><wpt lat="-27.028713" lon="-48.655574"><ele>15.678162</ele><name>Outro risco. EXPLIQUE.</name></wpt><wpt lat="-27.029189" lon="-48.650233"><ele>18.723511</ele><name>Pequenas imperfeições, como fissuras</name></wpt><wpt lat="-27.028755" lon="-48.654616"><ele>8.952576</ele><name>Em cruzamento BOA condição</name></wpt><wpt lat="-27.028981" lon="-48.652262"><ele>16.195251</ele><name>Em cruzamento BOA condição</name></wpt><wpt lat="-27.028797" lon="-48.654242"><ele>8.671204</ele><name>rampa de acesso para automóveis </name></wpt><wpt lat="-27.029199" lon="-48.650224"><ele>18.006531</ele><name>R3m0v3r Avaliação de Pavimento 🗑️</name></wpt><wpt lat="-27.029189" lon="-48.650239"><ele>18.751221</ele><name>R3m0v3r Avaliação de Sombreamento 🗑️</name></wpt><wpt lat="-27.029209" lon="-48.650255"><ele>18.353333</ele><name>SE CICLOFAIXA: para invadir a ciclo parte do automóvel passa obrigatoriamente por cima de segregadores</name></wpt><wpt lat="-27.029218" lon="-48.650238"><ele>19.020874</ele><name>Segregadores NÃO DIFICULTAM o acesso de ciclistas</name></wpt><wpt lat="-27.029185" lon="-48.650237"><ele>18.963074</ele><name>Sombras em alguns trechos, SEM mudas novas</name></wpt><wpt lat="-27.028679" lon="-48.655559"><ele>13.669312</ele><name>Tachões</name></wpt><wpt lat="-27.028779" lon="-48.655254"><ele>0.83905</ele><name>Total da via (incluindo a ciclo) (cm)</name></wpt><wpt lat="-27.029024" lon="-48.652107"><ele>10.613312</ele><name>Travessia de pedestre em nível (lombofaixa)</name></wpt><wpt lat="-27.028692" lon="-48.655512"><name>Área de amortecimento da ciclo (cm)</name></wpt><wpt lat="-27.028693" lon="-48.655486"><name>22</name></wpt><trk><name>Ciclofaixa R. Padre André Aneza - Cb</name><trkseg><trkpt lat="-27.028758" lon="-48.65553"><ele>7.965027</ele></trkpt><trkpt lat="-27.028741" lon="-48.655555"><ele>7.592133</ele></trkpt><trkpt lat="-27.028747" lon="-48.655552"><ele>10.131226</ele></trkpt><trkpt lat="-27.028744" lon="-48.655569"><ele>11.416931</ele></trkpt><trkpt lat="-27.028731" lon="-48.655572"><ele>11.13092</ele></trkpt><trkpt lat="-27.028734" lon="-48.655575"><ele>11.411804</ele></trkpt><trkpt lat="-27.028727" lon="-48.655568"><ele>12.061768</ele></trkpt><trkpt lat="-27.028726" lon="-48.655568"><ele>13.388977</ele></trkpt><trkpt lat="-27.028723" lon="-48.655564"><ele>13.191895</ele></trkpt><trkpt lat="-27.028717" lon="-48.655563"><ele>13.121094</ele></trkpt><trkpt lat="-27.028717" lon="-48.655563"><ele>13.121094</ele></trkpt><trkpt lat="-27.028713" lon="-48.655565"><ele>13.550537</ele></trkpt><trkpt lat="-27.028716" lon="-48.655565"><ele>13.497192</ele></trkpt><trkpt lat="-27.02872" lon="-48.655569"><ele>13.911011</ele></trkpt><trkpt lat="-27.028721" lon="-48.65557"><ele>14.20636</ele></trkpt><trkpt lat="-27.028722" lon="-48.65557"><ele>13.989502</ele></trkpt><trkpt lat="-27.028723" lon="-48.655568"><ele>13.981079</ele></trkpt><trkpt lat="-27.028723" lon="-48.655566"><ele>13.941162</ele></trkpt><trkpt lat="-27.028724" lon="-48.655566"><ele>13.84729</ele></trkpt><trkpt lat="-27.028729" lon="-48.655564"><ele>14.021301</ele></trkpt><trkpt lat="-27.02873" lon="-48.655566"><ele>14.225708</ele></trkpt><trkpt lat="-27.02873" lon="-48.655567"><ele>14.048889</ele></trkpt><trkpt lat="-27.028729" lon="-48.655567"><ele>14.073425</ele></trkpt><trkpt lat="-27.028726" lon="-48.655567"><ele>14.355286</ele></trkpt><trkpt lat="-27.028724" lon="-48.655567"><ele>14.518494</ele></trkpt><trkpt lat="-27.028722" lon="-48.655568"><ele>14.567444</ele></trkpt><trkpt lat="-27.02872" lon="-48.655569"><ele>14.78125</ele></trkpt><trkpt lat="-27.02872" lon="-48.655569"><ele>14.78125</ele></trkpt><trkpt lat="-27.028717" lon="-48.65557"><ele>14.797913</ele></trkpt><trkpt lat="-27.028717" lon="-48.655571"><ele>14.820251</ele></trkpt><trkpt lat="-27.028717" lon="-48.655572"><ele>15.019958</ele></trkpt><trkpt lat="-27.028718" lon="-48.655571"><ele>14.704651</ele></trkpt><trkpt lat="-27.028718" lon="-48.655571"><ele>14.765991</ele></trkpt><trkpt lat="-27.028717" lon="-48.655571"><ele>14.828186</ele></trkpt><trkpt lat="-27.028717" lon="-48.655571"><ele>14.894714</ele></trkpt><trkpt lat="-27.028716" lon="-48.65557"><ele>14.834778</ele></trkpt><trkpt lat="-27.028717" lon="-48.655569"><ele>14.781555</ele></trkpt><trkpt lat="-27.028717" lon="-48.65557"><ele>14.75177</ele></trkpt><trkpt lat="-27.028718" lon="-48.655571"><ele>14.737427</ele></trkpt><trkpt lat="-27.028718" lon="-48.655571"><ele>14.737427</ele></trkpt><trkpt lat="-27.028717" lon="-48.655572"><ele>15.1698</ele></trkpt><trkpt lat="-27.028713" lon="-48.655574"><ele>15.678162</ele></trkpt><trkpt lat="-27.028713" lon="-48.655574"><ele>15.678162</ele></trkpt><trkpt lat="-27.028711" lon="-48.655575"><ele>15.274719</ele></trkpt><trkpt lat="-27.028707" lon="-48.65558"><ele>15.451111</ele></trkpt><trkpt lat="-27.028707" lon="-48.65558"><ele>15.451111</ele></trkpt><trkpt lat="-27.028706" lon="-48.655582"><ele>15.346924</ele></trkpt><trkpt lat="-27.028706" lon="-48.655582"><ele>15.264038</ele></trkpt><trkpt lat="-27.028706" lon="-48.655581"><ele>15.39917</ele></trkpt><trkpt lat="-27.028707" lon="-48.655582"><ele>15.621704</ele></trkpt><trkpt lat="-27.028707" lon="-48.655581"><ele>15.659973</ele></trkpt><trkpt lat="-27.028707" lon="-48.65558"><ele>15.821472</ele></trkpt><trkpt lat="-27.028707" lon="-48.655578"><ele>15.93689</ele></trkpt><trkpt lat="-27.028708" lon="-48.655577"><ele>15.892029</ele></trkpt><trkpt lat="-27.028707" lon="-48.655578"><ele>15.71637</ele></trkpt><trkpt lat="-27.028706" lon="-48.655577"><ele>15.754761</ele></trkpt><trkpt lat="-27.028705" lon="-48.655576"><ele>15.630676</ele></trkpt><trkpt lat="-27.028703" lon="-48.655573"><ele>15.546265</ele></trkpt><trkpt lat="-27.028702" lon="-48.655572"><ele>15.569214</ele></trkpt><trkpt lat="-27.028703" lon="-48.655573"><ele>15.725769</ele></trkpt><trkpt lat="-27.028704" lon="-48.655574"><ele>15.825439</ele></trkpt><trkpt lat="-27.028703" lon="-48.655574"><ele>15.854126</ele></trkpt><trkpt lat="-27.028703" lon="-48.655576"><ele>16.016968</ele></trkpt><trkpt lat="-27.028703" lon="-48.655577"><ele>16.109863</ele></trkpt><trkpt lat="-27.028704" lon="-48.655576"><ele>15.98999</ele></trkpt><trkpt lat="-27.028706" lon="-48.655578"><ele>16.050354</ele></trkpt><trkpt lat="-27.028708" lon="-48.655578"><ele>16.152771</ele></trkpt><trkpt lat="-27.028708" lon="-48.655579"><ele>16.009888</ele></trkpt><trkpt lat="-27.028708" lon="-48.65558"><ele>15.99884</ele></trkpt><trkpt lat="-27.028709" lon="-48.655581"><ele>16.108154</ele></trkpt><trkpt lat="-27.028709" lon="-48.655582"><ele>16.186951</ele></trkpt><trkpt lat="-27.028708" lon="-48.655583"><ele>16.208557</ele></trkpt><trkpt lat="-27.028708" lon="-48.655584"><ele>16.322327</ele></trkpt><trkpt lat="-27.028706" lon="-48.655584"><ele>16.294739</ele></trkpt><trkpt lat="-27.028705" lon="-48.655585"><ele>16.351868</ele></trkpt><trkpt lat="-27.028705" lon="-48.655586"><ele>16.296448</ele></trkpt><trkpt lat="-27.028703" lon="-48.655586"><ele>16.340271</ele></trkpt><trkpt lat="-27.028703" lon="-48.655587"><ele>16.361084</ele></trkpt><trkpt lat="-27.028703" lon="-48.655588"><ele>16.413879</ele></trkpt><trkpt lat="-27.028702" lon="-48.65559"><ele>16.571594</ele></trkpt><trkpt lat="-27.028702" lon="-48.65559"><ele>16.616943</ele></trkpt><trkpt lat="-27.028702" lon="-48.65559"><ele>16.636108</ele></trkpt><trkpt lat="-27.028703" lon="-48.65559"><ele>16.955688</ele></trkpt><trkpt lat="-27.028702" lon="-48.655591"><ele>17.080444</ele></trkpt><trkpt lat="-27.028702" lon="-48.655591"><ele>17.145996</ele></trkpt><trkpt lat="-27.028701" lon="-48.655593"><ele>17.23584</ele></trkpt><trkpt lat="-27.028701" lon="-48.655594"><ele>17.369934</ele></trkpt><trkpt lat="-27.0287" lon="-48.655597"><ele>17.474609</ele></trkpt><trkpt lat="-27.028701" lon="-48.655599"><ele>17.462708</ele></trkpt><trkpt lat="-27.0287" lon="-48.655601"><ele>19.157776</ele></trkpt><trkpt lat="-27.0287" lon="-48.655602"><ele>19.246704</ele></trkpt><trkpt lat="-27.028699" lon="-48.655604"><ele>19.47644</ele></trkpt><trkpt lat="-27.028698" lon="-48.655606"><ele>19.753418</ele></trkpt><trkpt lat="-27.028698" lon="-48.655608"><ele>19.665588</ele></trkpt><trkpt lat="-27.028699" lon="-48.655608"><ele>19.697998</ele></trkpt><trkpt lat="-27.028698" lon="-48.655609"><ele>19.752136</ele></trkpt><trkpt lat="-27.028697" lon="-48.655612"><ele>19.901062</ele></trkpt><trkpt lat="-27.028697" lon="-48.655615"><ele>20.005005</ele></trkpt><trkpt lat="-27.028697" lon="-48.655615"><ele>19.843262</ele></trkpt><trkpt lat="-27.028698" lon="-48.655616"><ele>19.781555</ele></trkpt><trkpt lat="-27.0287" lon="-48.655616"><ele>19.792969</ele></trkpt><trkpt lat="-27.028701" lon="-48.655617"><ele>19.6427</ele></trkpt><trkpt lat="-27.028701" lon="-48.655617"><ele>17.848999</ele></trkpt><trkpt lat="-27.028704" lon="-48.655618"><ele>17.627625</ele></trkpt><trkpt lat="-27.028705" lon="-48.655617"><ele>17.419739</ele></trkpt><trkpt lat="-27.028705" lon="-48.655614"><ele>17.35498</ele></trkpt><trkpt lat="-27.028705" lon="-48.655614"><ele>17.513794</ele></trkpt><trkpt lat="-27.028706" lon="-48.655614"><ele>17.401855</ele></trkpt><trkpt lat="-27.028707" lon="-48.655608"><ele>17.366028</ele></trkpt><trkpt lat="-27.028703" lon="-48.655605"><ele>16.958801</ele></trkpt><trkpt lat="-27.0287" lon="-48.655599"><ele>16.975159</ele></trkpt><trkpt lat="-27.028699" lon="-48.655595"><ele>16.895752</ele></trkpt><trkpt lat="-27.028698" lon="-48.655595"><ele>16.889771</ele></trkpt><trkpt lat="-27.0287" lon="-48.655593"><ele>16.978149</ele></trkpt><trkpt lat="-27.0287" lon="-48.655591"><ele>16.918457</ele></trkpt><trkpt lat="-27.0287" lon="-48.655591"><ele>16.918457</ele></trkpt><trkpt lat="-27.028701" lon="-48.65559"><ele>16.919556</ele></trkpt><trkpt lat="-27.028702" lon="-48.655591"><ele>16.874817</ele></trkpt><trkpt lat="-27.028702" lon="-48.655591"><ele>16.765015</ele></trkpt><trkpt lat="-27.028702" lon="-48.655591"><ele>16.707947</ele></trkpt><trkpt lat="-27.028702" lon="-48.655591"><ele>16.707947</ele></trkpt><trkpt lat="-27.028701" lon="-48.655589"><ele>16.738953</ele></trkpt><trkpt lat="-27.028701" lon="-48.655588"><ele>16.803406</ele></trkpt><trkpt lat="-27.028699" lon="-48.655589"><ele>16.942444</ele></trkpt><trkpt lat="-27.028698" lon="-48.655591"><ele>16.958618</ele></trkpt><trkpt lat="-27.028698" lon="-48.655591"><ele>16.958618</ele></trkpt><trkpt lat="-27.028697" lon="-48.655592"><ele>16.8974</ele></trkpt><trkpt lat="-27.028696" lon="-48.655594"><ele>17.082947</ele></trkpt><trkpt lat="-27.028694" lon="-48.655595"><ele>17.085083</ele></trkpt><trkpt lat="-27.028692" lon="-48.655594"><ele>17.210327</ele></trkpt><trkpt lat="-27.028692" lon="-48.655594"><ele>17.210327</ele></trkpt><trkpt lat="-27.028692" lon="-48.655593"><ele>17.20166</ele></trkpt><trkpt lat="-27.02869" lon="-48.655588"><ele>16.50531</ele></trkpt><trkpt lat="-27.02869" lon="-48.655587"><ele>16.419312</ele></trkpt><trkpt lat="-27.02869" lon="-48.655583"><ele>16.533813</ele></trkpt><trkpt lat="-27.02869" lon="-48.65558"><ele>16.355774</ele></trkpt><trkpt lat="-27.02869" lon="-48.65558"><ele>16.355774</ele></trkpt><trkpt lat="-27.028689" lon="-48.65558"><ele>16.218689</ele></trkpt><trkpt lat="-27.028687" lon="-48.655575"><ele>14.765564</ele></trkpt><trkpt lat="-27.028679" lon="-48.655559"><ele>13.669312</ele></trkpt><trkpt lat="-27.028679" lon="-48.655559"><ele>13.669312</ele></trkpt><trkpt lat="-27.028677" lon="-48.655553"><ele>13.235107</ele></trkpt><trkpt lat="-27.028677" lon="-48.655552"><ele>13.06134</ele></trkpt><trkpt lat="-27.028677" lon="-48.655552"><ele>13.06134</ele></trkpt><trkpt lat="-27.028678" lon="-48.655552"><ele>13.152893</ele></trkpt><trkpt lat="-27.028679" lon="-48.655553"><ele>13.169983</ele></trkpt><trkpt lat="-27.028679" lon="-48.655553"><ele>13.169983</ele></trkpt><trkpt lat="-27.028679" lon="-48.655555"><ele>13.097595</ele></trkpt><trkpt lat="-27.028679" lon="-48.655556"><ele>13.057556</ele></trkpt><trkpt lat="-27.028678" lon="-48.655556"><ele>13.666443</ele></trkpt><trkpt lat="-27.028679" lon="-48.655555"><ele>13.419922</ele></trkpt><trkpt lat="-27.028678" lon="-48.655553"><ele>13.188477</ele></trkpt><trkpt lat="-27.028678" lon="-48.655553"><ele>13.119141</ele></trkpt><trkpt lat="-27.028678" lon="-48.655553"><ele>13.119141</ele></trkpt><trkpt lat="-27.028677" lon="-48.655553"><ele>12.95813</ele></trkpt><trkpt lat="-27.028678" lon="-48.655555"><ele>13.036865</ele></trkpt><trkpt lat="-27.028678" lon="-48.655557"><ele>13.198059</ele></trkpt><trkpt lat="-27.028677" lon="-48.655559"><ele>13.534912</ele></trkpt><trkpt lat="-27.028677" lon="-48.655561"><ele>13.027344</ele></trkpt><trkpt lat="-27.028677" lon="-48.65556"><ele>12.795044</ele></trkpt><trkpt lat="-27.028676" lon="-48.655559"><ele>12.693359</ele></trkpt><trkpt lat="-27.028676" lon="-48.655558"><ele>12.527649</ele></trkpt><trkpt lat="-27.028676" lon="-48.655557"><ele>12.433838</ele></trkpt><trkpt lat="-27.028677" lon="-48.655555"><ele>12.55365</ele></trkpt><trkpt lat="-27.028678" lon="-48.655554"><ele>12.70575</ele></trkpt><trkpt lat="-27.028682" lon="-48.655553"><ele>12.680359</ele></trkpt><trkpt lat="-27.028695" lon="-48.655544"><ele>13.576294</ele></trkpt><trkpt lat="-27.028707" lon="-48.655521"><ele>13.859253</ele></trkpt><trkpt lat="-27.028716" lon="-48.655499"><ele>14.174072</ele></trkpt><trkpt lat="-27.028719" lon="-48.655483"><ele>14.2453</ele></trkpt><trkpt lat="-27.028721" lon="-48.655466"><ele>13.948425</ele></trkpt><trkpt lat="-27.028725" lon="-48.655456"><ele>13.459229</ele></trkpt><trkpt lat="-27.028727" lon="-48.655447"><ele>12.984192</ele></trkpt><trkpt lat="-27.028725" lon="-48.655435"><ele>12.791687</ele></trkpt><trkpt lat="-27.028725" lon="-48.65542"><ele>12.564148</ele></trkpt><trkpt lat="-27.028725" lon="-48.655411"><ele>12.115845</ele></trkpt><trkpt lat="-27.028725" lon="-48.655401"><ele>11.971405</ele></trkpt><trkpt lat="-27.028723" lon="-48.655391"><ele>11.833099</ele></trkpt><trkpt lat="-27.028722" lon="-48.655378"><ele>11.61911</ele></trkpt><trkpt lat="-27.028723" lon="-48.655366"><ele>11.921143</ele></trkpt><trkpt lat="-27.02872" lon="-48.655354"><ele>11.676361</ele></trkpt><trkpt lat="-27.028721" lon="-48.655343"><ele>11.673645</ele></trkpt><trkpt lat="-27.028721" lon="-48.65533"><ele>11.210602</ele></trkpt><trkpt lat="-27.028721" lon="-48.655323"><ele>10.186401</ele></trkpt><trkpt lat="-27.028723" lon="-48.655314"><ele>9.918427</ele></trkpt><trkpt lat="-27.028728" lon="-48.655307"><ele>9.503448</ele></trkpt><trkpt lat="-27.028719" lon="-48.655331"><ele>7.50174</ele></trkpt><trkpt lat="-27.028717" lon="-48.655337"><ele>7.492554</ele></trkpt><trkpt lat="-27.028716" lon="-48.655339"><ele>7.490265</ele></trkpt><trkpt lat="-27.02872" lon="-48.655333"><ele>8.111328</ele></trkpt><trkpt lat="-27.02873" lon="-48.655324"><ele>9.622192</ele></trkpt><trkpt lat="-27.028726" lon="-48.655319"><ele>9.34137</ele></trkpt><trkpt lat="-27.028731" lon="-48.655317"><ele>9.608826</ele></trkpt><trkpt lat="-27.02873" lon="-48.65533"><ele>9.093811</ele></trkpt><trkpt lat="-27.02873" lon="-48.655338"><ele>9.108154</ele></trkpt><trkpt lat="-27.02873" lon="-48.655339"><ele>9.106262</ele></trkpt><trkpt lat="-27.02873" lon="-48.655339"><ele>9.106262</ele></trkpt><trkpt lat="-27.02873" lon="-48.65534"><ele>9.111145</ele></trkpt><trkpt lat="-27.02873" lon="-48.65534"><ele>9.113403</ele></trkpt><trkpt lat="-27.02873" lon="-48.65534"><ele>9.116028</ele></trkpt><trkpt lat="-27.02873" lon="-48.65534"><ele>9.11908</ele></trkpt><trkpt lat="-27.028727" lon="-48.655339"><ele>8.958923</ele></trkpt><trkpt lat="-27.028725" lon="-48.655336"><ele>8.780487</ele></trkpt><trkpt lat="-27.028723" lon="-48.655342"><ele>8.154755</ele></trkpt><trkpt lat="-27.028719" lon="-48.655347"><ele>7.436279</ele></trkpt><trkpt lat="-27.028708" lon="-48.655361"><ele>6.360626</ele></trkpt><trkpt lat="-27.028703" lon="-48.655367"><ele>6.240509</ele></trkpt><trkpt lat="-27.028701" lon="-48.655367"><ele>6.997742</ele></trkpt><trkpt lat="-27.028701" lon="-48.655367"><ele>6.999756</ele></trkpt><trkpt lat="-27.028701" lon="-48.655367"><ele>6.995209</ele></trkpt><trkpt lat="-27.028701" lon="-48.655367"><ele>7.001617</ele></trkpt><trkpt lat="-27.028702" lon="-48.655368"><ele>6.972748</ele></trkpt><trkpt lat="-27.028697" lon="-48.655364"><ele>6.771271</ele></trkpt><trkpt lat="-27.028696" lon="-48.655353"><ele>6.824951</ele></trkpt><trkpt lat="-27.028702" lon="-48.655342"><ele>6.820953</ele></trkpt><trkpt lat="-27.028709" lon="-48.655336"><ele>7.14035</ele></trkpt><trkpt lat="-27.028721" lon="-48.655329"><ele>7.360199</ele></trkpt><trkpt lat="-27.028733" lon="-48.655321"><ele>6.670654</ele></trkpt><trkpt lat="-27.028735" lon="-48.655319"><ele>6.686188</ele></trkpt><trkpt lat="-27.028735" lon="-48.655318"><ele>6.68631</ele></trkpt><trkpt lat="-27.028735" lon="-48.655318"><ele>6.684723</ele></trkpt><trkpt lat="-27.028735" lon="-48.655318"><ele>6.685028</ele></trkpt><trkpt lat="-27.028735" lon="-48.655318"><ele>6.687256</ele></trkpt><trkpt lat="-27.028736" lon="-48.655316"><ele>6.575287</ele></trkpt><trkpt lat="-27.028736" lon="-48.655315"><ele>7.454071</ele></trkpt><trkpt lat="-27.02873" lon="-48.655319"><ele>7.553101</ele></trkpt><trkpt lat="-27.028729" lon="-48.655319"><ele>7.565521</ele></trkpt><trkpt lat="-27.028728" lon="-48.655319"><ele>7.754028</ele></trkpt><trkpt lat="-27.028726" lon="-48.655317"><ele>7.973083</ele></trkpt><trkpt lat="-27.028727" lon="-48.655309"><ele>8.579712</ele></trkpt><trkpt lat="-27.028734" lon="-48.655304"><ele>9.17569</ele></trkpt><trkpt lat="-27.028743" lon="-48.655302"><ele>9.102509</ele></trkpt><trkpt lat="-27.028749" lon="-48.655299"><ele>9.155457</ele></trkpt><trkpt lat="-27.028753" lon="-48.655297"><ele>9.625488</ele></trkpt><trkpt lat="-27.028753" lon="-48.655296"><ele>9.656799</ele></trkpt><trkpt lat="-27.028752" lon="-48.655296"><ele>9.48584</ele></trkpt><trkpt lat="-27.028744" lon="-48.65529"><ele>9.266541</ele></trkpt><trkpt lat="-27.028736" lon="-48.65529"><ele>9.27832</ele></trkpt><trkpt lat="-27.028733" lon="-48.655293"><ele>9.50174</ele></trkpt><trkpt lat="-27.028732" lon="-48.655295"><ele>9.232697</ele></trkpt><trkpt lat="-27.028731" lon="-48.655296"><ele>9.2229</ele></trkpt><trkpt lat="-27.028731" lon="-48.655297"><ele>9.226196</ele></trkpt><trkpt lat="-27.028731" lon="-48.655297"><ele>9.227386</ele></trkpt><trkpt lat="-27.028731" lon="-48.655297"><ele>9.228821</ele></trkpt><trkpt lat="-27.028731" lon="-48.655297"><ele>9.227539</ele></trkpt><trkpt lat="-27.028736" lon="-48.655297"><ele>9.389679</ele></trkpt><trkpt lat="-27.028737" lon="-48.655297"><ele>9.361267</ele></trkpt><trkpt lat="-27.028736" lon="-48.655297"><ele>9.36026</ele></trkpt><trkpt lat="-27.028736" lon="-48.655297"><ele>9.358276</ele></trkpt><trkpt lat="-27.02874" lon="-48.655299"><ele>9.271851</ele></trkpt><trkpt lat="-27.028744" lon="-48.6553"><ele>9.725616</ele></trkpt><trkpt lat="-27.028746" lon="-48.655299"><ele>9.753723</ele></trkpt><trkpt lat="-27.028746" lon="-48.655298"><ele>9.753632</ele></trkpt><trkpt lat="-27.028745" lon="-48.655299"><ele>9.606567</ele></trkpt><trkpt lat="-27.028743" lon="-48.6553"><ele>9.594238</ele></trkpt><trkpt lat="-27.028743" lon="-48.6553"><ele>9.593689</ele></trkpt><trkpt lat="-27.028743" lon="-48.6553"><ele>9.59494</ele></trkpt><trkpt lat="-27.028743" lon="-48.6553"><ele>9.595367</ele></trkpt><trkpt lat="-27.028742" lon="-48.655299"><ele>9.635529</ele></trkpt><trkpt lat="-27.028746" lon="-48.655297"><ele>9.528839</ele></trkpt><trkpt lat="-27.028754" lon="-48.655295"><ele>9.82605</ele></trkpt><trkpt lat="-27.028758" lon="-48.655296"><ele>9.945587</ele></trkpt><trkpt lat="-27.02876" lon="-48.655297"><ele>10.110962</ele></trkpt><trkpt lat="-27.028762" lon="-48.655299"><ele>10.178314</ele></trkpt><trkpt lat="-27.028774" lon="-48.655243"><ele>-7.413025</ele></trkpt><trkpt lat="-27.028754" lon="-48.655259"><ele>-10.231323</ele></trkpt><trkpt lat="-27.028754" lon="-48.655259"><ele>-10.231323</ele></trkpt><trkpt lat="-27.028754" lon="-48.655259"><ele>-10.231323</ele></trkpt><trkpt lat="-27.028732" lon="-48.655264"><ele>6.063873</ele></trkpt><trkpt lat="-27.028733" lon="-48.65527"><ele>5.345581</ele></trkpt><trkpt lat="-27.028746" lon="-48.655269"><ele>3.68631</ele></trkpt><trkpt lat="-27.028762" lon="-48.655264"><ele>2.898346</ele></trkpt><trkpt lat="-27.028764" lon="-48.655265"><ele>3.100433</ele></trkpt><trkpt lat="-27.028767" lon="-48.655261"><ele>3.728729</ele></trkpt><trkpt lat="-27.028767" lon="-48.655261"><ele>3.728729</ele></trkpt><trkpt lat="-27.028766" lon="-48.655259"><ele>3.776703</ele></trkpt><trkpt lat="-27.028766" lon="-48.655259"><ele>3.776703</ele></trkpt><trkpt lat="-27.028771" lon="-48.655258"><ele>3.224945</ele></trkpt><trkpt lat="-27.028779" lon="-48.655256"><ele>3.21048</ele></trkpt><trkpt lat="-27.028779" lon="-48.655254"><ele>2.873993</ele></trkpt><trkpt lat="-27.028779" lon="-48.655254"><ele>2.318542</ele></trkpt><trkpt lat="-27.02878" lon="-48.655254"><ele>1.966156</ele></trkpt><trkpt lat="-27.02878" lon="-48.655254"><ele>1.627319</ele></trkpt><trkpt lat="-27.02878" lon="-48.655254"><ele>1.399933</ele></trkpt><trkpt lat="-27.028779" lon="-48.655254"><ele>1.155365</ele></trkpt><trkpt lat="-27.028779" lon="-48.655254"><ele>0.83905</ele></trkpt><trkpt lat="-27.028779" lon="-48.655254"><ele>0.83905</ele></trkpt><trkpt lat="-27.028779" lon="-48.655254"><ele>1.080383</ele></trkpt><trkpt lat="-27.028779" lon="-48.655254"><ele>1.080383</ele></trkpt><trkpt lat="-27.028779" lon="-48.655254"><ele>1.429688</ele></trkpt><trkpt lat="-27.028779" lon="-48.655254"><ele>0.805237</ele></trkpt><trkpt lat="-27.028779" lon="-48.655255"><ele>0.655792</ele></trkpt><trkpt lat="-27.028779" lon="-48.655255"><ele>0.677582</ele></trkpt><trkpt lat="-27.028779" lon="-48.655255"><ele>1.235626</ele></trkpt><trkpt lat="-27.028779" lon="-48.655255"><ele>1.167847</ele></trkpt><trkpt lat="-27.028777" lon="-48.655263"><ele>1.940369</ele></trkpt><trkpt lat="-27.028775" lon="-48.655267"><ele>2.599579</ele></trkpt><trkpt lat="-27.028775" lon="-48.655267"><ele>2.599579</ele></trkpt><trkpt lat="-27.02877" lon="-48.655267"><ele>1.263916</ele></trkpt><trkpt lat="-27.028762" lon="-48.655278"><ele>2.526337</ele></trkpt><trkpt lat="-27.028761" lon="-48.655272"><ele>3.344391</ele></trkpt><trkpt lat="-27.02876" lon="-48.655272"><ele>4.05365</ele></trkpt><trkpt lat="-27.028758" lon="-48.655266"><ele>4.735077</ele></trkpt><trkpt lat="-27.028756" lon="-48.655255"><ele>5.081909</ele></trkpt><trkpt lat="-27.028754" lon="-48.655245"><ele>5.085968</ele></trkpt><trkpt lat="-27.02875" lon="-48.655228"><ele>5.364197</ele></trkpt><trkpt lat="-27.028748" lon="-48.655211"><ele>5.873962</ele></trkpt><trkpt lat="-27.028747" lon="-48.655197"><ele>6.43515</ele></trkpt><trkpt lat="-27.028747" lon="-48.655186"><ele>6.91452</ele></trkpt><trkpt lat="-27.028747" lon="-48.655173"><ele>7.667023</ele></trkpt><trkpt lat="-27.028747" lon="-48.655161"><ele>8.082245</ele></trkpt><trkpt lat="-27.028744" lon="-48.655145"><ele>7.941437</ele></trkpt><trkpt lat="-27.028739" lon="-48.655129"><ele>7.555023</ele></trkpt><trkpt lat="-27.028736" lon="-48.655117"><ele>7.500305</ele></trkpt><trkpt lat="-27.028729" lon="-48.655109"><ele>8.182037</ele></trkpt><trkpt lat="-27.028719" lon="-48.655102"><ele>8.017639</ele></trkpt><trkpt lat="-27.028719" lon="-48.655102"><ele>8.017639</ele></trkpt><trkpt lat="-27.028718" lon="-48.65511"><ele>8.427429</ele></trkpt><trkpt lat="-27.028717" lon="-48.655112"><ele>8.490082</ele></trkpt><trkpt lat="-27.028717" lon="-48.655112"><ele>8.490082</ele></trkpt><trkpt lat="-27.028715" lon="-48.655112"><ele>8.876404</ele></trkpt><trkpt lat="-27.028714" lon="-48.655112"><ele>9.359131</ele></trkpt><trkpt lat="-27.028712" lon="-48.655112"><ele>9.377319</ele></trkpt><trkpt lat="-27.028713" lon="-48.655112"><ele>9.279755</ele></trkpt><trkpt lat="-27.028714" lon="-48.655112"><ele>9.345673</ele></trkpt><trkpt lat="-27.028715" lon="-48.655101"><ele>9.775818</ele></trkpt><trkpt lat="-27.028721" lon="-48.655086"><ele>9.695648</ele></trkpt><trkpt lat="-27.028726" lon="-48.655071"><ele>9.636963</ele></trkpt><trkpt lat="-27.028727" lon="-48.655048"><ele>9.514771</ele></trkpt><trkpt lat="-27.02873" lon="-48.655025"><ele>9.652344</ele></trkpt><trkpt lat="-27.028735" lon="-48.655004"><ele>9.778961</ele></trkpt><trkpt lat="-27.028741" lon="-48.65498"><ele>10.196503</ele></trkpt><trkpt lat="-27.028741" lon="-48.65498"><ele>10.196503</ele></trkpt><trkpt lat="-27.028746" lon="-48.654955"><ele>10.214355</ele></trkpt><trkpt lat="-27.028749" lon="-48.654928"><ele>9.95816</ele></trkpt><trkpt lat="-27.02875" lon="-48.654899"><ele>9.956696</ele></trkpt><trkpt lat="-27.028749" lon="-48.654866"><ele>9.807404</ele></trkpt><trkpt lat="-27.028749" lon="-48.654832"><ele>9.634796</ele></trkpt><trkpt lat="-27.02875" lon="-48.6548"><ele>9.550232</ele></trkpt><trkpt lat="-27.028751" lon="-48.65477"><ele>9.703796</ele></trkpt><trkpt lat="-27.028753" lon="-48.65474"><ele>9.866455</ele></trkpt><trkpt lat="-27.028753" lon="-48.654711"><ele>9.755341</ele></trkpt><trkpt lat="-27.028755" lon="-48.654687"><ele>10.009918</ele></trkpt><trkpt lat="-27.028759" lon="-48.654664"><ele>9.971161</ele></trkpt><trkpt lat="-27.028759" lon="-48.654664"><ele>9.971161</ele></trkpt><trkpt lat="-27.028761" lon="-48.654646"><ele>10.532013</ele></trkpt><trkpt lat="-27.028764" lon="-48.654623"><ele>10.997986</ele></trkpt><trkpt lat="-27.028769" lon="-48.654615"><ele>10.480042</ele></trkpt><trkpt lat="-27.028772" lon="-48.654615"><ele>10.224976</ele></trkpt><trkpt lat="-27.028771" lon="-48.654617"><ele>10.035095</ele></trkpt><trkpt lat="-27.028771" lon="-48.654617"><ele>10.035095</ele></trkpt><trkpt lat="-27.028764" lon="-48.654628"><ele>9.442749</ele></trkpt><trkpt lat="-27.028763" lon="-48.65463"><ele>9.441162</ele></trkpt><trkpt lat="-27.028762" lon="-48.654631"><ele>9.442566</ele></trkpt><trkpt lat="-27.028762" lon="-48.654631"><ele>9.441986</ele></trkpt><trkpt lat="-27.028762" lon="-48.654631"><ele>9.441986</ele></trkpt><trkpt lat="-27.028762" lon="-48.654631"><ele>9.285645</ele></trkpt><trkpt lat="-27.028762" lon="-48.654631"><ele>9.288574</ele></trkpt><trkpt lat="-27.028763" lon="-48.654631"><ele>9.243256</ele></trkpt><trkpt lat="-27.028765" lon="-48.654629"><ele>9.255859</ele></trkpt><trkpt lat="-27.028765" lon="-48.654629"><ele>9.258148</ele></trkpt><trkpt lat="-27.028765" lon="-48.654629"><ele>9.412354</ele></trkpt><trkpt lat="-27.028764" lon="-48.65463"><ele>9.264374</ele></trkpt><trkpt lat="-27.028765" lon="-48.654631"><ele>9.298645</ele></trkpt><trkpt lat="-27.028767" lon="-48.654632"><ele>9.324829</ele></trkpt><trkpt lat="-27.028768" lon="-48.654632"><ele>9.325623</ele></trkpt><trkpt lat="-27.028768" lon="-48.654632"><ele>9.329071</ele></trkpt><trkpt lat="-27.02877" lon="-48.654631"><ele>9.037994</ele></trkpt><trkpt lat="-27.02877" lon="-48.654631"><ele>9.037994</ele></trkpt><trkpt lat="-27.028771" lon="-48.654631"><ele>9.036377</ele></trkpt><trkpt lat="-27.028771" lon="-48.654631"><ele>9.037689</ele></trkpt><trkpt lat="-27.028769" lon="-48.654626"><ele>9.11322</ele></trkpt><trkpt lat="-27.028766" lon="-48.654618"><ele>9.283539</ele></trkpt><trkpt lat="-27.02876" lon="-48.654614"><ele>8.933136</ele></trkpt><trkpt lat="-27.028755" lon="-48.654615"><ele>8.947906</ele></trkpt><trkpt lat="-27.028755" lon="-48.654616"><ele>8.94693</ele></trkpt><trkpt lat="-27.028755" lon="-48.654616"><ele>8.952576</ele></trkpt><trkpt lat="-27.028755" lon="-48.654616"><ele>8.952576</ele></trkpt><trkpt lat="-27.028754" lon="-48.654616"><ele>8.953918</ele></trkpt><trkpt lat="-27.028755" lon="-48.654616"><ele>8.96048</ele></trkpt><trkpt lat="-27.028755" lon="-48.654616"><ele>8.965363</ele></trkpt><trkpt lat="-27.028755" lon="-48.654615"><ele>8.96936</ele></trkpt><trkpt lat="-27.028754" lon="-48.654615"><ele>9.109131</ele></trkpt><trkpt lat="-27.028754" lon="-48.654613"><ele>9.033569</ele></trkpt><trkpt lat="-27.028754" lon="-48.654612"><ele>8.961884</ele></trkpt><trkpt lat="-27.028745" lon="-48.654621"><ele>8.738708</ele></trkpt><trkpt lat="-27.028732" lon="-48.65463"><ele>8.687805</ele></trkpt><trkpt lat="-27.028729" lon="-48.654623"><ele>9.013031</ele></trkpt><trkpt lat="-27.028734" lon="-48.654609"><ele>8.337616</ele></trkpt><trkpt lat="-27.028738" lon="-48.654589"><ele>8.270752</ele></trkpt><trkpt lat="-27.028744" lon="-48.654569"><ele>8.399414</ele></trkpt><trkpt lat="-27.02875" lon="-48.654548"><ele>8.426117</ele></trkpt><trkpt lat="-27.028753" lon="-48.654532"><ele>8.298004</ele></trkpt><trkpt lat="-27.028754" lon="-48.654523"><ele>8.268616</ele></trkpt><trkpt lat="-27.028754" lon="-48.654521"><ele>8.271088</ele></trkpt><trkpt lat="-27.028756" lon="-48.654519"><ele>9.008636</ele></trkpt><trkpt lat="-27.028746" lon="-48.654514"><ele>8.952209</ele></trkpt><trkpt lat="-27.028744" lon="-48.654512"><ele>8.860168</ele></trkpt><trkpt lat="-27.028744" lon="-48.654508"><ele>8.852173</ele></trkpt><trkpt lat="-27.028753" lon="-48.654502"><ele>8.182037</ele></trkpt><trkpt lat="-27.028757" lon="-48.654502"><ele>9.188293</ele></trkpt><trkpt lat="-27.028756" lon="-48.654506"><ele>9.393799</ele></trkpt><trkpt lat="-27.028757" lon="-48.654507"><ele>9.890717</ele></trkpt><trkpt lat="-27.028756" lon="-48.654506"><ele>9.651123</ele></trkpt><trkpt lat="-27.028757" lon="-48.654504"><ele>9.709412</ele></trkpt><trkpt lat="-27.028758" lon="-48.654504"><ele>9.712006</ele></trkpt><trkpt lat="-27.028758" lon="-48.654504"><ele>9.709442</ele></trkpt><trkpt lat="-27.028758" lon="-48.654504"><ele>9.710999</ele></trkpt><trkpt lat="-27.028757" lon="-48.654508"><ele>9.789459</ele></trkpt><trkpt lat="-27.028758" lon="-48.65451"><ele>9.809113</ele></trkpt><trkpt lat="-27.028759" lon="-48.65451"><ele>9.808746</ele></trkpt><trkpt lat="-27.028759" lon="-48.654512"><ele>9.867523</ele></trkpt><trkpt lat="-27.028762" lon="-48.654515"><ele>9.031586</ele></trkpt><trkpt lat="-27.028763" lon="-48.654515"><ele>9.331665</ele></trkpt><trkpt lat="-27.028764" lon="-48.654515"><ele>9.332733</ele></trkpt><trkpt lat="-27.028764" lon="-48.654515"><ele>9.334381</ele></trkpt><trkpt lat="-27.028764" lon="-48.654515"><ele>9.336884</ele></trkpt><trkpt lat="-27.028764" lon="-48.654515"><ele>9.338837</ele></trkpt><trkpt lat="-27.028764" lon="-48.654515"><ele>9.339691</ele></trkpt><trkpt lat="-27.028766" lon="-48.654507"><ele>9.501343</ele></trkpt><trkpt lat="-27.028768" lon="-48.654501"><ele>9.469574</ele></trkpt><trkpt lat="-27.028769" lon="-48.6545"><ele>9.126068</ele></trkpt><trkpt lat="-27.02877" lon="-48.6545"><ele>9.186188</ele></trkpt><trkpt lat="-27.02877" lon="-48.6545"><ele>9.18512</ele></trkpt><trkpt lat="-27.02877" lon="-48.6545"><ele>9.187256</ele></trkpt><trkpt lat="-27.028769" lon="-48.654496"><ele>9.112671</ele></trkpt><trkpt lat="-27.028768" lon="-48.654493"><ele>9.207947</ele></trkpt><trkpt lat="-27.028768" lon="-48.654491"><ele>9.10611</ele></trkpt><trkpt lat="-27.028778" lon="-48.654481"><ele>9.141205</ele></trkpt><trkpt lat="-27.028782" lon="-48.654473"><ele>8.852203</ele></trkpt><trkpt lat="-27.028779" lon="-48.654467"><ele>8.839569</ele></trkpt><trkpt lat="-27.028778" lon="-48.654466"><ele>8.837891</ele></trkpt><trkpt lat="-27.028777" lon="-48.654465"><ele>8.843506</ele></trkpt><trkpt lat="-27.028776" lon="-48.654465"><ele>8.798492</ele></trkpt><trkpt lat="-27.028776" lon="-48.654465"><ele>8.822571</ele></trkpt><trkpt lat="-27.028774" lon="-48.654466"><ele>9.101227</ele></trkpt><trkpt lat="-27.028775" lon="-48.654461"><ele>9.012939</ele></trkpt><trkpt lat="-27.028777" lon="-48.654452"><ele>9.619354</ele></trkpt><trkpt lat="-27.028779" lon="-48.654438"><ele>9.603668</ele></trkpt><trkpt lat="-27.028779" lon="-48.654438"><ele>9.603668</ele></trkpt><trkpt lat="-27.02878" lon="-48.65442"><ele>10.151215</ele></trkpt><trkpt lat="-27.028781" lon="-48.654397"><ele>9.65448</ele></trkpt><trkpt lat="-27.028785" lon="-48.654373"><ele>10.167694</ele></trkpt><trkpt lat="-27.028791" lon="-48.65435"><ele>9.807617</ele></trkpt><trkpt lat="-27.028795" lon="-48.65433"><ele>10.346191</ele></trkpt><trkpt lat="-27.028797" lon="-48.654313"><ele>10.302948</ele></trkpt><trkpt lat="-27.028798" lon="-48.654298"><ele>9.873932</ele></trkpt><trkpt lat="-27.028796" lon="-48.654281"><ele>9.773987</ele></trkpt><trkpt lat="-27.028795" lon="-48.654264"><ele>9.576172</ele></trkpt><trkpt lat="-27.028794" lon="-48.654249"><ele>9.025055</ele></trkpt><trkpt lat="-27.028792" lon="-48.65424"><ele>8.842896</ele></trkpt><trkpt lat="-27.028793" lon="-48.654239"><ele>8.674347</ele></trkpt><trkpt lat="-27.028797" lon="-48.654241"><ele>8.607269</ele></trkpt><trkpt lat="-27.028798" lon="-48.654243"><ele>8.871185</ele></trkpt><trkpt lat="-27.028798" lon="-48.654243"><ele>8.871185</ele></trkpt><trkpt lat="-27.028796" lon="-48.654244"><ele>8.937592</ele></trkpt><trkpt lat="-27.028797" lon="-48.654242"><ele>8.671204</ele></trkpt><trkpt lat="-27.028797" lon="-48.654242"><ele>8.671204</ele></trkpt><trkpt lat="-27.028797" lon="-48.654242"><ele>8.686523</ele></trkpt><trkpt lat="-27.028798" lon="-48.654242"><ele>8.687439</ele></trkpt><trkpt lat="-27.028798" lon="-48.654242"><ele>8.687714</ele></trkpt><trkpt lat="-27.028798" lon="-48.654241"><ele>8.444824</ele></trkpt><trkpt lat="-27.028797" lon="-48.65424"><ele>8.438049</ele></trkpt><trkpt lat="-27.028797" lon="-48.65424"><ele>8.745117</ele></trkpt><trkpt lat="-27.028797" lon="-48.65424"><ele>8.746948</ele></trkpt><trkpt lat="-27.028797" lon="-48.65424"><ele>8.745667</ele></trkpt><trkpt lat="-27.028797" lon="-48.65424"><ele>8.744965</ele></trkpt><trkpt lat="-27.028797" lon="-48.65424"><ele>8.746124</ele></trkpt><trkpt lat="-27.028797" lon="-48.65424"><ele>8.743164</ele></trkpt><trkpt lat="-27.028797" lon="-48.65424"><ele>8.74295</ele></trkpt><trkpt lat="-27.028797" lon="-48.65424"><ele>8.742798</ele></trkpt><trkpt lat="-27.028798" lon="-48.654239"><ele>8.59903</ele></trkpt><trkpt lat="-27.028798" lon="-48.654238"><ele>8.589203</ele></trkpt><trkpt lat="-27.028798" lon="-48.654238"><ele>8.589905</ele></trkpt><trkpt lat="-27.028798" lon="-48.654238"><ele>8.589539</ele></trkpt><trkpt lat="-27.028798" lon="-48.654238"><ele>8.59082</ele></trkpt><trkpt lat="-27.028801" lon="-48.65424"><ele>8.462433</ele></trkpt><trkpt lat="-27.028809" lon="-48.654238"><ele>8.541138</ele></trkpt><trkpt lat="-27.028811" lon="-48.654238"><ele>8.542328</ele></trkpt><trkpt lat="-27.028812" lon="-48.654232"><ele>8.598907</ele></trkpt><trkpt lat="-27.028813" lon="-48.654217"><ele>8.624634</ele></trkpt><trkpt lat="-27.028814" lon="-48.654199"><ele>8.711578</ele></trkpt><trkpt lat="-27.028815" lon="-48.654178"><ele>8.621735</ele></trkpt><trkpt lat="-27.028817" lon="-48.654158"><ele>8.637421</ele></trkpt><trkpt lat="-27.028817" lon="-48.654158"><ele>8.637421</ele></trkpt><trkpt lat="-27.028817" lon="-48.654158"><ele>8.637421</ele></trkpt><trkpt lat="-27.028818" lon="-48.65414"><ele>8.789429</ele></trkpt><trkpt lat="-27.028819" lon="-48.654123"><ele>8.571533</ele></trkpt><trkpt lat="-27.028821" lon="-48.654104"><ele>8.770142</ele></trkpt><trkpt lat="-27.028824" lon="-48.654082"><ele>8.977051</ele></trkpt><trkpt lat="-27.02883" lon="-48.65406"><ele>9.139648</ele></trkpt><trkpt lat="-27.028832" lon="-48.654038"><ele>8.974091</ele></trkpt><trkpt lat="-27.028835" lon="-48.654016"><ele>8.858765</ele></trkpt><trkpt lat="-27.028842" lon="-48.653988"><ele>8.998077</ele></trkpt><trkpt lat="-27.028844" lon="-48.653957"><ele>8.923645</ele></trkpt><trkpt lat="-27.028844" lon="-48.653927"><ele>8.910309</ele></trkpt><trkpt lat="-27.028844" lon="-48.653897"><ele>8.863068</ele></trkpt><trkpt lat="-27.028846" lon="-48.653868"><ele>8.754028</ele></trkpt><trkpt lat="-27.028849" lon="-48.653838"><ele>8.650177</ele></trkpt><trkpt lat="-27.028852" lon="-48.653804"><ele>8.527435</ele></trkpt><trkpt lat="-27.028856" lon="-48.653773"><ele>8.850342</ele></trkpt><trkpt lat="-27.028857" lon="-48.653744"><ele>8.870789</ele></trkpt><trkpt lat="-27.028857" lon="-48.653711"><ele>8.541443</ele></trkpt><trkpt lat="-27.028858" lon="-48.653679"><ele>8.81427</ele></trkpt><trkpt lat="-27.028858" lon="-48.653648"><ele>8.982422</ele></trkpt><trkpt lat="-27.028857" lon="-48.653617"><ele>8.890747</ele></trkpt><trkpt lat="-27.02886" lon="-48.653588"><ele>8.852722</ele></trkpt><trkpt lat="-27.028867" lon="-48.653555"><ele>8.887054</ele></trkpt><trkpt lat="-27.028867" lon="-48.653524"><ele>9.007111</ele></trkpt><trkpt lat="-27.028867" lon="-48.653494"><ele>8.895752</ele></trkpt><trkpt lat="-27.02887" lon="-48.653469"><ele>9.135468</ele></trkpt><trkpt lat="-27.028874" lon="-48.653446"><ele>9.252197</ele></trkpt><trkpt lat="-27.028874" lon="-48.653446"><ele>9.252197</ele></trkpt><trkpt lat="-27.028878" lon="-48.653422"><ele>9.421906</ele></trkpt><trkpt lat="-27.028881" lon="-48.653398"><ele>8.885376</ele></trkpt><trkpt lat="-27.028882" lon="-48.653373"><ele>8.793121</ele></trkpt><trkpt lat="-27.028883" lon="-48.653344"><ele>8.443085</ele></trkpt><trkpt lat="-27.028885" lon="-48.653319"><ele>8.342834</ele></trkpt><trkpt lat="-27.028889" lon="-48.653293"><ele>8.483154</ele></trkpt><trkpt lat="-27.028891" lon="-48.653267"><ele>8.718384</ele></trkpt><trkpt lat="-27.028893" lon="-48.653242"><ele>8.715576</ele></trkpt><trkpt lat="-27.028896" lon="-48.653214"><ele>8.428406</ele></trkpt><trkpt lat="-27.028898" lon="-48.653188"><ele>8.335541</ele></trkpt><trkpt lat="-27.028901" lon="-48.653158"><ele>8.501068</ele></trkpt><trkpt lat="-27.028905" lon="-48.653128"><ele>8.695221</ele></trkpt><trkpt lat="-27.028907" lon="-48.653097"><ele>8.77359</ele></trkpt><trkpt lat="-27.02891" lon="-48.653068"><ele>8.465363</ele></trkpt><trkpt lat="-27.028913" lon="-48.653038"><ele>8.530121</ele></trkpt><trkpt lat="-27.028915" lon="-48.65301"><ele>8.926758</ele></trkpt><trkpt lat="-27.028918" lon="-48.652981"><ele>9.184753</ele></trkpt><trkpt lat="-27.028924" lon="-48.652954"><ele>9.604431</ele></trkpt><trkpt lat="-27.028931" lon="-48.652926"><ele>14.183533</ele></trkpt><trkpt lat="-27.028931" lon="-48.652926"><ele>14.183533</ele></trkpt><trkpt lat="-27.028931" lon="-48.652926"><ele>14.183533</ele></trkpt><trkpt lat="-27.028935" lon="-48.652903"><ele>14.687256</ele></trkpt><trkpt lat="-27.02894" lon="-48.652878"><ele>14.669312</ele></trkpt><trkpt lat="-27.028941" lon="-48.652851"><ele>14.833435</ele></trkpt><trkpt lat="-27.028938" lon="-48.652825"><ele>15.415161</ele></trkpt><trkpt lat="-27.028938" lon="-48.652796"><ele>15.644287</ele></trkpt><trkpt lat="-27.028941" lon="-48.652765"><ele>15.660278</ele></trkpt><trkpt lat="-27.028943" lon="-48.652734"><ele>15.711365</ele></trkpt><trkpt lat="-27.028946" lon="-48.652708"><ele>16.11438</ele></trkpt><trkpt lat="-27.028952" lon="-48.652684"><ele>15.202698</ele></trkpt><trkpt lat="-27.028958" lon="-48.652658"><ele>15.118042</ele></trkpt><trkpt lat="-27.028963" lon="-48.652635"><ele>14.90332</ele></trkpt><trkpt lat="-27.028968" lon="-48.652616"><ele>14.492188</ele></trkpt><trkpt lat="-27.028968" lon="-48.652616"><ele>14.492188</ele></trkpt><trkpt lat="-27.02897" lon="-48.6526"><ele>15.22522</ele></trkpt><trkpt lat="-27.028971" lon="-48.652585"><ele>15.683228</ele></trkpt><trkpt lat="-27.028971" lon="-48.652569"><ele>15.328857</ele></trkpt><trkpt lat="-27.028971" lon="-48.652557"><ele>15.463623</ele></trkpt><trkpt lat="-27.02897" lon="-48.652555"><ele>16.168701</ele></trkpt><trkpt lat="-27.028969" lon="-48.652557"><ele>15.974182</ele></trkpt><trkpt lat="-27.028969" lon="-48.652558"><ele>15.923096</ele></trkpt><trkpt lat="-27.028969" lon="-48.652558"><ele>15.7146</ele></trkpt><trkpt lat="-27.028969" lon="-48.652558"><ele>15.7146</ele></trkpt><trkpt lat="-27.028967" lon="-48.652559"><ele>15.844055</ele></trkpt><trkpt lat="-27.028964" lon="-48.652556"><ele>16.061523</ele></trkpt><trkpt lat="-27.028967" lon="-48.652545"><ele>16.225403</ele></trkpt><trkpt lat="-27.028971" lon="-48.65253"><ele>16.506958</ele></trkpt><trkpt lat="-27.028971" lon="-48.652511"><ele>16.636169</ele></trkpt><trkpt lat="-27.028969" lon="-48.652495"><ele>16.669678</ele></trkpt><trkpt lat="-27.028967" lon="-48.652473"><ele>16.343445</ele></trkpt><trkpt lat="-27.028967" lon="-48.652447"><ele>16.209534</ele></trkpt><trkpt lat="-27.028969" lon="-48.652425"><ele>15.764954</ele></trkpt><trkpt lat="-27.028971" lon="-48.652404"><ele>15.575256</ele></trkpt><trkpt lat="-27.028972" lon="-48.652379"><ele>15.224304</ele></trkpt><trkpt lat="-27.028974" lon="-48.652355"><ele>15.207458</ele></trkpt><trkpt lat="-27.028976" lon="-48.652334"><ele>15.093079</ele></trkpt><trkpt lat="-27.028977" lon="-48.652317"><ele>15.830566</ele></trkpt><trkpt lat="-27.028978" lon="-48.652303"><ele>16.475952</ele></trkpt><trkpt lat="-27.02898" lon="-48.652286"><ele>16.658508</ele></trkpt><trkpt lat="-27.02898" lon="-48.652286"><ele>16.658508</ele></trkpt><trkpt lat="-27.028979" lon="-48.652269"><ele>16.386292</ele></trkpt><trkpt lat="-27.028978" lon="-48.652263"><ele>16.061523</ele></trkpt><trkpt lat="-27.028978" lon="-48.652261"><ele>15.954346</ele></trkpt><trkpt lat="-27.028979" lon="-48.652262"><ele>16.061218</ele></trkpt><trkpt lat="-27.02898" lon="-48.652262"><ele>16.160706</ele></trkpt><trkpt lat="-27.028981" lon="-48.652263"><ele>16.087097</ele></trkpt><trkpt lat="-27.028981" lon="-48.652263"><ele>16.08783</ele></trkpt><trkpt lat="-27.028981" lon="-48.652262"><ele>16.180786</ele></trkpt><trkpt lat="-27.028981" lon="-48.652262"><ele>16.195251</ele></trkpt><trkpt lat="-27.028981" lon="-48.652262"><ele>16.195251</ele></trkpt><trkpt lat="-27.028981" lon="-48.652262"><ele>16.195313</ele></trkpt><trkpt lat="-27.028981" lon="-48.652262"><ele>16.195313</ele></trkpt><trkpt lat="-27.028981" lon="-48.652262"><ele>16.196838</ele></trkpt><trkpt lat="-27.028981" lon="-48.652262"><ele>16.199585</ele></trkpt><trkpt lat="-27.028981" lon="-48.652262"><ele>16.199829</ele></trkpt><trkpt lat="-27.028981" lon="-48.652263"><ele>16.102234</ele></trkpt><trkpt lat="-27.028981" lon="-48.652264"><ele>16.098938</ele></trkpt><trkpt lat="-27.028981" lon="-48.652264"><ele>16.102905</ele></trkpt><trkpt lat="-27.028981" lon="-48.652264"><ele>16.109985</ele></trkpt><trkpt lat="-27.028981" lon="-48.652263"><ele>16.11145</ele></trkpt><trkpt lat="-27.028981" lon="-48.652263"><ele>16.111267</ele></trkpt><trkpt lat="-27.028981" lon="-48.652263"><ele>16.112488</ele></trkpt><trkpt lat="-27.028981" lon="-48.652263"><ele>16.112488</ele></trkpt><trkpt lat="-27.028979" lon="-48.652261"><ele>15.648254</ele></trkpt><trkpt lat="-27.028975" lon="-48.652262"><ele>15.555176</ele></trkpt><trkpt lat="-27.028973" lon="-48.652264"><ele>15.348572</ele></trkpt><trkpt lat="-27.028972" lon="-48.652265"><ele>15.295593</ele></trkpt><trkpt lat="-27.028972" lon="-48.652266"><ele>15.296204</ele></trkpt><trkpt lat="-27.028972" lon="-48.652266"><ele>15.295288</ele></trkpt><trkpt lat="-27.028972" lon="-48.652266"><ele>15.294373</ele></trkpt><trkpt lat="-27.028972" lon="-48.652266"><ele>15.301514</ele></trkpt><trkpt lat="-27.028972" lon="-48.652266"><ele>15.299194</ele></trkpt><trkpt lat="-27.028973" lon="-48.652265"><ele>15.171509</ele></trkpt><trkpt lat="-27.028974" lon="-48.652263"><ele>15.352112</ele></trkpt><trkpt lat="-27.028975" lon="-48.652262"><ele>15.304932</ele></trkpt><trkpt lat="-27.028976" lon="-48.652262"><ele>15.342224</ele></trkpt><trkpt lat="-27.028976" lon="-48.652262"><ele>15.674255</ele></trkpt><trkpt lat="-27.028976" lon="-48.652261"><ele>15.701233</ele></trkpt><trkpt lat="-27.028977" lon="-48.652253"><ele>16.267883</ele></trkpt><trkpt lat="-27.029003" lon="-48.652229"><ele>13.582947</ele></trkpt><trkpt lat="-27.029023" lon="-48.652204"><ele>13.12677</ele></trkpt><trkpt lat="-27.029026" lon="-48.65218"><ele>13.558044</ele></trkpt><trkpt lat="-27.029027" lon="-48.652159"><ele>12.172302</ele></trkpt><trkpt lat="-27.029025" lon="-48.652135"><ele>11.676544</ele></trkpt><trkpt lat="-27.029022" lon="-48.652117"><ele>12.213257</ele></trkpt><trkpt lat="-27.029024" lon="-48.652107"><ele>10.613312</ele></trkpt><trkpt lat="-27.029024" lon="-48.652107"><ele>10.613312</ele></trkpt><trkpt lat="-27.02903" lon="-48.652094"><ele>10.662994</ele></trkpt><trkpt lat="-27.02903" lon="-48.652081"><ele>10.854919</ele></trkpt><trkpt lat="-27.029028" lon="-48.652061"><ele>11.897858</ele></trkpt><trkpt lat="-27.029026" lon="-48.652039"><ele>11.826202</ele></trkpt><trkpt lat="-27.029025" lon="-48.652016"><ele>12.683411</ele></trkpt><trkpt lat="-27.029026" lon="-48.651992"><ele>12.703125</ele></trkpt><trkpt lat="-27.029027" lon="-48.651971"><ele>13.355957</ele></trkpt><trkpt lat="-27.029027" lon="-48.65195"><ele>14.20575</ele></trkpt><trkpt lat="-27.029027" lon="-48.651929"><ele>13.857056</ele></trkpt><trkpt lat="-27.029027" lon="-48.651911"><ele>13.808899</ele></trkpt><trkpt lat="-27.029028" lon="-48.651894"><ele>13.688171</ele></trkpt><trkpt lat="-27.029029" lon="-48.651881"><ele>14.086487</ele></trkpt><trkpt lat="-27.029029" lon="-48.651881"><ele>14.086487</ele></trkpt><trkpt lat="-27.02903" lon="-48.651866"><ele>14.077576</ele></trkpt><trkpt lat="-27.029033" lon="-48.65185"><ele>14.666809</ele></trkpt><trkpt lat="-27.029034" lon="-48.651827"><ele>14.717957</ele></trkpt><trkpt lat="-27.029036" lon="-48.651804"><ele>14.846985</ele></trkpt><trkpt lat="-27.02904" lon="-48.651779"><ele>14.687561</ele></trkpt><trkpt lat="-27.029041" lon="-48.651757"><ele>14.737854</ele></trkpt><trkpt lat="-27.029041" lon="-48.651757"><ele>14.737854</ele></trkpt><trkpt lat="-27.029041" lon="-48.651738"><ele>14.615173</ele></trkpt><trkpt lat="-27.02904" lon="-48.65172"><ele>14.991882</ele></trkpt><trkpt lat="-27.02904" lon="-48.65172"><ele>14.991882</ele></trkpt><trkpt lat="-27.029039" lon="-48.651703"><ele>15.412537</ele></trkpt><trkpt lat="-27.02904" lon="-48.651684"><ele>15.389893</ele></trkpt><trkpt lat="-27.029042" lon="-48.651664"><ele>15.325562</ele></trkpt><trkpt lat="-27.029044" lon="-48.651641"><ele>15.915405</ele></trkpt><trkpt lat="-27.029043" lon="-48.651617"><ele>15.411194</ele></trkpt><trkpt lat="-27.029044" lon="-48.651592"><ele>15.639893</ele></trkpt><trkpt lat="-27.029046" lon="-48.651568"><ele>16.982056</ele></trkpt><trkpt lat="-27.029047" lon="-48.651546"><ele>17.075623</ele></trkpt><trkpt lat="-27.029049" lon="-48.651526"><ele>17.21637</ele></trkpt><trkpt lat="-27.029049" lon="-48.651526"><ele>17.21637</ele></trkpt><trkpt lat="-27.029053" lon="-48.651507"><ele>17.012146</ele></trkpt><trkpt lat="-27.029058" lon="-48.651486"><ele>16.894897</ele></trkpt><trkpt lat="-27.029066" lon="-48.651459"><ele>16.723755</ele></trkpt><trkpt lat="-27.029073" lon="-48.651431"><ele>17.24231</ele></trkpt><trkpt lat="-27.029078" lon="-48.651405"><ele>17.556946</ele></trkpt><trkpt lat="-27.029083" lon="-48.651381"><ele>17.523804</ele></trkpt><trkpt lat="-27.029087" lon="-48.65136"><ele>18.431885</ele></trkpt><trkpt lat="-27.029089" lon="-48.651335"><ele>18.811035</ele></trkpt><trkpt lat="-27.029088" lon="-48.651312"><ele>18.579224</ele></trkpt><trkpt lat="-27.029087" lon="-48.65129"><ele>18.679932</ele></trkpt><trkpt lat="-27.02909" lon="-48.651266"><ele>19.160034</ele></trkpt><trkpt lat="-27.029093" lon="-48.651243"><ele>19.596069</ele></trkpt><trkpt lat="-27.029097" lon="-48.65122"><ele>18.704041</ele></trkpt><trkpt lat="-27.029101" lon="-48.6512"><ele>19.149719</ele></trkpt><trkpt lat="-27.029102" lon="-48.651182"><ele>19.343872</ele></trkpt><trkpt lat="-27.029106" lon="-48.651166"><ele>19.417725</ele></trkpt><trkpt lat="-27.02911" lon="-48.651151"><ele>19.423523</ele></trkpt><trkpt lat="-27.029113" lon="-48.651134"><ele>19.724854</ele></trkpt><trkpt lat="-27.029117" lon="-48.651115"><ele>19.318665</ele></trkpt><trkpt lat="-27.029121" lon="-48.651098"><ele>19.316895</ele></trkpt><trkpt lat="-27.029124" lon="-48.65108"><ele>19.13031</ele></trkpt><trkpt lat="-27.029124" lon="-48.65108"><ele>19.13031</ele></trkpt><trkpt lat="-27.029126" lon="-48.651068"><ele>19.660706</ele></trkpt><trkpt lat="-27.02913" lon="-48.65105"><ele>19.589905</ele></trkpt><trkpt lat="-27.029136" lon="-48.651033"><ele>19.033325</ele></trkpt><trkpt lat="-27.029141" lon="-48.651018"><ele>19.080933</ele></trkpt><trkpt lat="-27.029145" lon="-48.65099"><ele>18.29425</ele></trkpt><trkpt lat="-27.029143" lon="-48.650957"><ele>18.49292</ele></trkpt><trkpt lat="-27.02914" lon="-48.650934"><ele>18.818665</ele></trkpt><trkpt lat="-27.029141" lon="-48.650914"><ele>18.068115</ele></trkpt><trkpt lat="-27.029142" lon="-48.650898"><ele>17.12915</ele></trkpt><trkpt lat="-27.029144" lon="-48.650876"><ele>16.494629</ele></trkpt><trkpt lat="-27.029147" lon="-48.650855"><ele>15.858643</ele></trkpt><trkpt lat="-27.029149" lon="-48.65083"><ele>15.450623</ele></trkpt><trkpt lat="-27.029149" lon="-48.650801"><ele>15.251343</ele></trkpt><trkpt lat="-27.02915" lon="-48.650771"><ele>14.593323</ele></trkpt><trkpt lat="-27.029151" lon="-48.650736"><ele>14.311157</ele></trkpt><trkpt lat="-27.029151" lon="-48.6507"><ele>13.761963</ele></trkpt><trkpt lat="-27.029153" lon="-48.650664"><ele>13.656677</ele></trkpt><trkpt lat="-27.029155" lon="-48.65063"><ele>13.607849</ele></trkpt><trkpt lat="-27.029156" lon="-48.650597"><ele>13.837585</ele></trkpt><trkpt lat="-27.029154" lon="-48.650566"><ele>8.907867</ele></trkpt><trkpt lat="-27.029153" lon="-48.650533"><ele>8.826691</ele></trkpt><trkpt lat="-27.029155" lon="-48.650495"><ele>11.844147</ele></trkpt><trkpt lat="-27.029152" lon="-48.650462"><ele>12.28656</ele></trkpt><trkpt lat="-27.029156" lon="-48.650428"><ele>13.952332</ele></trkpt><trkpt lat="-27.029158" lon="-48.650394"><ele>14.200623</ele></trkpt><trkpt lat="-27.029161" lon="-48.650372"><ele>14.329041</ele></trkpt><trkpt lat="-27.02916" lon="-48.650358"><ele>14.364014</ele></trkpt><trkpt lat="-27.029157" lon="-48.650357"><ele>14.774597</ele></trkpt><trkpt lat="-27.029156" lon="-48.650356"><ele>15.236389</ele></trkpt><trkpt lat="-27.029156" lon="-48.650356"><ele>15.400391</ele></trkpt><trkpt lat="-27.029158" lon="-48.650355"><ele>15.2276</ele></trkpt><trkpt lat="-27.029158" lon="-48.650354"><ele>15.297058</ele></trkpt><trkpt lat="-27.029158" lon="-48.650354"><ele>15.297058</ele></trkpt><trkpt lat="-27.029158" lon="-48.650355"><ele>15.393555</ele></trkpt><trkpt lat="-27.029157" lon="-48.650354"><ele>15.369019</ele></trkpt><trkpt lat="-27.029157" lon="-48.650353"><ele>15.483765</ele></trkpt><trkpt lat="-27.029158" lon="-48.650351"><ele>15.398193</ele></trkpt><trkpt lat="-27.029159" lon="-48.650348"><ele>15.388733</ele></trkpt><trkpt lat="-27.02916" lon="-48.650347"><ele>13.798279</ele></trkpt><trkpt lat="-27.02916" lon="-48.650346"><ele>13.811462</ele></trkpt><trkpt lat="-27.029161" lon="-48.650346"><ele>13.817505</ele></trkpt><trkpt lat="-27.029161" lon="-48.650346"><ele>13.844177</ele></trkpt><trkpt lat="-27.029161" lon="-48.650346"><ele>13.844177</ele></trkpt><trkpt lat="-27.029161" lon="-48.650346"><ele>13.855042</ele></trkpt><trkpt lat="-27.029161" lon="-48.650346"><ele>13.859375</ele></trkpt><trkpt lat="-27.029161" lon="-48.650346"><ele>13.859558</ele></trkpt><trkpt lat="-27.029159" lon="-48.650337"><ele>13.623169</ele></trkpt><trkpt lat="-27.029161" lon="-48.650323"><ele>13.884033</ele></trkpt><trkpt lat="-27.029162" lon="-48.650311"><ele>13.573669</ele></trkpt><trkpt lat="-27.02916" lon="-48.650307"><ele>13.366699</ele></trkpt><trkpt lat="-27.02916" lon="-48.650307"><ele>13.366699</ele></trkpt><trkpt lat="-27.02916" lon="-48.6503"><ele>13.869751</ele></trkpt><trkpt lat="-27.02916" lon="-48.650284"><ele>15.678955</ele></trkpt><trkpt lat="-27.029158" lon="-48.650273"><ele>15.195923</ele></trkpt><trkpt lat="-27.029158" lon="-48.650269"><ele>14.76886</ele></trkpt><trkpt lat="-27.02916" lon="-48.650266"><ele>14.425659</ele></trkpt><trkpt lat="-27.029166" lon="-48.650259"><ele>14.024048</ele></trkpt><trkpt lat="-27.02917" lon="-48.650258"><ele>14.073425</ele></trkpt><trkpt lat="-27.029173" lon="-48.650257"><ele>13.881165</ele></trkpt><trkpt lat="-27.029177" lon="-48.650255"><ele>13.809204</ele></trkpt><trkpt lat="-27.029177" lon="-48.650254"><ele>13.796875</ele></trkpt><trkpt lat="-27.029175" lon="-48.650253"><ele>13.93042</ele></trkpt><trkpt lat="-27.029175" lon="-48.650251"><ele>14.031311</ele></trkpt><trkpt lat="-27.029177" lon="-48.65025"><ele>13.669617</ele></trkpt><trkpt lat="-27.029176" lon="-48.650249"><ele>13.664063</ele></trkpt><trkpt lat="-27.029177" lon="-48.650251"><ele>13.646179</ele></trkpt><trkpt lat="-27.029178" lon="-48.650251"><ele>13.868896</ele></trkpt><trkpt lat="-27.029179" lon="-48.650251"><ele>13.993469</ele></trkpt><trkpt lat="-27.029178" lon="-48.650245"><ele>14.34906</ele></trkpt><trkpt lat="-27.029179" lon="-48.650247"><ele>14.266479</ele></trkpt><trkpt lat="-27.02918" lon="-48.65025"><ele>14.10907</ele></trkpt><trkpt lat="-27.029179" lon="-48.650254"><ele>13.932373</ele></trkpt><trkpt lat="-27.029179" lon="-48.650261"><ele>13.529114</ele></trkpt><trkpt lat="-27.02918" lon="-48.650264"><ele>13.360413</ele></trkpt><trkpt lat="-27.02918" lon="-48.650264"><ele>13.664734</ele></trkpt><trkpt lat="-27.029178" lon="-48.650262"><ele>13.629578</ele></trkpt><trkpt lat="-27.02918" lon="-48.650261"><ele>13.786133</ele></trkpt><trkpt lat="-27.02918" lon="-48.650261"><ele>13.957336</ele></trkpt><trkpt lat="-27.029182" lon="-48.650262"><ele>14.408325</ele></trkpt><trkpt lat="-27.029181" lon="-48.650261"><ele>14.341858</ele></trkpt><trkpt lat="-27.02918" lon="-48.650259"><ele>14.520447</ele></trkpt><trkpt lat="-27.02918" lon="-48.65026"><ele>14.540039</ele></trkpt><trkpt lat="-27.029179" lon="-48.65026"><ele>14.266663</ele></trkpt><trkpt lat="-27.02918" lon="-48.650261"><ele>14.286987</ele></trkpt><trkpt lat="-27.029182" lon="-48.650262"><ele>14.254761</ele></trkpt><trkpt lat="-27.029182" lon="-48.650262"><ele>14.255554</ele></trkpt><trkpt lat="-27.029181" lon="-48.650257"><ele>14.111755</ele></trkpt><trkpt lat="-27.029183" lon="-48.650255"><ele>13.84198</ele></trkpt><trkpt lat="-27.029186" lon="-48.650252"><ele>13.703186</ele></trkpt><trkpt lat="-27.029186" lon="-48.650252"><ele>13.671875</ele></trkpt><trkpt lat="-27.029187" lon="-48.650251"><ele>13.585388</ele></trkpt><trkpt lat="-27.029188" lon="-48.650252"><ele>13.507935</ele></trkpt><trkpt lat="-27.029188" lon="-48.650251"><ele>13.453796</ele></trkpt><trkpt lat="-27.029187" lon="-48.650252"><ele>13.362366</ele></trkpt><trkpt lat="-27.029187" lon="-48.650254"><ele>13.382202</ele></trkpt><trkpt lat="-27.029187" lon="-48.650257"><ele>13.250854</ele></trkpt><trkpt lat="-27.029186" lon="-48.65026"><ele>13.013977</ele></trkpt><trkpt lat="-27.029187" lon="-48.650259"><ele>13.110779</ele></trkpt><trkpt lat="-27.029186" lon="-48.650258"><ele>13.146057</ele></trkpt><trkpt lat="-27.029187" lon="-48.650258"><ele>13.510925</ele></trkpt><trkpt lat="-27.029189" lon="-48.650259"><ele>13.687073</ele></trkpt><trkpt lat="-27.029191" lon="-48.650264"><ele>14.062988</ele></trkpt><trkpt lat="-27.02919" lon="-48.65027"><ele>13.835999</ele></trkpt><trkpt lat="-27.02919" lon="-48.65028"><ele>13.616516</ele></trkpt><trkpt lat="-27.029188" lon="-48.650289"><ele>12.986023</ele></trkpt><trkpt lat="-27.029183" lon="-48.650294"><ele>12.782227</ele></trkpt><trkpt lat="-27.029181" lon="-48.650294"><ele>12.821655</ele></trkpt><trkpt lat="-27.02918" lon="-48.650292"><ele>13.259338</ele></trkpt><trkpt lat="-27.029177" lon="-48.650285"><ele>13.370422</ele></trkpt><trkpt lat="-27.029167" lon="-48.650277"><ele>13.312317</ele></trkpt><trkpt lat="-27.029156" lon="-48.650271"><ele>13.579956</ele></trkpt><trkpt lat="-27.029153" lon="-48.650269"><ele>12.751526</ele></trkpt><trkpt lat="-27.029158" lon="-48.650269"><ele>12.756226</ele></trkpt><trkpt lat="-27.029161" lon="-48.650269"><ele>12.88031</ele></trkpt><trkpt lat="-27.029161" lon="-48.650268"><ele>12.872803</ele></trkpt><trkpt lat="-27.029164" lon="-48.650265"><ele>12.862915</ele></trkpt><trkpt lat="-27.029165" lon="-48.650264"><ele>13.164734</ele></trkpt><trkpt lat="-27.029168" lon="-48.650264"><ele>11.252838</ele></trkpt><trkpt lat="-27.029173" lon="-48.650264"><ele>11.603424</ele></trkpt><trkpt lat="-27.029174" lon="-48.650264"><ele>11.927185</ele></trkpt><trkpt lat="-27.029175" lon="-48.650265"><ele>12.322327</ele></trkpt><trkpt lat="-27.029172" lon="-48.650268"><ele>13.455811</ele></trkpt><trkpt lat="-27.029171" lon="-48.650268"><ele>13.728027</ele></trkpt><trkpt lat="-27.029392" lon="-48.650186"><ele>20.693115</ele></trkpt><trkpt lat="-27.02936" lon="-48.650194"><ele>20.456238</ele></trkpt><trkpt lat="-27.029322" lon="-48.650202"><ele>22.732849</ele></trkpt><trkpt lat="-27.029274" lon="-48.650216"><ele>22.440491</ele></trkpt><trkpt lat="-27.029245" lon="-48.650224"><ele>21.639954</ele></trkpt><trkpt lat="-27.029231" lon="-48.65023"><ele>21.509644</ele></trkpt><trkpt lat="-27.029227" lon="-48.650228"><ele>20.617249</ele></trkpt><trkpt lat="-27.029233" lon="-48.650229"><ele>20.767944</ele></trkpt><trkpt lat="-27.029232" lon="-48.650237"><ele>20.115112</ele></trkpt><trkpt lat="-27.029219" lon="-48.650247"><ele>19.424744</ele></trkpt><trkpt lat="-27.029214" lon="-48.650254"><ele>18.376343</ele></trkpt><trkpt lat="-27.029209" lon="-48.650253"><ele>18.11969</ele></trkpt><trkpt lat="-27.029207" lon="-48.650257"><ele>18.149536</ele></trkpt><trkpt lat="-27.029207" lon="-48.650257"><ele>18.149536</ele></trkpt><trkpt lat="-27.029213" lon="-48.650257"><ele>18.081909</ele></trkpt><trkpt lat="-27.029212" lon="-48.650254"><ele>18.075317</ele></trkpt><trkpt lat="-27.029209" lon="-48.650255"><ele>18.353333</ele></trkpt><trkpt lat="-27.029209" lon="-48.650255"><ele>18.353333</ele></trkpt><trkpt lat="-27.029212" lon="-48.650249"><ele>18.329834</ele></trkpt><trkpt lat="-27.029215" lon="-48.650244"><ele>18.577759</ele></trkpt><trkpt lat="-27.029221" lon="-48.650239"><ele>18.766174</ele></trkpt><trkpt lat="-27.029218" lon="-48.650238"><ele>19.020874</ele></trkpt><trkpt lat="-27.029218" lon="-48.650238"><ele>19.020874</ele></trkpt><trkpt lat="-27.029215" lon="-48.650236"><ele>19.128174</ele></trkpt><trkpt lat="-27.029211" lon="-48.650236"><ele>18.9375</ele></trkpt><trkpt lat="-27.029208" lon="-48.650236"><ele>19.076294</ele></trkpt><trkpt lat="-27.029208" lon="-48.650236"><ele>19.076294</ele></trkpt><trkpt lat="-27.029207" lon="-48.650235"><ele>19.286377</ele></trkpt><trkpt lat="-27.029203" lon="-48.650235"><ele>19.345703</ele></trkpt><trkpt lat="-27.0292" lon="-48.650234"><ele>19.539001</ele></trkpt><trkpt lat="-27.0292" lon="-48.650234"><ele>20.050537</ele></trkpt><trkpt lat="-27.029196" lon="-48.650233"><ele>19.818787</ele></trkpt><trkpt lat="-27.029195" lon="-48.650233"><ele>19.842529</ele></trkpt><trkpt lat="-27.029195" lon="-48.650233"><ele>19.806946</ele></trkpt><trkpt lat="-27.029195" lon="-48.650233"><ele>19.810669</ele></trkpt><trkpt lat="-27.029195" lon="-48.650236"><ele>19.775879</ele></trkpt><trkpt lat="-27.029191" lon="-48.650238"><ele>18.972412</ele></trkpt><trkpt lat="-27.029188" lon="-48.650237"><ele>18.973267</ele></trkpt><trkpt lat="-27.029188" lon="-48.650237"><ele>18.973267</ele></trkpt><trkpt lat="-27.029189" lon="-48.650236"><ele>19.050598</ele></trkpt><trkpt lat="-27.029187" lon="-48.650237"><ele>18.890991</ele></trkpt><trkpt lat="-27.029189" lon="-48.650239"><ele>18.751221</ele></trkpt><trkpt lat="-27.029189" lon="-48.650239"><ele>18.751221</ele></trkpt><trkpt lat="-27.029187" lon="-48.650237"><ele>18.800964</ele></trkpt><trkpt lat="-27.029185" lon="-48.650237"><ele>18.963074</ele></trkpt><trkpt lat="-27.029185" lon="-48.650237"><ele>18.963074</ele></trkpt><trkpt lat="-27.029184" lon="-48.650236"><ele>18.923706</ele></trkpt><trkpt lat="-27.029182" lon="-48.650236"><ele>18.865112</ele></trkpt><trkpt lat="-27.029182" lon="-48.650235"><ele>18.774048</ele></trkpt><trkpt lat="-27.029183" lon="-48.650236"><ele>18.71814</ele></trkpt><trkpt lat="-27.029183" lon="-48.650236"><ele>18.71814</ele></trkpt><trkpt lat="-27.029183" lon="-48.650235"><ele>18.471191</ele></trkpt><trkpt lat="-27.029185" lon="-48.650235"><ele>18.375183</ele></trkpt><trkpt lat="-27.029185" lon="-48.650234"><ele>18.182983</ele></trkpt><trkpt lat="-27.029186" lon="-48.650234"><ele>17.98291</ele></trkpt><trkpt lat="-27.029187" lon="-48.650233"><ele>17.958313</ele></trkpt><trkpt lat="-27.029188" lon="-48.650233"><ele>17.826599</ele></trkpt><trkpt lat="-27.029188" lon="-48.650233"><ele>18.745239</ele></trkpt><trkpt lat="-27.029189" lon="-48.650233"><ele>18.768127</ele></trkpt><trkpt lat="-27.029189" lon="-48.650233"><ele>18.723511</ele></trkpt><trkpt lat="-27.029189" lon="-48.650233"><ele>18.723511</ele></trkpt><trkpt lat="-27.02919" lon="-48.650229"><ele>18.50354</ele></trkpt><trkpt lat="-27.029191" lon="-48.650228"><ele>18.471558</ele></trkpt><trkpt lat="-27.029194" lon="-48.650228"><ele>18.387329</ele></trkpt><trkpt lat="-27.029193" lon="-48.650228"><ele>18.15686</ele></trkpt><trkpt lat="-27.029193" lon="-48.650226"><ele>18.192566</ele></trkpt><trkpt lat="-27.029198" lon="-48.650225"><ele>18.008545</ele></trkpt><trkpt lat="-27.029199" lon="-48.650224"><ele>18.006531</ele></trkpt><trkpt lat="-27.029199" lon="-48.650224"><ele>18.006531</ele></trkpt><trkpt lat="-27.029201" lon="-48.650223"><ele>17.956909</ele></trkpt><trkpt lat="-27.029201" lon="-48.650223"><ele>17.956909</ele></trkpt><trkpt lat="-27.029203" lon="-48.650221"><ele>17.88855</ele></trkpt><trkpt lat="-27.029204" lon="-48.65022"><ele>17.887268</ele></trkpt><trkpt lat="-27.029207" lon="-48.650218"><ele>17.774475</ele></trkpt><trkpt lat="-27.029209" lon="-48.650216"><ele>17.794983</ele></trkpt><trkpt lat="-27.02921" lon="-48.650216"><ele>17.663452</ele></trkpt><trkpt lat="-27.029209" lon="-48.650217"><ele>17.741272</ele></trkpt><trkpt lat="-27.02921" lon="-48.650216"><ele>17.70282</ele></trkpt><trkpt lat="-27.029216" lon="-48.650215"><ele>17.774231</ele></trkpt><trkpt lat="-27.029218" lon="-48.650216"><ele>17.668274</ele></trkpt><trkpt lat="-27.029215" lon="-48.650217"><ele>17.519653</ele></trkpt><trkpt lat="-27.029212" lon="-48.650214"><ele>17.594788</ele></trkpt><trkpt lat="-27.029212" lon="-48.650214"><ele>17.594788</ele></trkpt><trkpt lat="-27.029207" lon="-48.650216"><ele>17.240356</ele></trkpt><trkpt lat="-27.029205" lon="-48.650216"><ele>17.178589</ele></trkpt><trkpt lat="-27.029206" lon="-48.650217"><ele>17.34314</ele></trkpt><trkpt lat="-27.029205" lon="-48.650218"><ele>17.350586</ele></trkpt><trkpt lat="-27.029202" lon="-48.650221"><ele>17.287354</ele></trkpt><trkpt lat="-27.029197" lon="-48.650224"><ele>17.378784</ele></trkpt><trkpt lat="-27.029196" lon="-48.650225"><ele>17.592346</ele></trkpt><trkpt lat="-27.029195" lon="-48.650224"><ele>17.676392</ele></trkpt><trkpt lat="-27.029193" lon="-48.650226"><ele>17.943481</ele></trkpt><trkpt lat="-27.02919" lon="-48.650228"><ele>17.909241</ele></trkpt><trkpt lat="-27.02919" lon="-48.650229"><ele>17.139343</ele></trkpt><trkpt lat="-27.029189" lon="-48.650231"><ele>17.181885</ele></trkpt><trkpt lat="-27.029189" lon="-48.650233"><ele>17.341064</ele></trkpt><trkpt lat="-27.029189" lon="-48.650234"><ele>17.49762</ele></trkpt><trkpt lat="-27.029189" lon="-48.650236"><ele>17.470154</ele></trkpt><trkpt lat="-27.029189" lon="-48.650237"><ele>17.490723</ele></trkpt><trkpt lat="-27.029188" lon="-48.650239"><ele>17.611633</ele></trkpt><trkpt lat="-27.029188" lon="-48.650241"><ele>17.59436</ele></trkpt><trkpt lat="-27.029187" lon="-48.650243"><ele>17.224731</ele></trkpt><trkpt lat="-27.029186" lon="-48.650244"><ele>17.038208</ele></trkpt><trkpt lat="-27.029186" lon="-48.650245"><ele>16.909668</ele></trkpt><trkpt lat="-27.029186" lon="-48.650246"><ele>16.783813</ele></trkpt><trkpt lat="-27.029186" lon="-48.650246"><ele>16.783813</ele></trkpt><trkpt lat="-27.029186" lon="-48.650246"><ele>16.760376</ele></trkpt><trkpt lat="-27.029186" lon="-48.650247"><ele>16.714661</ele></trkpt><trkpt lat="-27.029186" lon="-48.650248"><ele>16.263489</ele></trkpt><trkpt lat="-27.029183" lon="-48.650251"><ele>16.459778</ele></trkpt></trkseg></trk></gpx>