<?xml version="1.0" encoding="UTF-8"?>
<gpx xmlns="http://www.topografix.com/GPX/1/1" version="1.1" creator="@dwayneparton/geojson-to-gpx"><wpt lat="-27.024546" lon="-48.645929"><ele>19.598389</ele><name>2 faixas</name></wpt><wpt lat="-27.02455" lon="-48.645914"><ele>17.379822</ele><name>60</name></wpt><wpt lat="-27.024516" lon="-48.645854"><ele>22.276978</ele><name>196</name></wpt><wpt lat="-27.024546" lon="-48.645916"><ele>16.589355</ele><name>420</name></wpt><wpt lat="-27.024547" lon="-48.645916"><ele>15.94165</ele><name>1056</name></wpt><wpt lat="-27.024966" lon="-48.644104"><ele>9.991913</ele><name>A ciclo é completamente reta.</name></wpt><wpt lat="-27.024964" lon="-48.644104"><ele>11.350006</ele><name>A pintura é MUITO falha, mostrando muito asfalto</name></wpt><wpt lat="-27.024551" lon="-48.645917"><ele>17.366516</ele><name>Área de amortecimento da ciclo (cm)</name></wpt><wpt lat="-27.024499" lon="-48.645829"><ele>23.611694</ele><name>Área transitável da ciclo (cm)</name></wpt><wpt lat="-27.024539" lon="-48.645931"><ele>18.133179</ele><name>Bidirecional</name></wpt><wpt lat="-27.024968" lon="-48.644104"><ele>11.406433</ele><name>Bom estado</name></wpt><wpt lat="-27.024543" lon="-48.645942"><ele>18.132935</ele><name>Canteiros</name></wpt><wpt lat="-27.024539" lon="-48.645931"><ele>18.130066</ele><name>Ciclovia</name></wpt><wpt lat="-27.024547" lon="-48.645929"><ele>19.793335</ele><name>Estacionamento proibido na via</name></wpt><wpt lat="-27.024546" lon="-48.645916"><ele>16.589355</ele><name>Faixa de carros logo ao lado da ciclo (cm)</name></wpt><wpt lat="-27.024544" lon="-48.645955"><ele>17.950439</ele><name>Foto</name></wpt><wpt lat="-27.024967" lon="-48.644102"><ele>11.131653</ele><name>Iluminação geral na via do outro lado da infraestrutura</name></wpt><wpt lat="-27.024539" lon="-48.645931"><ele>18.13092</ele><name>Isolada</name></wpt><wpt lat="-27.024539" lon="-48.645934"><ele>17.844055</ele><name>Mão Dupla</name></wpt><wpt lat="-27.024968" lon="-48.644102"><ele>10.171997</ele><name>Não há árvores nem mudas</name></wpt><wpt lat="-27.024549" lon="-48.645934"><ele>19.380676</ele><name>Tijolo intertravado</name></wpt><wpt lat="-27.02496" lon="-48.644102"><ele>10.345734</ele><name>SE CICLOVIA: segregação impede completamente a invasão de automóvel e não há trechos desprotegidos</name></wpt><wpt lat="-27.024963" lon="-48.644107"><ele>10.015167</ele><name>Segregadores DIFICULTAM o acesso parcialmente de ciclistas</name></wpt><wpt lat="-27.024546" lon="-48.645946"><ele>17.207703</ele><name>Toda área de circulação pintada de vermelho</name></wpt><wpt lat="-27.024546" lon="-48.645916"><ele>15.938721</ele><name>Total da via (incluindo a ciclo) (cm)</name></wpt><wpt lat="-27.024538" lon="-48.645777"><name>Sobre calçada</name></wpt><wpt lat="-27.024529" lon="-48.645852"><name>Canteiros sem mureta</name></wpt><wpt lat="-27.024577" lon="-48.645693"><name>Nenhum elemento de controle de velocidade na via</name></wpt><trk><name>Compart. R. Cel. Benjamin Vieira T1 - Cb</name><trkseg><trkpt lat="-27.024582" lon="-48.645797"><ele>34.244141</ele></trkpt><trkpt lat="-27.024582" lon="-48.645796"><ele>34.345703</ele></trkpt><trkpt lat="-27.024618" lon="-48.645769"><ele>34.107117</ele></trkpt><trkpt lat="-27.024609" lon="-48.645764"><ele>35.250183</ele></trkpt><trkpt lat="-27.024584" lon="-48.645846"><ele>27.940369</ele></trkpt><trkpt lat="-27.024555" lon="-48.64592"><ele>22.931458</ele></trkpt><trkpt lat="-27.024544" lon="-48.645953"><ele>20.753174</ele></trkpt><trkpt lat="-27.024553" lon="-48.645957"><ele>20.402588</ele></trkpt><trkpt lat="-27.024547" lon="-48.645963"><ele>19.813293</ele></trkpt><trkpt lat="-27.024539" lon="-48.645969"><ele>20.328674</ele></trkpt><trkpt lat="-27.024535" lon="-48.645975"><ele>19.978638</ele></trkpt><trkpt lat="-27.024535" lon="-48.645977"><ele>19.982666</ele></trkpt><trkpt lat="-27.024534" lon="-48.645977"><ele>19.968384</ele></trkpt><trkpt lat="-27.024533" lon="-48.645977"><ele>19.736572</ele></trkpt><trkpt lat="-27.024533" lon="-48.645975"><ele>19.114197</ele></trkpt><trkpt lat="-27.024535" lon="-48.645974"><ele>18.251099</ele></trkpt><trkpt lat="-27.024542" lon="-48.645969"><ele>17.63562</ele></trkpt><trkpt lat="-27.024544" lon="-48.645955"><ele>17.950439</ele></trkpt><trkpt lat="-27.024544" lon="-48.645955"><ele>17.950439</ele></trkpt><trkpt lat="-27.024544" lon="-48.645942"><ele>18.679626</ele></trkpt><trkpt lat="-27.024544" lon="-48.645936"><ele>18.987793</ele></trkpt><trkpt lat="-27.024543" lon="-48.645933"><ele>18.163147</ele></trkpt><trkpt lat="-27.024541" lon="-48.645931"><ele>18.14032</ele></trkpt><trkpt lat="-27.02454" lon="-48.645931"><ele>18.139038</ele></trkpt><trkpt lat="-27.02454" lon="-48.645931"><ele>18.139893</ele></trkpt><trkpt lat="-27.02454" lon="-48.645931"><ele>18.141418</ele></trkpt><trkpt lat="-27.02454" lon="-48.645931"><ele>18.140381</ele></trkpt><trkpt lat="-27.024539" lon="-48.645931"><ele>18.138123</ele></trkpt><trkpt lat="-27.024539" lon="-48.645931"><ele>18.132751</ele></trkpt><trkpt lat="-27.024539" lon="-48.645931"><ele>18.130066</ele></trkpt><trkpt lat="-27.024539" lon="-48.645931"><ele>18.130066</ele></trkpt><trkpt lat="-27.024539" lon="-48.645931"><ele>18.131592</ele></trkpt><trkpt lat="-27.024539" lon="-48.645931"><ele>18.132202</ele></trkpt><trkpt lat="-27.024539" lon="-48.645931"><ele>18.133179</ele></trkpt><trkpt lat="-27.024539" lon="-48.645931"><ele>18.133179</ele></trkpt><trkpt lat="-27.024539" lon="-48.645931"><ele>18.133545</ele></trkpt><trkpt lat="-27.024539" lon="-48.645931"><ele>18.134888</ele></trkpt><trkpt lat="-27.024539" lon="-48.645931"><ele>18.13446</ele></trkpt><trkpt lat="-27.024539" lon="-48.645931"><ele>18.134033</ele></trkpt><trkpt lat="-27.024539" lon="-48.645931"><ele>18.132568</ele></trkpt><trkpt lat="-27.024539" lon="-48.645931"><ele>18.133362</ele></trkpt><trkpt lat="-27.024539" lon="-48.645931"><ele>18.137573</ele></trkpt><trkpt lat="-27.024539" lon="-48.645931"><ele>18.138855</ele></trkpt><trkpt lat="-27.024539" lon="-48.645931"><ele>18.140198</ele></trkpt><trkpt lat="-27.024539" lon="-48.64593"><ele>18.137756</ele></trkpt><trkpt lat="-27.024539" lon="-48.645931"><ele>18.134338</ele></trkpt><trkpt lat="-27.024539" lon="-48.645931"><ele>18.131409</ele></trkpt><trkpt lat="-27.024539" lon="-48.645931"><ele>18.13092</ele></trkpt><trkpt lat="-27.024539" lon="-48.645931"><ele>18.13092</ele></trkpt><trkpt lat="-27.024539" lon="-48.645931"><ele>18.130676</ele></trkpt><trkpt lat="-27.024539" lon="-48.645931"><ele>18.134888</ele></trkpt><trkpt lat="-27.024539" lon="-48.645931"><ele>18.137085</ele></trkpt><trkpt lat="-27.024539" lon="-48.645934"><ele>17.844055</ele></trkpt><trkpt lat="-27.024539" lon="-48.645934"><ele>17.844055</ele></trkpt><trkpt lat="-27.02454" lon="-48.645935"><ele>17.65686</ele></trkpt><trkpt lat="-27.024541" lon="-48.645936"><ele>17.271362</ele></trkpt><trkpt lat="-27.024543" lon="-48.645938"><ele>17.276733</ele></trkpt><trkpt lat="-27.024544" lon="-48.64594"><ele>17.266296</ele></trkpt><trkpt lat="-27.024545" lon="-48.645942"><ele>17.129333</ele></trkpt><trkpt lat="-27.024546" lon="-48.645944"><ele>17.141724</ele></trkpt><trkpt lat="-27.024546" lon="-48.645945"><ele>17.100952</ele></trkpt><trkpt lat="-27.024546" lon="-48.645945"><ele>17.218689</ele></trkpt><trkpt lat="-27.024546" lon="-48.645946"><ele>17.200623</ele></trkpt><trkpt lat="-27.024546" lon="-48.645946"><ele>17.201294</ele></trkpt><trkpt lat="-27.024546" lon="-48.645946"><ele>17.208313</ele></trkpt><trkpt lat="-27.024546" lon="-48.645946"><ele>17.207703</ele></trkpt><trkpt lat="-27.024546" lon="-48.645946"><ele>17.207703</ele></trkpt><trkpt lat="-27.024546" lon="-48.645946"><ele>17.205566</ele></trkpt><trkpt lat="-27.024546" lon="-48.645946"><ele>17.688293</ele></trkpt><trkpt lat="-27.024546" lon="-48.645945"><ele>17.667969</ele></trkpt><trkpt lat="-27.024546" lon="-48.645945"><ele>17.669556</ele></trkpt><trkpt lat="-27.024544" lon="-48.645944"><ele>18.145203</ele></trkpt><trkpt lat="-27.024543" lon="-48.645942"><ele>18.132935</ele></trkpt><trkpt lat="-27.024543" lon="-48.645942"><ele>18.132935</ele></trkpt><trkpt lat="-27.024543" lon="-48.645942"><ele>18.506042</ele></trkpt><trkpt lat="-27.024542" lon="-48.645942"><ele>18.538879</ele></trkpt><trkpt lat="-27.024542" lon="-48.645942"><ele>18.53595</ele></trkpt><trkpt lat="-27.024544" lon="-48.645939"><ele>19.151978</ele></trkpt><trkpt lat="-27.024544" lon="-48.645938"><ele>19.141846</ele></trkpt><trkpt lat="-27.024545" lon="-48.645937"><ele>19.144409</ele></trkpt><trkpt lat="-27.024545" lon="-48.645937"><ele>19.147644</ele></trkpt><trkpt lat="-27.024546" lon="-48.645937"><ele>19.358398</ele></trkpt><trkpt lat="-27.024547" lon="-48.645936"><ele>19.369995</ele></trkpt><trkpt lat="-27.024547" lon="-48.645936"><ele>19.371094</ele></trkpt><trkpt lat="-27.024547" lon="-48.645936"><ele>19.369263</ele></trkpt><trkpt lat="-27.024548" lon="-48.645936"><ele>19.395935</ele></trkpt><trkpt lat="-27.024548" lon="-48.645936"><ele>19.371033</ele></trkpt><trkpt lat="-27.024548" lon="-48.645936"><ele>19.368408</ele></trkpt><trkpt lat="-27.024548" lon="-48.645936"><ele>19.368713</ele></trkpt><trkpt lat="-27.024548" lon="-48.645936"><ele>19.36969</ele></trkpt><trkpt lat="-27.024548" lon="-48.645936"><ele>19.372314</ele></trkpt><trkpt lat="-27.024547" lon="-48.645935"><ele>19.394287</ele></trkpt><trkpt lat="-27.024547" lon="-48.645934"><ele>19.384766</ele></trkpt><trkpt lat="-27.024547" lon="-48.645934"><ele>19.229126</ele></trkpt><trkpt lat="-27.024548" lon="-48.645934"><ele>19.367432</ele></trkpt><trkpt lat="-27.024549" lon="-48.645934"><ele>19.382629</ele></trkpt><trkpt lat="-27.024549" lon="-48.645934"><ele>19.380676</ele></trkpt><trkpt lat="-27.024549" lon="-48.645934"><ele>19.380676</ele></trkpt><trkpt lat="-27.024547" lon="-48.645932"><ele>19.593018</ele></trkpt><trkpt lat="-27.024546" lon="-48.64593"><ele>19.58783</ele></trkpt><trkpt lat="-27.024546" lon="-48.645929"><ele>19.59021</ele></trkpt><trkpt lat="-27.024546" lon="-48.645929"><ele>19.592957</ele></trkpt><trkpt lat="-27.024546" lon="-48.645929"><ele>19.598389</ele></trkpt><trkpt lat="-27.024546" lon="-48.645929"><ele>19.598389</ele></trkpt><trkpt lat="-27.024547" lon="-48.645929"><ele>19.770996</ele></trkpt><trkpt lat="-27.024547" lon="-48.645929"><ele>19.804077</ele></trkpt><trkpt lat="-27.024547" lon="-48.645929"><ele>19.801147</ele></trkpt><trkpt lat="-27.024547" lon="-48.645929"><ele>19.797058</ele></trkpt><trkpt lat="-27.024547" lon="-48.645929"><ele>19.793335</ele></trkpt><trkpt lat="-27.024547" lon="-48.645929"><ele>19.793335</ele></trkpt><trkpt lat="-27.024547" lon="-48.645929"><ele>19.79126</ele></trkpt><trkpt lat="-27.024547" lon="-48.645929"><ele>19.786438</ele></trkpt><trkpt lat="-27.024547" lon="-48.645929"><ele>19.779907</ele></trkpt><trkpt lat="-27.024547" lon="-48.645929"><ele>19.773499</ele></trkpt><trkpt lat="-27.024547" lon="-48.645929"><ele>19.767639</ele></trkpt><trkpt lat="-27.024547" lon="-48.645929"><ele>19.764771</ele></trkpt><trkpt lat="-27.02455" lon="-48.645929"><ele>19.878784</ele></trkpt><trkpt lat="-27.024553" lon="-48.64593"><ele>19.7453</ele></trkpt><trkpt lat="-27.024554" lon="-48.645931"><ele>19.806885</ele></trkpt><trkpt lat="-27.024555" lon="-48.645932"><ele>19.660828</ele></trkpt><trkpt lat="-27.024557" lon="-48.645933"><ele>19.63269</ele></trkpt><trkpt lat="-27.024559" lon="-48.645934"><ele>19.626709</ele></trkpt><trkpt lat="-27.024559" lon="-48.645934"><ele>19.62439</ele></trkpt><trkpt lat="-27.024559" lon="-48.645934"><ele>19.624939</ele></trkpt><trkpt lat="-27.02456" lon="-48.645934"><ele>19.625793</ele></trkpt><trkpt lat="-27.02456" lon="-48.645934"><ele>19.622375</ele></trkpt><trkpt lat="-27.024557" lon="-48.645936"><ele>19.155579</ele></trkpt><trkpt lat="-27.024553" lon="-48.645935"><ele>18.991699</ele></trkpt><trkpt lat="-27.02455" lon="-48.645934"><ele>18.973938</ele></trkpt><trkpt lat="-27.024549" lon="-48.645934"><ele>18.978943</ele></trkpt><trkpt lat="-27.024549" lon="-48.645934"><ele>18.980103</ele></trkpt><trkpt lat="-27.024549" lon="-48.645929"><ele>18.842712</ele></trkpt><trkpt lat="-27.024552" lon="-48.645924"><ele>18.759644</ele></trkpt><trkpt lat="-27.024553" lon="-48.645923"><ele>18.856506</ele></trkpt><trkpt lat="-27.024554" lon="-48.645922"><ele>19.018677</ele></trkpt><trkpt lat="-27.024553" lon="-48.645925"><ele>19.185669</ele></trkpt><trkpt lat="-27.024555" lon="-48.645923"><ele>19.405823</ele></trkpt><trkpt lat="-27.024555" lon="-48.645923"><ele>19.31842</ele></trkpt><trkpt lat="-27.024557" lon="-48.645923"><ele>19.32196</ele></trkpt><trkpt lat="-27.024558" lon="-48.645923"><ele>19.205688</ele></trkpt><trkpt lat="-27.024558" lon="-48.645922"><ele>19.205444</ele></trkpt><trkpt lat="-27.024558" lon="-48.645922"><ele>19.204224</ele></trkpt><trkpt lat="-27.024558" lon="-48.645921"><ele>19.45813</ele></trkpt><trkpt lat="-27.024557" lon="-48.64592"><ele>19.314575</ele></trkpt><trkpt lat="-27.024557" lon="-48.645919"><ele>19.31958</ele></trkpt><trkpt lat="-27.024557" lon="-48.645919"><ele>19.322021</ele></trkpt><trkpt lat="-27.024557" lon="-48.645919"><ele>19.321533</ele></trkpt><trkpt lat="-27.024557" lon="-48.645919"><ele>19.320801</ele></trkpt><trkpt lat="-27.024557" lon="-48.645919"><ele>19.455627</ele></trkpt><trkpt lat="-27.024558" lon="-48.645921"><ele>19.179199</ele></trkpt><trkpt lat="-27.024558" lon="-48.645921"><ele>19.133545</ele></trkpt><trkpt lat="-27.02456" lon="-48.645922"><ele>18.793091</ele></trkpt><trkpt lat="-27.024565" lon="-48.64592"><ele>18.588074</ele></trkpt><trkpt lat="-27.024568" lon="-48.64592"><ele>18.475891</ele></trkpt><trkpt lat="-27.024568" lon="-48.64592"><ele>18.474731</ele></trkpt><trkpt lat="-27.024568" lon="-48.645919"><ele>19.059937</ele></trkpt><trkpt lat="-27.024569" lon="-48.645921"><ele>19.022278</ele></trkpt><trkpt lat="-27.02457" lon="-48.645922"><ele>19.020264</ele></trkpt><trkpt lat="-27.02457" lon="-48.645922"><ele>19.020203</ele></trkpt><trkpt lat="-27.02457" lon="-48.645922"><ele>19.016235</ele></trkpt><trkpt lat="-27.02457" lon="-48.645921"><ele>19.047546</ele></trkpt><trkpt lat="-27.02457" lon="-48.64592"><ele>19.546814</ele></trkpt><trkpt lat="-27.024569" lon="-48.64592"><ele>19.071533</ele></trkpt><trkpt lat="-27.024567" lon="-48.645921"><ele>19.071716</ele></trkpt><trkpt lat="-27.024567" lon="-48.645921"><ele>19.072266</ele></trkpt><trkpt lat="-27.024566" lon="-48.645928"><ele>18.661682</ele></trkpt><trkpt lat="-27.024568" lon="-48.645931"><ele>18.164795</ele></trkpt><trkpt lat="-27.024562" lon="-48.645932"><ele>17.49585</ele></trkpt><trkpt lat="-27.024541" lon="-48.64593"><ele>16.987732</ele></trkpt><trkpt lat="-27.02454" lon="-48.645931"><ele>17.158447</ele></trkpt><trkpt lat="-27.02454" lon="-48.645931"><ele>17.163086</ele></trkpt><trkpt lat="-27.024541" lon="-48.645931"><ele>17.158752</ele></trkpt><trkpt lat="-27.024541" lon="-48.645931"><ele>17.158386</ele></trkpt><trkpt lat="-27.024541" lon="-48.645931"><ele>17.159058</ele></trkpt><trkpt lat="-27.024541" lon="-48.645931"><ele>16.711487</ele></trkpt><trkpt lat="-27.024541" lon="-48.645931"><ele>16.723755</ele></trkpt><trkpt lat="-27.024541" lon="-48.645931"><ele>16.72406</ele></trkpt><trkpt lat="-27.024541" lon="-48.645931"><ele>16.72168</ele></trkpt><trkpt lat="-27.024541" lon="-48.64593"><ele>16.471252</ele></trkpt><trkpt lat="-27.024544" lon="-48.645929"><ele>16.733887</ele></trkpt><trkpt lat="-27.024548" lon="-48.645925"><ele>16.890503</ele></trkpt><trkpt lat="-27.024552" lon="-48.645921"><ele>16.854675</ele></trkpt><trkpt lat="-27.024556" lon="-48.645916"><ele>17.013672</ele></trkpt><trkpt lat="-27.024565" lon="-48.645917"><ele>16.959045</ele></trkpt><trkpt lat="-27.024572" lon="-48.645924"><ele>16.734741</ele></trkpt><trkpt lat="-27.024578" lon="-48.645932"><ele>16.382324</ele></trkpt><trkpt lat="-27.024581" lon="-48.645936"><ele>16.439209</ele></trkpt><trkpt lat="-27.024595" lon="-48.645941"><ele>16.61554</ele></trkpt><trkpt lat="-27.024603" lon="-48.64595"><ele>16.862427</ele></trkpt><trkpt lat="-27.024601" lon="-48.645959"><ele>17.093628</ele></trkpt><trkpt lat="-27.024595" lon="-48.645962"><ele>17.057251</ele></trkpt><trkpt lat="-27.024588" lon="-48.645961"><ele>16.86084</ele></trkpt><trkpt lat="-27.024583" lon="-48.645958"><ele>16.756775</ele></trkpt><trkpt lat="-27.024578" lon="-48.645954"><ele>16.742798</ele></trkpt><trkpt lat="-27.024577" lon="-48.645953"><ele>16.741699</ele></trkpt><trkpt lat="-27.024576" lon="-48.645951"><ele>16.742676</ele></trkpt><trkpt lat="-27.024577" lon="-48.645951"><ele>16.638123</ele></trkpt><trkpt lat="-27.024578" lon="-48.645954"><ele>16.592163</ele></trkpt><trkpt lat="-27.024578" lon="-48.645953"><ele>16.584473</ele></trkpt><trkpt lat="-27.024584" lon="-48.645953"><ele>17.052795</ele></trkpt><trkpt lat="-27.024595" lon="-48.645945"><ele>17.425659</ele></trkpt><trkpt lat="-27.024602" lon="-48.645942"><ele>17.240234</ele></trkpt><trkpt lat="-27.024607" lon="-48.645944"><ele>17.522827</ele></trkpt><trkpt lat="-27.024607" lon="-48.64594"><ele>17.249329</ele></trkpt><trkpt lat="-27.024519" lon="-48.645803"><ele>31.493469</ele></trkpt><trkpt lat="-27.024495" lon="-48.645808"><ele>34.700562</ele></trkpt><trkpt lat="-27.024503" lon="-48.645827"><ele>23.54248</ele></trkpt><trkpt lat="-27.024499" lon="-48.645829"><ele>23.611694</ele></trkpt><trkpt lat="-27.024499" lon="-48.645829"><ele>23.611694</ele></trkpt><trkpt lat="-27.024516" lon="-48.645854"><ele>22.276978</ele></trkpt><trkpt lat="-27.024516" lon="-48.645854"><ele>22.276978</ele></trkpt><trkpt lat="-27.024515" lon="-48.64586"><ele>21.723938</ele></trkpt><trkpt lat="-27.024527" lon="-48.645869"><ele>21.177368</ele></trkpt><trkpt lat="-27.024548" lon="-48.645902"><ele>18.477966</ele></trkpt><trkpt lat="-27.024553" lon="-48.645915"><ele>17.132507</ele></trkpt><trkpt lat="-27.024552" lon="-48.645923"><ele>17.116638</ele></trkpt><trkpt lat="-27.024552" lon="-48.645926"><ele>16.903931</ele></trkpt><trkpt lat="-27.024554" lon="-48.645922"><ele>16.560913</ele></trkpt><trkpt lat="-27.024552" lon="-48.64592"><ele>17.407654</ele></trkpt><trkpt lat="-27.024552" lon="-48.645919"><ele>17.530884</ele></trkpt><trkpt lat="-27.024551" lon="-48.645917"><ele>17.366516</ele></trkpt><trkpt lat="-27.024551" lon="-48.645917"><ele>17.366516</ele></trkpt><trkpt lat="-27.02455" lon="-48.645914"><ele>17.379822</ele></trkpt><trkpt lat="-27.02455" lon="-48.645914"><ele>17.379822</ele></trkpt><trkpt lat="-27.024549" lon="-48.645914"><ele>17.329285</ele></trkpt><trkpt lat="-27.02455" lon="-48.645914"><ele>16.968811</ele></trkpt><trkpt lat="-27.024548" lon="-48.645913"><ele>16.810242</ele></trkpt><trkpt lat="-27.024545" lon="-48.645913"><ele>17.24353</ele></trkpt><trkpt lat="-27.024544" lon="-48.645914"><ele>17.021179</ele></trkpt><trkpt lat="-27.024543" lon="-48.645914"><ele>17.079468</ele></trkpt><trkpt lat="-27.024544" lon="-48.645915"><ele>16.877808</ele></trkpt><trkpt lat="-27.024545" lon="-48.645916"><ele>16.683105</ele></trkpt><trkpt lat="-27.024545" lon="-48.645916"><ele>16.610474</ele></trkpt><trkpt lat="-27.024546" lon="-48.645916"><ele>16.589355</ele></trkpt><trkpt lat="-27.024546" lon="-48.645916"><ele>16.589355</ele></trkpt><trkpt lat="-27.024546" lon="-48.645916"><ele>16.589355</ele></trkpt><trkpt lat="-27.024546" lon="-48.645916"><ele>16.59552</ele></trkpt><trkpt lat="-27.024547" lon="-48.645917"><ele>16.294495</ele></trkpt><trkpt lat="-27.024548" lon="-48.645919"><ele>16.277527</ele></trkpt><trkpt lat="-27.024547" lon="-48.645921"><ele>16.098145</ele></trkpt><trkpt lat="-27.024547" lon="-48.645921"><ele>16.093994</ele></trkpt><trkpt lat="-27.024547" lon="-48.645921"><ele>16.162354</ele></trkpt><trkpt lat="-27.024547" lon="-48.64592"><ele>16.18573</ele></trkpt><trkpt lat="-27.024546" lon="-48.645919"><ele>16.403015</ele></trkpt><trkpt lat="-27.024548" lon="-48.645917"><ele>16.071289</ele></trkpt><trkpt lat="-27.024547" lon="-48.645917"><ele>16.089478</ele></trkpt><trkpt lat="-27.024546" lon="-48.645917"><ele>15.980774</ele></trkpt><trkpt lat="-27.024546" lon="-48.645916"><ele>15.938721</ele></trkpt><trkpt lat="-27.024546" lon="-48.645916"><ele>15.938721</ele></trkpt><trkpt lat="-27.024547" lon="-48.645916"><ele>15.94165</ele></trkpt><trkpt lat="-27.024547" lon="-48.645916"><ele>15.94165</ele></trkpt><trkpt lat="-27.024547" lon="-48.645916"><ele>16.054382</ele></trkpt><trkpt lat="-27.024549" lon="-48.645917"><ele>15.790649</ele></trkpt><trkpt lat="-27.02455" lon="-48.645917"><ele>15.71814</ele></trkpt><trkpt lat="-27.02455" lon="-48.645917"><ele>15.44342</ele></trkpt><trkpt lat="-27.02455" lon="-48.645918"><ele>15.277222</ele></trkpt><trkpt lat="-27.024552" lon="-48.645918"><ele>15.334106</ele></trkpt><trkpt lat="-27.024552" lon="-48.645919"><ele>15.38031</ele></trkpt><trkpt lat="-27.024549" lon="-48.64592"><ele>15.256958</ele></trkpt><trkpt lat="-27.024544" lon="-48.645921"><ele>15.15033</ele></trkpt><trkpt lat="-27.024543" lon="-48.645922"><ele>14.816589</ele></trkpt><trkpt lat="-27.024532" lon="-48.645931"><ele>14.714844</ele></trkpt><trkpt lat="-27.02453" lon="-48.645933"><ele>14.718079</ele></trkpt><trkpt lat="-27.024529" lon="-48.645933"><ele>14.717041</ele></trkpt><trkpt lat="-27.024529" lon="-48.645933"><ele>14.719543</ele></trkpt><trkpt lat="-27.024529" lon="-48.645933"><ele>14.720947</ele></trkpt><trkpt lat="-27.024529" lon="-48.645933"><ele>14.72522</ele></trkpt><trkpt lat="-27.024529" lon="-48.645933"><ele>14.723633</ele></trkpt><trkpt lat="-27.024529" lon="-48.645934"><ele>14.726074</ele></trkpt><trkpt lat="-27.02453" lon="-48.645935"><ele>14.559448</ele></trkpt><trkpt lat="-27.024531" lon="-48.645936"><ele>14.456482</ele></trkpt><trkpt lat="-27.024531" lon="-48.645936"><ele>14.460571</ele></trkpt><trkpt lat="-27.024531" lon="-48.645936"><ele>14.463562</ele></trkpt><trkpt lat="-27.024531" lon="-48.645936"><ele>14.470764</ele></trkpt><trkpt lat="-27.024531" lon="-48.645936"><ele>14.47406</ele></trkpt><trkpt lat="-27.024531" lon="-48.645936"><ele>14.476257</ele></trkpt><trkpt lat="-27.024531" lon="-48.645936"><ele>14.482361</ele></trkpt><trkpt lat="-27.024531" lon="-48.645936"><ele>14.483215</ele></trkpt><trkpt lat="-27.024531" lon="-48.645936"><ele>14.483887</ele></trkpt><trkpt lat="-27.024531" lon="-48.645936"><ele>14.485657</ele></trkpt><trkpt lat="-27.024532" lon="-48.645932"><ele>14.62915</ele></trkpt><trkpt lat="-27.024531" lon="-48.645924"><ele>14.856384</ele></trkpt><trkpt lat="-27.02453" lon="-48.645921"><ele>14.752136</ele></trkpt><trkpt lat="-27.024528" lon="-48.645908"><ele>14.780579</ele></trkpt><trkpt lat="-27.024525" lon="-48.645891"><ele>15.274902</ele></trkpt><trkpt lat="-27.024525" lon="-48.645872"><ele>15.250061</ele></trkpt><trkpt lat="-27.024532" lon="-48.645848"><ele>15.81665</ele></trkpt><trkpt lat="-27.024536" lon="-48.645817"><ele>17.078674</ele></trkpt><trkpt lat="-27.024546" lon="-48.645795"><ele>17.043335</ele></trkpt><trkpt lat="-27.024554" lon="-48.645775"><ele>17.266663</ele></trkpt><trkpt lat="-27.02456" lon="-48.645756"><ele>17.084045</ele></trkpt><trkpt lat="-27.024566" lon="-48.645737"><ele>17.003723</ele></trkpt><trkpt lat="-27.024577" lon="-48.645717"><ele>17.058716</ele></trkpt><trkpt lat="-27.024586" lon="-48.645692"><ele>17.222046</ele></trkpt><trkpt lat="-27.024596" lon="-48.64567"><ele>18.006592</ele></trkpt><trkpt lat="-27.024604" lon="-48.645645"><ele>18.061707</ele></trkpt><trkpt lat="-27.024611" lon="-48.645622"><ele>18.048035</ele></trkpt><trkpt lat="-27.024612" lon="-48.645601"><ele>17.818176</ele></trkpt><trkpt lat="-27.024617" lon="-48.645582"><ele>17.494202</ele></trkpt><trkpt lat="-27.024621" lon="-48.645562"><ele>17.471313</ele></trkpt><trkpt lat="-27.024626" lon="-48.645541"><ele>17.163147</ele></trkpt><trkpt lat="-27.024632" lon="-48.645522"><ele>17.172913</ele></trkpt><trkpt lat="-27.024639" lon="-48.645501"><ele>17.704468</ele></trkpt><trkpt lat="-27.024649" lon="-48.645479"><ele>17.652222</ele></trkpt><trkpt lat="-27.024659" lon="-48.645454"><ele>17.662231</ele></trkpt><trkpt lat="-27.024668" lon="-48.645426"><ele>17.746033</ele></trkpt><trkpt lat="-27.02468" lon="-48.645397"><ele>17.934326</ele></trkpt><trkpt lat="-27.024692" lon="-48.645365"><ele>18.000793</ele></trkpt><trkpt lat="-27.024705" lon="-48.645331"><ele>17.931396</ele></trkpt><trkpt lat="-27.024718" lon="-48.645298"><ele>18.211975</ele></trkpt><trkpt lat="-27.02473" lon="-48.645267"><ele>17.852844</ele></trkpt><trkpt lat="-27.024739" lon="-48.645239"><ele>17.895325</ele></trkpt><trkpt lat="-27.024748" lon="-48.645217"><ele>18.575562</ele></trkpt><trkpt lat="-27.024746" lon="-48.645196"><ele>18.721313</ele></trkpt><trkpt lat="-27.024753" lon="-48.645195"><ele>18.094421</ele></trkpt><trkpt lat="-27.024755" lon="-48.645196"><ele>17.797119</ele></trkpt><trkpt lat="-27.024752" lon="-48.645202"><ele>17.858643</ele></trkpt><trkpt lat="-27.024746" lon="-48.645217"><ele>17.09259</ele></trkpt><trkpt lat="-27.024742" lon="-48.64522"><ele>17.296448</ele></trkpt><trkpt lat="-27.02474" lon="-48.645217"><ele>16.915833</ele></trkpt><trkpt lat="-27.024735" lon="-48.645219"><ele>16.782471</ele></trkpt><trkpt lat="-27.024733" lon="-48.645226"><ele>15.789673</ele></trkpt><trkpt lat="-27.024734" lon="-48.645235"><ele>15.788086</ele></trkpt><trkpt lat="-27.024731" lon="-48.645235"><ele>16.08075</ele></trkpt><trkpt lat="-27.024724" lon="-48.645227"><ele>16.39447</ele></trkpt><trkpt lat="-27.02472" lon="-48.645219"><ele>16.554565</ele></trkpt><trkpt lat="-27.024717" lon="-48.645212"><ele>16.549011</ele></trkpt><trkpt lat="-27.024711" lon="-48.645196"><ele>16.539429</ele></trkpt><trkpt lat="-27.024708" lon="-48.645198"><ele>16.088257</ele></trkpt><trkpt lat="-27.024709" lon="-48.645205"><ele>15.319336</ele></trkpt><trkpt lat="-27.024713" lon="-48.645212"><ele>14.862</ele></trkpt><trkpt lat="-27.024725" lon="-48.645223"><ele>15.320313</ele></trkpt><trkpt lat="-27.024733" lon="-48.64523"><ele>15.192688</ele></trkpt><trkpt lat="-27.024739" lon="-48.645234"><ele>15.2146</ele></trkpt><trkpt lat="-27.024741" lon="-48.645235"><ele>15.232422</ele></trkpt><trkpt lat="-27.024747" lon="-48.64524"><ele>14.936035</ele></trkpt><trkpt lat="-27.024749" lon="-48.645247"><ele>13.636292</ele></trkpt><trkpt lat="-27.024747" lon="-48.645252"><ele>13.654236</ele></trkpt><trkpt lat="-27.024743" lon="-48.645251"><ele>13.666382</ele></trkpt><trkpt lat="-27.024741" lon="-48.645252"><ele>13.65741</ele></trkpt><trkpt lat="-27.024738" lon="-48.645251"><ele>12.830017</ele></trkpt><trkpt lat="-27.024733" lon="-48.645251"><ele>12.74353</ele></trkpt><trkpt lat="-27.02473" lon="-48.645249"><ele>12.72052</ele></trkpt><trkpt lat="-27.02473" lon="-48.645248"><ele>12.493103</ele></trkpt><trkpt lat="-27.024731" lon="-48.645246"><ele>12.213867</ele></trkpt><trkpt lat="-27.024733" lon="-48.645243"><ele>12.231628</ele></trkpt><trkpt lat="-27.024733" lon="-48.645237"><ele>12.462708</ele></trkpt><trkpt lat="-27.024729" lon="-48.645227"><ele>13.131653</ele></trkpt><trkpt lat="-27.024728" lon="-48.645217"><ele>13.507874</ele></trkpt><trkpt lat="-27.024731" lon="-48.645212"><ele>13.550598</ele></trkpt><trkpt lat="-27.024738" lon="-48.645208"><ele>13.694275</ele></trkpt><trkpt lat="-27.024744" lon="-48.645211"><ele>13.647217</ele></trkpt><trkpt lat="-27.02475" lon="-48.645214"><ele>13.212463</ele></trkpt><trkpt lat="-27.024753" lon="-48.645217"><ele>14.014954</ele></trkpt><trkpt lat="-27.02476" lon="-48.645204"><ele>14.198364</ele></trkpt><trkpt lat="-27.024766" lon="-48.645187"><ele>14.052429</ele></trkpt><trkpt lat="-27.024775" lon="-48.645163"><ele>14.453979</ele></trkpt><trkpt lat="-27.024783" lon="-48.645139"><ele>14.451355</ele></trkpt><trkpt lat="-27.024794" lon="-48.64511"><ele>14.467529</ele></trkpt><trkpt lat="-27.0248" lon="-48.645082"><ele>14.404968</ele></trkpt><trkpt lat="-27.024808" lon="-48.645053"><ele>14.586182</ele></trkpt><trkpt lat="-27.024817" lon="-48.645022"><ele>14.721802</ele></trkpt><trkpt lat="-27.024824" lon="-48.64499"><ele>14.666321</ele></trkpt><trkpt lat="-27.024832" lon="-48.644961"><ele>14.243286</ele></trkpt><trkpt lat="-27.02484" lon="-48.644931"><ele>13.713684</ele></trkpt><trkpt lat="-27.024849" lon="-48.644903"><ele>13.679688</ele></trkpt><trkpt lat="-27.024856" lon="-48.644875"><ele>13.886414</ele></trkpt><trkpt lat="-27.024861" lon="-48.644849"><ele>14.204407</ele></trkpt><trkpt lat="-27.024867" lon="-48.644821"><ele>14.447266</ele></trkpt><trkpt lat="-27.024871" lon="-48.644792"><ele>14.966309</ele></trkpt><trkpt lat="-27.024875" lon="-48.644764"><ele>15.275024</ele></trkpt><trkpt lat="-27.024879" lon="-48.644734"><ele>14.95697</ele></trkpt><trkpt lat="-27.024882" lon="-48.644707"><ele>14.611511</ele></trkpt><trkpt lat="-27.024885" lon="-48.64468"><ele>14.514709</ele></trkpt><trkpt lat="-27.024887" lon="-48.644653"><ele>14.575989</ele></trkpt><trkpt lat="-27.02489" lon="-48.644628"><ele>14.211487</ele></trkpt><trkpt lat="-27.024895" lon="-48.644605"><ele>14.292297</ele></trkpt><trkpt lat="-27.024898" lon="-48.644581"><ele>14.560364</ele></trkpt><trkpt lat="-27.024901" lon="-48.644555"><ele>14.110229</ele></trkpt><trkpt lat="-27.024906" lon="-48.644526"><ele>14.6828</ele></trkpt><trkpt lat="-27.02491" lon="-48.644495"><ele>14.978638</ele></trkpt><trkpt lat="-27.024915" lon="-48.644464"><ele>15.186096</ele></trkpt><trkpt lat="-27.024919" lon="-48.644437"><ele>14.506958</ele></trkpt><trkpt lat="-27.024923" lon="-48.644409"><ele>14.238403</ele></trkpt><trkpt lat="-27.024926" lon="-48.644387"><ele>14.149658</ele></trkpt><trkpt lat="-27.024929" lon="-48.644366"><ele>14.05542</ele></trkpt><trkpt lat="-27.024934" lon="-48.644338"><ele>14.153259</ele></trkpt><trkpt lat="-27.024937" lon="-48.644316"><ele>14.606873</ele></trkpt><trkpt lat="-27.024939" lon="-48.644295"><ele>14.092407</ele></trkpt><trkpt lat="-27.024943" lon="-48.644274"><ele>13.614258</ele></trkpt><trkpt lat="-27.024944" lon="-48.644252"><ele>13.177551</ele></trkpt><trkpt lat="-27.024948" lon="-48.64423"><ele>13.482056</ele></trkpt><trkpt lat="-27.024957" lon="-48.64421"><ele>13.447571</ele></trkpt><trkpt lat="-27.024964" lon="-48.644188"><ele>13.555237</ele></trkpt><trkpt lat="-27.024967" lon="-48.644162"><ele>13.786133</ele></trkpt><trkpt lat="-27.024968" lon="-48.644144"><ele>13.554382</ele></trkpt><trkpt lat="-27.02497" lon="-48.644128"><ele>13.942322</ele></trkpt><trkpt lat="-27.02497" lon="-48.644126"><ele>13.846069</ele></trkpt><trkpt lat="-27.024971" lon="-48.644127"><ele>13.845459</ele></trkpt><trkpt lat="-27.024971" lon="-48.644127"><ele>13.844971</ele></trkpt><trkpt lat="-27.024971" lon="-48.644127"><ele>13.847168</ele></trkpt><trkpt lat="-27.024971" lon="-48.644127"><ele>14.577026</ele></trkpt><trkpt lat="-27.024971" lon="-48.644127"><ele>14.579834</ele></trkpt><trkpt lat="-27.024972" lon="-48.644129"><ele>14.523865</ele></trkpt><trkpt lat="-27.024975" lon="-48.64412"><ele>15.233948</ele></trkpt><trkpt lat="-27.024976" lon="-48.644107"><ele>14.942017</ele></trkpt><trkpt lat="-27.024976" lon="-48.644096"><ele>14.742676</ele></trkpt><trkpt lat="-27.024973" lon="-48.644088"><ele>14.616516</ele></trkpt><trkpt lat="-27.024972" lon="-48.644087"><ele>14.614563</ele></trkpt><trkpt lat="-27.024972" lon="-48.644086"><ele>14.613281</ele></trkpt><trkpt lat="-27.024972" lon="-48.644086"><ele>14.613892</ele></trkpt><trkpt lat="-27.024972" lon="-48.644086"><ele>14.613831</ele></trkpt><trkpt lat="-27.024972" lon="-48.644086"><ele>14.61499</ele></trkpt><trkpt lat="-27.024956" lon="-48.644085"><ele>14.320435</ele></trkpt><trkpt lat="-27.024953" lon="-48.644089"><ele>13.435486</ele></trkpt><trkpt lat="-27.024953" lon="-48.644097"><ele>13.660217</ele></trkpt><trkpt lat="-27.02495" lon="-48.644105"><ele>14.113037</ele></trkpt><trkpt lat="-27.024945" lon="-48.644112"><ele>14.091797</ele></trkpt><trkpt lat="-27.024942" lon="-48.644121"><ele>14.03186</ele></trkpt><trkpt lat="-27.024939" lon="-48.644131"><ele>13.21106</ele></trkpt><trkpt lat="-27.024941" lon="-48.644133"><ele>13.408752</ele></trkpt><trkpt lat="-27.024944" lon="-48.644135"><ele>12.346191</ele></trkpt><trkpt lat="-27.024949" lon="-48.64414"><ele>12.361755</ele></trkpt><trkpt lat="-27.024952" lon="-48.644139"><ele>12.51355</ele></trkpt><trkpt lat="-27.024953" lon="-48.644139"><ele>12.545959</ele></trkpt><trkpt lat="-27.024955" lon="-48.64414"><ele>12.409058</ele></trkpt><trkpt lat="-27.024956" lon="-48.64414"><ele>12.365784</ele></trkpt><trkpt lat="-27.024955" lon="-48.644147"><ele>12.22821</ele></trkpt><trkpt lat="-27.024955" lon="-48.644158"><ele>13.221741</ele></trkpt><trkpt lat="-27.024955" lon="-48.64417"><ele>13.037537</ele></trkpt><trkpt lat="-27.024958" lon="-48.644178"><ele>12.746033</ele></trkpt><trkpt lat="-27.024961" lon="-48.644187"><ele>13.089355</ele></trkpt><trkpt lat="-27.024963" lon="-48.644198"><ele>10.803894</ele></trkpt><trkpt lat="-27.024966" lon="-48.644208"><ele>10.436707</ele></trkpt><trkpt lat="-27.024969" lon="-48.644216"><ele>10.085388</ele></trkpt><trkpt lat="-27.024976" lon="-48.644231"><ele>9.92627</ele></trkpt><trkpt lat="-27.024978" lon="-48.644233"><ele>10.087219</ele></trkpt><trkpt lat="-27.024976" lon="-48.644238"><ele>10.136627</ele></trkpt><trkpt lat="-27.024976" lon="-48.644239"><ele>10.13501</ele></trkpt><trkpt lat="-27.024976" lon="-48.64424"><ele>10.136353</ele></trkpt><trkpt lat="-27.024976" lon="-48.64424"><ele>10.13327</ele></trkpt><trkpt lat="-27.024976" lon="-48.64424"><ele>10.132843</ele></trkpt><trkpt lat="-27.024976" lon="-48.64424"><ele>10.134155</ele></trkpt><trkpt lat="-27.024976" lon="-48.64424"><ele>10.135468</ele></trkpt><trkpt lat="-27.024976" lon="-48.64424"><ele>10.136932</ele></trkpt><trkpt lat="-27.024976" lon="-48.64424"><ele>10.136475</ele></trkpt><trkpt lat="-27.024976" lon="-48.64424"><ele>10.136047</ele></trkpt><trkpt lat="-27.024976" lon="-48.64424"><ele>10.138733</ele></trkpt><trkpt lat="-27.024976" lon="-48.64424"><ele>10.142303</ele></trkpt><trkpt lat="-27.024976" lon="-48.64424"><ele>10.142578</ele></trkpt><trkpt lat="-27.024976" lon="-48.64424"><ele>10.143677</ele></trkpt><trkpt lat="-27.024976" lon="-48.64424"><ele>10.144989</ele></trkpt><trkpt lat="-27.024976" lon="-48.644239"><ele>10.145325</ele></trkpt><trkpt lat="-27.024976" lon="-48.644239"><ele>9.730316</ele></trkpt><trkpt lat="-27.024976" lon="-48.644239"><ele>9.749725</ele></trkpt><trkpt lat="-27.024976" lon="-48.644239"><ele>9.748108</ele></trkpt><trkpt lat="-27.024976" lon="-48.644239"><ele>9.748352</ele></trkpt><trkpt lat="-27.024976" lon="-48.644239"><ele>9.752411</ele></trkpt><trkpt lat="-27.024976" lon="-48.644239"><ele>9.752991</ele></trkpt><trkpt lat="-27.024976" lon="-48.644239"><ele>9.755432</ele></trkpt><trkpt lat="-27.024976" lon="-48.644239"><ele>9.756104</ele></trkpt><trkpt lat="-27.024976" lon="-48.644239"><ele>9.758911</ele></trkpt><trkpt lat="-27.024976" lon="-48.644239"><ele>9.757324</ele></trkpt><trkpt lat="-27.024976" lon="-48.644239"><ele>9.754608</ele></trkpt><trkpt lat="-27.024976" lon="-48.644239"><ele>9.755066</ele></trkpt><trkpt lat="-27.024976" lon="-48.644239"><ele>9.755707</ele></trkpt><trkpt lat="-27.024976" lon="-48.644239"><ele>9.759186</ele></trkpt><trkpt lat="-27.024976" lon="-48.644239"><ele>9.764191</ele></trkpt><trkpt lat="-27.024977" lon="-48.644239"><ele>9.818787</ele></trkpt><trkpt lat="-27.024978" lon="-48.644238"><ele>9.828644</ele></trkpt><trkpt lat="-27.024979" lon="-48.644238"><ele>9.846741</ele></trkpt><trkpt lat="-27.024979" lon="-48.644239"><ele>9.828278</ele></trkpt><trkpt lat="-27.024977" lon="-48.644238"><ele>9.938751</ele></trkpt><trkpt lat="-27.024976" lon="-48.644237"><ele>9.93222</ele></trkpt><trkpt lat="-27.024976" lon="-48.644236"><ele>9.936371</ele></trkpt><trkpt lat="-27.024976" lon="-48.644236"><ele>10.310638</ele></trkpt><trkpt lat="-27.024976" lon="-48.644236"><ele>10.316101</ele></trkpt><trkpt lat="-27.024976" lon="-48.644236"><ele>10.32608</ele></trkpt><trkpt lat="-27.024979" lon="-48.644245"><ele>10.258881</ele></trkpt><trkpt lat="-27.024987" lon="-48.64425"><ele>10.277954</ele></trkpt><trkpt lat="-27.024993" lon="-48.644248"><ele>10.265717</ele></trkpt><trkpt lat="-27.024994" lon="-48.644247"><ele>10.265656</ele></trkpt><trkpt lat="-27.024995" lon="-48.644247"><ele>10.265137</ele></trkpt><trkpt lat="-27.024995" lon="-48.644247"><ele>9.857544</ele></trkpt><trkpt lat="-27.024995" lon="-48.644247"><ele>9.869568</ele></trkpt><trkpt lat="-27.024995" lon="-48.644247"><ele>9.872986</ele></trkpt><trkpt lat="-27.024995" lon="-48.644247"><ele>9.873169</ele></trkpt><trkpt lat="-27.024995" lon="-48.644247"><ele>9.875977</ele></trkpt><trkpt lat="-27.024995" lon="-48.644247"><ele>9.87619</ele></trkpt><trkpt lat="-27.024995" lon="-48.644247"><ele>9.87851</ele></trkpt><trkpt lat="-27.024995" lon="-48.644247"><ele>9.875305</ele></trkpt><trkpt lat="-27.024995" lon="-48.644247"><ele>9.87854</ele></trkpt><trkpt lat="-27.024995" lon="-48.644247"><ele>9.882782</ele></trkpt><trkpt lat="-27.024995" lon="-48.644247"><ele>9.47702</ele></trkpt><trkpt lat="-27.024995" lon="-48.644247"><ele>9.477905</ele></trkpt><trkpt lat="-27.024995" lon="-48.644247"><ele>9.474701</ele></trkpt><trkpt lat="-27.024995" lon="-48.644247"><ele>9.473572</ele></trkpt><trkpt lat="-27.024995" lon="-48.644246"><ele>9.471344</ele></trkpt><trkpt lat="-27.024995" lon="-48.644247"><ele>9.472046</ele></trkpt><trkpt lat="-27.025056" lon="-48.644184"><ele>2.310181</ele></trkpt><trkpt lat="-27.025012" lon="-48.644187"><ele>6.721558</ele></trkpt><trkpt lat="-27.025" lon="-48.644183"><ele>8.473633</ele></trkpt><trkpt lat="-27.024983" lon="-48.644178"><ele>10.153564</ele></trkpt><trkpt lat="-27.024971" lon="-48.644171"><ele>10.005768</ele></trkpt><trkpt lat="-27.024963" lon="-48.644164"><ele>10.483459</ele></trkpt><trkpt lat="-27.024959" lon="-48.64416"><ele>10.256805</ele></trkpt><trkpt lat="-27.024961" lon="-48.644148"><ele>10.877594</ele></trkpt><trkpt lat="-27.024961" lon="-48.644139"><ele>10.895538</ele></trkpt><trkpt lat="-27.024961" lon="-48.644134"><ele>11.20578</ele></trkpt><trkpt lat="-27.024961" lon="-48.644127"><ele>11.232635</ele></trkpt><trkpt lat="-27.024961" lon="-48.644127"><ele>11.257446</ele></trkpt><trkpt lat="-27.024963" lon="-48.644129"><ele>10.57724</ele></trkpt><trkpt lat="-27.024964" lon="-48.644125"><ele>10.602203</ele></trkpt><trkpt lat="-27.024965" lon="-48.644118"><ele>10.437286</ele></trkpt><trkpt lat="-27.024964" lon="-48.64411"><ele>10.503052</ele></trkpt><trkpt lat="-27.024964" lon="-48.644103"><ele>10.039703</ele></trkpt><trkpt lat="-27.024964" lon="-48.644097"><ele>10.067902</ele></trkpt><trkpt lat="-27.024961" lon="-48.644093"><ele>10.570984</ele></trkpt><trkpt lat="-27.024958" lon="-48.644093"><ele>10.388489</ele></trkpt><trkpt lat="-27.024958" lon="-48.644096"><ele>10.240417</ele></trkpt><trkpt lat="-27.024959" lon="-48.644098"><ele>10.680634</ele></trkpt><trkpt lat="-27.024959" lon="-48.644102"><ele>10.650635</ele></trkpt><trkpt lat="-27.024959" lon="-48.644103"><ele>10.689789</ele></trkpt><trkpt lat="-27.02496" lon="-48.644102"><ele>10.587524</ele></trkpt><trkpt lat="-27.02496" lon="-48.644102"><ele>10.345734</ele></trkpt><trkpt lat="-27.02496" lon="-48.644102"><ele>10.345734</ele></trkpt><trkpt lat="-27.024959" lon="-48.644103"><ele>9.74826</ele></trkpt><trkpt lat="-27.02496" lon="-48.644102"><ele>9.462524</ele></trkpt><trkpt lat="-27.024961" lon="-48.644102"><ele>9.160614</ele></trkpt><trkpt lat="-27.024963" lon="-48.644101"><ele>9.114166</ele></trkpt><trkpt lat="-27.024964" lon="-48.644102"><ele>9.152069</ele></trkpt><trkpt lat="-27.024965" lon="-48.644103"><ele>9.271484</ele></trkpt><trkpt lat="-27.024964" lon="-48.644105"><ele>9.605194</ele></trkpt><trkpt lat="-27.024963" lon="-48.644105"><ele>9.871399</ele></trkpt><trkpt lat="-27.024963" lon="-48.644107"><ele>10.015167</ele></trkpt><trkpt lat="-27.024963" lon="-48.644107"><ele>10.015167</ele></trkpt><trkpt lat="-27.024964" lon="-48.644106"><ele>9.995697</ele></trkpt><trkpt lat="-27.024965" lon="-48.644106"><ele>10.017059</ele></trkpt><trkpt lat="-27.024965" lon="-48.644105"><ele>10.061066</ele></trkpt><trkpt lat="-27.024966" lon="-48.644104"><ele>9.991913</ele></trkpt><trkpt lat="-27.024966" lon="-48.644104"><ele>9.991913</ele></trkpt><trkpt lat="-27.024967" lon="-48.644103"><ele>9.990021</ele></trkpt><trkpt lat="-27.024966" lon="-48.644103"><ele>10.043762</ele></trkpt><trkpt lat="-27.024967" lon="-48.644103"><ele>10.065308</ele></trkpt><trkpt lat="-27.024968" lon="-48.644103"><ele>10.091034</ele></trkpt><trkpt lat="-27.024968" lon="-48.644102"><ele>10.12973</ele></trkpt><trkpt lat="-27.024968" lon="-48.644102"><ele>10.15567</ele></trkpt><trkpt lat="-27.024968" lon="-48.644102"><ele>10.171143</ele></trkpt><trkpt lat="-27.024968" lon="-48.644102"><ele>10.171997</ele></trkpt><trkpt lat="-27.024968" lon="-48.644102"><ele>10.171997</ele></trkpt><trkpt lat="-27.024969" lon="-48.644103"><ele>9.973206</ele></trkpt><trkpt lat="-27.024967" lon="-48.644105"><ele>10.1492</ele></trkpt><trkpt lat="-27.024965" lon="-48.644105"><ele>10.443054</ele></trkpt><trkpt lat="-27.024964" lon="-48.644104"><ele>10.520508</ele></trkpt><trkpt lat="-27.024963" lon="-48.644104"><ele>10.644836</ele></trkpt><trkpt lat="-27.024963" lon="-48.644104"><ele>10.766632</ele></trkpt><trkpt lat="-27.024964" lon="-48.644105"><ele>10.95343</ele></trkpt><trkpt lat="-27.024964" lon="-48.644105"><ele>11.166473</ele></trkpt><trkpt lat="-27.024964" lon="-48.644104"><ele>11.350006</ele></trkpt><trkpt lat="-27.024964" lon="-48.644104"><ele>11.350006</ele></trkpt><trkpt lat="-27.024965" lon="-48.644105"><ele>11.381226</ele></trkpt><trkpt lat="-27.024966" lon="-48.644104"><ele>11.396545</ele></trkpt><trkpt lat="-27.024966" lon="-48.644104"><ele>11.422546</ele></trkpt><trkpt lat="-27.024967" lon="-48.644104"><ele>11.426056</ele></trkpt><trkpt lat="-27.024968" lon="-48.644104"><ele>11.406433</ele></trkpt><trkpt lat="-27.024968" lon="-48.644104"><ele>11.406433</ele></trkpt><trkpt lat="-27.024968" lon="-48.644103"><ele>11.402069</ele></trkpt><trkpt lat="-27.024968" lon="-48.644102"><ele>11.178925</ele></trkpt><trkpt lat="-27.024969" lon="-48.644102"><ele>11.072174</ele></trkpt><trkpt lat="-27.024968" lon="-48.644102"><ele>11.088501</ele></trkpt><trkpt lat="-27.024967" lon="-48.644102"><ele>11.131653</ele></trkpt><trkpt lat="-27.024967" lon="-48.644102"><ele>11.131653</ele></trkpt><trkpt lat="-27.024968" lon="-48.644101"><ele>10.955688</ele></trkpt><trkpt lat="-27.024969" lon="-48.6441"><ele>10.895691</ele></trkpt><trkpt lat="-27.024969" lon="-48.644098"><ele>10.792358</ele></trkpt><trkpt lat="-27.024969" lon="-48.644097"><ele>10.727631</ele></trkpt><trkpt lat="-27.024969" lon="-48.644096"><ele>10.699615</ele></trkpt><trkpt lat="-27.024968" lon="-48.644095"><ele>10.638336</ele></trkpt><trkpt lat="-27.024968" lon="-48.644095"><ele>10.666687</ele></trkpt><trkpt lat="-27.024968" lon="-48.644095"><ele>10.573395</ele></trkpt><trkpt lat="-27.024969" lon="-48.644095"><ele>10.501099</ele></trkpt><trkpt lat="-27.024969" lon="-48.644095"><ele>10.4422</ele></trkpt><trkpt lat="-27.024969" lon="-48.644095"><ele>10.417236</ele></trkpt><trkpt lat="-27.024969" lon="-48.644094"><ele>10.394684</ele></trkpt><trkpt lat="-27.024969" lon="-48.644094"><ele>10.390442</ele></trkpt></trkseg></trk></gpx>