<?xml version="1.0" encoding="UTF-8"?>
<gpx xmlns="http://www.topografix.com/GPX/1/1" version="1.1" creator="@dwayneparton/geojson-to-gpx"><wpt lat="-26.97670666666667" lon="-48.63699666666666"><ele>-0.6000000000000001</ele><name>1 faixa</name></wpt><wpt lat="-26.976713333333336" lon="-48.63666166666667"><ele>6.5</ele><name>23</name></wpt><wpt lat="-26.976735" lon="-48.63668166666666"><ele>7.1</ele><name>190</name></wpt><wpt lat="-26.976770000000002" lon="-48.63673333333333"><ele>1.7</ele><name>386</name></wpt><wpt lat="-26.976735" lon="-48.636645"><ele>7.8</ele><name>804</name></wpt><wpt lat="-26.97668" lon="-48.63688333333333"><ele>-7.300000000000001</ele><name>A ciclo é completamente reta.</name></wpt><wpt lat="-26.97668" lon="-48.63688333333333"><ele>-7.300000000000001</ele><name>A pintura é falha em VÁRIOS pontos</name></wpt><wpt lat="-26.97668" lon="-48.63688333333333"><ele>-7.300000000000001</ele><name>Ambas: Alguns trechos sem segregadores. Automóvel consegue passar por entre estes com facilidade</name></wpt><wpt lat="-26.976723333333332" lon="-48.63666"><ele>6.3</ele><name>Área de amortecimento da ciclo (cm)</name></wpt><wpt lat="-26.976735" lon="-48.63668166666666"><ele>7.1</ele><name>Área transitável da ciclo (cm)</name></wpt><wpt lat="-26.97670666666667" lon="-48.63699666666666"><ele>-0.6000000000000001</ele><name>Asfalto</name></wpt><wpt lat="-26.97697333333333" lon="-48.635463333333334"><ele>12.2</ele><name>Ausência de conexão entre ciclos.</name></wpt><wpt lat="-26.97670666666667" lon="-48.63699666666666"><ele>-0.6000000000000001</ele><name>Bidirecional</name></wpt><wpt lat="-26.97670666666667" lon="-48.63699666666666"><ele>-0.6000000000000001</ele><name>Ciclofaixa</name></wpt><wpt lat="-26.97670666666667" lon="-48.63699666666666"><ele>-0.6000000000000001</ele><name>Estacionamento dedicado de um lado, segregado da circulação</name></wpt><wpt lat="-26.976770000000002" lon="-48.63673333333333"><ele>1.7</ele><name>Faixa de carros logo ao lado da ciclo (cm)</name></wpt><wpt lat="-26.976688333333332" lon="-48.63706666666667"><ele>1.6</ele><name>Foto</name></wpt><wpt lat="-26.976710000000004" lon="-48.63712"><ele>1</ele><name>Foto</name></wpt><wpt lat="-26.976758333333336" lon="-48.637101666666666"><ele>-0.7999999999999998</ele><name>Foto</name></wpt><wpt lat="-26.976678333333332" lon="-48.636656666666674"><ele>2.4</ele><name>Foto</name></wpt><wpt lat="-26.976715" lon="-48.63642333333334"><ele>5.3</ele><name>Foto</name></wpt><wpt lat="-26.976785000000003" lon="-48.635510000000004"><ele>13</ele><name>Foto</name></wpt><wpt lat="-26.976983333333337" lon="-48.635503333333325"><ele>8.3</ele><name>Foto</name></wpt><wpt lat="-26.97694" lon="-48.635313333333336"><ele>8.8</ele><name>Foto</name></wpt><wpt lat="-26.976948333333333" lon="-48.63536333333333"><ele>16.5</ele><name>Foto</name></wpt><wpt lat="-26.97667666666667" lon="-48.636934999999994"><ele>-4.7</ele><name>Iluminação geral na via do outro lado da infraestrutura</name></wpt><wpt lat="-26.97670666666667" lon="-48.63699666666666"><ele>-0.6000000000000001</ele><name>Mão Única</name></wpt><wpt lat="-26.97668" lon="-48.63688333333333"><ele>-7.300000000000001</ele><name>Não há árvores nem mudas</name></wpt><wpt lat="-26.976995000000002" lon="-48.63550166666667"><ele>10.2</ele><name>Nenhum elemento de controle de velocidade na via</name></wpt><wpt lat="-26.97670666666667" lon="-48.63699666666666"><ele>-0.6000000000000001</ele><name>No bordo esquerdo de Via de Mão Única</name></wpt><wpt lat="-26.97668" lon="-48.63688333333333"><ele>-7.300000000000001</ele><name>Pequenas imperfeições, como fissuras</name></wpt><wpt lat="-26.976696666666665" lon="-48.636656666666674"><ele>1.4</ele><name>Em cruzamento MÁ condição</name></wpt><wpt lat="-26.97667666666667" lon="-48.636934999999994"><ele>-4.7</ele><name>SEM Semáforo exclusivo</name></wpt><wpt lat="-26.97667666666667" lon="-48.636934999999994"><ele>-4.7</ele><name>Semáforo para motorizado</name></wpt><wpt lat="-26.97667666666667" lon="-48.636934999999994"><ele>-4.7</ele><name>Semáforo para pedestres</name></wpt><wpt lat="-26.97670666666667" lon="-48.63699666666666"><ele>-0.6000000000000001</ele><name>Tachões</name></wpt><wpt lat="-26.97670666666667" lon="-48.63699666666666"><ele>-0.6000000000000001</ele><name>Toda área de circulação pintada de vermelho</name></wpt><wpt lat="-26.976735" lon="-48.636645"><ele>7.8</ele><name>Total da via (incluindo a ciclo) (cm)</name></wpt><trk><name>Ciclofaixa R. 1901 - BC</name><trkseg><trkpt lat="-26.976885" lon="-48.637035"><ele>31.7</ele></trkpt><trkpt lat="-26.976908333333334" lon="-48.637055"><ele>20.6</ele></trkpt><trkpt lat="-26.97685166666667" lon="-48.63706166666666"><ele>16.5</ele></trkpt><trkpt lat="-26.976885" lon="-48.63712999999999"><ele>10.1</ele></trkpt><trkpt lat="-26.976791666666667" lon="-48.637069999999994"><ele>5.9</ele></trkpt><trkpt lat="-26.976768333333332" lon="-48.637058333333336"><ele>3.7</ele></trkpt><trkpt lat="-26.976755000000004" lon="-48.63704833333333"><ele>2.5</ele></trkpt><trkpt lat="-26.976740000000003" lon="-48.63704333333333"><ele>2.2</ele></trkpt><trkpt lat="-26.976723333333332" lon="-48.63706666666667"><ele>2.5</ele></trkpt><trkpt lat="-26.976696666666665" lon="-48.63703666666667"><ele>2.5</ele></trkpt><trkpt lat="-26.976678333333332" lon="-48.63704333333333"><ele>2.4</ele></trkpt><trkpt lat="-26.97667333333333" lon="-48.637035"><ele>2.2</ele></trkpt><trkpt lat="-26.97667333333333" lon="-48.63702333333334"><ele>2</ele></trkpt><trkpt lat="-26.97667666666667" lon="-48.637035"><ele>1.8</ele></trkpt><trkpt lat="-26.976688333333332" lon="-48.63706666666667"><ele>1.6</ele></trkpt><trkpt lat="-26.976688333333332" lon="-48.63706666666667"><ele>1.6</ele></trkpt><trkpt lat="-26.976695000000003" lon="-48.63708499999999"><ele>1.4</ele></trkpt><trkpt lat="-26.976698333333335" lon="-48.6371"><ele>1.3</ele></trkpt><trkpt lat="-26.976699999999997" lon="-48.637101666666666"><ele>1.3</ele></trkpt><trkpt lat="-26.976705" lon="-48.63710833333333"><ele>1.3</ele></trkpt><trkpt lat="-26.97670666666667" lon="-48.637114999999994"><ele>1.2</ele></trkpt><trkpt lat="-26.976710000000004" lon="-48.63711833333333"><ele>1.1</ele></trkpt><trkpt lat="-26.976710000000004" lon="-48.63712"><ele>1</ele></trkpt><trkpt lat="-26.976710000000004" lon="-48.63712"><ele>1</ele></trkpt><trkpt lat="-26.976713333333336" lon="-48.63712666666667"><ele>1</ele></trkpt><trkpt lat="-26.97672" lon="-48.63712999999999"><ele>0.9</ele></trkpt><trkpt lat="-26.976726666666664" lon="-48.63713166666666"><ele>0.9</ele></trkpt><trkpt lat="-26.97673666666667" lon="-48.63713333333333"><ele>0.9</ele></trkpt><trkpt lat="-26.97675" lon="-48.63713833333333"><ele>0.9</ele></trkpt><trkpt lat="-26.97676333333333" lon="-48.637145"><ele>0.9</ele></trkpt><trkpt lat="-26.976771666666664" lon="-48.637148333333336"><ele>0.8</ele></trkpt><trkpt lat="-26.976774999999996" lon="-48.637146666666666"><ele>0.8</ele></trkpt><trkpt lat="-26.97677666666667" lon="-48.637148333333336"><ele>0.7</ele></trkpt><trkpt lat="-26.976785000000003" lon="-48.63715166666666"><ele>0.6</ele></trkpt><trkpt lat="-26.976788333333335" lon="-48.63715666666667"><ele>0.5</ele></trkpt><trkpt lat="-26.976789999999998" lon="-48.637159999999994"><ele>0.3999999999999999</ele></trkpt><trkpt lat="-26.976791666666667" lon="-48.63716333333333"><ele>0.3999999999999999</ele></trkpt><trkpt lat="-26.97679333333333" lon="-48.63716833333333"><ele>0.3999999999999999</ele></trkpt><trkpt lat="-26.976795" lon="-48.63716666666666"><ele>0.3999999999999999</ele></trkpt><trkpt lat="-26.976795" lon="-48.63716833333333"><ele>0.19999999999999996</ele></trkpt><trkpt lat="-26.976795" lon="-48.63716666666666"><ele>0.10000000000000009</ele></trkpt><trkpt lat="-26.97679333333333" lon="-48.63716666666666"><ele>0.19999999999999996</ele></trkpt><trkpt lat="-26.976791666666667" lon="-48.63717166666667"><ele>0.30000000000000004</ele></trkpt><trkpt lat="-26.976791666666667" lon="-48.63717666666666"><ele>0.3999999999999999</ele></trkpt><trkpt lat="-26.976791666666667" lon="-48.63717666666666"><ele>0.3999999999999999</ele></trkpt><trkpt lat="-26.976791666666667" lon="-48.63717666666666"><ele>0.3999999999999999</ele></trkpt><trkpt lat="-26.976791666666667" lon="-48.63717666666666"><ele>0.3999999999999999</ele></trkpt><trkpt lat="-26.976791666666667" lon="-48.63717666666666"><ele>0.3999999999999999</ele></trkpt><trkpt lat="-26.976791666666667" lon="-48.63717666666666"><ele>0.3999999999999999</ele></trkpt><trkpt lat="-26.976791666666667" lon="-48.63717666666666"><ele>0.3999999999999999</ele></trkpt><trkpt lat="-26.976791666666667" lon="-48.63717666666666"><ele>0.3999999999999999</ele></trkpt><trkpt lat="-26.976791666666667" lon="-48.63717666666666"><ele>0.3999999999999999</ele></trkpt><trkpt lat="-26.976791666666667" lon="-48.63717666666666"><ele>0.3999999999999999</ele></trkpt><trkpt lat="-26.976791666666667" lon="-48.63717666666666"><ele>0.3999999999999999</ele></trkpt><trkpt lat="-26.976791666666667" lon="-48.63717666666666"><ele>0.3999999999999999</ele></trkpt><trkpt lat="-26.976791666666667" lon="-48.63717666666666"><ele>0.3999999999999999</ele></trkpt><trkpt lat="-26.976791666666667" lon="-48.63717666666666"><ele>0.3999999999999999</ele></trkpt><trkpt lat="-26.976791666666667" lon="-48.63717666666666"><ele>0.3999999999999999</ele></trkpt><trkpt lat="-26.976791666666667" lon="-48.63717666666666"><ele>0.3999999999999999</ele></trkpt><trkpt lat="-26.976791666666667" lon="-48.63717666666666"><ele>0.3999999999999999</ele></trkpt><trkpt lat="-26.976791666666667" lon="-48.63717666666666"><ele>0.3999999999999999</ele></trkpt><trkpt lat="-26.976791666666667" lon="-48.63717666666666"><ele>0.3999999999999999</ele></trkpt><trkpt lat="-26.976791666666667" lon="-48.63717666666666"><ele>0.3999999999999999</ele></trkpt><trkpt lat="-26.976791666666667" lon="-48.63717666666666"><ele>0.3999999999999999</ele></trkpt><trkpt lat="-26.976791666666667" lon="-48.63717666666666"><ele>0.3999999999999999</ele></trkpt><trkpt lat="-26.976791666666667" lon="-48.63717666666666"><ele>0.3999999999999999</ele></trkpt><trkpt lat="-26.976791666666667" lon="-48.63717666666666"><ele>0.3999999999999999</ele></trkpt><trkpt lat="-26.976791666666667" lon="-48.63717666666666"><ele>0.3999999999999999</ele></trkpt><trkpt lat="-26.976791666666667" lon="-48.63717666666666"><ele>0.3999999999999999</ele></trkpt><trkpt lat="-26.976791666666667" lon="-48.63717666666666"><ele>0.3999999999999999</ele></trkpt><trkpt lat="-26.976778333333332" lon="-48.63718000000001"><ele>-0.3999999999999999</ele></trkpt><trkpt lat="-26.976771666666664" lon="-48.63717499999999"><ele>-0.6000000000000001</ele></trkpt><trkpt lat="-26.976770000000002" lon="-48.63716833333333"><ele>-0.7000000000000002</ele></trkpt><trkpt lat="-26.976768333333332" lon="-48.63717166666667"><ele>-0.7000000000000002</ele></trkpt><trkpt lat="-26.97676333333333" lon="-48.63717333333334"><ele>-0.6000000000000001</ele></trkpt><trkpt lat="-26.97676333333333" lon="-48.63717333333334"><ele>-0.6000000000000001</ele></trkpt><trkpt lat="-26.97676333333333" lon="-48.63717333333334"><ele>-0.6000000000000001</ele></trkpt><trkpt lat="-26.97676333333333" lon="-48.63717333333334"><ele>-0.6000000000000001</ele></trkpt><trkpt lat="-26.97676333333333" lon="-48.63717333333334"><ele>-0.6000000000000001</ele></trkpt><trkpt lat="-26.97676333333333" lon="-48.63717333333334"><ele>-0.6000000000000001</ele></trkpt><trkpt lat="-26.97676333333333" lon="-48.63717333333334"><ele>-0.6000000000000001</ele></trkpt><trkpt lat="-26.97676333333333" lon="-48.63717333333334"><ele>-0.6000000000000001</ele></trkpt><trkpt lat="-26.97676333333333" lon="-48.63717333333334"><ele>-0.6000000000000001</ele></trkpt><trkpt lat="-26.97676333333333" lon="-48.63717333333334"><ele>-0.6000000000000001</ele></trkpt><trkpt lat="-26.97676333333333" lon="-48.63717333333334"><ele>-0.6000000000000001</ele></trkpt><trkpt lat="-26.97676333333333" lon="-48.63717333333334"><ele>-0.6000000000000001</ele></trkpt><trkpt lat="-26.97676333333333" lon="-48.63717333333334"><ele>-0.6000000000000001</ele></trkpt><trkpt lat="-26.97676333333333" lon="-48.63717333333334"><ele>-0.6000000000000001</ele></trkpt><trkpt lat="-26.97676333333333" lon="-48.63717333333334"><ele>-0.6000000000000001</ele></trkpt><trkpt lat="-26.97676333333333" lon="-48.63717333333334"><ele>-0.6000000000000001</ele></trkpt><trkpt lat="-26.97676333333333" lon="-48.63717333333334"><ele>-0.6000000000000001</ele></trkpt><trkpt lat="-26.97676333333333" lon="-48.63717333333334"><ele>-0.6000000000000001</ele></trkpt><trkpt lat="-26.976758333333336" lon="-48.6371"><ele>-1</ele></trkpt><trkpt lat="-26.976758333333336" lon="-48.637101666666666"><ele>-0.7999999999999998</ele></trkpt><trkpt lat="-26.976758333333336" lon="-48.637101666666666"><ele>-0.7999999999999998</ele></trkpt><trkpt lat="-26.976755000000004" lon="-48.637091666666656"><ele>-0.7999999999999998</ele></trkpt><trkpt lat="-26.97675" lon="-48.63708"><ele>-0.6000000000000001</ele></trkpt><trkpt lat="-26.976744999999998" lon="-48.63707333333333"><ele>-0.5</ele></trkpt><trkpt lat="-26.97673666666667" lon="-48.637055"><ele>-0.3999999999999999</ele></trkpt><trkpt lat="-26.976738333333333" lon="-48.63704333333333"><ele>-0.6000000000000001</ele></trkpt><trkpt lat="-26.97673166666667" lon="-48.63703333333333"><ele>-0.6000000000000001</ele></trkpt><trkpt lat="-26.976725000000002" lon="-48.63702166666667"><ele>-0.6000000000000001</ele></trkpt><trkpt lat="-26.97672" lon="-48.63701666666666"><ele>-0.6000000000000001</ele></trkpt><trkpt lat="-26.976713333333336" lon="-48.63700666666667"><ele>-0.6000000000000001</ele></trkpt><trkpt lat="-26.97670666666667" lon="-48.63699666666666"><ele>-0.6000000000000001</ele></trkpt><trkpt lat="-26.97670666666667" lon="-48.63699666666666"><ele>-0.6000000000000001</ele></trkpt><trkpt lat="-26.97670666666667" lon="-48.63699666666666"><ele>-0.6000000000000001</ele></trkpt><trkpt lat="-26.97670666666667" lon="-48.63699666666666"><ele>-0.6000000000000001</ele></trkpt><trkpt lat="-26.97670666666667" lon="-48.63699666666666"><ele>-0.6000000000000001</ele></trkpt><trkpt lat="-26.97670666666667" lon="-48.63699666666666"><ele>-0.6000000000000001</ele></trkpt><trkpt lat="-26.97670666666667" lon="-48.63699666666666"><ele>-0.6000000000000001</ele></trkpt><trkpt lat="-26.97670666666667" lon="-48.63699666666666"><ele>-0.6000000000000001</ele></trkpt><trkpt lat="-26.97670666666667" lon="-48.63699666666666"><ele>-0.6000000000000001</ele></trkpt><trkpt lat="-26.97670666666667" lon="-48.63699666666666"><ele>-0.6000000000000001</ele></trkpt><trkpt lat="-26.97670666666667" lon="-48.63699666666666"><ele>-0.6000000000000001</ele></trkpt><trkpt lat="-26.97670666666667" lon="-48.63699666666666"><ele>-0.6000000000000001</ele></trkpt><trkpt lat="-26.97670666666667" lon="-48.63699666666666"><ele>-0.6000000000000001</ele></trkpt><trkpt lat="-26.97670666666667" lon="-48.63699666666666"><ele>-0.6000000000000001</ele></trkpt><trkpt lat="-26.97670666666667" lon="-48.63699666666666"><ele>-0.6000000000000001</ele></trkpt><trkpt lat="-26.97670666666667" lon="-48.63699666666666"><ele>-0.6000000000000001</ele></trkpt><trkpt lat="-26.97670666666667" lon="-48.63699666666666"><ele>-0.6000000000000001</ele></trkpt><trkpt lat="-26.97670666666667" lon="-48.63699666666666"><ele>-0.6000000000000001</ele></trkpt><trkpt lat="-26.97670666666667" lon="-48.63699666666666"><ele>-0.6000000000000001</ele></trkpt><trkpt lat="-26.97670666666667" lon="-48.63699666666666"><ele>-0.6000000000000001</ele></trkpt><trkpt lat="-26.97670666666667" lon="-48.63699666666666"><ele>-0.6000000000000001</ele></trkpt><trkpt lat="-26.97670666666667" lon="-48.63699666666666"><ele>-0.6000000000000001</ele></trkpt><trkpt lat="-26.97670666666667" lon="-48.63699666666666"><ele>-0.6000000000000001</ele></trkpt><trkpt lat="-26.97670666666667" lon="-48.63699666666666"><ele>-0.6000000000000001</ele></trkpt><trkpt lat="-26.97670666666667" lon="-48.63699666666666"><ele>-0.6000000000000001</ele></trkpt><trkpt lat="-26.97670666666667" lon="-48.63699666666666"><ele>-0.6000000000000001</ele></trkpt><trkpt lat="-26.97670666666667" lon="-48.63699666666666"><ele>-0.6000000000000001</ele></trkpt><trkpt lat="-26.97670666666667" lon="-48.63699666666666"><ele>-0.6000000000000001</ele></trkpt><trkpt lat="-26.97670666666667" lon="-48.63699666666666"><ele>-0.6000000000000001</ele></trkpt><trkpt lat="-26.97670666666667" lon="-48.63699666666666"><ele>-0.6000000000000001</ele></trkpt><trkpt lat="-26.97670666666667" lon="-48.63699666666666"><ele>-0.6000000000000001</ele></trkpt><trkpt lat="-26.97670666666667" lon="-48.63699666666666"><ele>-0.6000000000000001</ele></trkpt><trkpt lat="-26.97670666666667" lon="-48.63699666666666"><ele>-0.6000000000000001</ele></trkpt><trkpt lat="-26.97670666666667" lon="-48.63699666666666"><ele>-0.6000000000000001</ele></trkpt><trkpt lat="-26.97670666666667" lon="-48.63699666666666"><ele>-0.6000000000000001</ele></trkpt><trkpt lat="-26.97670666666667" lon="-48.63699666666666"><ele>-0.6000000000000001</ele></trkpt><trkpt lat="-26.97670666666667" lon="-48.63699666666666"><ele>-0.6000000000000001</ele></trkpt><trkpt lat="-26.97670666666667" lon="-48.63699666666666"><ele>-0.6000000000000001</ele></trkpt><trkpt lat="-26.97670666666667" lon="-48.63699666666666"><ele>-0.6000000000000001</ele></trkpt><trkpt lat="-26.97670666666667" lon="-48.63699666666666"><ele>-0.6000000000000001</ele></trkpt><trkpt lat="-26.97670666666667" lon="-48.63699666666666"><ele>-0.6000000000000001</ele></trkpt><trkpt lat="-26.97670666666667" lon="-48.63699666666666"><ele>-0.6000000000000001</ele></trkpt><trkpt lat="-26.97670666666667" lon="-48.63699666666666"><ele>-0.6000000000000001</ele></trkpt><trkpt lat="-26.97670666666667" lon="-48.63699666666666"><ele>-0.6000000000000001</ele></trkpt><trkpt lat="-26.97670666666667" lon="-48.63699666666666"><ele>-0.6000000000000001</ele></trkpt><trkpt lat="-26.97670666666667" lon="-48.63699666666666"><ele>-0.6000000000000001</ele></trkpt><trkpt lat="-26.97670666666667" lon="-48.63699666666666"><ele>-0.6000000000000001</ele></trkpt><trkpt lat="-26.97670666666667" lon="-48.63699666666666"><ele>-0.6000000000000001</ele></trkpt><trkpt lat="-26.97670666666667" lon="-48.63699666666666"><ele>-0.6000000000000001</ele></trkpt><trkpt lat="-26.97670666666667" lon="-48.63699666666666"><ele>-0.6000000000000001</ele></trkpt><trkpt lat="-26.97670666666667" lon="-48.63699666666666"><ele>-0.6000000000000001</ele></trkpt><trkpt lat="-26.97670666666667" lon="-48.63699666666666"><ele>-0.6000000000000001</ele></trkpt><trkpt lat="-26.97670666666667" lon="-48.63699666666666"><ele>-0.6000000000000001</ele></trkpt><trkpt lat="-26.97670666666667" lon="-48.63699666666666"><ele>-0.6000000000000001</ele></trkpt><trkpt lat="-26.97670666666667" lon="-48.63699666666666"><ele>-0.6000000000000001</ele></trkpt><trkpt lat="-26.97670666666667" lon="-48.63699666666666"><ele>-0.6000000000000001</ele></trkpt><trkpt lat="-26.97670666666667" lon="-48.63699666666666"><ele>-0.6000000000000001</ele></trkpt><trkpt lat="-26.97670666666667" lon="-48.63699666666666"><ele>-0.6000000000000001</ele></trkpt><trkpt lat="-26.97670666666667" lon="-48.63699666666666"><ele>-0.6000000000000001</ele></trkpt><trkpt lat="-26.97670666666667" lon="-48.63699666666666"><ele>-0.6000000000000001</ele></trkpt><trkpt lat="-26.97670666666667" lon="-48.63699666666666"><ele>-0.6000000000000001</ele></trkpt><trkpt lat="-26.97670666666667" lon="-48.63699666666666"><ele>-0.6000000000000001</ele></trkpt><trkpt lat="-26.97670666666667" lon="-48.63699666666666"><ele>-0.6000000000000001</ele></trkpt><trkpt lat="-26.97670666666667" lon="-48.63699666666666"><ele>-0.6000000000000001</ele></trkpt><trkpt lat="-26.97670666666667" lon="-48.63699666666666"><ele>-0.6000000000000001</ele></trkpt><trkpt lat="-26.97670666666667" lon="-48.63699666666666"><ele>-0.6000000000000001</ele></trkpt><trkpt lat="-26.97670666666667" lon="-48.63699666666666"><ele>-0.6000000000000001</ele></trkpt><trkpt lat="-26.97670666666667" lon="-48.63699666666666"><ele>-0.6000000000000001</ele></trkpt><trkpt lat="-26.97670666666667" lon="-48.63699666666666"><ele>-0.6000000000000001</ele></trkpt><trkpt lat="-26.97670666666667" lon="-48.63699666666666"><ele>-0.6000000000000001</ele></trkpt><trkpt lat="-26.97670666666667" lon="-48.63699666666666"><ele>-0.6000000000000001</ele></trkpt><trkpt lat="-26.97670666666667" lon="-48.63699666666666"><ele>-0.6000000000000001</ele></trkpt><trkpt lat="-26.97670666666667" lon="-48.63699666666666"><ele>-0.6000000000000001</ele></trkpt><trkpt lat="-26.97670666666667" lon="-48.63699666666666"><ele>-0.6000000000000001</ele></trkpt><trkpt lat="-26.97670666666667" lon="-48.63699666666666"><ele>-0.6000000000000001</ele></trkpt><trkpt lat="-26.97670666666667" lon="-48.63699666666666"><ele>-0.6000000000000001</ele></trkpt><trkpt lat="-26.97670666666667" lon="-48.63699666666666"><ele>-0.6000000000000001</ele></trkpt><trkpt lat="-26.97670666666667" lon="-48.63699666666666"><ele>-0.6000000000000001</ele></trkpt><trkpt lat="-26.97670666666667" lon="-48.63699666666666"><ele>-0.6000000000000001</ele></trkpt><trkpt lat="-26.97670666666667" lon="-48.63699666666666"><ele>-0.6000000000000001</ele></trkpt><trkpt lat="-26.97670666666667" lon="-48.63699666666666"><ele>-0.6000000000000001</ele></trkpt><trkpt lat="-26.97670666666667" lon="-48.63699666666666"><ele>-0.6000000000000001</ele></trkpt><trkpt lat="-26.97670666666667" lon="-48.63699666666666"><ele>-0.6000000000000001</ele></trkpt><trkpt lat="-26.97670666666667" lon="-48.63699666666666"><ele>-0.6000000000000001</ele></trkpt><trkpt lat="-26.97670666666667" lon="-48.63699666666666"><ele>-0.6000000000000001</ele></trkpt><trkpt lat="-26.97670666666667" lon="-48.63699666666666"><ele>-0.6000000000000001</ele></trkpt><trkpt lat="-26.97670666666667" lon="-48.63699666666666"><ele>-0.6000000000000001</ele></trkpt><trkpt lat="-26.97670666666667" lon="-48.63699666666666"><ele>-0.6000000000000001</ele></trkpt><trkpt lat="-26.97670666666667" lon="-48.63699666666666"><ele>-0.6000000000000001</ele></trkpt><trkpt lat="-26.97670666666667" lon="-48.63699666666666"><ele>-0.6000000000000001</ele></trkpt><trkpt lat="-26.97670666666667" lon="-48.63699666666666"><ele>-0.6000000000000001</ele></trkpt><trkpt lat="-26.97670666666667" lon="-48.63699666666666"><ele>-0.6000000000000001</ele></trkpt><trkpt lat="-26.97670666666667" lon="-48.63699666666666"><ele>-0.6000000000000001</ele></trkpt><trkpt lat="-26.97670666666667" lon="-48.63699666666666"><ele>-0.6000000000000001</ele></trkpt><trkpt lat="-26.97670666666667" lon="-48.63699666666666"><ele>-0.6000000000000001</ele></trkpt><trkpt lat="-26.97670666666667" lon="-48.63699666666666"><ele>-0.6000000000000001</ele></trkpt><trkpt lat="-26.97670666666667" lon="-48.63699666666666"><ele>-0.6000000000000001</ele></trkpt><trkpt lat="-26.97670666666667" lon="-48.63699666666666"><ele>-0.6000000000000001</ele></trkpt><trkpt lat="-26.97670666666667" lon="-48.63699666666666"><ele>-0.6000000000000001</ele></trkpt><trkpt lat="-26.97670666666667" lon="-48.63699666666666"><ele>-0.6000000000000001</ele></trkpt><trkpt lat="-26.97670666666667" lon="-48.63699666666666"><ele>-0.6000000000000001</ele></trkpt><trkpt lat="-26.97670666666667" lon="-48.63699666666666"><ele>-0.6000000000000001</ele></trkpt><trkpt lat="-26.97670666666667" lon="-48.63699666666666"><ele>-0.6000000000000001</ele></trkpt><trkpt lat="-26.97670666666667" lon="-48.63699666666666"><ele>-0.6000000000000001</ele></trkpt><trkpt lat="-26.97670666666667" lon="-48.63699666666666"><ele>-0.6000000000000001</ele></trkpt><trkpt lat="-26.97670666666667" lon="-48.63699666666666"><ele>-0.6000000000000001</ele></trkpt><trkpt lat="-26.97670666666667" lon="-48.63699666666666"><ele>-0.6000000000000001</ele></trkpt><trkpt lat="-26.97670666666667" lon="-48.63699666666666"><ele>-0.6000000000000001</ele></trkpt><trkpt lat="-26.97670666666667" lon="-48.63699666666666"><ele>-0.6000000000000001</ele></trkpt><trkpt lat="-26.97670666666667" lon="-48.63699666666666"><ele>-0.6000000000000001</ele></trkpt><trkpt lat="-26.97670666666667" lon="-48.63699666666666"><ele>-0.6000000000000001</ele></trkpt><trkpt lat="-26.97670666666667" lon="-48.63699666666666"><ele>-0.6000000000000001</ele></trkpt><trkpt lat="-26.97669166666667" lon="-48.63689666666667"><ele>-7.5</ele></trkpt><trkpt lat="-26.976688333333332" lon="-48.63689666666667"><ele>-7.5</ele></trkpt><trkpt lat="-26.976683333333334" lon="-48.636889999999994"><ele>-7.4</ele></trkpt><trkpt lat="-26.97668" lon="-48.63688333333333"><ele>-7.300000000000001</ele></trkpt><trkpt lat="-26.97668" lon="-48.63688333333333"><ele>-7.300000000000001</ele></trkpt><trkpt lat="-26.97668" lon="-48.63688333333333"><ele>-7.300000000000001</ele></trkpt><trkpt lat="-26.97668" lon="-48.63688333333333"><ele>-7.300000000000001</ele></trkpt><trkpt lat="-26.97668" lon="-48.63688333333333"><ele>-7.300000000000001</ele></trkpt><trkpt lat="-26.97668" lon="-48.63688333333333"><ele>-7.300000000000001</ele></trkpt><trkpt lat="-26.97668" lon="-48.63688333333333"><ele>-7.300000000000001</ele></trkpt><trkpt lat="-26.97668" lon="-48.63688333333333"><ele>-7.300000000000001</ele></trkpt><trkpt lat="-26.97668" lon="-48.63688333333333"><ele>-7.300000000000001</ele></trkpt><trkpt lat="-26.97668" lon="-48.63688333333333"><ele>-7.300000000000001</ele></trkpt><trkpt lat="-26.97668" lon="-48.63688333333333"><ele>-7.300000000000001</ele></trkpt><trkpt lat="-26.97668" lon="-48.63688333333333"><ele>-7.300000000000001</ele></trkpt><trkpt lat="-26.97668" lon="-48.63688333333333"><ele>-7.300000000000001</ele></trkpt><trkpt lat="-26.97668" lon="-48.63688333333333"><ele>-7.300000000000001</ele></trkpt><trkpt lat="-26.97668" lon="-48.63688333333333"><ele>-7.300000000000001</ele></trkpt><trkpt lat="-26.97668" lon="-48.63688333333333"><ele>-7.300000000000001</ele></trkpt><trkpt lat="-26.97668" lon="-48.63688333333333"><ele>-7.300000000000001</ele></trkpt><trkpt lat="-26.97668" lon="-48.63688333333333"><ele>-7.300000000000001</ele></trkpt><trkpt lat="-26.97668" lon="-48.63688333333333"><ele>-7.300000000000001</ele></trkpt><trkpt lat="-26.97668" lon="-48.63688333333333"><ele>-7.300000000000001</ele></trkpt><trkpt lat="-26.97668" lon="-48.63688333333333"><ele>-7.300000000000001</ele></trkpt><trkpt lat="-26.97668" lon="-48.63688333333333"><ele>-7.300000000000001</ele></trkpt><trkpt lat="-26.97668" lon="-48.63688333333333"><ele>-7.300000000000001</ele></trkpt><trkpt lat="-26.97668" lon="-48.63688333333333"><ele>-7.300000000000001</ele></trkpt><trkpt lat="-26.97668" lon="-48.63688333333333"><ele>-7.300000000000001</ele></trkpt><trkpt lat="-26.97668" lon="-48.63688333333333"><ele>-7.300000000000001</ele></trkpt><trkpt lat="-26.97668" lon="-48.63688333333333"><ele>-7.300000000000001</ele></trkpt><trkpt lat="-26.97668" lon="-48.63688333333333"><ele>-7.300000000000001</ele></trkpt><trkpt lat="-26.97668" lon="-48.63688333333333"><ele>-7.300000000000001</ele></trkpt><trkpt lat="-26.97668" lon="-48.63688333333333"><ele>-7.300000000000001</ele></trkpt><trkpt lat="-26.97668" lon="-48.63688333333333"><ele>-7.300000000000001</ele></trkpt><trkpt lat="-26.97668" lon="-48.63688333333333"><ele>-7.300000000000001</ele></trkpt><trkpt lat="-26.97668" lon="-48.63688333333333"><ele>-7.300000000000001</ele></trkpt><trkpt lat="-26.97668" lon="-48.63688333333333"><ele>-7.300000000000001</ele></trkpt><trkpt lat="-26.97668" lon="-48.63688333333333"><ele>-7.300000000000001</ele></trkpt><trkpt lat="-26.97668" lon="-48.63688333333333"><ele>-7.300000000000001</ele></trkpt><trkpt lat="-26.97668" lon="-48.63688333333333"><ele>-7.300000000000001</ele></trkpt><trkpt lat="-26.97668" lon="-48.63688333333333"><ele>-7.300000000000001</ele></trkpt><trkpt lat="-26.97668" lon="-48.63688333333333"><ele>-7.300000000000001</ele></trkpt><trkpt lat="-26.97668" lon="-48.63688333333333"><ele>-7.300000000000001</ele></trkpt><trkpt lat="-26.97668" lon="-48.63688333333333"><ele>-7.300000000000001</ele></trkpt><trkpt lat="-26.97668" lon="-48.63688333333333"><ele>-7.300000000000001</ele></trkpt><trkpt lat="-26.97668" lon="-48.63688333333333"><ele>-7.300000000000001</ele></trkpt><trkpt lat="-26.97668" lon="-48.63688333333333"><ele>-7.300000000000001</ele></trkpt><trkpt lat="-26.97668" lon="-48.63688333333333"><ele>-7.300000000000001</ele></trkpt><trkpt lat="-26.97668" lon="-48.63688333333333"><ele>-7.300000000000001</ele></trkpt><trkpt lat="-26.97668" lon="-48.63688333333333"><ele>-7.300000000000001</ele></trkpt><trkpt lat="-26.97668" lon="-48.63688333333333"><ele>-7.300000000000001</ele></trkpt><trkpt lat="-26.97668" lon="-48.63688333333333"><ele>-7.300000000000001</ele></trkpt><trkpt lat="-26.97668" lon="-48.63688333333333"><ele>-7.300000000000001</ele></trkpt><trkpt lat="-26.97668" lon="-48.63688333333333"><ele>-7.300000000000001</ele></trkpt><trkpt lat="-26.97668" lon="-48.63688333333333"><ele>-7.300000000000001</ele></trkpt><trkpt lat="-26.97668" lon="-48.63688333333333"><ele>-7.300000000000001</ele></trkpt><trkpt lat="-26.97668" lon="-48.63688333333333"><ele>-7.300000000000001</ele></trkpt><trkpt lat="-26.97669" lon="-48.636923333333336"><ele>-5.7</ele></trkpt><trkpt lat="-26.97669" lon="-48.63692833333333"><ele>-5.7</ele></trkpt><trkpt lat="-26.976684999999996" lon="-48.63692833333333"><ele>-5.4</ele></trkpt><trkpt lat="-26.97668" lon="-48.63693333333334"><ele>-4.9</ele></trkpt><trkpt lat="-26.97667666666667" lon="-48.636934999999994"><ele>-4.7</ele></trkpt><trkpt lat="-26.97667666666667" lon="-48.636934999999994"><ele>-4.7</ele></trkpt><trkpt lat="-26.97667666666667" lon="-48.636934999999994"><ele>-4.7</ele></trkpt><trkpt lat="-26.97667666666667" lon="-48.636934999999994"><ele>-4.7</ele></trkpt><trkpt lat="-26.97667666666667" lon="-48.636934999999994"><ele>-4.7</ele></trkpt><trkpt lat="-26.97667666666667" lon="-48.636934999999994"><ele>-4.7</ele></trkpt><trkpt lat="-26.97667666666667" lon="-48.636934999999994"><ele>-4.7</ele></trkpt><trkpt lat="-26.97667666666667" lon="-48.636934999999994"><ele>-4.7</ele></trkpt><trkpt lat="-26.97667666666667" lon="-48.636934999999994"><ele>-4.7</ele></trkpt><trkpt lat="-26.97667666666667" lon="-48.636934999999994"><ele>-4.7</ele></trkpt><trkpt lat="-26.97667666666667" lon="-48.636934999999994"><ele>-4.7</ele></trkpt><trkpt lat="-26.97667666666667" lon="-48.636934999999994"><ele>-4.7</ele></trkpt><trkpt lat="-26.97667666666667" lon="-48.636934999999994"><ele>-4.7</ele></trkpt><trkpt lat="-26.97667666666667" lon="-48.636934999999994"><ele>-4.7</ele></trkpt><trkpt lat="-26.97667666666667" lon="-48.636934999999994"><ele>-4.7</ele></trkpt><trkpt lat="-26.97667666666667" lon="-48.636934999999994"><ele>-4.7</ele></trkpt><trkpt lat="-26.97667666666667" lon="-48.636934999999994"><ele>-4.7</ele></trkpt><trkpt lat="-26.97667666666667" lon="-48.636934999999994"><ele>-4.7</ele></trkpt><trkpt lat="-26.97667666666667" lon="-48.636934999999994"><ele>-4.7</ele></trkpt><trkpt lat="-26.97667666666667" lon="-48.636934999999994"><ele>-4.7</ele></trkpt><trkpt lat="-26.97667666666667" lon="-48.636934999999994"><ele>-4.7</ele></trkpt><trkpt lat="-26.97667666666667" lon="-48.636934999999994"><ele>-4.7</ele></trkpt><trkpt lat="-26.97667666666667" lon="-48.636934999999994"><ele>-4.7</ele></trkpt><trkpt lat="-26.97667666666667" lon="-48.636934999999994"><ele>-4.7</ele></trkpt><trkpt lat="-26.97667666666667" lon="-48.636934999999994"><ele>-4.7</ele></trkpt><trkpt lat="-26.97667666666667" lon="-48.636934999999994"><ele>-4.7</ele></trkpt><trkpt lat="-26.97667666666667" lon="-48.636934999999994"><ele>-4.7</ele></trkpt><trkpt lat="-26.97667666666667" lon="-48.636934999999994"><ele>-4.7</ele></trkpt><trkpt lat="-26.97667666666667" lon="-48.636934999999994"><ele>-4.7</ele></trkpt><trkpt lat="-26.97667666666667" lon="-48.636934999999994"><ele>-4.7</ele></trkpt><trkpt lat="-26.97667666666667" lon="-48.636934999999994"><ele>-4.7</ele></trkpt><trkpt lat="-26.97667666666667" lon="-48.636934999999994"><ele>-4.7</ele></trkpt><trkpt lat="-26.97667666666667" lon="-48.636934999999994"><ele>-4.7</ele></trkpt><trkpt lat="-26.97667666666667" lon="-48.636934999999994"><ele>-4.7</ele></trkpt><trkpt lat="-26.97667666666667" lon="-48.636934999999994"><ele>-4.7</ele></trkpt><trkpt lat="-26.97667666666667" lon="-48.636934999999994"><ele>-4.7</ele></trkpt><trkpt lat="-26.97667666666667" lon="-48.636934999999994"><ele>-4.7</ele></trkpt><trkpt lat="-26.97667666666667" lon="-48.636934999999994"><ele>-4.7</ele></trkpt><trkpt lat="-26.97667666666667" lon="-48.636934999999994"><ele>-4.7</ele></trkpt><trkpt lat="-26.97667666666667" lon="-48.636934999999994"><ele>-4.7</ele></trkpt><trkpt lat="-26.976693333333333" lon="-48.63699166666667"><ele>2.4</ele></trkpt><trkpt lat="-26.976693333333333" lon="-48.636993333333336"><ele>2.6</ele></trkpt><trkpt lat="-26.97669166666667" lon="-48.63698833333333"><ele>2.8</ele></trkpt><trkpt lat="-26.97669" lon="-48.636981666666664"><ele>2.8</ele></trkpt><trkpt lat="-26.97669166666667" lon="-48.63697833333334"><ele>2.9</ele></trkpt><trkpt lat="-26.97669166666667" lon="-48.63697833333334"><ele>2.9</ele></trkpt><trkpt lat="-26.97669166666667" lon="-48.63697833333334"><ele>2.9</ele></trkpt><trkpt lat="-26.97669166666667" lon="-48.63697833333334"><ele>2.9</ele></trkpt><trkpt lat="-26.97669166666667" lon="-48.63697833333334"><ele>2.9</ele></trkpt><trkpt lat="-26.97669166666667" lon="-48.63697833333334"><ele>2.9</ele></trkpt><trkpt lat="-26.97669166666667" lon="-48.63697833333334"><ele>2.9</ele></trkpt><trkpt lat="-26.97669166666667" lon="-48.63697833333334"><ele>2.9</ele></trkpt><trkpt lat="-26.97669166666667" lon="-48.63697833333334"><ele>2.9</ele></trkpt><trkpt lat="-26.97669166666667" lon="-48.63697833333334"><ele>2.9</ele></trkpt><trkpt lat="-26.97669166666667" lon="-48.63697833333334"><ele>2.9</ele></trkpt><trkpt lat="-26.97669166666667" lon="-48.63697833333334"><ele>2.9</ele></trkpt><trkpt lat="-26.97669166666667" lon="-48.63697833333334"><ele>2.9</ele></trkpt><trkpt lat="-26.97669166666667" lon="-48.63697833333334"><ele>2.9</ele></trkpt><trkpt lat="-26.97669166666667" lon="-48.63697833333334"><ele>2.9</ele></trkpt><trkpt lat="-26.976698333333335" lon="-48.63694333333333"><ele>4.3</ele></trkpt><trkpt lat="-26.976699999999997" lon="-48.63693333333334"><ele>4.4</ele></trkpt><trkpt lat="-26.976698333333335" lon="-48.636923333333336"><ele>4.4</ele></trkpt><trkpt lat="-26.976699999999997" lon="-48.636919999999996"><ele>4.3</ele></trkpt><trkpt lat="-26.97670666666667" lon="-48.63691833333334"><ele>4.3</ele></trkpt><trkpt lat="-26.976711666666667" lon="-48.63691333333333"><ele>4.1</ele></trkpt><trkpt lat="-26.976715" lon="-48.63690499999999"><ele>4</ele></trkpt><trkpt lat="-26.97671666666667" lon="-48.63689666666667"><ele>3.9</ele></trkpt><trkpt lat="-26.97672166666667" lon="-48.636881666666675"><ele>3.9</ele></trkpt><trkpt lat="-26.976728333333334" lon="-48.63686166666666"><ele>3.7</ele></trkpt><trkpt lat="-26.97672" lon="-48.636831666666666"><ele>2.9</ele></trkpt><trkpt lat="-26.976713333333336" lon="-48.63681"><ele>2.7</ele></trkpt><trkpt lat="-26.976710000000004" lon="-48.636784999999996"><ele>2.3</ele></trkpt><trkpt lat="-26.97670333333333" lon="-48.63675333333334"><ele>1.9</ele></trkpt><trkpt lat="-26.976696666666665" lon="-48.63672666666666"><ele>1.5</ele></trkpt><trkpt lat="-26.976695000000003" lon="-48.63670333333333"><ele>1.2</ele></trkpt><trkpt lat="-26.976705" lon="-48.63668166666666"><ele>1.1</ele></trkpt><trkpt lat="-26.976710000000004" lon="-48.63666666666666"><ele>0.9</ele></trkpt><trkpt lat="-26.976713333333336" lon="-48.63665833333333"><ele>0.9</ele></trkpt><trkpt lat="-26.976711666666667" lon="-48.636651666666666"><ele>0.8</ele></trkpt><trkpt lat="-26.976711666666667" lon="-48.63664666666667"><ele>0.6</ele></trkpt><trkpt lat="-26.976710000000004" lon="-48.63664666666667"><ele>0.8</ele></trkpt><trkpt lat="-26.97670333333333" lon="-48.636653333333335"><ele>1.2</ele></trkpt><trkpt lat="-26.976696666666665" lon="-48.636656666666674"><ele>1.4</ele></trkpt><trkpt lat="-26.976696666666665" lon="-48.636656666666674"><ele>1.4</ele></trkpt><trkpt lat="-26.97669166666667" lon="-48.63666"><ele>1.8</ele></trkpt><trkpt lat="-26.976688333333332" lon="-48.63666"><ele>2</ele></trkpt><trkpt lat="-26.976683333333334" lon="-48.636656666666674"><ele>2.3</ele></trkpt><trkpt lat="-26.976681666666664" lon="-48.636655000000005"><ele>2.4</ele></trkpt><trkpt lat="-26.976678333333332" lon="-48.636656666666674"><ele>2.4</ele></trkpt><trkpt lat="-26.976678333333332" lon="-48.636656666666674"><ele>2.4</ele></trkpt><trkpt lat="-26.976678333333332" lon="-48.636656666666674"><ele>2.4</ele></trkpt><trkpt lat="-26.976678333333332" lon="-48.636656666666674"><ele>2.4</ele></trkpt><trkpt lat="-26.976678333333332" lon="-48.636656666666674"><ele>2.4</ele></trkpt><trkpt lat="-26.976678333333332" lon="-48.636656666666674"><ele>2.4</ele></trkpt><trkpt lat="-26.976678333333332" lon="-48.636656666666674"><ele>2.4</ele></trkpt><trkpt lat="-26.976678333333332" lon="-48.636656666666674"><ele>2.4</ele></trkpt><trkpt lat="-26.976678333333332" lon="-48.636656666666674"><ele>2.4</ele></trkpt><trkpt lat="-26.976678333333332" lon="-48.636656666666674"><ele>2.4</ele></trkpt><trkpt lat="-26.976678333333332" lon="-48.636656666666674"><ele>2.4</ele></trkpt><trkpt lat="-26.97667333333333" lon="-48.63667333333333"><ele>4.1</ele></trkpt><trkpt lat="-26.97667666666667" lon="-48.636656666666674"><ele>4.8</ele></trkpt><trkpt lat="-26.976695000000003" lon="-48.63666"><ele>5.9</ele></trkpt><trkpt lat="-26.97670833333333" lon="-48.63666166666667"><ele>6.7</ele></trkpt><trkpt lat="-26.97672" lon="-48.636664999999994"><ele>7</ele></trkpt><trkpt lat="-26.976735" lon="-48.63667333333333"><ele>6.7</ele></trkpt><trkpt lat="-26.976743333333335" lon="-48.636675"><ele>6.7</ele></trkpt><trkpt lat="-26.97674833333333" lon="-48.636678333333336"><ele>6.4</ele></trkpt><trkpt lat="-26.976758333333336" lon="-48.63669"><ele>5.8</ele></trkpt><trkpt lat="-26.976758333333336" lon="-48.63669"><ele>5.8</ele></trkpt><trkpt lat="-26.976758333333336" lon="-48.63669"><ele>5.8</ele></trkpt><trkpt lat="-26.976758333333336" lon="-48.63669"><ele>5.8</ele></trkpt><trkpt lat="-26.976758333333336" lon="-48.63669"><ele>5.8</ele></trkpt><trkpt lat="-26.976758333333336" lon="-48.63669"><ele>5.8</ele></trkpt><trkpt lat="-26.976744999999998" lon="-48.63666833333333"><ele>5.5</ele></trkpt><trkpt lat="-26.976735" lon="-48.636664999999994"><ele>5.8</ele></trkpt><trkpt lat="-26.976729999999996" lon="-48.63666166666667"><ele>6.2</ele></trkpt><trkpt lat="-26.976723333333332" lon="-48.63666"><ele>6.3</ele></trkpt><trkpt lat="-26.976723333333332" lon="-48.63666"><ele>6.3</ele></trkpt><trkpt lat="-26.97672" lon="-48.63666"><ele>6.5</ele></trkpt><trkpt lat="-26.976713333333336" lon="-48.63666166666667"><ele>6.5</ele></trkpt><trkpt lat="-26.976713333333336" lon="-48.63666166666667"><ele>6.5</ele></trkpt><trkpt lat="-26.97670666666667" lon="-48.63666"><ele>6.4</ele></trkpt><trkpt lat="-26.97670333333333" lon="-48.63666"><ele>6.5</ele></trkpt><trkpt lat="-26.976711666666667" lon="-48.636664999999994"><ele>6.7</ele></trkpt><trkpt lat="-26.97672166666667" lon="-48.63667333333333"><ele>6.8</ele></trkpt><trkpt lat="-26.976728333333334" lon="-48.63667999999999"><ele>7</ele></trkpt><trkpt lat="-26.976735" lon="-48.63668166666666"><ele>7.1</ele></trkpt><trkpt lat="-26.976735" lon="-48.63668166666666"><ele>7.1</ele></trkpt><trkpt lat="-26.976735" lon="-48.63668166666666"><ele>7.1</ele></trkpt><trkpt lat="-26.976735" lon="-48.63668166666666"><ele>7.1</ele></trkpt><trkpt lat="-26.976735" lon="-48.63668166666666"><ele>7.1</ele></trkpt><trkpt lat="-26.976735" lon="-48.63668166666666"><ele>7.1</ele></trkpt><trkpt lat="-26.976735" lon="-48.63668166666666"><ele>7.1</ele></trkpt><trkpt lat="-26.976735" lon="-48.63668166666666"><ele>7.1</ele></trkpt><trkpt lat="-26.976735" lon="-48.63668166666666"><ele>7.1</ele></trkpt><trkpt lat="-26.976735" lon="-48.63668166666666"><ele>7.1</ele></trkpt><trkpt lat="-26.976735" lon="-48.63668166666666"><ele>7.1</ele></trkpt><trkpt lat="-26.976735" lon="-48.63668166666666"><ele>7.1</ele></trkpt><trkpt lat="-26.976735" lon="-48.63668166666666"><ele>7.1</ele></trkpt><trkpt lat="-26.976735" lon="-48.63668166666666"><ele>7.1</ele></trkpt><trkpt lat="-26.976735" lon="-48.63668166666666"><ele>7.1</ele></trkpt><trkpt lat="-26.976735" lon="-48.63668166666666"><ele>7.1</ele></trkpt><trkpt lat="-26.976735" lon="-48.63668166666666"><ele>7.1</ele></trkpt><trkpt lat="-26.976735" lon="-48.63668166666666"><ele>7.1</ele></trkpt><trkpt lat="-26.976735" lon="-48.63668166666666"><ele>7.1</ele></trkpt><trkpt lat="-26.976735" lon="-48.63668166666666"><ele>7.1</ele></trkpt><trkpt lat="-26.976735" lon="-48.63668166666666"><ele>7.1</ele></trkpt><trkpt lat="-26.976735" lon="-48.63668166666666"><ele>7.1</ele></trkpt><trkpt lat="-26.976735" lon="-48.63668166666666"><ele>7.1</ele></trkpt><trkpt lat="-26.976735" lon="-48.63668166666666"><ele>7.1</ele></trkpt><trkpt lat="-26.976735" lon="-48.63668166666666"><ele>7.1</ele></trkpt><trkpt lat="-26.976735" lon="-48.63668166666666"><ele>7.1</ele></trkpt><trkpt lat="-26.976735" lon="-48.63668166666666"><ele>7.1</ele></trkpt><trkpt lat="-26.976735" lon="-48.63668166666666"><ele>7.1</ele></trkpt><trkpt lat="-26.976735" lon="-48.63668166666666"><ele>7.1</ele></trkpt><trkpt lat="-26.976735" lon="-48.63668166666666"><ele>7.1</ele></trkpt><trkpt lat="-26.976735" lon="-48.63668166666666"><ele>7.1</ele></trkpt><trkpt lat="-26.976735" lon="-48.63668166666666"><ele>7.1</ele></trkpt><trkpt lat="-26.976735" lon="-48.63668166666666"><ele>7.1</ele></trkpt><trkpt lat="-26.97676666666667" lon="-48.63669"><ele>7.4</ele></trkpt><trkpt lat="-26.97675166666667" lon="-48.63668166666666"><ele>7.4</ele></trkpt><trkpt lat="-26.976733333333332" lon="-48.63667"><ele>7.4</ele></trkpt><trkpt lat="-26.97671666666667" lon="-48.63666166666667"><ele>7.4</ele></trkpt><trkpt lat="-26.976715" lon="-48.636649999999996"><ele>7.5</ele></trkpt><trkpt lat="-26.976701666666667" lon="-48.63663499999999"><ele>7.5</ele></trkpt><trkpt lat="-26.97668666666667" lon="-48.63661999999999"><ele>7.5</ele></trkpt><trkpt lat="-26.976639999999996" lon="-48.636625"><ele>7.5</ele></trkpt><trkpt lat="-26.976740000000003" lon="-48.63668166666666"><ele>7.6</ele></trkpt><trkpt lat="-26.976770000000002" lon="-48.63668833333333"><ele>7.6</ele></trkpt><trkpt lat="-26.976778333333332" lon="-48.63669"><ele>7.5</ele></trkpt><trkpt lat="-26.97678166666667" lon="-48.63668833333333"><ele>7.4</ele></trkpt><trkpt lat="-26.97678166666667" lon="-48.63669"><ele>7.2</ele></trkpt><trkpt lat="-26.976785000000003" lon="-48.63669166666667"><ele>7.1</ele></trkpt><trkpt lat="-26.976786666666666" lon="-48.63669"><ele>7</ele></trkpt><trkpt lat="-26.976791666666667" lon="-48.63669166666667"><ele>7</ele></trkpt><trkpt lat="-26.97679833333333" lon="-48.63669333333334"><ele>6.7</ele></trkpt><trkpt lat="-26.97679666666667" lon="-48.63669333333334"><ele>6.4</ele></trkpt><trkpt lat="-26.97679833333333" lon="-48.636694999999996"><ele>6.3</ele></trkpt><trkpt lat="-26.97679833333333" lon="-48.636694999999996"><ele>6.3</ele></trkpt><trkpt lat="-26.97679833333333" lon="-48.636694999999996"><ele>6.3</ele></trkpt><trkpt lat="-26.97679833333333" lon="-48.636694999999996"><ele>6.3</ele></trkpt><trkpt lat="-26.97679833333333" lon="-48.636694999999996"><ele>6.3</ele></trkpt><trkpt lat="-26.97679833333333" lon="-48.636694999999996"><ele>6.3</ele></trkpt><trkpt lat="-26.97679833333333" lon="-48.636694999999996"><ele>6.3</ele></trkpt><trkpt lat="-26.97679833333333" lon="-48.636694999999996"><ele>6.3</ele></trkpt><trkpt lat="-26.97679833333333" lon="-48.636694999999996"><ele>6.3</ele></trkpt><trkpt lat="-26.97679833333333" lon="-48.636694999999996"><ele>6.3</ele></trkpt><trkpt lat="-26.97679833333333" lon="-48.636694999999996"><ele>6.3</ele></trkpt><trkpt lat="-26.97679833333333" lon="-48.636694999999996"><ele>6.3</ele></trkpt><trkpt lat="-26.97679833333333" lon="-48.636694999999996"><ele>6.3</ele></trkpt><trkpt lat="-26.97679833333333" lon="-48.636694999999996"><ele>6.3</ele></trkpt><trkpt lat="-26.97679833333333" lon="-48.636694999999996"><ele>6.3</ele></trkpt><trkpt lat="-26.97679833333333" lon="-48.636694999999996"><ele>6.3</ele></trkpt><trkpt lat="-26.97679833333333" lon="-48.636694999999996"><ele>6.3</ele></trkpt><trkpt lat="-26.97679833333333" lon="-48.636694999999996"><ele>6.3</ele></trkpt><trkpt lat="-26.976725000000002" lon="-48.63666166666667"><ele>2.9</ele></trkpt><trkpt lat="-26.976729999999996" lon="-48.63664833333334"><ele>2.9</ele></trkpt><trkpt lat="-26.976741666666666" lon="-48.63663833333333"><ele>3</ele></trkpt><trkpt lat="-26.976723333333332" lon="-48.63662333333333"><ele>3.4</ele></trkpt><trkpt lat="-26.97673166666667" lon="-48.63663666666666"><ele>3.4</ele></trkpt><trkpt lat="-26.976728333333334" lon="-48.636631666666666"><ele>3.8</ele></trkpt><trkpt lat="-26.97673666666667" lon="-48.63663833333333"><ele>4.2</ele></trkpt><trkpt lat="-26.976741666666666" lon="-48.63669166666667"><ele>3.1</ele></trkpt><trkpt lat="-26.976735" lon="-48.63670333333333"><ele>2.2</ele></trkpt><trkpt lat="-26.976743333333335" lon="-48.63671166666666"><ele>1.5</ele></trkpt><trkpt lat="-26.976755000000004" lon="-48.636721666666666"><ele>0.7</ele></trkpt><trkpt lat="-26.97676666666667" lon="-48.63672499999999"><ele>0.10000000000000009</ele></trkpt><trkpt lat="-26.97676666666667" lon="-48.636721666666666"><ele>0.30000000000000004</ele></trkpt><trkpt lat="-26.976770000000002" lon="-48.63672666666666"><ele>0.5</ele></trkpt><trkpt lat="-26.976773333333334" lon="-48.63672833333333"><ele>0.7</ele></trkpt><trkpt lat="-26.976778333333332" lon="-48.63673333333333"><ele>1.1</ele></trkpt><trkpt lat="-26.97678" lon="-48.636735"><ele>1.2</ele></trkpt><trkpt lat="-26.976773333333334" lon="-48.63673166666668"><ele>1.5</ele></trkpt><trkpt lat="-26.976770000000002" lon="-48.63673333333333"><ele>1.7</ele></trkpt><trkpt lat="-26.976770000000002" lon="-48.63673333333333"><ele>1.7</ele></trkpt><trkpt lat="-26.976770000000002" lon="-48.63673333333333"><ele>1.7</ele></trkpt><trkpt lat="-26.976770000000002" lon="-48.63673333333333"><ele>1.7</ele></trkpt><trkpt lat="-26.976770000000002" lon="-48.63673333333333"><ele>1.7</ele></trkpt><trkpt lat="-26.976770000000002" lon="-48.63673333333333"><ele>1.7</ele></trkpt><trkpt lat="-26.976770000000002" lon="-48.63673333333333"><ele>1.7</ele></trkpt><trkpt lat="-26.976770000000002" lon="-48.63673333333333"><ele>1.7</ele></trkpt><trkpt lat="-26.976770000000002" lon="-48.63673333333333"><ele>1.7</ele></trkpt><trkpt lat="-26.97671833333333" lon="-48.63671833333333"><ele>2.8</ele></trkpt><trkpt lat="-26.976711666666667" lon="-48.63671666666667"><ele>3</ele></trkpt><trkpt lat="-26.97672166666667" lon="-48.63671833333333"><ele>3.3</ele></trkpt><trkpt lat="-26.976728333333334" lon="-48.63671666666667"><ele>3.4</ele></trkpt><trkpt lat="-26.97673666666667" lon="-48.63671333333333"><ele>3.6</ele></trkpt><trkpt lat="-26.97673666666667" lon="-48.63671333333333"><ele>3.6</ele></trkpt><trkpt lat="-26.97673666666667" lon="-48.63671333333333"><ele>3.6</ele></trkpt><trkpt lat="-26.97673666666667" lon="-48.63671333333333"><ele>3.6</ele></trkpt><trkpt lat="-26.97673666666667" lon="-48.63671333333333"><ele>3.6</ele></trkpt><trkpt lat="-26.97673666666667" lon="-48.63671333333333"><ele>3.6</ele></trkpt><trkpt lat="-26.97673666666667" lon="-48.63671333333333"><ele>3.6</ele></trkpt><trkpt lat="-26.97673666666667" lon="-48.63671333333333"><ele>3.6</ele></trkpt><trkpt lat="-26.97673666666667" lon="-48.63671333333333"><ele>3.6</ele></trkpt><trkpt lat="-26.976735" lon="-48.636700000000005"><ele>5.4</ele></trkpt><trkpt lat="-26.97673166666667" lon="-48.636700000000005"><ele>5.2</ele></trkpt><trkpt lat="-26.976729999999996" lon="-48.636696666666666"><ele>5.2</ele></trkpt><trkpt lat="-26.976746666666667" lon="-48.63668666666668"><ele>5.5</ele></trkpt><trkpt lat="-26.976746666666667" lon="-48.636678333333336"><ele>5.8</ele></trkpt><trkpt lat="-26.97675" lon="-48.636678333333336"><ele>5.8</ele></trkpt><trkpt lat="-26.97676166666667" lon="-48.636678333333336"><ele>5.9</ele></trkpt><trkpt lat="-26.976771666666664" lon="-48.63667999999999"><ele>5.9</ele></trkpt><trkpt lat="-26.976783333333334" lon="-48.63667999999999"><ele>5.8</ele></trkpt><trkpt lat="-26.976785000000003" lon="-48.636676666666666"><ele>5.7</ele></trkpt><trkpt lat="-26.976783333333334" lon="-48.636675"><ele>5.7</ele></trkpt><trkpt lat="-26.976785000000003" lon="-48.63667333333333"><ele>5.6</ele></trkpt><trkpt lat="-26.976785000000003" lon="-48.63667333333333"><ele>5.6</ele></trkpt><trkpt lat="-26.976785000000003" lon="-48.63667333333333"><ele>5.6</ele></trkpt><trkpt lat="-26.97678166666667" lon="-48.636653333333335"><ele>5.5</ele></trkpt><trkpt lat="-26.97677666666667" lon="-48.636656666666674"><ele>5.6</ele></trkpt><trkpt lat="-26.97676666666667" lon="-48.63666"><ele>5.8</ele></trkpt><trkpt lat="-26.97676166666667" lon="-48.636664999999994"><ele>5.8</ele></trkpt><trkpt lat="-26.97676166666667" lon="-48.636664999999994"><ele>5.8</ele></trkpt><trkpt lat="-26.97676166666667" lon="-48.636664999999994"><ele>5.8</ele></trkpt><trkpt lat="-26.97676166666667" lon="-48.636664999999994"><ele>5.8</ele></trkpt><trkpt lat="-26.976738333333333" lon="-48.636656666666674"><ele>6.9</ele></trkpt><trkpt lat="-26.976738333333333" lon="-48.63665833333333"><ele>7.2</ele></trkpt><trkpt lat="-26.976743333333335" lon="-48.63665833333333"><ele>7.5</ele></trkpt><trkpt lat="-26.976746666666667" lon="-48.63666"><ele>7.9</ele></trkpt><trkpt lat="-26.97675166666667" lon="-48.63665833333333"><ele>8.3</ele></trkpt><trkpt lat="-26.97675166666667" lon="-48.63666"><ele>8.5</ele></trkpt><trkpt lat="-26.97675166666667" lon="-48.63666"><ele>8.6</ele></trkpt><trkpt lat="-26.976755000000004" lon="-48.636655000000005"><ele>8.8</ele></trkpt><trkpt lat="-26.976755000000004" lon="-48.63664833333334"><ele>8.8</ele></trkpt><trkpt lat="-26.976755000000004" lon="-48.636645"><ele>8.9</ele></trkpt><trkpt lat="-26.976756666666667" lon="-48.63664166666668"><ele>8.9</ele></trkpt><trkpt lat="-26.976755000000004" lon="-48.63663666666666"><ele>8.9</ele></trkpt><trkpt lat="-26.97675333333333" lon="-48.63663"><ele>8.8</ele></trkpt><trkpt lat="-26.97675333333333" lon="-48.63662333333333"><ele>8.8</ele></trkpt><trkpt lat="-26.97675333333333" lon="-48.63662333333333"><ele>8.8</ele></trkpt><trkpt lat="-26.97675333333333" lon="-48.63662333333333"><ele>8.8</ele></trkpt><trkpt lat="-26.97675333333333" lon="-48.63662333333333"><ele>8.8</ele></trkpt><trkpt lat="-26.97675333333333" lon="-48.63662333333333"><ele>8.8</ele></trkpt><trkpt lat="-26.97675333333333" lon="-48.63662333333333"><ele>8.8</ele></trkpt><trkpt lat="-26.97675333333333" lon="-48.63662333333333"><ele>8.8</ele></trkpt><trkpt lat="-26.97675333333333" lon="-48.63662333333333"><ele>8.8</ele></trkpt><trkpt lat="-26.97675333333333" lon="-48.63662333333333"><ele>8.8</ele></trkpt><trkpt lat="-26.97675333333333" lon="-48.63662333333333"><ele>8.8</ele></trkpt><trkpt lat="-26.97675333333333" lon="-48.63662333333333"><ele>8.8</ele></trkpt><trkpt lat="-26.97675333333333" lon="-48.63662333333333"><ele>8.8</ele></trkpt><trkpt lat="-26.97675333333333" lon="-48.63662333333333"><ele>8.8</ele></trkpt><trkpt lat="-26.97675333333333" lon="-48.63662333333333"><ele>8.8</ele></trkpt><trkpt lat="-26.97675333333333" lon="-48.63662333333333"><ele>8.8</ele></trkpt><trkpt lat="-26.97675333333333" lon="-48.63662333333333"><ele>8.8</ele></trkpt><trkpt lat="-26.97675333333333" lon="-48.63662333333333"><ele>8.8</ele></trkpt><trkpt lat="-26.97675333333333" lon="-48.63662333333333"><ele>8.8</ele></trkpt><trkpt lat="-26.976741666666666" lon="-48.63661333333333"><ele>9.1</ele></trkpt><trkpt lat="-26.976743333333335" lon="-48.63661833333334"><ele>9.1</ele></trkpt><trkpt lat="-26.97675" lon="-48.63662833333333"><ele>8.8</ele></trkpt><trkpt lat="-26.97675" lon="-48.63663499999999"><ele>8.6</ele></trkpt><trkpt lat="-26.976735" lon="-48.636645"><ele>7.8</ele></trkpt><trkpt lat="-26.976735" lon="-48.636645"><ele>7.8</ele></trkpt><trkpt lat="-26.976735" lon="-48.636645"><ele>7.8</ele></trkpt><trkpt lat="-26.976735" lon="-48.636645"><ele>7.8</ele></trkpt><trkpt lat="-26.976735" lon="-48.636645"><ele>7.8</ele></trkpt><trkpt lat="-26.976735" lon="-48.636645"><ele>7.8</ele></trkpt><trkpt lat="-26.976735" lon="-48.636645"><ele>7.8</ele></trkpt><trkpt lat="-26.976735" lon="-48.636645"><ele>7.8</ele></trkpt><trkpt lat="-26.976735" lon="-48.636645"><ele>7.8</ele></trkpt><trkpt lat="-26.976735" lon="-48.636645"><ele>7.8</ele></trkpt><trkpt lat="-26.976735" lon="-48.636645"><ele>7.8</ele></trkpt><trkpt lat="-26.976735" lon="-48.636645"><ele>7.8</ele></trkpt><trkpt lat="-26.976735" lon="-48.636645"><ele>7.8</ele></trkpt><trkpt lat="-26.976735" lon="-48.636645"><ele>7.8</ele></trkpt><trkpt lat="-26.976735" lon="-48.636645"><ele>7.8</ele></trkpt><trkpt lat="-26.976735" lon="-48.636645"><ele>7.8</ele></trkpt><trkpt lat="-26.976735" lon="-48.636645"><ele>7.8</ele></trkpt><trkpt lat="-26.976735" lon="-48.636645"><ele>7.8</ele></trkpt><trkpt lat="-26.976735" lon="-48.636645"><ele>7.8</ele></trkpt><trkpt lat="-26.97676" lon="-48.63667"><ele>4.9</ele></trkpt><trkpt lat="-26.976765" lon="-48.63667166666667"><ele>4.8</ele></trkpt><trkpt lat="-26.976770000000002" lon="-48.63667166666667"><ele>4.5</ele></trkpt><trkpt lat="-26.976771666666664" lon="-48.63666833333333"><ele>4.1</ele></trkpt><trkpt lat="-26.97677666666667" lon="-48.63666833333333"><ele>4</ele></trkpt><trkpt lat="-26.97677666666667" lon="-48.63666833333333"><ele>4</ele></trkpt><trkpt lat="-26.97677666666667" lon="-48.63666833333333"><ele>4</ele></trkpt><trkpt lat="-26.97677666666667" lon="-48.63666833333333"><ele>4</ele></trkpt><trkpt lat="-26.976786666666666" lon="-48.63664333333333"><ele>3.7</ele></trkpt><trkpt lat="-26.976788333333335" lon="-48.636625"><ele>3.7</ele></trkpt><trkpt lat="-26.976788333333335" lon="-48.63660333333334"><ele>3.7</ele></trkpt><trkpt lat="-26.976786666666666" lon="-48.63658"><ele>3.8</ele></trkpt><trkpt lat="-26.976786666666666" lon="-48.636559999999996"><ele>3.9</ele></trkpt><trkpt lat="-26.976789999999998" lon="-48.636541666666666"><ele>3.9</ele></trkpt><trkpt lat="-26.976788333333335" lon="-48.63651333333334"><ele>3.9</ele></trkpt><trkpt lat="-26.976783333333334" lon="-48.63649"><ele>4.1</ele></trkpt><trkpt lat="-26.97676666666667" lon="-48.636471666666665"><ele>4.2</ele></trkpt><trkpt lat="-26.976738333333333" lon="-48.636453333333336"><ele>4.6</ele></trkpt><trkpt lat="-26.97673166666667" lon="-48.636445"><ele>5.1</ele></trkpt><trkpt lat="-26.976715" lon="-48.63642333333334"><ele>5.3</ele></trkpt><trkpt lat="-26.976715" lon="-48.63642333333334"><ele>5.3</ele></trkpt><trkpt lat="-26.97670833333333" lon="-48.63639333333334"><ele>6</ele></trkpt><trkpt lat="-26.976710000000004" lon="-48.63636833333333"><ele>6.5</ele></trkpt><trkpt lat="-26.976693333333333" lon="-48.636359999999996"><ele>7.2</ele></trkpt><trkpt lat="-26.97669" lon="-48.63634833333334"><ele>7.9</ele></trkpt><trkpt lat="-26.97668" lon="-48.636334999999995"><ele>8.4</ele></trkpt><trkpt lat="-26.97666333333333" lon="-48.636314999999996"><ele>8.2</ele></trkpt><trkpt lat="-26.97663166666667" lon="-48.63628666666667"><ele>7.1</ele></trkpt><trkpt lat="-26.97663" lon="-48.636246666666665"><ele>6.8</ele></trkpt><trkpt lat="-26.976620000000004" lon="-48.63621833333333"><ele>6.9</ele></trkpt><trkpt lat="-26.976623333333336" lon="-48.63618833333333"><ele>7</ele></trkpt><trkpt lat="-26.97662833333333" lon="-48.636156666666665"><ele>6.8</ele></trkpt><trkpt lat="-26.976623333333336" lon="-48.636134999999996"><ele>5.3</ele></trkpt><trkpt lat="-26.976623333333336" lon="-48.63611833333333"><ele>4.8</ele></trkpt><trkpt lat="-26.97661833333333" lon="-48.636100000000006"><ele>4.7</ele></trkpt><trkpt lat="-26.97663" lon="-48.636075"><ele>4.1</ele></trkpt><trkpt lat="-26.976636666666664" lon="-48.636056666666676"><ele>3.6</ele></trkpt><trkpt lat="-26.976645" lon="-48.63603333333334"><ele>3.5</ele></trkpt><trkpt lat="-26.97666" lon="-48.635999999999996"><ele>2.7</ele></trkpt><trkpt lat="-26.976626666666668" lon="-48.635921666666675"><ele>10.1</ele></trkpt><trkpt lat="-26.976620000000004" lon="-48.635876666666675"><ele>10.5</ele></trkpt><trkpt lat="-26.97661333333333" lon="-48.63584000000001"><ele>10.5</ele></trkpt><trkpt lat="-26.976620000000004" lon="-48.63580166666667"><ele>11.1</ele></trkpt><trkpt lat="-26.976620000000004" lon="-48.63576333333334"><ele>11.2</ele></trkpt><trkpt lat="-26.97662833333333" lon="-48.63572166666666"><ele>11.3</ele></trkpt><trkpt lat="-26.976636666666664" lon="-48.63569333333333"><ele>11.8</ele></trkpt><trkpt lat="-26.976638333333334" lon="-48.63566000000001"><ele>12.1</ele></trkpt><trkpt lat="-26.976653333333335" lon="-48.63562833333334"><ele>13.2</ele></trkpt><trkpt lat="-26.97666333333333" lon="-48.635600000000004"><ele>13.6</ele></trkpt><trkpt lat="-26.976684999999996" lon="-48.63557833333333"><ele>13.9</ele></trkpt><trkpt lat="-26.976701666666667" lon="-48.635560000000005"><ele>12.9</ele></trkpt><trkpt lat="-26.976713333333336" lon="-48.635535"><ele>13.3</ele></trkpt><trkpt lat="-26.976728333333334" lon="-48.63552166666667"><ele>13.4</ele></trkpt><trkpt lat="-26.97675" lon="-48.63552"><ele>13.5</ele></trkpt><trkpt lat="-26.976770000000002" lon="-48.63551166666666"><ele>13.5</ele></trkpt><trkpt lat="-26.976785000000003" lon="-48.635510000000004"><ele>13</ele></trkpt><trkpt lat="-26.976785000000003" lon="-48.635510000000004"><ele>13</ele></trkpt><trkpt lat="-26.976805" lon="-48.635495000000006"><ele>12.5</ele></trkpt><trkpt lat="-26.976818333333334" lon="-48.63548000000001"><ele>11.5</ele></trkpt><trkpt lat="-26.976834999999998" lon="-48.63548833333333"><ele>11</ele></trkpt><trkpt lat="-26.97684333333333" lon="-48.63549166666667"><ele>9.4</ele></trkpt><trkpt lat="-26.976861666666665" lon="-48.635493333333336"><ele>8.7</ele></trkpt><trkpt lat="-26.97688333333333" lon="-48.635493333333336"><ele>8.4</ele></trkpt><trkpt lat="-26.97689666666667" lon="-48.6355"><ele>7.8</ele></trkpt><trkpt lat="-26.976908333333334" lon="-48.63550166666667"><ele>7.3</ele></trkpt><trkpt lat="-26.976915" lon="-48.63549833333333"><ele>6.9</ele></trkpt><trkpt lat="-26.976916666666664" lon="-48.63549666666666"><ele>6.7</ele></trkpt><trkpt lat="-26.976923333333335" lon="-48.63549"><ele>6.6</ele></trkpt><trkpt lat="-26.976921666666666" lon="-48.63548000000001"><ele>6.8</ele></trkpt><trkpt lat="-26.976926666666667" lon="-48.63547666666667"><ele>6.8</ele></trkpt><trkpt lat="-26.976923333333335" lon="-48.63547666666667"><ele>6.6</ele></trkpt><trkpt lat="-26.976926666666667" lon="-48.63547833333334"><ele>6.5</ele></trkpt><trkpt lat="-26.976915" lon="-48.63547666666667"><ele>6.6</ele></trkpt><trkpt lat="-26.976918333333334" lon="-48.63547666666667"><ele>6.8</ele></trkpt><trkpt lat="-26.976923333333335" lon="-48.63546833333333"><ele>6.9</ele></trkpt><trkpt lat="-26.97693" lon="-48.635459999999995"><ele>7.1</ele></trkpt><trkpt lat="-26.976935000000005" lon="-48.63544666666667"><ele>7.5</ele></trkpt><trkpt lat="-26.976938333333337" lon="-48.63543500000001"><ele>7.8</ele></trkpt><trkpt lat="-26.97694166666667" lon="-48.63543833333333"><ele>6.9</ele></trkpt><trkpt lat="-26.976945" lon="-48.63544166666667"><ele>6.9</ele></trkpt><trkpt lat="-26.976946666666663" lon="-48.635450000000006"><ele>6.8</ele></trkpt><trkpt lat="-26.976946666666663" lon="-48.635455"><ele>6.7</ele></trkpt><trkpt lat="-26.976946666666663" lon="-48.635461666666664"><ele>6.6</ele></trkpt><trkpt lat="-26.976946666666663" lon="-48.635465"><ele>6.6</ele></trkpt><trkpt lat="-26.976950000000002" lon="-48.63546833333333"><ele>6.9</ele></trkpt><trkpt lat="-26.976951666666665" lon="-48.635470000000005"><ele>7</ele></trkpt><trkpt lat="-26.976951666666665" lon="-48.63547333333333"><ele>7</ele></trkpt><trkpt lat="-26.976951666666665" lon="-48.635475"><ele>7.3</ele></trkpt><trkpt lat="-26.976954999999997" lon="-48.635481666666664"><ele>7.2</ele></trkpt><trkpt lat="-26.976958333333332" lon="-48.63549"><ele>6.8</ele></trkpt><trkpt lat="-26.976961666666664" lon="-48.635495000000006"><ele>6.4</ele></trkpt><trkpt lat="-26.976963333333334" lon="-48.63549166666667"><ele>6.4</ele></trkpt><trkpt lat="-26.976961666666664" lon="-48.635485"><ele>6.4</ele></trkpt><trkpt lat="-26.976958333333332" lon="-48.63548000000001"><ele>6</ele></trkpt><trkpt lat="-26.976958333333332" lon="-48.63548000000001"><ele>6</ele></trkpt><trkpt lat="-26.976958333333332" lon="-48.63548000000001"><ele>6</ele></trkpt><trkpt lat="-26.976958333333332" lon="-48.63548000000001"><ele>6</ele></trkpt><trkpt lat="-26.976958333333332" lon="-48.63548000000001"><ele>6</ele></trkpt><trkpt lat="-26.976958333333332" lon="-48.63548000000001"><ele>6</ele></trkpt><trkpt lat="-26.976958333333332" lon="-48.63548000000001"><ele>6</ele></trkpt><trkpt lat="-26.976958333333332" lon="-48.63548000000001"><ele>6</ele></trkpt><trkpt lat="-26.976958333333332" lon="-48.63548000000001"><ele>6</ele></trkpt><trkpt lat="-26.976958333333332" lon="-48.63548000000001"><ele>6</ele></trkpt><trkpt lat="-26.976958333333332" lon="-48.63548000000001"><ele>6</ele></trkpt><trkpt lat="-26.976958333333332" lon="-48.63548000000001"><ele>6</ele></trkpt><trkpt lat="-26.976975" lon="-48.63550166666667"><ele>8.4</ele></trkpt><trkpt lat="-26.97697833333333" lon="-48.635503333333325"><ele>8.3</ele></trkpt><trkpt lat="-26.976983333333337" lon="-48.635503333333325"><ele>8.1</ele></trkpt><trkpt lat="-26.976983333333337" lon="-48.635503333333325"><ele>8.3</ele></trkpt><trkpt lat="-26.976983333333337" lon="-48.635503333333325"><ele>8.3</ele></trkpt><trkpt lat="-26.976983333333337" lon="-48.635503333333325"><ele>8.3</ele></trkpt><trkpt lat="-26.976983333333337" lon="-48.635503333333325"><ele>8.3</ele></trkpt><trkpt lat="-26.976983333333337" lon="-48.635503333333325"><ele>8.3</ele></trkpt><trkpt lat="-26.976983333333337" lon="-48.635503333333325"><ele>8.3</ele></trkpt><trkpt lat="-26.976983333333337" lon="-48.635503333333325"><ele>8.3</ele></trkpt><trkpt lat="-26.976983333333337" lon="-48.635503333333325"><ele>8.3</ele></trkpt><trkpt lat="-26.976983333333337" lon="-48.635503333333325"><ele>8.3</ele></trkpt><trkpt lat="-26.976983333333337" lon="-48.635503333333325"><ele>8.3</ele></trkpt><trkpt lat="-26.976983333333337" lon="-48.635503333333325"><ele>8.3</ele></trkpt><trkpt lat="-26.976983333333337" lon="-48.635503333333325"><ele>8.3</ele></trkpt><trkpt lat="-26.976969999999998" lon="-48.63548333333333"><ele>10.9</ele></trkpt><trkpt lat="-26.976971666666667" lon="-48.63548000000001"><ele>11.1</ele></trkpt><trkpt lat="-26.97697333333333" lon="-48.63547666666667"><ele>11.3</ele></trkpt><trkpt lat="-26.97697333333333" lon="-48.635470000000005"><ele>11.7</ele></trkpt><trkpt lat="-26.97697333333333" lon="-48.63546666666666"><ele>11.8</ele></trkpt><trkpt lat="-26.97697333333333" lon="-48.635463333333334"><ele>12.2</ele></trkpt><trkpt lat="-26.97697333333333" lon="-48.635463333333334"><ele>12.2</ele></trkpt><trkpt lat="-26.976971666666667" lon="-48.635463333333334"><ele>12.3</ele></trkpt><trkpt lat="-26.976971666666667" lon="-48.635463333333334"><ele>12.3</ele></trkpt><trkpt lat="-26.976971666666667" lon="-48.635463333333334"><ele>12.3</ele></trkpt><trkpt lat="-26.976971666666667" lon="-48.635463333333334"><ele>12.3</ele></trkpt><trkpt lat="-26.976971666666667" lon="-48.635463333333334"><ele>12.3</ele></trkpt><trkpt lat="-26.976971666666667" lon="-48.635463333333334"><ele>12.3</ele></trkpt><trkpt lat="-26.976966666666666" lon="-48.63543"><ele>12</ele></trkpt><trkpt lat="-26.976963333333334" lon="-48.635414999999995"><ele>11.7</ele></trkpt><trkpt lat="-26.976966666666666" lon="-48.63540833333333"><ele>11.6</ele></trkpt><trkpt lat="-26.976963333333334" lon="-48.63539166666666"><ele>11.3</ele></trkpt><trkpt lat="-26.976960000000002" lon="-48.635373333333334"><ele>11.1</ele></trkpt><trkpt lat="-26.976954999999997" lon="-48.63535666666667"><ele>11</ele></trkpt><trkpt lat="-26.976948333333333" lon="-48.63534666666666"><ele>10.7</ele></trkpt><trkpt lat="-26.97694166666667" lon="-48.635335000000005"><ele>10.4</ele></trkpt><trkpt lat="-26.976931666666662" lon="-48.635326666666664"><ele>10.1</ele></trkpt><trkpt lat="-26.976923333333335" lon="-48.63531666666666"><ele>9.6</ele></trkpt><trkpt lat="-26.976913333333332" lon="-48.63530833333333"><ele>8.7</ele></trkpt><trkpt lat="-26.976906666666665" lon="-48.63530333333333"><ele>8.1</ele></trkpt><trkpt lat="-26.9769" lon="-48.63529833333334"><ele>7.8</ele></trkpt><trkpt lat="-26.976901666666663" lon="-48.63529666666667"><ele>8</ele></trkpt><trkpt lat="-26.976908333333334" lon="-48.635295"><ele>7.9</ele></trkpt><trkpt lat="-26.976913333333332" lon="-48.635291666666674"><ele>8.5</ele></trkpt><trkpt lat="-26.976916666666664" lon="-48.635295"><ele>8.5</ele></trkpt><trkpt lat="-26.976921666666666" lon="-48.63529833333334"><ele>8.4</ele></trkpt><trkpt lat="-26.97692833333333" lon="-48.63530166666666"><ele>8.4</ele></trkpt><trkpt lat="-26.97693333333333" lon="-48.63530166666666"><ele>8.5</ele></trkpt><trkpt lat="-26.976938333333337" lon="-48.63530333333333"><ele>8.6</ele></trkpt><trkpt lat="-26.97694" lon="-48.63530833333333"><ele>8.6</ele></trkpt><trkpt lat="-26.97694" lon="-48.635313333333336"><ele>8.8</ele></trkpt><trkpt lat="-26.97694" lon="-48.635313333333336"><ele>8.8</ele></trkpt><trkpt lat="-26.97694" lon="-48.635313333333336"><ele>8.8</ele></trkpt><trkpt lat="-26.97694" lon="-48.635313333333336"><ele>8.8</ele></trkpt><trkpt lat="-26.97694" lon="-48.635313333333336"><ele>8.8</ele></trkpt><trkpt lat="-26.97694" lon="-48.635313333333336"><ele>8.8</ele></trkpt><trkpt lat="-26.97694" lon="-48.635313333333336"><ele>8.8</ele></trkpt><trkpt lat="-26.97694" lon="-48.635313333333336"><ele>8.8</ele></trkpt><trkpt lat="-26.97694" lon="-48.635313333333336"><ele>8.8</ele></trkpt><trkpt lat="-26.97694" lon="-48.635313333333336"><ele>8.8</ele></trkpt><trkpt lat="-26.97694" lon="-48.635313333333336"><ele>8.8</ele></trkpt><trkpt lat="-26.97694" lon="-48.635313333333336"><ele>8.8</ele></trkpt><trkpt lat="-26.97694" lon="-48.635313333333336"><ele>8.8</ele></trkpt><trkpt lat="-26.97694" lon="-48.635313333333336"><ele>8.8</ele></trkpt><trkpt lat="-26.97694" lon="-48.635313333333336"><ele>8.8</ele></trkpt><trkpt lat="-26.976961666666664" lon="-48.635369999999995"><ele>14.8</ele></trkpt><trkpt lat="-26.976965000000003" lon="-48.635380000000005"><ele>15.2</ele></trkpt><trkpt lat="-26.976954999999997" lon="-48.635375"><ele>16</ele></trkpt><trkpt lat="-26.976948333333333" lon="-48.63536333333333"><ele>16.5</ele></trkpt><trkpt lat="-26.976948333333333" lon="-48.63536333333333"><ele>16.5</ele></trkpt><trkpt lat="-26.976948333333333" lon="-48.63536333333333"><ele>16.5</ele></trkpt><trkpt lat="-26.976948333333333" lon="-48.63536333333333"><ele>16.5</ele></trkpt><trkpt lat="-26.976948333333333" lon="-48.63536333333333"><ele>16.5</ele></trkpt><trkpt lat="-26.976948333333333" lon="-48.63536333333333"><ele>16.5</ele></trkpt><trkpt lat="-26.976948333333333" lon="-48.63536333333333"><ele>16.5</ele></trkpt><trkpt lat="-26.976948333333333" lon="-48.63536333333333"><ele>16.5</ele></trkpt><trkpt lat="-26.976948333333333" lon="-48.63536333333333"><ele>16.5</ele></trkpt><trkpt lat="-26.976948333333333" lon="-48.63536333333333"><ele>16.5</ele></trkpt><trkpt lat="-26.976948333333333" lon="-48.63536333333333"><ele>16.5</ele></trkpt><trkpt lat="-26.97692833333333" lon="-48.635290000000005"><ele>17.6</ele></trkpt><trkpt lat="-26.97694166666667" lon="-48.63528833333333"><ele>17.5</ele></trkpt><trkpt lat="-26.976960000000002" lon="-48.63528666666666"><ele>17.1</ele></trkpt><trkpt lat="-26.976981666666667" lon="-48.63529333333333"><ele>16.7</ele></trkpt><trkpt lat="-26.976998333333334" lon="-48.635295"><ele>16.2</ele></trkpt><trkpt lat="-26.977010000000003" lon="-48.63529833333334"><ele>15.3</ele></trkpt><trkpt lat="-26.977021666666662" lon="-48.63530333333333"><ele>15</ele></trkpt><trkpt lat="-26.97703" lon="-48.63531666666666"><ele>14.7</ele></trkpt><trkpt lat="-26.97703333333333" lon="-48.635335000000005"><ele>14.2</ele></trkpt><trkpt lat="-26.977036666666663" lon="-48.635355"><ele>13.7</ele></trkpt><trkpt lat="-26.97703333333333" lon="-48.635371666666664"><ele>13.1</ele></trkpt><trkpt lat="-26.977026666666667" lon="-48.63538833333334"><ele>12.8</ele></trkpt><trkpt lat="-26.97701833333333" lon="-48.63540666666666"><ele>12.4</ele></trkpt><trkpt lat="-26.977013333333336" lon="-48.63542166666666"><ele>12.3</ele></trkpt><trkpt lat="-26.977014999999998" lon="-48.63543833333333"><ele>12.1</ele></trkpt><trkpt lat="-26.977013333333336" lon="-48.63545666666667"><ele>11.9</ele></trkpt><trkpt lat="-26.977013333333336" lon="-48.635471666666675"><ele>11.5</ele></trkpt><trkpt lat="-26.977011666666666" lon="-48.63548333333333"><ele>11.2</ele></trkpt><trkpt lat="-26.977011666666666" lon="-48.63549166666667"><ele>10.9</ele></trkpt><trkpt lat="-26.977011666666666" lon="-48.635493333333336"><ele>10.6</ele></trkpt><trkpt lat="-26.977006666666664" lon="-48.635493333333336"><ele>10.6</ele></trkpt><trkpt lat="-26.977003333333332" lon="-48.635493333333336"><ele>10.6</ele></trkpt><trkpt lat="-26.976998333333334" lon="-48.63549666666666"><ele>10.3</ele></trkpt><trkpt lat="-26.976995000000002" lon="-48.63550166666667"><ele>10.2</ele></trkpt><trkpt lat="-26.976995000000002" lon="-48.63550166666667"><ele>10.2</ele></trkpt><trkpt lat="-26.976991666666663" lon="-48.635506666666664"><ele>10.2</ele></trkpt><trkpt lat="-26.976983333333337" lon="-48.635506666666664"><ele>10.1</ele></trkpt><trkpt lat="-26.976980000000005" lon="-48.635508333333334"><ele>10.3</ele></trkpt><trkpt lat="-26.976976666666662" lon="-48.635506666666664"><ele>10.6</ele></trkpt><trkpt lat="-26.976971666666667" lon="-48.635506666666664"><ele>10.7</ele></trkpt><trkpt lat="-26.976971666666667" lon="-48.635506666666664"><ele>10.7</ele></trkpt><trkpt lat="-26.976971666666667" lon="-48.635506666666664"><ele>10.7</ele></trkpt><trkpt lat="-26.976971666666667" lon="-48.635506666666664"><ele>10.7</ele></trkpt><trkpt lat="-26.976971666666667" lon="-48.635506666666664"><ele>10.7</ele></trkpt><trkpt lat="-26.976971666666667" lon="-48.635506666666664"><ele>10.7</ele></trkpt><trkpt lat="-26.976971666666667" lon="-48.635506666666664"><ele>10.7</ele></trkpt><trkpt lat="-26.976971666666667" lon="-48.635506666666664"><ele>10.7</ele></trkpt><trkpt lat="-26.976971666666667" lon="-48.635506666666664"><ele>10.7</ele></trkpt><trkpt lat="-26.976971666666667" lon="-48.635506666666664"><ele>10.7</ele></trkpt><trkpt lat="-26.976971666666667" lon="-48.635506666666664"><ele>10.7</ele></trkpt><trkpt lat="-26.976971666666667" lon="-48.635506666666664"><ele>10.7</ele></trkpt><trkpt lat="-26.976971666666667" lon="-48.635506666666664"><ele>10.7</ele></trkpt><trkpt lat="-26.976971666666667" lon="-48.635506666666664"><ele>10.7</ele></trkpt><trkpt lat="-26.976971666666667" lon="-48.635506666666664"><ele>10.7</ele></trkpt><trkpt lat="-26.976971666666667" lon="-48.635506666666664"><ele>10.7</ele></trkpt></trkseg></trk></gpx>