<?xml version="1.0" encoding="UTF-8"?>
<gpx xmlns="http://www.topografix.com/GPX/1/1" version="1.1" creator="@dwayneparton/geojson-to-gpx"><wpt lat="-27.001437" lon="-48.620395"><ele>3.1</ele><name>1 faixa</name></wpt><wpt lat="-27.001535" lon="-48.620423"><name>22</name></wpt><wpt lat="-27.001952" lon="-48.620737"><ele>16.5</ele><name>180</name></wpt><wpt lat="-27.00195" lon="-48.6207"><ele>20.3</ele><name>480</name></wpt><wpt lat="-27.001975" lon="-48.620768"><ele>8.6</ele><name>908</name></wpt><wpt lat="-27.004212" lon="-48.621157"><ele>21.9</ele><name>A ciclo é completamente reta.</name></wpt><wpt lat="-27.004217" lon="-48.621135"><ele>20.3</ele><name>A pintura está boa, COMPLETA e visível</name></wpt><wpt lat="-27.001362" lon="-48.620257"><ele>37.9</ele><name>Apenas faixas vermelhas nas bordas, com travessias pintadas nos cruzamentos</name></wpt><wpt lat="-27.001522" lon="-48.620427"><name>Área de amortecimento da ciclo (cm)</name></wpt><wpt lat="-27.001952" lon="-48.620737"><ele>16.5</ele><name>Área transitável da ciclo (cm)</name></wpt><wpt lat="-27.001362" lon="-48.620257"><ele>37.9</ele><name>Asfalto</name></wpt><wpt lat="-27.001585" lon="-48.620468"><ele>2.5</ele><name>Ausência de conexão entre ciclos.</name></wpt><wpt lat="-27.004424" lon="-48.621111"><name>Ausência de conexão entre ciclos.</name></wpt><wpt lat="-27.001343" lon="-48.620305"><ele>40.5</ele><name>Bidirecional</name></wpt><wpt lat="-27.004217" lon="-48.621135"><ele>20.3</ele><name>Bom estado</name></wpt><wpt lat="-27.001997" lon="-48.620763"><ele>15.5</ele><name>Bueiro</name></wpt><wpt lat="-27.003522" lon="-48.620997"><ele>15</ele><name>Bueiro</name></wpt><wpt lat="-27.003968" lon="-48.62106"><ele>19.1</ele><name>Bueiro</name></wpt><wpt lat="-27.004147" lon="-48.6211"><ele>10.8</ele><name>Buraco</name></wpt><wpt lat="-27.001348" lon="-48.620337"><ele>41</ele><name>Ciclofaixa</name></wpt><wpt lat="-27.001422" lon="-48.620332"><ele>1.8</ele><name>Estacionamento dedicado de um lado, segregado da circulação</name></wpt><wpt lat="-27.00195" lon="-48.6207"><ele>20.3</ele><name>Faixa de carros logo ao lado da ciclo (cm)</name></wpt><wpt lat="-27.001553" lon="-48.620387"><ele>0.6</ele><name>Foto</name></wpt><wpt lat="-27.001628" lon="-48.620455"><ele>0.8</ele><name>Foto</name></wpt><wpt lat="-27.001653" lon="-48.620507"><ele>4.8</ele><name>Foto</name></wpt><wpt lat="-27.001978" lon="-48.62075"><ele>15.9</ele><name>Foto</name></wpt><wpt lat="-27.002227" lon="-48.620863"><ele>18.2</ele><name>Foto</name></wpt><wpt lat="-27.002467" lon="-48.620738"><ele>12</ele><name>Foto</name></wpt><wpt lat="-27.002487" lon="-48.62071"><ele>13.5</ele><name>Foto</name></wpt><wpt lat="-27.002455" lon="-48.620645"><ele>9.8</ele><name>Foto</name></wpt><wpt lat="-27.002947" lon="-48.620857"><ele>12</ele><name>Foto</name></wpt><wpt lat="-27.003532" lon="-48.62097"><ele>16.7</ele><name>Foto</name></wpt><wpt lat="-27.003988" lon="-48.62107"><ele>16.1</ele><name>Foto</name></wpt><wpt lat="-27.004062" lon="-48.621038"><ele>11</ele><name>Foto</name></wpt><wpt lat="-27.00414" lon="-48.62112"><ele>10.6</ele><name>Foto</name></wpt><wpt lat="-27.004188" lon="-48.621077"><ele>14.1</ele><name>Foto</name></wpt><wpt lat="-27.004202" lon="-48.621075"><ele>14.6</ele><name>Foto</name></wpt><wpt lat="-27.004202" lon="-48.621075"><ele>14.6</ele><name>Foto</name></wpt><wpt lat="-27.002037" lon="-48.620827"><ele>14.1</ele><name>Gravação de voz</name></wpt><wpt lat="-27.004217" lon="-48.621135"><ele>20.3</ele><name>Iluminação geral na via do mesmo lado da estrutura</name></wpt><wpt lat="-27.00135" lon="-48.62029"><ele>39.1</ele><name>Mão Única</name></wpt><wpt lat="-27.001362" lon="-48.620257"><ele>37.9</ele><name>Mão Única</name></wpt><wpt lat="-27.004212" lon="-48.621157"><ele>21.9</ele><name>Não há árvores nem mudas</name></wpt><wpt lat="-27.004217" lon="-48.621135"><ele>20.3</ele><name>Nenhum elemento de controle de velocidade na via</name></wpt><wpt lat="-27.00137" lon="-48.620283"><ele>39.1</ele><name>No bordo esquerdo de Via de Mão Única</name></wpt><wpt lat="-27.002918" lon="-48.620892"><ele>13.3</ele><name>Em cruzamento MÁ condição</name></wpt><wpt lat="-27.001595" lon="-48.620417"><ele>3.6</ele><name>R-34</name></wpt><wpt lat="-27.002432" lon="-48.62084"><ele>14.5</ele><name>R-34</name></wpt><wpt lat="-27.004075" lon="-48.621068"><ele>11</ele><name>R-34</name></wpt><wpt lat="-27.004212" lon="-48.621157"><ele>21.9</ele><name>SE CICLOFAIXA: para invadir a ciclo parte do automóvel passa obrigatoriamente por cima de segregadores</name></wpt><wpt lat="-27.002235" lon="-48.62089"><ele>17.8</ele><name>SEM pintura no cruzamento</name></wpt><wpt lat="-27.0044" lon="-48.621106"><name>SEM Semáforo exclusivo</name></wpt><wpt lat="-27.004387" lon="-48.621102"><name>Semáforo para motorizado</name></wpt><wpt lat="-27.001362" lon="-48.620257"><ele>37.9</ele><name>Tachões</name></wpt><wpt lat="-27.001983" lon="-48.620755"><ele>8.4</ele><name>Total da via (incluindo a ciclo) (cm)</name></wpt><trk><name>Ciclofaixa R. 3700 T1 - BC</name><trkseg><trkpt lat="-26.99945" lon="-48.622855"><ele>43</ele></trkpt><trkpt lat="-26.99931" lon="-48.622662"><ele>132</ele></trkpt><trkpt lat="-27.001063" lon="-48.620463"><ele>64.5</ele></trkpt><trkpt lat="-27.001248" lon="-48.620417"><ele>41.7</ele></trkpt><trkpt lat="-27.001323" lon="-48.620448"><ele>41.6</ele></trkpt><trkpt lat="-27.001263" lon="-48.62036"><ele>41.6</ele></trkpt><trkpt lat="-27.001338" lon="-48.62034"><ele>41.5</ele></trkpt><trkpt lat="-27.001345" lon="-48.62039"><ele>41.5</ele></trkpt><trkpt lat="-27.00136" lon="-48.620363"><ele>41.4</ele></trkpt><trkpt lat="-27.001348" lon="-48.620337"><ele>41</ele></trkpt><trkpt lat="-27.001348" lon="-48.620337"><ele>41</ele></trkpt><trkpt lat="-27.001343" lon="-48.620317"><ele>40.8</ele></trkpt><trkpt lat="-27.001343" lon="-48.620305"><ele>40.5</ele></trkpt><trkpt lat="-27.001343" lon="-48.620305"><ele>40.5</ele></trkpt><trkpt lat="-27.001345" lon="-48.620297"><ele>40.4</ele></trkpt><trkpt lat="-27.001343" lon="-48.620288"><ele>40.3</ele></trkpt><trkpt lat="-27.001342" lon="-48.620278"><ele>40.3</ele></trkpt><trkpt lat="-27.001367" lon="-48.620295"><ele>39</ele></trkpt><trkpt lat="-27.00137" lon="-48.620302"><ele>38.8</ele></trkpt><trkpt lat="-27.001377" lon="-48.620295"><ele>38.7</ele></trkpt><trkpt lat="-27.001375" lon="-48.62029"><ele>38.9</ele></trkpt><trkpt lat="-27.00137" lon="-48.620283"><ele>39.1</ele></trkpt><trkpt lat="-27.00137" lon="-48.620283"><ele>39.1</ele></trkpt><trkpt lat="-27.001368" lon="-48.62028"><ele>39.2</ele></trkpt><trkpt lat="-27.001363" lon="-48.62028"><ele>39.2</ele></trkpt><trkpt lat="-27.001362" lon="-48.62028"><ele>39.1</ele></trkpt><trkpt lat="-27.00136" lon="-48.620282"><ele>39.1</ele></trkpt><trkpt lat="-27.001358" lon="-48.620283"><ele>39.1</ele></trkpt><trkpt lat="-27.001357" lon="-48.620287"><ele>39.1</ele></trkpt><trkpt lat="-27.001352" lon="-48.620287"><ele>39.1</ele></trkpt><trkpt lat="-27.00135" lon="-48.62029"><ele>39.1</ele></trkpt><trkpt lat="-27.00135" lon="-48.62029"><ele>39.1</ele></trkpt><trkpt lat="-27.001348" lon="-48.62029"><ele>39.1</ele></trkpt><trkpt lat="-27.001347" lon="-48.620287"><ele>39.1</ele></trkpt><trkpt lat="-27.001345" lon="-48.620282"><ele>39.1</ele></trkpt><trkpt lat="-27.001347" lon="-48.62028"><ele>39.1</ele></trkpt><trkpt lat="-27.001348" lon="-48.62028"><ele>39</ele></trkpt><trkpt lat="-27.00135" lon="-48.620278"><ele>39</ele></trkpt><trkpt lat="-27.00135" lon="-48.620275"><ele>39</ele></trkpt><trkpt lat="-27.001352" lon="-48.620272"><ele>38.9</ele></trkpt><trkpt lat="-27.001355" lon="-48.620267"><ele>38.8</ele></trkpt><trkpt lat="-27.001357" lon="-48.620262"><ele>38.4</ele></trkpt><trkpt lat="-27.001362" lon="-48.620257"><ele>37.9</ele></trkpt><trkpt lat="-27.001362" lon="-48.620257"><ele>37.9</ele></trkpt><trkpt lat="-27.001362" lon="-48.620257"><ele>37.9</ele></trkpt><trkpt lat="-27.001362" lon="-48.620257"><ele>37.9</ele></trkpt><trkpt lat="-27.001362" lon="-48.620257"><ele>37.9</ele></trkpt><trkpt lat="-27.001362" lon="-48.620257"><ele>37.9</ele></trkpt><trkpt lat="-27.001362" lon="-48.620257"><ele>37.9</ele></trkpt><trkpt lat="-27.001362" lon="-48.620257"><ele>37.9</ele></trkpt><trkpt lat="-27.001362" lon="-48.620257"><ele>37.9</ele></trkpt><trkpt lat="-27.001362" lon="-48.620257"><ele>37.9</ele></trkpt><trkpt lat="-27.001362" lon="-48.620257"><ele>37.9</ele></trkpt><trkpt lat="-27.001362" lon="-48.620257"><ele>37.9</ele></trkpt><trkpt lat="-27.001362" lon="-48.620257"><ele>37.9</ele></trkpt><trkpt lat="-27.001362" lon="-48.620257"><ele>37.9</ele></trkpt><trkpt lat="-27.001362" lon="-48.620257"><ele>37.9</ele></trkpt><trkpt lat="-27.001362" lon="-48.620257"><ele>37.9</ele></trkpt><trkpt lat="-27.001362" lon="-48.620257"><ele>37.9</ele></trkpt><trkpt lat="-27.001362" lon="-48.620257"><ele>37.9</ele></trkpt><trkpt lat="-27.001362" lon="-48.620257"><ele>37.9</ele></trkpt><trkpt lat="-27.001362" lon="-48.620257"><ele>37.9</ele></trkpt><trkpt lat="-27.001362" lon="-48.620257"><ele>37.9</ele></trkpt><trkpt lat="-27.001362" lon="-48.620257"><ele>37.9</ele></trkpt><trkpt lat="-27.001362" lon="-48.620257"><ele>37.9</ele></trkpt><trkpt lat="-27.001362" lon="-48.620257"><ele>37.9</ele></trkpt><trkpt lat="-27.001362" lon="-48.620257"><ele>37.9</ele></trkpt><trkpt lat="-27.001362" lon="-48.620257"><ele>37.9</ele></trkpt><trkpt lat="-27.001362" lon="-48.620257"><ele>37.9</ele></trkpt><trkpt lat="-27.001362" lon="-48.620257"><ele>37.9</ele></trkpt><trkpt lat="-27.001362" lon="-48.620257"><ele>37.9</ele></trkpt><trkpt lat="-27.001362" lon="-48.620257"><ele>37.9</ele></trkpt><trkpt lat="-27.001362" lon="-48.620257"><ele>37.9</ele></trkpt><trkpt lat="-27.001362" lon="-48.620257"><ele>37.9</ele></trkpt><trkpt lat="-27.001362" lon="-48.620257"><ele>37.9</ele></trkpt><trkpt lat="-27.001362" lon="-48.620257"><ele>37.9</ele></trkpt><trkpt lat="-27.001362" lon="-48.620257"><ele>37.9</ele></trkpt><trkpt lat="-27.001362" lon="-48.620257"><ele>37.9</ele></trkpt><trkpt lat="-27.001362" lon="-48.620257"><ele>37.9</ele></trkpt><trkpt lat="-27.001362" lon="-48.620257"><ele>37.9</ele></trkpt><trkpt lat="-27.001362" lon="-48.620257"><ele>37.9</ele></trkpt><trkpt lat="-27.001362" lon="-48.620257"><ele>37.9</ele></trkpt><trkpt lat="-27.001362" lon="-48.620257"><ele>37.9</ele></trkpt><trkpt lat="-27.001362" lon="-48.620257"><ele>37.9</ele></trkpt><trkpt lat="-27.001362" lon="-48.620257"><ele>37.9</ele></trkpt><trkpt lat="-27.001362" lon="-48.620257"><ele>37.9</ele></trkpt><trkpt lat="-27.001362" lon="-48.620257"><ele>37.9</ele></trkpt><trkpt lat="-27.001362" lon="-48.620257"><ele>37.9</ele></trkpt><trkpt lat="-27.001362" lon="-48.620257"><ele>37.9</ele></trkpt><trkpt lat="-27.001362" lon="-48.620257"><ele>37.9</ele></trkpt><trkpt lat="-27.001362" lon="-48.620257"><ele>37.9</ele></trkpt><trkpt lat="-27.001362" lon="-48.620257"><ele>37.9</ele></trkpt><trkpt lat="-27.001362" lon="-48.620257"><ele>37.9</ele></trkpt><trkpt lat="-27.001362" lon="-48.620257"><ele>37.9</ele></trkpt><trkpt lat="-27.001362" lon="-48.620257"><ele>37.9</ele></trkpt><trkpt lat="-27.001362" lon="-48.620257"><ele>37.9</ele></trkpt><trkpt lat="-27.001362" lon="-48.620257"><ele>37.9</ele></trkpt><trkpt lat="-27.001362" lon="-48.620257"><ele>37.9</ele></trkpt><trkpt lat="-27.001422" lon="-48.620335"><ele>5.7</ele></trkpt><trkpt lat="-27.001422" lon="-48.620343"><ele>5.5</ele></trkpt><trkpt lat="-27.001422" lon="-48.620353"><ele>5.3</ele></trkpt><trkpt lat="-27.001423" lon="-48.620362"><ele>5.1</ele></trkpt><trkpt lat="-27.001423" lon="-48.620368"><ele>4.9</ele></trkpt><trkpt lat="-27.001423" lon="-48.62038"><ele>4.5</ele></trkpt><trkpt lat="-27.001423" lon="-48.62039"><ele>4.1</ele></trkpt><trkpt lat="-27.001425" lon="-48.620398"><ele>3.8</ele></trkpt><trkpt lat="-27.00143" lon="-48.620402"><ele>3.3</ele></trkpt><trkpt lat="-27.001433" lon="-48.620402"><ele>3.1</ele></trkpt><trkpt lat="-27.001438" lon="-48.620405"><ele>2.8</ele></trkpt><trkpt lat="-27.00144" lon="-48.620403"><ele>3</ele></trkpt><trkpt lat="-27.001437" lon="-48.620395"><ele>3.1</ele></trkpt><trkpt lat="-27.001437" lon="-48.620395"><ele>3.1</ele></trkpt><trkpt lat="-27.001435" lon="-48.620385"><ele>3</ele></trkpt><trkpt lat="-27.001435" lon="-48.620375"><ele>2.8</ele></trkpt><trkpt lat="-27.001437" lon="-48.620363"><ele>2.4</ele></trkpt><trkpt lat="-27.001432" lon="-48.620355"><ele>2.5</ele></trkpt><trkpt lat="-27.001428" lon="-48.620345"><ele>2.4</ele></trkpt><trkpt lat="-27.001423" lon="-48.620335"><ele>2.4</ele></trkpt><trkpt lat="-27.00142" lon="-48.620327"><ele>2.3</ele></trkpt><trkpt lat="-27.00142" lon="-48.620332"><ele>1.9</ele></trkpt><trkpt lat="-27.001422" lon="-48.620332"><ele>1.8</ele></trkpt><trkpt lat="-27.001422" lon="-48.620332"><ele>1.8</ele></trkpt><trkpt lat="-27.001423" lon="-48.620332"><ele>1.7</ele></trkpt><trkpt lat="-27.001425" lon="-48.620327"><ele>1.7</ele></trkpt><trkpt lat="-27.001427" lon="-48.620323"><ele>1.7</ele></trkpt><trkpt lat="-27.001427" lon="-48.620323"><ele>1.7</ele></trkpt><trkpt lat="-27.001427" lon="-48.620323"><ele>1.7</ele></trkpt><trkpt lat="-27.001427" lon="-48.620323"><ele>1.7</ele></trkpt><trkpt lat="-27.001427" lon="-48.620323"><ele>1.7</ele></trkpt><trkpt lat="-27.001427" lon="-48.620323"><ele>1.7</ele></trkpt><trkpt lat="-27.001427" lon="-48.620323"><ele>1.7</ele></trkpt><trkpt lat="-27.001427" lon="-48.620323"><ele>1.7</ele></trkpt><trkpt lat="-27.001427" lon="-48.620323"><ele>1.7</ele></trkpt><trkpt lat="-27.001427" lon="-48.620323"><ele>1.7</ele></trkpt><trkpt lat="-27.001427" lon="-48.620323"><ele>1.7</ele></trkpt><trkpt lat="-27.001427" lon="-48.620323"><ele>1.7</ele></trkpt><trkpt lat="-27.001427" lon="-48.620323"><ele>1.7</ele></trkpt><trkpt lat="-27.001427" lon="-48.620323"><ele>1.7</ele></trkpt><trkpt lat="-27.001427" lon="-48.620323"><ele>1.7</ele></trkpt><trkpt lat="-27.001427" lon="-48.620323"><ele>1.7</ele></trkpt><trkpt lat="-27.001427" lon="-48.620323"><ele>1.7</ele></trkpt><trkpt lat="-27.001427" lon="-48.620323"><ele>1.7</ele></trkpt><trkpt lat="-27.001427" lon="-48.620323"><ele>1.7</ele></trkpt><trkpt lat="-27.001427" lon="-48.620323"><ele>1.7</ele></trkpt><trkpt lat="-27.001427" lon="-48.620323"><ele>1.7</ele></trkpt><trkpt lat="-27.001427" lon="-48.620323"><ele>1.7</ele></trkpt><trkpt lat="-27.001427" lon="-48.620323"><ele>1.7</ele></trkpt><trkpt lat="-27.001427" lon="-48.620323"><ele>1.7</ele></trkpt><trkpt lat="-27.001427" lon="-48.620323"><ele>1.7</ele></trkpt><trkpt lat="-27.001427" lon="-48.620323"><ele>1.7</ele></trkpt><trkpt lat="-27.001427" lon="-48.620323"><ele>1.7</ele></trkpt><trkpt lat="-27.001427" lon="-48.620323"><ele>1.7</ele></trkpt><trkpt lat="-27.001427" lon="-48.620323"><ele>1.7</ele></trkpt><trkpt lat="-27.001447" lon="-48.620253"><ele>-0.2</ele></trkpt><trkpt lat="-27.001447" lon="-48.620253"><ele>-0.2</ele></trkpt><trkpt lat="-27.001445" lon="-48.620253"><ele>-0.2</ele></trkpt><trkpt lat="-27.001443" lon="-48.620253"><ele>-0.2</ele></trkpt><trkpt lat="-27.00144" lon="-48.62027"><ele>-0.2</ele></trkpt><trkpt lat="-27.001438" lon="-48.620297"><ele>-0.2</ele></trkpt><trkpt lat="-27.00144" lon="-48.620312"><ele>-0.2</ele></trkpt><trkpt lat="-27.001447" lon="-48.620317"><ele>-0.1</ele></trkpt><trkpt lat="-27.001442" lon="-48.620308"><ele>0.3</ele></trkpt><trkpt lat="-27.00144" lon="-48.620303"><ele>0.3</ele></trkpt><trkpt lat="-27.001437" lon="-48.620303"><ele>0.4</ele></trkpt><trkpt lat="-27.00144" lon="-48.620305"><ele>0.6</ele></trkpt><trkpt lat="-27.001437" lon="-48.620287"><ele>0.5</ele></trkpt><trkpt lat="-27.001437" lon="-48.620265"><ele>0.3</ele></trkpt><trkpt lat="-27.001415" lon="-48.620225"><ele>0.1</ele></trkpt><trkpt lat="-27.001415" lon="-48.620225"><ele>0.1</ele></trkpt><trkpt lat="-27.001413" lon="-48.62017"><ele>0.6</ele></trkpt><trkpt lat="-27.001423" lon="-48.620162"><ele>0.6</ele></trkpt><trkpt lat="-27.001425" lon="-48.620142"><ele>0.5</ele></trkpt><trkpt lat="-27.001423" lon="-48.62013"><ele>0.5</ele></trkpt><trkpt lat="-27.001407" lon="-48.620142"><ele>0.5</ele></trkpt><trkpt lat="-27.001383" lon="-48.620157"><ele>0.1</ele></trkpt><trkpt lat="-27.001382" lon="-48.620158"><ele>0.2</ele></trkpt><trkpt lat="-27.001333" lon="-48.620145"><ele>-0.3</ele></trkpt><trkpt lat="-27.001328" lon="-48.620155"><ele>-0.8</ele></trkpt><trkpt lat="-27.001308" lon="-48.620113"><ele>-0.6</ele></trkpt><trkpt lat="-27.001295" lon="-48.62013"><ele>-0.5</ele></trkpt><trkpt lat="-27.001305" lon="-48.62014"><ele>-0.8</ele></trkpt><trkpt lat="-27.001322" lon="-48.620155"><ele>-0.9</ele></trkpt><trkpt lat="-27.001343" lon="-48.620163"><ele>-1</ele></trkpt><trkpt lat="-27.001358" lon="-48.620178"><ele>-1</ele></trkpt><trkpt lat="-27.001375" lon="-48.620198"><ele>-1.2</ele></trkpt><trkpt lat="-27.001387" lon="-48.620215"><ele>-1.3</ele></trkpt><trkpt lat="-27.001402" lon="-48.620225"><ele>-1.3</ele></trkpt><trkpt lat="-27.001418" lon="-48.620237"><ele>-1</ele></trkpt><trkpt lat="-27.001437" lon="-48.620252"><ele>-1</ele></trkpt><trkpt lat="-27.001453" lon="-48.620265"><ele>-1</ele></trkpt><trkpt lat="-27.001473" lon="-48.62028"><ele>-0.9</ele></trkpt><trkpt lat="-27.00149" lon="-48.620292"><ele>-0.8</ele></trkpt><trkpt lat="-27.0015" lon="-48.620307"><ele>-0.2</ele></trkpt><trkpt lat="-27.001518" lon="-48.620317"><ele>-0.2</ele></trkpt><trkpt lat="-27.001537" lon="-48.620328"><ele>0</ele></trkpt><trkpt lat="-27.001552" lon="-48.620337"><ele>0</ele></trkpt><trkpt lat="-27.001567" lon="-48.620338"><ele>-0.1</ele></trkpt><trkpt lat="-27.001575" lon="-48.620342"><ele>-0.1</ele></trkpt><trkpt lat="-27.00158" lon="-48.620348"><ele>-0.2</ele></trkpt><trkpt lat="-27.001578" lon="-48.620348"><ele>-0.1</ele></trkpt><trkpt lat="-27.001578" lon="-48.620348"><ele>0</ele></trkpt><trkpt lat="-27.001577" lon="-48.620352"><ele>0</ele></trkpt><trkpt lat="-27.001568" lon="-48.62036"><ele>0.1</ele></trkpt><trkpt lat="-27.001565" lon="-48.620372"><ele>0.2</ele></trkpt><trkpt lat="-27.00156" lon="-48.620382"><ele>0.4</ele></trkpt><trkpt lat="-27.001557" lon="-48.620385"><ele>0.5</ele></trkpt><trkpt lat="-27.001553" lon="-48.620387"><ele>0.6</ele></trkpt><trkpt lat="-27.001553" lon="-48.620387"><ele>0.6</ele></trkpt><trkpt lat="-27.001553" lon="-48.620388"><ele>0.6</ele></trkpt><trkpt lat="-27.001557" lon="-48.620387"><ele>0.8</ele></trkpt><trkpt lat="-27.001558" lon="-48.620382"><ele>1</ele></trkpt><trkpt lat="-27.001563" lon="-48.620382"><ele>1</ele></trkpt><trkpt lat="-27.001575" lon="-48.620382"><ele>1.1</ele></trkpt><trkpt lat="-27.00159" lon="-48.620392"><ele>0.9</ele></trkpt><trkpt lat="-27.00161" lon="-48.620403"><ele>0.8</ele></trkpt><trkpt lat="-27.001625" lon="-48.620413"><ele>0.6</ele></trkpt><trkpt lat="-27.001638" lon="-48.620423"><ele>0.4</ele></trkpt><trkpt lat="-27.001643" lon="-48.62043"><ele>0.6</ele></trkpt><trkpt lat="-27.00165" lon="-48.620437"><ele>0.8</ele></trkpt><trkpt lat="-27.001662" lon="-48.620442"><ele>1</ele></trkpt><trkpt lat="-27.001662" lon="-48.620442"><ele>0.9</ele></trkpt><trkpt lat="-27.00166" lon="-48.620442"><ele>0.6</ele></trkpt><trkpt lat="-27.001662" lon="-48.620445"><ele>0.8</ele></trkpt><trkpt lat="-27.001662" lon="-48.620448"><ele>0.6</ele></trkpt><trkpt lat="-27.001663" lon="-48.620445"><ele>0.3</ele></trkpt><trkpt lat="-27.001643" lon="-48.62045"><ele>0.6</ele></trkpt><trkpt lat="-27.001628" lon="-48.620455"><ele>0.8</ele></trkpt><trkpt lat="-27.001628" lon="-48.620455"><ele>0.8</ele></trkpt><trkpt lat="-27.001617" lon="-48.620453"><ele>0.8</ele></trkpt><trkpt lat="-27.0016" lon="-48.620457"><ele>1.1</ele></trkpt><trkpt lat="-27.001587" lon="-48.620455"><ele>1.3</ele></trkpt><trkpt lat="-27.001583" lon="-48.620455"><ele>1.5</ele></trkpt><trkpt lat="-27.001582" lon="-48.620465"><ele>1.8</ele></trkpt><trkpt lat="-27.001578" lon="-48.620468"><ele>1.9</ele></trkpt><trkpt lat="-27.001585" lon="-48.620477"><ele>2</ele></trkpt><trkpt lat="-27.001585" lon="-48.620468"><ele>2.5</ele></trkpt><trkpt lat="-27.001585" lon="-48.620468"><ele>2.5</ele></trkpt><trkpt lat="-27.001585" lon="-48.62046"><ele>2.8</ele></trkpt><trkpt lat="-27.001587" lon="-48.620455"><ele>2.5</ele></trkpt><trkpt lat="-27.001582" lon="-48.620443"><ele>2.4</ele></trkpt><trkpt lat="-27.001582" lon="-48.62044"><ele>2.5</ele></trkpt><trkpt lat="-27.001577" lon="-48.620428"><ele>2.6</ele></trkpt><trkpt lat="-27.001575" lon="-48.620418"><ele>3</ele></trkpt><trkpt lat="-27.001577" lon="-48.62041"><ele>3.2</ele></trkpt><trkpt lat="-27.001585" lon="-48.62041"><ele>3.6</ele></trkpt><trkpt lat="-27.001595" lon="-48.620417"><ele>3.6</ele></trkpt><trkpt lat="-27.001595" lon="-48.620417"><ele>3.6</ele></trkpt><trkpt lat="-27.001595" lon="-48.620417"><ele>3.6</ele></trkpt><trkpt lat="-27.00161" lon="-48.620433"><ele>4.1</ele></trkpt><trkpt lat="-27.001625" lon="-48.620447"><ele>4.1</ele></trkpt><trkpt lat="-27.001638" lon="-48.620458"><ele>4.2</ele></trkpt><trkpt lat="-27.00165" lon="-48.620473"><ele>4.2</ele></trkpt><trkpt lat="-27.001655" lon="-48.62048"><ele>4.1</ele></trkpt><trkpt lat="-27.001655" lon="-48.620485"><ele>4.4</ele></trkpt><trkpt lat="-27.001662" lon="-48.620497"><ele>4.4</ele></trkpt><trkpt lat="-27.00166" lon="-48.620503"><ele>4.6</ele></trkpt><trkpt lat="-27.001653" lon="-48.620507"><ele>4.8</ele></trkpt><trkpt lat="-27.001653" lon="-48.620507"><ele>4.8</ele></trkpt><trkpt lat="-27.001645" lon="-48.620503"><ele>5</ele></trkpt><trkpt lat="-27.001633" lon="-48.620495"><ele>5.5</ele></trkpt><trkpt lat="-27.001625" lon="-48.620493"><ele>6</ele></trkpt><trkpt lat="-27.001613" lon="-48.620487"><ele>6.4</ele></trkpt><trkpt lat="-27.001613" lon="-48.620492"><ele>6.8</ele></trkpt><trkpt lat="-27.001613" lon="-48.620502"><ele>6.9</ele></trkpt><trkpt lat="-27.001607" lon="-48.620498"><ele>6.9</ele></trkpt><trkpt lat="-27.0016" lon="-48.620495"><ele>6.5</ele></trkpt><trkpt lat="-27.001592" lon="-48.620493"><ele>6.4</ele></trkpt><trkpt lat="-27.001582" lon="-48.62049"><ele>6.2</ele></trkpt><trkpt lat="-27.001565" lon="-48.620483"><ele>6.3</ele></trkpt><trkpt lat="-27.001555" lon="-48.620477"><ele>6.6</ele></trkpt><trkpt lat="-27.00155" lon="-48.620468"><ele>6.7</ele></trkpt><trkpt lat="-27.001548" lon="-48.620463"><ele>6.8</ele></trkpt><trkpt lat="-27.001552" lon="-48.620457"><ele>7</ele></trkpt><trkpt lat="-27.001558" lon="-48.620448"><ele>6.8</ele></trkpt><trkpt lat="-27.001565" lon="-48.620447"><ele>7.1</ele></trkpt><trkpt lat="-27.001573" lon="-48.620452"><ele>7.5</ele></trkpt><trkpt lat="-27.001583" lon="-48.620458"><ele>7.7</ele></trkpt><trkpt lat="-27.0016" lon="-48.620467"><ele>7.7</ele></trkpt><trkpt lat="-27.001613" lon="-48.620472"><ele>7.8</ele></trkpt><trkpt lat="-27.001627" lon="-48.620478"><ele>7.8</ele></trkpt><trkpt lat="-27.001643" lon="-48.620487"><ele>7.8</ele></trkpt><trkpt lat="-27.001663" lon="-48.620492"><ele>7.9</ele></trkpt><trkpt lat="-27.001685" lon="-48.620495"><ele>8.1</ele></trkpt><trkpt lat="-27.0017" lon="-48.620498"><ele>8.2</ele></trkpt><trkpt lat="-27.001713" lon="-48.6205"><ele>8.1</ele></trkpt><trkpt lat="-27.001728" lon="-48.620502"><ele>8.3</ele></trkpt><trkpt lat="-27.001745" lon="-48.620505"><ele>8.4</ele></trkpt><trkpt lat="-27.00176" lon="-48.620508"><ele>8.2</ele></trkpt><trkpt lat="-27.001773" lon="-48.620508"><ele>8.2</ele></trkpt><trkpt lat="-27.001788" lon="-48.620512"><ele>8.4</ele></trkpt><trkpt lat="-27.0018" lon="-48.62052"><ele>8.9</ele></trkpt><trkpt lat="-27.00181" lon="-48.620528"><ele>9.3</ele></trkpt><trkpt lat="-27.001822" lon="-48.620537"><ele>9.6</ele></trkpt><trkpt lat="-27.001835" lon="-48.620545"><ele>10</ele></trkpt><trkpt lat="-27.001847" lon="-48.620548"><ele>10.4</ele></trkpt><trkpt lat="-27.001857" lon="-48.620552"><ele>10.8</ele></trkpt><trkpt lat="-27.00187" lon="-48.620557"><ele>11.1</ele></trkpt><trkpt lat="-27.00188" lon="-48.620568"><ele>11.1</ele></trkpt><trkpt lat="-27.001893" lon="-48.620578"><ele>11.2</ele></trkpt><trkpt lat="-27.001902" lon="-48.620595"><ele>11.4</ele></trkpt><trkpt lat="-27.001913" lon="-48.620612"><ele>11.8</ele></trkpt><trkpt lat="-27.001925" lon="-48.620627"><ele>12.4</ele></trkpt><trkpt lat="-27.001932" lon="-48.62064"><ele>12.6</ele></trkpt><trkpt lat="-27.001928" lon="-48.62065"><ele>13.6</ele></trkpt><trkpt lat="-27.00193" lon="-48.620677"><ele>14.1</ele></trkpt><trkpt lat="-27.001928" lon="-48.620698"><ele>14.6</ele></trkpt><trkpt lat="-27.00193" lon="-48.62072"><ele>14.6</ele></trkpt><trkpt lat="-27.00193" lon="-48.62073"><ele>14.5</ele></trkpt><trkpt lat="-27.00193" lon="-48.620742"><ele>14.3</ele></trkpt><trkpt lat="-27.001927" lon="-48.620748"><ele>14.2</ele></trkpt><trkpt lat="-27.00192" lon="-48.620748"><ele>14.3</ele></trkpt><trkpt lat="-27.001917" lon="-48.620748"><ele>14.4</ele></trkpt><trkpt lat="-27.001918" lon="-48.620738"><ele>14.4</ele></trkpt><trkpt lat="-27.001918" lon="-48.620728"><ele>14.7</ele></trkpt><trkpt lat="-27.001918" lon="-48.620722"><ele>14.9</ele></trkpt><trkpt lat="-27.001918" lon="-48.620718"><ele>15.3</ele></trkpt><trkpt lat="-27.001917" lon="-48.620712"><ele>15.5</ele></trkpt><trkpt lat="-27.001917" lon="-48.620703"><ele>15.9</ele></trkpt><trkpt lat="-27.001915" lon="-48.620693"><ele>16.2</ele></trkpt><trkpt lat="-27.001918" lon="-48.620682"><ele>16.5</ele></trkpt><trkpt lat="-27.00192" lon="-48.620677"><ele>16.6</ele></trkpt><trkpt lat="-27.00192" lon="-48.620675"><ele>16.8</ele></trkpt><trkpt lat="-27.001918" lon="-48.620682"><ele>17.2</ele></trkpt><trkpt lat="-27.00192" lon="-48.620688"><ele>17.2</ele></trkpt><trkpt lat="-27.00192" lon="-48.620695"><ele>17.3</ele></trkpt><trkpt lat="-27.001923" lon="-48.620703"><ele>17.3</ele></trkpt><trkpt lat="-27.001927" lon="-48.620707"><ele>17.5</ele></trkpt><trkpt lat="-27.001932" lon="-48.620713"><ele>17.3</ele></trkpt><trkpt lat="-27.001933" lon="-48.620718"><ele>17.3</ele></trkpt><trkpt lat="-27.001937" lon="-48.620727"><ele>17.3</ele></trkpt><trkpt lat="-27.001938" lon="-48.620732"><ele>17.4</ele></trkpt><trkpt lat="-27.001945" lon="-48.620738"><ele>17.5</ele></trkpt><trkpt lat="-27.001948" lon="-48.620745"><ele>17.5</ele></trkpt><trkpt lat="-27.001953" lon="-48.620752"><ele>17.9</ele></trkpt><trkpt lat="-27.00196" lon="-48.620755"><ele>17.9</ele></trkpt><trkpt lat="-27.001962" lon="-48.620755"><ele>18</ele></trkpt><trkpt lat="-27.001967" lon="-48.620763"><ele>17.5</ele></trkpt><trkpt lat="-27.001968" lon="-48.620763"><ele>17.1</ele></trkpt><trkpt lat="-27.001973" lon="-48.620762"><ele>16.9</ele></trkpt><trkpt lat="-27.001977" lon="-48.620772"><ele>16.9</ele></trkpt><trkpt lat="-27.001978" lon="-48.620782"><ele>16.8</ele></trkpt><trkpt lat="-27.001988" lon="-48.620792"><ele>16.8</ele></trkpt><trkpt lat="-27.001995" lon="-48.6208"><ele>16.8</ele></trkpt><trkpt lat="-27.001998" lon="-48.620802"><ele>16.6</ele></trkpt><trkpt lat="-27.002005" lon="-48.620802"><ele>16.6</ele></trkpt><trkpt lat="-27.00201" lon="-48.620802"><ele>16.6</ele></trkpt><trkpt lat="-27.00202" lon="-48.620807"><ele>16.8</ele></trkpt><trkpt lat="-27.002022" lon="-48.620803"><ele>16.8</ele></trkpt><trkpt lat="-27.002022" lon="-48.620793"><ele>16.7</ele></trkpt><trkpt lat="-27.00202" lon="-48.620773"><ele>16.6</ele></trkpt><trkpt lat="-27.002008" lon="-48.620753"><ele>16.4</ele></trkpt><trkpt lat="-27.002007" lon="-48.620742"><ele>16.3</ele></trkpt><trkpt lat="-27.001995" lon="-48.620737"><ele>16.2</ele></trkpt><trkpt lat="-27.001983" lon="-48.620737"><ele>16.1</ele></trkpt><trkpt lat="-27.001973" lon="-48.620737"><ele>16.1</ele></trkpt><trkpt lat="-27.001962" lon="-48.620737"><ele>16.3</ele></trkpt><trkpt lat="-27.001952" lon="-48.620737"><ele>16.5</ele></trkpt><trkpt lat="-27.001952" lon="-48.620737"><ele>16.5</ele></trkpt><trkpt lat="-27.001952" lon="-48.620737"><ele>16.5</ele></trkpt><trkpt lat="-27.001938" lon="-48.620732"><ele>16</ele></trkpt><trkpt lat="-27.001928" lon="-48.620725"><ele>15.5</ele></trkpt><trkpt lat="-27.001923" lon="-48.620717"><ele>15.2</ele></trkpt><trkpt lat="-27.001918" lon="-48.620715"><ele>14.7</ele></trkpt><trkpt lat="-27.001917" lon="-48.620727"><ele>15.3</ele></trkpt><trkpt lat="-27.00192" lon="-48.620722"><ele>15.5</ele></trkpt><trkpt lat="-27.001922" lon="-48.620725"><ele>15.3</ele></trkpt><trkpt lat="-27.001923" lon="-48.620725"><ele>15.4</ele></trkpt><trkpt lat="-27.001923" lon="-48.62073"><ele>15.6</ele></trkpt><trkpt lat="-27.001922" lon="-48.620733"><ele>15.3</ele></trkpt><trkpt lat="-27.001918" lon="-48.620743"><ele>15.4</ele></trkpt><trkpt lat="-27.00192" lon="-48.620748"><ele>15.4</ele></trkpt><trkpt lat="-27.00192" lon="-48.620755"><ele>15.4</ele></trkpt><trkpt lat="-27.001918" lon="-48.620743"><ele>15.1</ele></trkpt><trkpt lat="-27.001908" lon="-48.620743"><ele>15.2</ele></trkpt><trkpt lat="-27.00191" lon="-48.620733"><ele>15.3</ele></trkpt><trkpt lat="-27.001907" lon="-48.620723"><ele>15.6</ele></trkpt><trkpt lat="-27.001902" lon="-48.620718"><ele>15.9</ele></trkpt><trkpt lat="-27.0019" lon="-48.620697"><ele>15.7</ele></trkpt><trkpt lat="-27.001902" lon="-48.620668"><ele>16.2</ele></trkpt><trkpt lat="-27.001903" lon="-48.620637"><ele>16.5</ele></trkpt><trkpt lat="-27.0019" lon="-48.620635"><ele>17.1</ele></trkpt><trkpt lat="-27.001898" lon="-48.62063"><ele>18.1</ele></trkpt><trkpt lat="-27.001897" lon="-48.62063"><ele>18.1</ele></trkpt><trkpt lat="-27.001898" lon="-48.620632"><ele>18</ele></trkpt><trkpt lat="-27.001898" lon="-48.620643"><ele>18</ele></trkpt><trkpt lat="-27.0019" lon="-48.62065"><ele>18.2</ele></trkpt><trkpt lat="-27.001908" lon="-48.620648"><ele>18.2</ele></trkpt><trkpt lat="-27.001908" lon="-48.620637"><ele>18.1</ele></trkpt><trkpt lat="-27.001905" lon="-48.620637"><ele>18.1</ele></trkpt><trkpt lat="-27.001907" lon="-48.620602"><ele>18.2</ele></trkpt><trkpt lat="-27.001902" lon="-48.62062"><ele>18.2</ele></trkpt><trkpt lat="-27.001908" lon="-48.620625"><ele>18.2</ele></trkpt><trkpt lat="-27.001915" lon="-48.620642"><ele>17.9</ele></trkpt><trkpt lat="-27.001923" lon="-48.620657"><ele>17.5</ele></trkpt><trkpt lat="-27.001927" lon="-48.620663"><ele>17.3</ele></trkpt><trkpt lat="-27.001927" lon="-48.620665"><ele>17.2</ele></trkpt><trkpt lat="-27.00192" lon="-48.620677"><ele>17</ele></trkpt><trkpt lat="-27.001917" lon="-48.620683"><ele>16.7</ele></trkpt><trkpt lat="-27.001922" lon="-48.620673"><ele>16.7</ele></trkpt><trkpt lat="-27.001925" lon="-48.62067"><ele>16.7</ele></trkpt><trkpt lat="-27.001925" lon="-48.62066"><ele>16.7</ele></trkpt><trkpt lat="-27.00192" lon="-48.620655"><ele>16.8</ele></trkpt><trkpt lat="-27.00193" lon="-48.620657"><ele>16.4</ele></trkpt><trkpt lat="-27.001943" lon="-48.62063"><ele>16.2</ele></trkpt><trkpt lat="-27.001953" lon="-48.620613"><ele>16.1</ele></trkpt><trkpt lat="-27.001962" lon="-48.620635"><ele>17.6</ele></trkpt><trkpt lat="-27.002002" lon="-48.62058"><ele>16.5</ele></trkpt><trkpt lat="-27.00202" lon="-48.620565"><ele>16.4</ele></trkpt><trkpt lat="-27.002058" lon="-48.620507"><ele>13.7</ele></trkpt><trkpt lat="-27.00206" lon="-48.620507"><ele>13.6</ele></trkpt><trkpt lat="-27.002065" lon="-48.620502"><ele>13.5</ele></trkpt><trkpt lat="-27.002067" lon="-48.620503"><ele>13.5</ele></trkpt><trkpt lat="-27.002047" lon="-48.620525"><ele>13.2</ele></trkpt><trkpt lat="-27.002033" lon="-48.620538"><ele>12.9</ele></trkpt><trkpt lat="-27.002018" lon="-48.62056"><ele>12.7</ele></trkpt><trkpt lat="-27.002012" lon="-48.620575"><ele>12.6</ele></trkpt><trkpt lat="-27.002005" lon="-48.620585"><ele>12.3</ele></trkpt><trkpt lat="-27.001998" lon="-48.620588"><ele>12.3</ele></trkpt><trkpt lat="-27.001997" lon="-48.620592"><ele>12.3</ele></trkpt><trkpt lat="-27.001997" lon="-48.620597"><ele>12.3</ele></trkpt><trkpt lat="-27.001987" lon="-48.620612"><ele>11.9</ele></trkpt><trkpt lat="-27.001987" lon="-48.620612"><ele>11.9</ele></trkpt><trkpt lat="-27.001987" lon="-48.620612"><ele>11.9</ele></trkpt><trkpt lat="-27.001987" lon="-48.620612"><ele>11.9</ele></trkpt><trkpt lat="-27.001987" lon="-48.620612"><ele>11.9</ele></trkpt><trkpt lat="-27.001987" lon="-48.620612"><ele>11.9</ele></trkpt><trkpt lat="-27.001987" lon="-48.620612"><ele>11.9</ele></trkpt><trkpt lat="-27.001987" lon="-48.620612"><ele>11.9</ele></trkpt><trkpt lat="-27.001987" lon="-48.620612"><ele>11.9</ele></trkpt><trkpt lat="-27.001987" lon="-48.620612"><ele>11.9</ele></trkpt><trkpt lat="-27.001987" lon="-48.620612"><ele>11.9</ele></trkpt><trkpt lat="-27.001987" lon="-48.620612"><ele>11.9</ele></trkpt><trkpt lat="-27.001987" lon="-48.620612"><ele>11.9</ele></trkpt><trkpt lat="-27.001987" lon="-48.620612"><ele>11.9</ele></trkpt><trkpt lat="-27.001943" lon="-48.620667"><ele>11</ele></trkpt><trkpt lat="-27.001953" lon="-48.62065"><ele>7.9</ele></trkpt><trkpt lat="-27.001957" lon="-48.620643"><ele>7.7</ele></trkpt><trkpt lat="-27.001955" lon="-48.620647"><ele>7.5</ele></trkpt><trkpt lat="-27.001955" lon="-48.620652"><ele>7.5</ele></trkpt><trkpt lat="-27.001947" lon="-48.62066"><ele>7.4</ele></trkpt><trkpt lat="-27.00194" lon="-48.620667"><ele>7.4</ele></trkpt><trkpt lat="-27.001937" lon="-48.620667"><ele>7.3</ele></trkpt><trkpt lat="-27.00194" lon="-48.62066"><ele>7.3</ele></trkpt><trkpt lat="-27.00194" lon="-48.62067"><ele>7.3</ele></trkpt><trkpt lat="-27.001942" lon="-48.620677"><ele>7.3</ele></trkpt><trkpt lat="-27.001945" lon="-48.620682"><ele>7.3</ele></trkpt><trkpt lat="-27.001945" lon="-48.620698"><ele>7.3</ele></trkpt><trkpt lat="-27.001945" lon="-48.620703"><ele>7.3</ele></trkpt><trkpt lat="-27.00194" lon="-48.620705"><ele>7.8</ele></trkpt><trkpt lat="-27.001942" lon="-48.620707"><ele>8.1</ele></trkpt><trkpt lat="-27.001942" lon="-48.620707"><ele>7.8</ele></trkpt><trkpt lat="-27.001945" lon="-48.620707"><ele>7.5</ele></trkpt><trkpt lat="-27.001943" lon="-48.620705"><ele>7.7</ele></trkpt><trkpt lat="-27.001947" lon="-48.620708"><ele>7.6</ele></trkpt><trkpt lat="-27.00195" lon="-48.620708"><ele>7.5</ele></trkpt><trkpt lat="-27.001955" lon="-48.62071"><ele>8.2</ele></trkpt><trkpt lat="-27.001958" lon="-48.62072"><ele>8.4</ele></trkpt><trkpt lat="-27.001962" lon="-48.620747"><ele>8.4</ele></trkpt><trkpt lat="-27.001965" lon="-48.620768"><ele>8.4</ele></trkpt><trkpt lat="-27.001975" lon="-48.62079"><ele>8.9</ele></trkpt><trkpt lat="-27.00198" lon="-48.620798"><ele>8.9</ele></trkpt><trkpt lat="-27.00198" lon="-48.620813"><ele>9.2</ele></trkpt><trkpt lat="-27.001985" lon="-48.62082"><ele>9.1</ele></trkpt><trkpt lat="-27.001987" lon="-48.62083"><ele>9.1</ele></trkpt><trkpt lat="-27.001975" lon="-48.620863"><ele>8.9</ele></trkpt><trkpt lat="-27.001973" lon="-48.620877"><ele>8.9</ele></trkpt><trkpt lat="-27.00198" lon="-48.620872"><ele>8.8</ele></trkpt><trkpt lat="-27.001988" lon="-48.620847"><ele>8.8</ele></trkpt><trkpt lat="-27.001988" lon="-48.620888"><ele>8.8</ele></trkpt><trkpt lat="-27.001983" lon="-48.620882"><ele>8.7</ele></trkpt><trkpt lat="-27.002" lon="-48.6208"><ele>8.7</ele></trkpt><trkpt lat="-27.002012" lon="-48.62076"><ele>8.6</ele></trkpt><trkpt lat="-27.002018" lon="-48.620707"><ele>8.4</ele></trkpt><trkpt lat="-27.002025" lon="-48.620698"><ele>8.1</ele></trkpt><trkpt lat="-27.002038" lon="-48.62068"><ele>8</ele></trkpt><trkpt lat="-27.00205" lon="-48.620658"><ele>8</ele></trkpt><trkpt lat="-27.002058" lon="-48.620638"><ele>8</ele></trkpt><trkpt lat="-27.002057" lon="-48.620635"><ele>7.8</ele></trkpt><trkpt lat="-27.002043" lon="-48.620645"><ele>7.5</ele></trkpt><trkpt lat="-27.002037" lon="-48.620653"><ele>7.4</ele></trkpt><trkpt lat="-27.002013" lon="-48.620695"><ele>7.2</ele></trkpt><trkpt lat="-27.002002" lon="-48.620697"><ele>7.3</ele></trkpt><trkpt lat="-27.001995" lon="-48.620725"><ele>7.4</ele></trkpt><trkpt lat="-27.001992" lon="-48.620733"><ele>7.7</ele></trkpt><trkpt lat="-27.001987" lon="-48.620738"><ele>8.2</ele></trkpt><trkpt lat="-27.001983" lon="-48.620755"><ele>8.4</ele></trkpt><trkpt lat="-27.001983" lon="-48.620755"><ele>8.4</ele></trkpt><trkpt lat="-27.001975" lon="-48.620768"><ele>8.6</ele></trkpt><trkpt lat="-27.001975" lon="-48.620768"><ele>8.6</ele></trkpt><trkpt lat="-27.001972" lon="-48.620762"><ele>8.5</ele></trkpt><trkpt lat="-27.001965" lon="-48.620757"><ele>8.4</ele></trkpt><trkpt lat="-27.001955" lon="-48.620767"><ele>8.6</ele></trkpt><trkpt lat="-27.001955" lon="-48.620773"><ele>8.9</ele></trkpt><trkpt lat="-27.001953" lon="-48.620768"><ele>9.3</ele></trkpt><trkpt lat="-27.001953" lon="-48.62076"><ele>9.7</ele></trkpt><trkpt lat="-27.001957" lon="-48.620755"><ele>10.6</ele></trkpt><trkpt lat="-27.001958" lon="-48.620753"><ele>11</ele></trkpt><trkpt lat="-27.001955" lon="-48.620762"><ele>11.6</ele></trkpt><trkpt lat="-27.001958" lon="-48.620758"><ele>11.9</ele></trkpt><trkpt lat="-27.001953" lon="-48.62076"><ele>12.1</ele></trkpt><trkpt lat="-27.00195" lon="-48.620762"><ele>12.3</ele></trkpt><trkpt lat="-27.00195" lon="-48.62076"><ele>12.5</ele></trkpt><trkpt lat="-27.00195" lon="-48.620758"><ele>12.7</ele></trkpt><trkpt lat="-27.00195" lon="-48.620758"><ele>12.9</ele></trkpt><trkpt lat="-27.001947" lon="-48.620743"><ele>13</ele></trkpt><trkpt lat="-27.001945" lon="-48.62073"><ele>13.1</ele></trkpt><trkpt lat="-27.001943" lon="-48.620738"><ele>13.2</ele></trkpt><trkpt lat="-27.001943" lon="-48.620742"><ele>13.5</ele></trkpt><trkpt lat="-27.001945" lon="-48.62074"><ele>13.7</ele></trkpt><trkpt lat="-27.001945" lon="-48.620742"><ele>13.7</ele></trkpt><trkpt lat="-27.001947" lon="-48.620743"><ele>13.8</ele></trkpt><trkpt lat="-27.001943" lon="-48.620753"><ele>14.1</ele></trkpt><trkpt lat="-27.001938" lon="-48.620763"><ele>14.6</ele></trkpt><trkpt lat="-27.001937" lon="-48.620768"><ele>15</ele></trkpt><trkpt lat="-27.001935" lon="-48.62077"><ele>15.6</ele></trkpt><trkpt lat="-27.001935" lon="-48.620775"><ele>16.2</ele></trkpt><trkpt lat="-27.001937" lon="-48.620772"><ele>16.6</ele></trkpt><trkpt lat="-27.001942" lon="-48.620772"><ele>17</ele></trkpt><trkpt lat="-27.001943" lon="-48.620777"><ele>17.3</ele></trkpt><trkpt lat="-27.001945" lon="-48.62078"><ele>17.5</ele></trkpt><trkpt lat="-27.001943" lon="-48.620785"><ele>17.7</ele></trkpt><trkpt lat="-27.001943" lon="-48.620792"><ele>18</ele></trkpt><trkpt lat="-27.00194" lon="-48.620797"><ele>18.7</ele></trkpt><trkpt lat="-27.00194" lon="-48.620798"><ele>19.5</ele></trkpt><trkpt lat="-27.001938" lon="-48.62079"><ele>20.2</ele></trkpt><trkpt lat="-27.001937" lon="-48.620785"><ele>20.3</ele></trkpt><trkpt lat="-27.001935" lon="-48.620783"><ele>20.7</ele></trkpt><trkpt lat="-27.001933" lon="-48.620782"><ele>21.2</ele></trkpt><trkpt lat="-27.001935" lon="-48.620785"><ele>21.1</ele></trkpt><trkpt lat="-27.001935" lon="-48.620787"><ele>21.2</ele></trkpt><trkpt lat="-27.001933" lon="-48.620782"><ele>21.8</ele></trkpt><trkpt lat="-27.001932" lon="-48.620777"><ele>22</ele></trkpt><trkpt lat="-27.001935" lon="-48.620748"><ele>21.9</ele></trkpt><trkpt lat="-27.001933" lon="-48.620745"><ele>22.2</ele></trkpt><trkpt lat="-27.001933" lon="-48.620742"><ele>22.3</ele></trkpt><trkpt lat="-27.001933" lon="-48.620742"><ele>22.3</ele></trkpt><trkpt lat="-27.001933" lon="-48.620742"><ele>22.3</ele></trkpt><trkpt lat="-27.001933" lon="-48.620742"><ele>22.3</ele></trkpt><trkpt lat="-27.001933" lon="-48.620742"><ele>22.3</ele></trkpt><trkpt lat="-27.001933" lon="-48.620742"><ele>22.3</ele></trkpt><trkpt lat="-27.001933" lon="-48.620742"><ele>22.3</ele></trkpt><trkpt lat="-27.001935" lon="-48.620708"><ele>22.5</ele></trkpt><trkpt lat="-27.001942" lon="-48.620683"><ele>22.4</ele></trkpt><trkpt lat="-27.001943" lon="-48.620672"><ele>22.3</ele></trkpt><trkpt lat="-27.001942" lon="-48.620675"><ele>22.3</ele></trkpt><trkpt lat="-27.001943" lon="-48.620672"><ele>22.2</ele></trkpt><trkpt lat="-27.001942" lon="-48.620678"><ele>21.8</ele></trkpt><trkpt lat="-27.001943" lon="-48.620677"><ele>21.6</ele></trkpt><trkpt lat="-27.001942" lon="-48.620678"><ele>21.4</ele></trkpt><trkpt lat="-27.001943" lon="-48.620677"><ele>21.3</ele></trkpt><trkpt lat="-27.001945" lon="-48.620677"><ele>21.4</ele></trkpt><trkpt lat="-27.001955" lon="-48.620663"><ele>21.3</ele></trkpt><trkpt lat="-27.00196" lon="-48.620657"><ele>21.3</ele></trkpt><trkpt lat="-27.001963" lon="-48.620653"><ele>21.2</ele></trkpt><trkpt lat="-27.001963" lon="-48.620653"><ele>21.2</ele></trkpt><trkpt lat="-27.001963" lon="-48.620653"><ele>21.2</ele></trkpt><trkpt lat="-27.001963" lon="-48.620653"><ele>21.2</ele></trkpt><trkpt lat="-27.001963" lon="-48.620653"><ele>21.2</ele></trkpt><trkpt lat="-27.001978" lon="-48.620638"><ele>21.1</ele></trkpt><trkpt lat="-27.001967" lon="-48.620657"><ele>21</ele></trkpt><trkpt lat="-27.001965" lon="-48.620653"><ele>20.9</ele></trkpt><trkpt lat="-27.001965" lon="-48.62064"><ele>20.9</ele></trkpt><trkpt lat="-27.001968" lon="-48.620627"><ele>20.9</ele></trkpt><trkpt lat="-27.001968" lon="-48.620645"><ele>20.2</ele></trkpt><trkpt lat="-27.001972" lon="-48.620647"><ele>20.2</ele></trkpt><trkpt lat="-27.001977" lon="-48.62064"><ele>20.2</ele></trkpt><trkpt lat="-27.00198" lon="-48.620628"><ele>20.7</ele></trkpt><trkpt lat="-27.001978" lon="-48.620617"><ele>20.8</ele></trkpt><trkpt lat="-27.001975" lon="-48.620622"><ele>20</ele></trkpt><trkpt lat="-27.001978" lon="-48.620615"><ele>20.2</ele></trkpt><trkpt lat="-27.001967" lon="-48.620632"><ele>19.7</ele></trkpt><trkpt lat="-27.001968" lon="-48.620645"><ele>19</ele></trkpt><trkpt lat="-27.00197" lon="-48.62066"><ele>18.7</ele></trkpt><trkpt lat="-27.001967" lon="-48.620665"><ele>19.1</ele></trkpt><trkpt lat="-27.001963" lon="-48.620677"><ele>18.9</ele></trkpt><trkpt lat="-27.001958" lon="-48.620677"><ele>18.8</ele></trkpt><trkpt lat="-27.001962" lon="-48.620673"><ele>18.9</ele></trkpt><trkpt lat="-27.001958" lon="-48.62068"><ele>19.2</ele></trkpt><trkpt lat="-27.001945" lon="-48.620693"><ele>19.4</ele></trkpt><trkpt lat="-27.001945" lon="-48.620697"><ele>19.6</ele></trkpt><trkpt lat="-27.001943" lon="-48.620698"><ele>19.6</ele></trkpt><trkpt lat="-27.001945" lon="-48.620698"><ele>19.8</ele></trkpt><trkpt lat="-27.00195" lon="-48.620698"><ele>20.2</ele></trkpt><trkpt lat="-27.00195" lon="-48.620698"><ele>20.3</ele></trkpt><trkpt lat="-27.00195" lon="-48.6207"><ele>20.3</ele></trkpt><trkpt lat="-27.00195" lon="-48.6207"><ele>20.3</ele></trkpt><trkpt lat="-27.00195" lon="-48.6207"><ele>20.3</ele></trkpt><trkpt lat="-27.00195" lon="-48.6207"><ele>20.3</ele></trkpt><trkpt lat="-27.00195" lon="-48.6207"><ele>20.3</ele></trkpt><trkpt lat="-27.00195" lon="-48.6207"><ele>20.3</ele></trkpt><trkpt lat="-27.00195" lon="-48.6207"><ele>20.3</ele></trkpt><trkpt lat="-27.00195" lon="-48.6207"><ele>20.3</ele></trkpt><trkpt lat="-27.00195" lon="-48.6207"><ele>20.3</ele></trkpt><trkpt lat="-27.00195" lon="-48.6207"><ele>20.3</ele></trkpt><trkpt lat="-27.00195" lon="-48.6207"><ele>20.3</ele></trkpt><trkpt lat="-27.00195" lon="-48.6207"><ele>20.3</ele></trkpt><trkpt lat="-27.00195" lon="-48.6207"><ele>20.3</ele></trkpt><trkpt lat="-27.00195" lon="-48.6207"><ele>20.3</ele></trkpt><trkpt lat="-27.00195" lon="-48.6207"><ele>20.3</ele></trkpt><trkpt lat="-27.00195" lon="-48.6207"><ele>20.3</ele></trkpt><trkpt lat="-27.00195" lon="-48.6207"><ele>20.3</ele></trkpt><trkpt lat="-27.00195" lon="-48.6207"><ele>20.3</ele></trkpt><trkpt lat="-27.00195" lon="-48.6207"><ele>20.3</ele></trkpt><trkpt lat="-27.00195" lon="-48.6207"><ele>20.3</ele></trkpt><trkpt lat="-27.00195" lon="-48.6207"><ele>20.3</ele></trkpt><trkpt lat="-27.001958" lon="-48.620745"><ele>17.8</ele></trkpt><trkpt lat="-27.001953" lon="-48.62074"><ele>17.9</ele></trkpt><trkpt lat="-27.001952" lon="-48.62073"><ele>17.7</ele></trkpt><trkpt lat="-27.001948" lon="-48.620722"><ele>17.8</ele></trkpt><trkpt lat="-27.001947" lon="-48.620708"><ele>17.4</ele></trkpt><trkpt lat="-27.001938" lon="-48.620702"><ele>17.1</ele></trkpt><trkpt lat="-27.001933" lon="-48.620705"><ele>16.7</ele></trkpt><trkpt lat="-27.001933" lon="-48.620705"><ele>16.7</ele></trkpt><trkpt lat="-27.001932" lon="-48.62071"><ele>16.3</ele></trkpt><trkpt lat="-27.001932" lon="-48.62071"><ele>16.3</ele></trkpt><trkpt lat="-27.001933" lon="-48.620712"><ele>16</ele></trkpt><trkpt lat="-27.001933" lon="-48.620712"><ele>16</ele></trkpt><trkpt lat="-27.001932" lon="-48.620713"><ele>15.9</ele></trkpt><trkpt lat="-27.00193" lon="-48.620723"><ele>15.8</ele></trkpt><trkpt lat="-27.001935" lon="-48.620735"><ele>15.8</ele></trkpt><trkpt lat="-27.001943" lon="-48.620742"><ele>15.7</ele></trkpt><trkpt lat="-27.001952" lon="-48.620747"><ele>15.6</ele></trkpt><trkpt lat="-27.001967" lon="-48.62075"><ele>15.8</ele></trkpt><trkpt lat="-27.001978" lon="-48.62075"><ele>15.9</ele></trkpt><trkpt lat="-27.001978" lon="-48.62075"><ele>15.9</ele></trkpt><trkpt lat="-27.001965" lon="-48.620752"><ele>16.3</ele></trkpt><trkpt lat="-27.00197" lon="-48.620745"><ele>16.3</ele></trkpt><trkpt lat="-27.001977" lon="-48.620748"><ele>16.4</ele></trkpt><trkpt lat="-27.001983" lon="-48.620752"><ele>16.4</ele></trkpt><trkpt lat="-27.001988" lon="-48.620757"><ele>15.8</ele></trkpt><trkpt lat="-27.001997" lon="-48.620763"><ele>15.5</ele></trkpt><trkpt lat="-27.001997" lon="-48.620763"><ele>15.5</ele></trkpt><trkpt lat="-27.002" lon="-48.620772"><ele>15.3</ele></trkpt><trkpt lat="-27.002002" lon="-48.620792"><ele>14.7</ele></trkpt><trkpt lat="-27.001993" lon="-48.620802"><ele>14.8</ele></trkpt><trkpt lat="-27.00199" lon="-48.620815"><ele>15.2</ele></trkpt><trkpt lat="-27.001997" lon="-48.620833"><ele>15.2</ele></trkpt><trkpt lat="-27.002002" lon="-48.62082"><ele>15.4</ele></trkpt><trkpt lat="-27.002003" lon="-48.62082"><ele>15.1</ele></trkpt><trkpt lat="-27.00201" lon="-48.620827"><ele>14.9</ele></trkpt><trkpt lat="-27.00201" lon="-48.62082"><ele>14.6</ele></trkpt><trkpt lat="-27.002008" lon="-48.620815"><ele>14.8</ele></trkpt><trkpt lat="-27.001997" lon="-48.620808"><ele>15.4</ele></trkpt><trkpt lat="-27.00199" lon="-48.620787"><ele>15.4</ele></trkpt><trkpt lat="-27.00199" lon="-48.620787"><ele>15.4</ele></trkpt><trkpt lat="-27.001978" lon="-48.62078"><ele>15.5</ele></trkpt><trkpt lat="-27.001972" lon="-48.62076"><ele>15.5</ele></trkpt><trkpt lat="-27.00196" lon="-48.620752"><ele>15.4</ele></trkpt><trkpt lat="-27.001948" lon="-48.620745"><ele>16.6</ele></trkpt><trkpt lat="-27.001947" lon="-48.620733"><ele>16.5</ele></trkpt><trkpt lat="-27.001952" lon="-48.620703"><ele>15.5</ele></trkpt><trkpt lat="-27.001952" lon="-48.620697"><ele>15.2</ele></trkpt><trkpt lat="-27.001957" lon="-48.620688"><ele>14.9</ele></trkpt><trkpt lat="-27.001965" lon="-48.620687"><ele>14.6</ele></trkpt><trkpt lat="-27.001977" lon="-48.620688"><ele>14.5</ele></trkpt><trkpt lat="-27.001985" lon="-48.62069"><ele>14.1</ele></trkpt><trkpt lat="-27.001992" lon="-48.620702"><ele>14.1</ele></trkpt><trkpt lat="-27.001993" lon="-48.620708"><ele>13.9</ele></trkpt><trkpt lat="-27.001997" lon="-48.620722"><ele>13.5</ele></trkpt><trkpt lat="-27.002" lon="-48.620733"><ele>13.5</ele></trkpt><trkpt lat="-27.002007" lon="-48.62075"><ele>13.5</ele></trkpt><trkpt lat="-27.002013" lon="-48.620777"><ele>13.7</ele></trkpt><trkpt lat="-27.00202" lon="-48.620803"><ele>13.7</ele></trkpt><trkpt lat="-27.002037" lon="-48.620827"><ele>14.1</ele></trkpt><trkpt lat="-27.002037" lon="-48.620827"><ele>14.1</ele></trkpt><trkpt lat="-27.002048" lon="-48.620845"><ele>14.1</ele></trkpt><trkpt lat="-27.002063" lon="-48.62086"><ele>14.2</ele></trkpt><trkpt lat="-27.002083" lon="-48.620882"><ele>14.4</ele></trkpt><trkpt lat="-27.002105" lon="-48.620897"><ele>14.8</ele></trkpt><trkpt lat="-27.002123" lon="-48.620913"><ele>14.9</ele></trkpt><trkpt lat="-27.002142" lon="-48.620935"><ele>14.9</ele></trkpt><trkpt lat="-27.002153" lon="-48.620953"><ele>14.9</ele></trkpt><trkpt lat="-27.002155" lon="-48.620975"><ele>14.8</ele></trkpt><trkpt lat="-27.002162" lon="-48.620995"><ele>14.9</ele></trkpt><trkpt lat="-27.002182" lon="-48.62101"><ele>15</ele></trkpt><trkpt lat="-27.0022" lon="-48.621013"><ele>15.3</ele></trkpt><trkpt lat="-27.002217" lon="-48.621002"><ele>15.6</ele></trkpt><trkpt lat="-27.00223" lon="-48.620978"><ele>16.1</ele></trkpt><trkpt lat="-27.002235" lon="-48.620953"><ele>16.2</ele></trkpt><trkpt lat="-27.002237" lon="-48.620932"><ele>16.3</ele></trkpt><trkpt lat="-27.002235" lon="-48.620915"><ele>16.6</ele></trkpt><trkpt lat="-27.002233" lon="-48.620902"><ele>17.1</ele></trkpt><trkpt lat="-27.002235" lon="-48.620897"><ele>17.4</ele></trkpt><trkpt lat="-27.002235" lon="-48.62089"><ele>17.8</ele></trkpt><trkpt lat="-27.002235" lon="-48.62089"><ele>17.8</ele></trkpt><trkpt lat="-27.002233" lon="-48.620882"><ele>17.9</ele></trkpt><trkpt lat="-27.00223" lon="-48.620873"><ele>18.1</ele></trkpt><trkpt lat="-27.002227" lon="-48.620863"><ele>18.2</ele></trkpt><trkpt lat="-27.002227" lon="-48.620863"><ele>18.2</ele></trkpt><trkpt lat="-27.002227" lon="-48.620863"><ele>18.2</ele></trkpt><trkpt lat="-27.002227" lon="-48.620863"><ele>18.2</ele></trkpt><trkpt lat="-27.002227" lon="-48.620863"><ele>18.2</ele></trkpt><trkpt lat="-27.002227" lon="-48.620863"><ele>18.2</ele></trkpt><trkpt lat="-27.002227" lon="-48.620863"><ele>18.2</ele></trkpt><trkpt lat="-27.002227" lon="-48.620863"><ele>18.2</ele></trkpt><trkpt lat="-27.002227" lon="-48.620863"><ele>18.2</ele></trkpt><trkpt lat="-27.002277" lon="-48.620877"><ele>16.9</ele></trkpt><trkpt lat="-27.002293" lon="-48.620885"><ele>16.5</ele></trkpt><trkpt lat="-27.002313" lon="-48.620908"><ele>16.4</ele></trkpt><trkpt lat="-27.002327" lon="-48.620932"><ele>16.3</ele></trkpt><trkpt lat="-27.002347" lon="-48.620943"><ele>16.2</ele></trkpt><trkpt lat="-27.00237" lon="-48.620948"><ele>15.9</ele></trkpt><trkpt lat="-27.002395" lon="-48.620953"><ele>16.3</ele></trkpt><trkpt lat="-27.002412" lon="-48.620937"><ele>16.1</ele></trkpt><trkpt lat="-27.002425" lon="-48.62089"><ele>15.6</ele></trkpt><trkpt lat="-27.002432" lon="-48.62084"><ele>14.5</ele></trkpt><trkpt lat="-27.002432" lon="-48.62084"><ele>14.5</ele></trkpt><trkpt lat="-27.002438" lon="-48.62082"><ele>14.2</ele></trkpt><trkpt lat="-27.002443" lon="-48.620785"><ele>12.9</ele></trkpt><trkpt lat="-27.002447" lon="-48.620758"><ele>11.7</ele></trkpt><trkpt lat="-27.00245" lon="-48.620755"><ele>11</ele></trkpt><trkpt lat="-27.002457" lon="-48.620743"><ele>11.5</ele></trkpt><trkpt lat="-27.00246" lon="-48.620745"><ele>11.7</ele></trkpt><trkpt lat="-27.002467" lon="-48.620738"><ele>12</ele></trkpt><trkpt lat="-27.002467" lon="-48.620738"><ele>12</ele></trkpt><trkpt lat="-27.002468" lon="-48.620743"><ele>12</ele></trkpt><trkpt lat="-27.00247" lon="-48.62075"><ele>12.2</ele></trkpt><trkpt lat="-27.002473" lon="-48.62075"><ele>12.7</ele></trkpt><trkpt lat="-27.002473" lon="-48.620743"><ele>12.6</ele></trkpt><trkpt lat="-27.002473" lon="-48.620743"><ele>12.6</ele></trkpt><trkpt lat="-27.002477" lon="-48.620727"><ele>13.2</ele></trkpt><trkpt lat="-27.00248" lon="-48.62072"><ele>13.6</ele></trkpt><trkpt lat="-27.002483" lon="-48.620715"><ele>13.7</ele></trkpt><trkpt lat="-27.002487" lon="-48.62071"><ele>13.5</ele></trkpt><trkpt lat="-27.002487" lon="-48.62071"><ele>13.5</ele></trkpt><trkpt lat="-27.002487" lon="-48.62071"><ele>13.5</ele></trkpt><trkpt lat="-27.002487" lon="-48.62071"><ele>13.5</ele></trkpt><trkpt lat="-27.002487" lon="-48.62071"><ele>13.5</ele></trkpt><trkpt lat="-27.002487" lon="-48.62071"><ele>13.5</ele></trkpt><trkpt lat="-27.00246" lon="-48.620663"><ele>11.9</ele></trkpt><trkpt lat="-27.002457" lon="-48.620655"><ele>11.3</ele></trkpt><trkpt lat="-27.002455" lon="-48.620653"><ele>10.7</ele></trkpt><trkpt lat="-27.002455" lon="-48.620645"><ele>9.8</ele></trkpt><trkpt lat="-27.002455" lon="-48.620645"><ele>9.8</ele></trkpt><trkpt lat="-27.002455" lon="-48.620645"><ele>9.8</ele></trkpt><trkpt lat="-27.002455" lon="-48.620645"><ele>9.8</ele></trkpt><trkpt lat="-27.002455" lon="-48.620645"><ele>9.8</ele></trkpt><trkpt lat="-27.002455" lon="-48.620645"><ele>9.8</ele></trkpt><trkpt lat="-27.002455" lon="-48.620645"><ele>9.8</ele></trkpt><trkpt lat="-27.002455" lon="-48.620645"><ele>9.8</ele></trkpt><trkpt lat="-27.002455" lon="-48.620645"><ele>9.8</ele></trkpt><trkpt lat="-27.002493" lon="-48.620688"><ele>8.4</ele></trkpt><trkpt lat="-27.00251" lon="-48.620687"><ele>7.6</ele></trkpt><trkpt lat="-27.00253" lon="-48.62069"><ele>7.2</ele></trkpt><trkpt lat="-27.002553" lon="-48.620697"><ele>6.9</ele></trkpt><trkpt lat="-27.00258" lon="-48.620698"><ele>6.5</ele></trkpt><trkpt lat="-27.002608" lon="-48.620703"><ele>6.6</ele></trkpt><trkpt lat="-27.002623" lon="-48.620712"><ele>6.5</ele></trkpt><trkpt lat="-27.002657" lon="-48.620713"><ele>6.3</ele></trkpt><trkpt lat="-27.002675" lon="-48.620747"><ele>6.8</ele></trkpt><trkpt lat="-27.002702" lon="-48.62077"><ele>7.2</ele></trkpt><trkpt lat="-27.002738" lon="-48.620798"><ele>7.9</ele></trkpt><trkpt lat="-27.00276" lon="-48.620848"><ele>14.1</ele></trkpt><trkpt lat="-27.002792" lon="-48.620868"><ele>14.3</ele></trkpt><trkpt lat="-27.002817" lon="-48.620882"><ele>13.9</ele></trkpt><trkpt lat="-27.002835" lon="-48.62089"><ele>14</ele></trkpt><trkpt lat="-27.002852" lon="-48.620888"><ele>13.7</ele></trkpt><trkpt lat="-27.002852" lon="-48.620888"><ele>13.7</ele></trkpt><trkpt lat="-27.002868" lon="-48.620897"><ele>13.8</ele></trkpt><trkpt lat="-27.002885" lon="-48.620903"><ele>13.8</ele></trkpt><trkpt lat="-27.002897" lon="-48.620907"><ele>13.7</ele></trkpt><trkpt lat="-27.0029" lon="-48.620903"><ele>13.6</ele></trkpt><trkpt lat="-27.002903" lon="-48.620902"><ele>13.6</ele></trkpt><trkpt lat="-27.002905" lon="-48.6209"><ele>13.5</ele></trkpt><trkpt lat="-27.00291" lon="-48.620898"><ele>13.5</ele></trkpt><trkpt lat="-27.002913" lon="-48.620898"><ele>13.5</ele></trkpt><trkpt lat="-27.002917" lon="-48.620895"><ele>13.3</ele></trkpt><trkpt lat="-27.002918" lon="-48.620892"><ele>13.3</ele></trkpt><trkpt lat="-27.002918" lon="-48.620892"><ele>13.3</ele></trkpt><trkpt lat="-27.002922" lon="-48.620893"><ele>13.2</ele></trkpt><trkpt lat="-27.002925" lon="-48.620893"><ele>12.8</ele></trkpt><trkpt lat="-27.002927" lon="-48.620885"><ele>12.6</ele></trkpt><trkpt lat="-27.002927" lon="-48.620885"><ele>12.6</ele></trkpt><trkpt lat="-27.002927" lon="-48.620885"><ele>12.6</ele></trkpt><trkpt lat="-27.002927" lon="-48.620885"><ele>12.6</ele></trkpt><trkpt lat="-27.002927" lon="-48.620885"><ele>12.6</ele></trkpt><trkpt lat="-27.002927" lon="-48.620885"><ele>12.6</ele></trkpt><trkpt lat="-27.002947" lon="-48.620857"><ele>12</ele></trkpt><trkpt lat="-27.002947" lon="-48.620857"><ele>12</ele></trkpt><trkpt lat="-27.002948" lon="-48.62085"><ele>11.9</ele></trkpt><trkpt lat="-27.002945" lon="-48.620845"><ele>11.9</ele></trkpt><trkpt lat="-27.002952" lon="-48.62084"><ele>11.6</ele></trkpt><trkpt lat="-27.002958" lon="-48.620837"><ele>11.6</ele></trkpt><trkpt lat="-27.002958" lon="-48.620837"><ele>11.6</ele></trkpt><trkpt lat="-27.002958" lon="-48.620837"><ele>11.6</ele></trkpt><trkpt lat="-27.002958" lon="-48.620837"><ele>11.6</ele></trkpt><trkpt lat="-27.002958" lon="-48.620837"><ele>11.6</ele></trkpt><trkpt lat="-27.003" lon="-48.620862"><ele>11</ele></trkpt><trkpt lat="-27.003013" lon="-48.620868"><ele>10.9</ele></trkpt><trkpt lat="-27.003033" lon="-48.620873"><ele>10.9</ele></trkpt><trkpt lat="-27.003058" lon="-48.62088"><ele>10.9</ele></trkpt><trkpt lat="-27.003085" lon="-48.62089"><ele>10.9</ele></trkpt><trkpt lat="-27.003115" lon="-48.6209"><ele>10.9</ele></trkpt><trkpt lat="-27.003145" lon="-48.620912"><ele>10.8</ele></trkpt><trkpt lat="-27.003177" lon="-48.620923"><ele>10.7</ele></trkpt><trkpt lat="-27.00321" lon="-48.620935"><ele>10.9</ele></trkpt><trkpt lat="-27.003247" lon="-48.620947"><ele>10.7</ele></trkpt><trkpt lat="-27.003283" lon="-48.62096"><ele>10.4</ele></trkpt><trkpt lat="-27.00332" lon="-48.620973"><ele>10.3</ele></trkpt><trkpt lat="-27.003357" lon="-48.620987"><ele>10.8</ele></trkpt><trkpt lat="-27.003388" lon="-48.621"><ele>11.2</ele></trkpt><trkpt lat="-27.003418" lon="-48.621013"><ele>11.5</ele></trkpt><trkpt lat="-27.003442" lon="-48.621023"><ele>12.1</ele></trkpt><trkpt lat="-27.003457" lon="-48.621025"><ele>13</ele></trkpt><trkpt lat="-27.003457" lon="-48.62103"><ele>13.7</ele></trkpt><trkpt lat="-27.003455" lon="-48.621028"><ele>13.9</ele></trkpt><trkpt lat="-27.00345" lon="-48.621033"><ele>14.1</ele></trkpt><trkpt lat="-27.003443" lon="-48.621037"><ele>14.4</ele></trkpt><trkpt lat="-27.003438" lon="-48.62104"><ele>14.8</ele></trkpt><trkpt lat="-27.003437" lon="-48.621033"><ele>14.8</ele></trkpt><trkpt lat="-27.003437" lon="-48.621023"><ele>14.9</ele></trkpt><trkpt lat="-27.003437" lon="-48.621015"><ele>15</ele></trkpt><trkpt lat="-27.003437" lon="-48.621017"><ele>15.1</ele></trkpt><trkpt lat="-27.003437" lon="-48.621017"><ele>15.1</ele></trkpt><trkpt lat="-27.00344" lon="-48.62102"><ele>15.2</ele></trkpt><trkpt lat="-27.003445" lon="-48.621025"><ele>15.2</ele></trkpt><trkpt lat="-27.003453" lon="-48.621035"><ele>15.2</ele></trkpt><trkpt lat="-27.003465" lon="-48.621045"><ele>15.2</ele></trkpt><trkpt lat="-27.003473" lon="-48.621053"><ele>15.4</ele></trkpt><trkpt lat="-27.003483" lon="-48.62105"><ele>15.4</ele></trkpt><trkpt lat="-27.003497" lon="-48.621038"><ele>15.2</ele></trkpt><trkpt lat="-27.003508" lon="-48.62102"><ele>15.1</ele></trkpt><trkpt lat="-27.003515" lon="-48.621012"><ele>15.3</ele></trkpt><trkpt lat="-27.003522" lon="-48.620997"><ele>15</ele></trkpt><trkpt lat="-27.003522" lon="-48.620997"><ele>15</ele></trkpt><trkpt lat="-27.003527" lon="-48.62099"><ele>15.1</ele></trkpt><trkpt lat="-27.00353" lon="-48.620985"><ele>15.7</ele></trkpt><trkpt lat="-27.00353" lon="-48.62098"><ele>16.1</ele></trkpt><trkpt lat="-27.00353" lon="-48.620978"><ele>16.2</ele></trkpt><trkpt lat="-27.00353" lon="-48.620977"><ele>16.4</ele></trkpt><trkpt lat="-27.003532" lon="-48.62097"><ele>16.7</ele></trkpt><trkpt lat="-27.003532" lon="-48.62097"><ele>16.7</ele></trkpt><trkpt lat="-27.003532" lon="-48.62097"><ele>16.7</ele></trkpt><trkpt lat="-27.003532" lon="-48.62097"><ele>16.7</ele></trkpt><trkpt lat="-27.003532" lon="-48.62097"><ele>16.7</ele></trkpt><trkpt lat="-27.003532" lon="-48.62097"><ele>16.7</ele></trkpt><trkpt lat="-27.003532" lon="-48.62097"><ele>16.7</ele></trkpt><trkpt lat="-27.003532" lon="-48.62097"><ele>16.7</ele></trkpt><trkpt lat="-27.003563" lon="-48.62099"><ele>18.3</ele></trkpt><trkpt lat="-27.003582" lon="-48.62099"><ele>18.3</ele></trkpt><trkpt lat="-27.003597" lon="-48.620993"><ele>18.4</ele></trkpt><trkpt lat="-27.003625" lon="-48.620998"><ele>18.2</ele></trkpt><trkpt lat="-27.003653" lon="-48.620995"><ele>17.5</ele></trkpt><trkpt lat="-27.003675" lon="-48.621"><ele>17.5</ele></trkpt><trkpt lat="-27.0037" lon="-48.621005"><ele>17.4</ele></trkpt><trkpt lat="-27.003735" lon="-48.621012"><ele>17.3</ele></trkpt><trkpt lat="-27.003765" lon="-48.621015"><ele>17.3</ele></trkpt><trkpt lat="-27.00379" lon="-48.621027"><ele>17.5</ele></trkpt><trkpt lat="-27.003815" lon="-48.621032"><ele>17.4</ele></trkpt><trkpt lat="-27.003842" lon="-48.621035"><ele>17.5</ele></trkpt><trkpt lat="-27.003868" lon="-48.621033"><ele>17.7</ele></trkpt><trkpt lat="-27.003895" lon="-48.621033"><ele>17.8</ele></trkpt><trkpt lat="-27.003917" lon="-48.621038"><ele>18</ele></trkpt><trkpt lat="-27.00394" lon="-48.621043"><ele>18.4</ele></trkpt><trkpt lat="-27.003957" lon="-48.621052"><ele>18.6</ele></trkpt><trkpt lat="-27.003968" lon="-48.621057"><ele>18.8</ele></trkpt><trkpt lat="-27.003968" lon="-48.62106"><ele>19.1</ele></trkpt><trkpt lat="-27.003968" lon="-48.62106"><ele>19.1</ele></trkpt><trkpt lat="-27.00397" lon="-48.621062"><ele>18.9</ele></trkpt><trkpt lat="-27.003972" lon="-48.621063"><ele>18.5</ele></trkpt><trkpt lat="-27.003973" lon="-48.621065"><ele>18</ele></trkpt><trkpt lat="-27.003977" lon="-48.621067"><ele>17.5</ele></trkpt><trkpt lat="-27.003982" lon="-48.62107"><ele>17.1</ele></trkpt><trkpt lat="-27.003985" lon="-48.621068"><ele>16.6</ele></trkpt><trkpt lat="-27.003988" lon="-48.62107"><ele>16.1</ele></trkpt><trkpt lat="-27.003988" lon="-48.62107"><ele>16.1</ele></trkpt><trkpt lat="-27.003995" lon="-48.621068"><ele>15.8</ele></trkpt><trkpt lat="-27.00401" lon="-48.62106"><ele>15.3</ele></trkpt><trkpt lat="-27.00402" lon="-48.621058"><ele>14.8</ele></trkpt><trkpt lat="-27.004035" lon="-48.621053"><ele>14.4</ele></trkpt><trkpt lat="-27.004048" lon="-48.62105"><ele>13.5</ele></trkpt><trkpt lat="-27.004063" lon="-48.621053"><ele>12.6</ele></trkpt><trkpt lat="-27.004075" lon="-48.621058"><ele>11.7</ele></trkpt><trkpt lat="-27.00408" lon="-48.621063"><ele>11.1</ele></trkpt><trkpt lat="-27.00408" lon="-48.621067"><ele>11</ele></trkpt><trkpt lat="-27.004077" lon="-48.621068"><ele>11</ele></trkpt><trkpt lat="-27.004075" lon="-48.621068"><ele>11</ele></trkpt><trkpt lat="-27.004075" lon="-48.621068"><ele>11</ele></trkpt><trkpt lat="-27.004073" lon="-48.621068"><ele>11.1</ele></trkpt><trkpt lat="-27.004068" lon="-48.621062"><ele>11.1</ele></trkpt><trkpt lat="-27.004063" lon="-48.621058"><ele>11.1</ele></trkpt><trkpt lat="-27.00406" lon="-48.621055"><ele>11.1</ele></trkpt><trkpt lat="-27.004058" lon="-48.621052"><ele>11</ele></trkpt><trkpt lat="-27.004058" lon="-48.621045"><ele>10.9</ele></trkpt><trkpt lat="-27.004062" lon="-48.621038"><ele>11</ele></trkpt><trkpt lat="-27.004062" lon="-48.621038"><ele>11</ele></trkpt><trkpt lat="-27.004063" lon="-48.621037"><ele>10.9</ele></trkpt><trkpt lat="-27.004063" lon="-48.621037"><ele>10.9</ele></trkpt><trkpt lat="-27.004063" lon="-48.621037"><ele>10.9</ele></trkpt><trkpt lat="-27.004063" lon="-48.621037"><ele>10.9</ele></trkpt><trkpt lat="-27.004063" lon="-48.621037"><ele>10.9</ele></trkpt><trkpt lat="-27.004095" lon="-48.621062"><ele>11.1</ele></trkpt><trkpt lat="-27.004107" lon="-48.62106"><ele>11</ele></trkpt><trkpt lat="-27.004117" lon="-48.621062"><ele>11.1</ele></trkpt><trkpt lat="-27.004127" lon="-48.621072"><ele>11.2</ele></trkpt><trkpt lat="-27.004137" lon="-48.621078"><ele>11.3</ele></trkpt><trkpt lat="-27.004142" lon="-48.62109"><ele>11.3</ele></trkpt><trkpt lat="-27.004147" lon="-48.621097"><ele>11.2</ele></trkpt><trkpt lat="-27.004147" lon="-48.6211"><ele>10.9</ele></trkpt><trkpt lat="-27.004147" lon="-48.6211"><ele>10.8</ele></trkpt><trkpt lat="-27.004147" lon="-48.6211"><ele>10.8</ele></trkpt><trkpt lat="-27.004147" lon="-48.621102"><ele>10.8</ele></trkpt><trkpt lat="-27.004147" lon="-48.621102"><ele>10.9</ele></trkpt><trkpt lat="-27.004147" lon="-48.621107"><ele>10.7</ele></trkpt><trkpt lat="-27.004145" lon="-48.621113"><ele>10.8</ele></trkpt><trkpt lat="-27.004143" lon="-48.621117"><ele>10.7</ele></trkpt><trkpt lat="-27.00414" lon="-48.62112"><ele>10.6</ele></trkpt><trkpt lat="-27.00414" lon="-48.62112"><ele>10.6</ele></trkpt><trkpt lat="-27.004138" lon="-48.621122"><ele>10.7</ele></trkpt><trkpt lat="-27.004135" lon="-48.621123"><ele>10.9</ele></trkpt><trkpt lat="-27.004135" lon="-48.621123"><ele>10.9</ele></trkpt><trkpt lat="-27.004135" lon="-48.621123"><ele>10.9</ele></trkpt><trkpt lat="-27.004135" lon="-48.621123"><ele>10.9</ele></trkpt><trkpt lat="-27.004135" lon="-48.621123"><ele>10.9</ele></trkpt><trkpt lat="-27.004135" lon="-48.621123"><ele>10.9</ele></trkpt><trkpt lat="-27.004135" lon="-48.621123"><ele>10.9</ele></trkpt><trkpt lat="-27.004135" lon="-48.621123"><ele>10.9</ele></trkpt><trkpt lat="-27.004135" lon="-48.621123"><ele>10.9</ele></trkpt><trkpt lat="-27.004158" lon="-48.621152"><ele>10.6</ele></trkpt><trkpt lat="-27.004165" lon="-48.621148"><ele>10.6</ele></trkpt><trkpt lat="-27.004175" lon="-48.621147"><ele>10.6</ele></trkpt><trkpt lat="-27.004182" lon="-48.621148"><ele>10.5</ele></trkpt><trkpt lat="-27.004187" lon="-48.621143"><ele>10.4</ele></trkpt><trkpt lat="-27.004192" lon="-48.62114"><ele>10.4</ele></trkpt><trkpt lat="-27.004192" lon="-48.621137"><ele>10.5</ele></trkpt><trkpt lat="-27.004193" lon="-48.621135"><ele>10.7</ele></trkpt><trkpt lat="-27.00419" lon="-48.621137"><ele>10.7</ele></trkpt><trkpt lat="-27.004187" lon="-48.621133"><ele>10.9</ele></trkpt><trkpt lat="-27.004185" lon="-48.621132"><ele>11.1</ele></trkpt><trkpt lat="-27.00418" lon="-48.621125"><ele>11.6</ele></trkpt><trkpt lat="-27.004182" lon="-48.621122"><ele>12.1</ele></trkpt><trkpt lat="-27.004182" lon="-48.62112"><ele>12.7</ele></trkpt><trkpt lat="-27.004182" lon="-48.62112"><ele>12.7</ele></trkpt><trkpt lat="-27.004182" lon="-48.62112"><ele>12.7</ele></trkpt><trkpt lat="-27.004182" lon="-48.62112"><ele>12.7</ele></trkpt><trkpt lat="-27.004182" lon="-48.62112"><ele>12.7</ele></trkpt><trkpt lat="-27.004182" lon="-48.62112"><ele>12.7</ele></trkpt><trkpt lat="-27.004182" lon="-48.62112"><ele>12.7</ele></trkpt><trkpt lat="-27.004182" lon="-48.62112"><ele>12.7</ele></trkpt><trkpt lat="-27.004182" lon="-48.62112"><ele>12.7</ele></trkpt><trkpt lat="-27.004182" lon="-48.62112"><ele>12.7</ele></trkpt><trkpt lat="-27.004182" lon="-48.62112"><ele>12.7</ele></trkpt><trkpt lat="-27.004187" lon="-48.621105"><ele>14.8</ele></trkpt><trkpt lat="-27.004183" lon="-48.621105"><ele>15</ele></trkpt><trkpt lat="-27.00419" lon="-48.621082"><ele>14</ele></trkpt><trkpt lat="-27.004188" lon="-48.621077"><ele>14.1</ele></trkpt><trkpt lat="-27.004188" lon="-48.621077"><ele>14.1</ele></trkpt><trkpt lat="-27.004188" lon="-48.621077"><ele>14.1</ele></trkpt><trkpt lat="-27.004188" lon="-48.621077"><ele>14.1</ele></trkpt><trkpt lat="-27.004188" lon="-48.621077"><ele>14.1</ele></trkpt><trkpt lat="-27.004188" lon="-48.621077"><ele>14.1</ele></trkpt><trkpt lat="-27.004188" lon="-48.621077"><ele>14.1</ele></trkpt><trkpt lat="-27.004203" lon="-48.621072"><ele>14.4</ele></trkpt><trkpt lat="-27.004203" lon="-48.621062"><ele>14.4</ele></trkpt><trkpt lat="-27.004205" lon="-48.621072"><ele>14.4</ele></trkpt><trkpt lat="-27.004202" lon="-48.621073"><ele>14.5</ele></trkpt><trkpt lat="-27.004202" lon="-48.621075"><ele>14.6</ele></trkpt><trkpt lat="-27.004202" lon="-48.621075"><ele>14.6</ele></trkpt><trkpt lat="-27.004202" lon="-48.621075"><ele>14.6</ele></trkpt><trkpt lat="-27.004202" lon="-48.621075"><ele>14.6</ele></trkpt><trkpt lat="-27.004202" lon="-48.621075"><ele>14.6</ele></trkpt><trkpt lat="-27.004202" lon="-48.621075"><ele>14.6</ele></trkpt><trkpt lat="-27.004202" lon="-48.621075"><ele>14.6</ele></trkpt><trkpt lat="-27.004202" lon="-48.621075"><ele>14.6</ele></trkpt><trkpt lat="-27.004202" lon="-48.621075"><ele>14.6</ele></trkpt><trkpt lat="-27.004202" lon="-48.621075"><ele>14.6</ele></trkpt><trkpt lat="-27.004202" lon="-48.621075"><ele>14.6</ele></trkpt><trkpt lat="-27.004202" lon="-48.621075"><ele>14.6</ele></trkpt><trkpt lat="-27.004202" lon="-48.621075"><ele>14.6</ele></trkpt><trkpt lat="-27.004202" lon="-48.621075"><ele>14.6</ele></trkpt><trkpt lat="-27.00421" lon="-48.621092"><ele>15.5</ele></trkpt><trkpt lat="-27.004212" lon="-48.62109"><ele>15.5</ele></trkpt><trkpt lat="-27.004223" lon="-48.621093"><ele>15.9</ele></trkpt><trkpt lat="-27.004225" lon="-48.621093"><ele>15.8</ele></trkpt><trkpt lat="-27.004227" lon="-48.621092"><ele>15.7</ele></trkpt><trkpt lat="-27.004227" lon="-48.621095"><ele>16</ele></trkpt><trkpt lat="-27.004225" lon="-48.621098"><ele>16.4</ele></trkpt><trkpt lat="-27.004217" lon="-48.621095"><ele>16.6</ele></trkpt><trkpt lat="-27.00421" lon="-48.621093"><ele>16.9</ele></trkpt><trkpt lat="-27.004205" lon="-48.621095"><ele>17</ele></trkpt><trkpt lat="-27.004197" lon="-48.621102"><ele>17.2</ele></trkpt><trkpt lat="-27.004192" lon="-48.621108"><ele>17.2</ele></trkpt><trkpt lat="-27.004185" lon="-48.621125"><ele>17.6</ele></trkpt><trkpt lat="-27.004177" lon="-48.621137"><ele>17.7</ele></trkpt><trkpt lat="-27.004172" lon="-48.621145"><ele>17.8</ele></trkpt><trkpt lat="-27.004168" lon="-48.62115"><ele>18</ele></trkpt><trkpt lat="-27.004167" lon="-48.621147"><ele>18.1</ele></trkpt><trkpt lat="-27.00417" lon="-48.621145"><ele>18.4</ele></trkpt><trkpt lat="-27.004172" lon="-48.621147"><ele>18.6</ele></trkpt><trkpt lat="-27.004177" lon="-48.621147"><ele>18.8</ele></trkpt><trkpt lat="-27.004185" lon="-48.621147"><ele>19</ele></trkpt><trkpt lat="-27.004187" lon="-48.62115"><ele>19.2</ele></trkpt><trkpt lat="-27.00419" lon="-48.621155"><ele>19.7</ele></trkpt><trkpt lat="-27.00419" lon="-48.621162"><ele>20</ele></trkpt><trkpt lat="-27.0042" lon="-48.621163"><ele>20.3</ele></trkpt><trkpt lat="-27.004203" lon="-48.621162"><ele>20.8</ele></trkpt><trkpt lat="-27.004205" lon="-48.621163"><ele>21</ele></trkpt><trkpt lat="-27.004208" lon="-48.621168"><ele>21.3</ele></trkpt><trkpt lat="-27.004208" lon="-48.621165"><ele>21.8</ele></trkpt><trkpt lat="-27.004208" lon="-48.621165"><ele>22</ele></trkpt><trkpt lat="-27.00421" lon="-48.621162"><ele>22</ele></trkpt><trkpt lat="-27.004212" lon="-48.621157"><ele>21.9</ele></trkpt><trkpt lat="-27.004212" lon="-48.621157"><ele>21.9</ele></trkpt><trkpt lat="-27.004212" lon="-48.621157"><ele>21.9</ele></trkpt><trkpt lat="-27.004212" lon="-48.621157"><ele>21.9</ele></trkpt><trkpt lat="-27.004212" lon="-48.621157"><ele>21.9</ele></trkpt><trkpt lat="-27.004212" lon="-48.621157"><ele>21.9</ele></trkpt><trkpt lat="-27.004212" lon="-48.621157"><ele>21.9</ele></trkpt><trkpt lat="-27.004212" lon="-48.621157"><ele>21.9</ele></trkpt><trkpt lat="-27.004212" lon="-48.621157"><ele>21.9</ele></trkpt><trkpt lat="-27.004212" lon="-48.621157"><ele>21.9</ele></trkpt><trkpt lat="-27.004212" lon="-48.621157"><ele>21.9</ele></trkpt><trkpt lat="-27.004212" lon="-48.621157"><ele>21.9</ele></trkpt><trkpt lat="-27.004212" lon="-48.621157"><ele>21.9</ele></trkpt><trkpt lat="-27.004212" lon="-48.621157"><ele>21.9</ele></trkpt><trkpt lat="-27.004212" lon="-48.621157"><ele>21.9</ele></trkpt><trkpt lat="-27.004212" lon="-48.621157"><ele>21.9</ele></trkpt><trkpt lat="-27.004212" lon="-48.621157"><ele>21.9</ele></trkpt><trkpt lat="-27.004212" lon="-48.621157"><ele>21.9</ele></trkpt><trkpt lat="-27.004212" lon="-48.621157"><ele>21.9</ele></trkpt><trkpt lat="-27.004212" lon="-48.621157"><ele>21.9</ele></trkpt><trkpt lat="-27.004212" lon="-48.621157"><ele>21.9</ele></trkpt><trkpt lat="-27.004212" lon="-48.621157"><ele>21.9</ele></trkpt><trkpt lat="-27.004212" lon="-48.621157"><ele>21.9</ele></trkpt><trkpt lat="-27.004222" lon="-48.621135"><ele>20.5</ele></trkpt><trkpt lat="-27.004218" lon="-48.621137"><ele>20.5</ele></trkpt><trkpt lat="-27.004217" lon="-48.621137"><ele>20.4</ele></trkpt><trkpt lat="-27.004217" lon="-48.621135"><ele>20.3</ele></trkpt><trkpt lat="-27.004217" lon="-48.621135"><ele>20.3</ele></trkpt><trkpt lat="-27.004217" lon="-48.621135"><ele>20.3</ele></trkpt><trkpt lat="-27.004217" lon="-48.621135"><ele>20.3</ele></trkpt><trkpt lat="-27.004217" lon="-48.621135"><ele>20.3</ele></trkpt><trkpt lat="-27.004217" lon="-48.621135"><ele>20.3</ele></trkpt><trkpt lat="-27.004217" lon="-48.621135"><ele>20.3</ele></trkpt><trkpt lat="-27.004217" lon="-48.621135"><ele>20.3</ele></trkpt><trkpt lat="-27.004217" lon="-48.621135"><ele>20.3</ele></trkpt><trkpt lat="-27.004217" lon="-48.621135"><ele>20.3</ele></trkpt><trkpt lat="-27.004217" lon="-48.621135"><ele>20.3</ele></trkpt><trkpt lat="-27.004217" lon="-48.621135"><ele>20.3</ele></trkpt><trkpt lat="-27.004217" lon="-48.621135"><ele>20.3</ele></trkpt><trkpt lat="-27.004217" lon="-48.621135"><ele>20.3</ele></trkpt><trkpt lat="-27.004217" lon="-48.621135"><ele>20.3</ele></trkpt><trkpt lat="-27.004217" lon="-48.621135"><ele>20.3</ele></trkpt><trkpt lat="-27.004217" lon="-48.621135"><ele>20.3</ele></trkpt><trkpt lat="-27.004217" lon="-48.621135"><ele>20.3</ele></trkpt><trkpt lat="-27.004217" lon="-48.621135"><ele>20.3</ele></trkpt><trkpt lat="-27.004217" lon="-48.621135"><ele>20.3</ele></trkpt><trkpt lat="-27.004217" lon="-48.621135"><ele>20.3</ele></trkpt><trkpt lat="-27.004217" lon="-48.621135"><ele>20.3</ele></trkpt><trkpt lat="-27.004217" lon="-48.621135"><ele>20.3</ele></trkpt><trkpt lat="-27.004217" lon="-48.621135"><ele>20.3</ele></trkpt><trkpt lat="-27.004217" lon="-48.621135"><ele>20.3</ele></trkpt><trkpt lat="-27.004217" lon="-48.621135"><ele>20.3</ele></trkpt><trkpt lat="-27.004217" lon="-48.621135"><ele>20.3</ele></trkpt><trkpt lat="-27.004217" lon="-48.621135"><ele>20.3</ele></trkpt><trkpt lat="-27.004217" lon="-48.621135"><ele>20.3</ele></trkpt><trkpt lat="-27.004217" lon="-48.621135"><ele>20.3</ele></trkpt><trkpt lat="-27.004217" lon="-48.621135"><ele>20.3</ele></trkpt><trkpt lat="-27.004217" lon="-48.621135"><ele>20.3</ele></trkpt><trkpt lat="-27.004217" lon="-48.621135"><ele>20.3</ele></trkpt><trkpt lat="-27.004217" lon="-48.621135"><ele>20.3</ele></trkpt><trkpt lat="-27.004217" lon="-48.621135"><ele>20.3</ele></trkpt><trkpt lat="-27.004217" lon="-48.621135"><ele>20.3</ele></trkpt><trkpt lat="-27.004217" lon="-48.621135"><ele>20.3</ele></trkpt><trkpt lat="-27.004217" lon="-48.621135"><ele>20.3</ele></trkpt><trkpt lat="-27.004217" lon="-48.621135"><ele>20.3</ele></trkpt><trkpt lat="-27.004217" lon="-48.621135"><ele>20.3</ele></trkpt><trkpt lat="-27.004217" lon="-48.621135"><ele>20.3</ele></trkpt><trkpt lat="-27.004217" lon="-48.621135"><ele>20.3</ele></trkpt><trkpt lat="-27.004217" lon="-48.621135"><ele>20.3</ele></trkpt><trkpt lat="-27.004217" lon="-48.621135"><ele>20.3</ele></trkpt><trkpt lat="-27.004217" lon="-48.621135"><ele>20.3</ele></trkpt><trkpt lat="-27.004217" lon="-48.621135"><ele>20.3</ele></trkpt><trkpt lat="-27.004217" lon="-48.621135"><ele>20.3</ele></trkpt><trkpt lat="-27.004217" lon="-48.621135"><ele>20.3</ele></trkpt><trkpt lat="-27.004217" lon="-48.621135"><ele>20.3</ele></trkpt><trkpt lat="-27.004217" lon="-48.621135"><ele>20.3</ele></trkpt><trkpt lat="-27.004217" lon="-48.621135"><ele>20.3</ele></trkpt><trkpt lat="-27.004217" lon="-48.621135"><ele>20.3</ele></trkpt><trkpt lat="-27.004217" lon="-48.621135"><ele>20.3</ele></trkpt><trkpt lat="-27.004217" lon="-48.621135"><ele>20.3</ele></trkpt><trkpt lat="-27.004217" lon="-48.621135"><ele>20.3</ele></trkpt><trkpt lat="-27.004217" lon="-48.621135"><ele>20.3</ele></trkpt><trkpt lat="-27.004217" lon="-48.621135"><ele>20.3</ele></trkpt><trkpt lat="-27.004217" lon="-48.621135"><ele>20.3</ele></trkpt><trkpt lat="-27.004217" lon="-48.621135"><ele>20.3</ele></trkpt><trkpt lat="-27.004217" lon="-48.621135"><ele>20.3</ele></trkpt><trkpt lat="-27.004217" lon="-48.621135"><ele>20.3</ele></trkpt><trkpt lat="-27.004217" lon="-48.621135"><ele>20.3</ele></trkpt><trkpt lat="-27.004185" lon="-48.621072"><ele>16.4</ele></trkpt><trkpt lat="-27.004185" lon="-48.621065"><ele>16.3</ele></trkpt><trkpt lat="-27.004185" lon="-48.621063"><ele>16.3</ele></trkpt><trkpt lat="-27.004188" lon="-48.621072"><ele>16.4</ele></trkpt><trkpt lat="-27.004195" lon="-48.621073"><ele>16.4</ele></trkpt><trkpt lat="-27.004195" lon="-48.621073"><ele>16.4</ele></trkpt><trkpt lat="-27.004195" lon="-48.621073"><ele>16.4</ele></trkpt><trkpt lat="-27.004195" lon="-48.621073"><ele>16.4</ele></trkpt><trkpt lat="-27.004195" lon="-48.621073"><ele>16.4</ele></trkpt><trkpt lat="-27.004195" lon="-48.621073"><ele>16.4</ele></trkpt><trkpt lat="-27.004195" lon="-48.621073"><ele>16.4</ele></trkpt><trkpt lat="-27.004195" lon="-48.621073"><ele>16.4</ele></trkpt><trkpt lat="-27.004195" lon="-48.621073"><ele>16.4</ele></trkpt><trkpt lat="-27.004195" lon="-48.621073"><ele>16.4</ele></trkpt><trkpt lat="-27.004195" lon="-48.621073"><ele>16.4</ele></trkpt><trkpt lat="-27.004195" lon="-48.621073"><ele>16.4</ele></trkpt></trkseg></trk></gpx>