<?xml version="1.0" encoding="UTF-8"?>
<gpx xmlns="http://www.topografix.com/GPX/1/1" version="1.1" creator="@dwayneparton/geojson-to-gpx"><wpt lat="-26.983647" lon="-48.634105"><ele>-6.5</ele><name>1 faixa</name></wpt><wpt lat="-26.983641" lon="-48.634038"><name>22</name></wpt><wpt lat="-26.983735" lon="-48.635527"><ele>10</ele><name>200</name></wpt><wpt lat="-26.983803" lon="-48.634233"><ele>-4.1</ele><name>328</name></wpt><wpt lat="-26.983708" lon="-48.634197"><ele>-4.2</ele><name>725</name></wpt><wpt lat="-26.983647" lon="-48.635555"><ele>-4.2</ele><name>A ciclo é completamente reta.</name></wpt><wpt lat="-26.983647" lon="-48.635555"><ele>-4.2</ele><name>A pintura está boa, COMPLETA e visível</name></wpt><wpt lat="-26.98363" lon="-48.634931"><name>Ambas: Alguns trechos sem segregadores. Automóvel consegue passar por entre estes com facilidade</name></wpt><wpt lat="-26.983708" lon="-48.634197"><ele>-4.2</ele><name>Área de amortecimento da ciclo (cm)</name></wpt><wpt lat="-26.983757" lon="-48.635508"><ele>13.2</ele><name>Área transitável da ciclo (cm)</name></wpt><wpt lat="-26.983647" lon="-48.634105"><ele>-6.5</ele><name>Asfalto</name></wpt><wpt lat="-26.983641" lon="-48.635647"><name>Ausência de conexão entre ciclos.</name></wpt><wpt lat="-26.983642" lon="-48.6341"><ele>-7</ele><name>Bidirecional</name></wpt><wpt lat="-26.983693" lon="-48.634343"><ele>1.8</ele><name>Bueiro</name></wpt><wpt lat="-26.983523" lon="-48.635382"><ele>-0.9</ele><name>Buraco</name></wpt><wpt lat="-26.98365" lon="-48.634098"><ele>-6.8</ele><name>Ciclofaixa</name></wpt><wpt lat="-26.983647" lon="-48.634105"><ele>-6.5</ele><name>Estacionamento dedicado de um lado, segregado da circulação</name></wpt><wpt lat="-26.983803" lon="-48.634233"><ele>-4.1</ele><name>Faixa de carros logo ao lado da ciclo (cm)</name></wpt><wpt lat="-26.9837" lon="-48.634153"><ele>2.3</ele><name>Foto</name></wpt><wpt lat="-26.9837" lon="-48.634145"><ele>0.9</ele><name>Foto</name></wpt><wpt lat="-26.98362" lon="-48.63404"><ele>-0.3</ele><name>Foto</name></wpt><wpt lat="-26.98362" lon="-48.633983"><ele>-1.1</ele><name>Foto</name></wpt><wpt lat="-26.98362" lon="-48.633983"><ele>-1.4</ele><name>Foto</name></wpt><wpt lat="-26.98362" lon="-48.633983"><ele>-1.4</ele><name>Foto</name></wpt><wpt lat="-26.983633" lon="-48.63414"><ele>-1.7</ele><name>Foto</name></wpt><wpt lat="-26.983693" lon="-48.634333"><ele>1.7</ele><name>Foto</name></wpt><wpt lat="-26.983568" lon="-48.63495"><ele>6.7</ele><name>Foto</name></wpt><wpt lat="-26.983483" lon="-48.635198"><ele>3.9</ele><name>Foto</name></wpt><wpt lat="-26.983518" lon="-48.635412"><ele>-4.1</ele><name>Foto</name></wpt><wpt lat="-26.983647" lon="-48.635555"><ele>-4.2</ele><name>Iluminação geral na via do mesmo lado da estrutura</name></wpt><wpt lat="-26.983647" lon="-48.634105"><ele>-6.5</ele><name>Mão Única</name></wpt><wpt lat="-26.983647" lon="-48.635555"><ele>-4.2</ele><name>Não há árvores nem mudas</name></wpt><wpt lat="-26.983643" lon="-48.635623"><name>Nenhum elemento de controle de velocidade na via</name></wpt><wpt lat="-26.983647" lon="-48.634105"><ele>-6.5</ele><name>No bordo esquerdo de Via de Mão Única</name></wpt><wpt lat="-26.983647" lon="-48.635555"><ele>-4.2</ele><name>Pequenas imperfeições, como fissuras</name></wpt><wpt lat="-26.983695" lon="-48.634572"><ele>-2.1</ele><name>rampa </name></wpt><wpt lat="-26.983647" lon="-48.635555"><ele>-4.2</ele><name>SE CICLOFAIXA: para invadir a ciclo parte do automóvel passa obrigatoriamente por cima de segregadores</name></wpt><wpt lat="-26.983647" lon="-48.634105"><ele>-6.5</ele><name>Tachões</name></wpt><wpt lat="-26.983647" lon="-48.634105"><ele>-6.5</ele><name>Toda área de circulação pintada de vermelho</name></wpt><wpt lat="-26.983708" lon="-48.634197"><ele>-4.2</ele><name>Total da via (incluindo a ciclo) (cm)</name></wpt><trk><name>Ciclofaixa R. 1001 T1 - BC</name><trkseg><trkpt lat="-26.983533" lon="-48.634138"><ele>-15.4</ele></trkpt><trkpt lat="-26.98356" lon="-48.634162"><ele>-15.3</ele></trkpt><trkpt lat="-26.983547" lon="-48.634148"><ele>-15.5</ele></trkpt><trkpt lat="-26.983525" lon="-48.634175"><ele>-15.5</ele></trkpt><trkpt lat="-26.983562" lon="-48.634215"><ele>-15.8</ele></trkpt><trkpt lat="-26.9836" lon="-48.634233"><ele>-16.1</ele></trkpt><trkpt lat="-26.98361" lon="-48.63423"><ele>-16.1</ele></trkpt><trkpt lat="-26.983618" lon="-48.634227"><ele>-15.9</ele></trkpt><trkpt lat="-26.983625" lon="-48.634212"><ele>-15.9</ele></trkpt><trkpt lat="-26.983623" lon="-48.63419"><ele>-15.6</ele></trkpt><trkpt lat="-26.983623" lon="-48.634177"><ele>-15.4</ele></trkpt><trkpt lat="-26.983615" lon="-48.63417"><ele>-15.2</ele></trkpt><trkpt lat="-26.983602" lon="-48.634165"><ele>-14.9</ele></trkpt><trkpt lat="-26.983598" lon="-48.634163"><ele>-14.8</ele></trkpt><trkpt lat="-26.983593" lon="-48.634162"><ele>-14.7</ele></trkpt><trkpt lat="-26.983592" lon="-48.634165"><ele>-14.5</ele></trkpt><trkpt lat="-26.98359" lon="-48.634165"><ele>-14.6</ele></trkpt><trkpt lat="-26.983585" lon="-48.634155"><ele>-14.4</ele></trkpt><trkpt lat="-26.98357" lon="-48.634148"><ele>-14.4</ele></trkpt><trkpt lat="-26.983562" lon="-48.634145"><ele>-14.3</ele></trkpt><trkpt lat="-26.983555" lon="-48.634152"><ele>-14.3</ele></trkpt><trkpt lat="-26.983552" lon="-48.634157"><ele>-14.2</ele></trkpt><trkpt lat="-26.98355" lon="-48.634163"><ele>-14.1</ele></trkpt><trkpt lat="-26.983552" lon="-48.634163"><ele>-14</ele></trkpt><trkpt lat="-26.983555" lon="-48.63416"><ele>-13.9</ele></trkpt><trkpt lat="-26.983562" lon="-48.634153"><ele>-13.6</ele></trkpt><trkpt lat="-26.98357" lon="-48.634145"><ele>-13.6</ele></trkpt><trkpt lat="-26.983573" lon="-48.634137"><ele>-13.7</ele></trkpt><trkpt lat="-26.983577" lon="-48.634122"><ele>-13.1</ele></trkpt><trkpt lat="-26.983583" lon="-48.634095"><ele>-13</ele></trkpt><trkpt lat="-26.983598" lon="-48.634085"><ele>-12.8</ele></trkpt><trkpt lat="-26.983612" lon="-48.6341"><ele>-13.2</ele></trkpt><trkpt lat="-26.983615" lon="-48.634128"><ele>-13.6</ele></trkpt><trkpt lat="-26.983615" lon="-48.634145"><ele>-14.2</ele></trkpt><trkpt lat="-26.98361" lon="-48.634157"><ele>-14.7</ele></trkpt><trkpt lat="-26.983603" lon="-48.634162"><ele>-15.2</ele></trkpt><trkpt lat="-26.983597" lon="-48.634162"><ele>-15.6</ele></trkpt><trkpt lat="-26.983592" lon="-48.63416"><ele>-15.4</ele></trkpt><trkpt lat="-26.98359" lon="-48.634158"><ele>-15</ele></trkpt><trkpt lat="-26.983588" lon="-48.634155"><ele>-14.8</ele></trkpt><trkpt lat="-26.983592" lon="-48.634148"><ele>-14.9</ele></trkpt><trkpt lat="-26.983595" lon="-48.63414"><ele>-14.9</ele></trkpt><trkpt lat="-26.983603" lon="-48.634135"><ele>-14.7</ele></trkpt><trkpt lat="-26.983612" lon="-48.634132"><ele>-14.6</ele></trkpt><trkpt lat="-26.983615" lon="-48.634128"><ele>-14.6</ele></trkpt><trkpt lat="-26.983615" lon="-48.634127"><ele>-14.5</ele></trkpt><trkpt lat="-26.98362" lon="-48.634127"><ele>-14.5</ele></trkpt><trkpt lat="-26.98362" lon="-48.634127"><ele>-14.5</ele></trkpt><trkpt lat="-26.98362" lon="-48.634127"><ele>-14.5</ele></trkpt><trkpt lat="-26.98362" lon="-48.634127"><ele>-14.5</ele></trkpt><trkpt lat="-26.983617" lon="-48.634137"><ele>-14.3</ele></trkpt><trkpt lat="-26.983613" lon="-48.634135"><ele>-14.2</ele></trkpt><trkpt lat="-26.98361" lon="-48.634138"><ele>-14.2</ele></trkpt><trkpt lat="-26.983613" lon="-48.634138"><ele>-14.1</ele></trkpt><trkpt lat="-26.983615" lon="-48.634138"><ele>-14</ele></trkpt><trkpt lat="-26.983618" lon="-48.634138"><ele>-14</ele></trkpt><trkpt lat="-26.983618" lon="-48.634138"><ele>-14</ele></trkpt><trkpt lat="-26.983618" lon="-48.634138"><ele>-14</ele></trkpt><trkpt lat="-26.983618" lon="-48.634138"><ele>-14</ele></trkpt><trkpt lat="-26.983618" lon="-48.634138"><ele>-14</ele></trkpt><trkpt lat="-26.983618" lon="-48.634138"><ele>-14</ele></trkpt><trkpt lat="-26.983618" lon="-48.634138"><ele>-14</ele></trkpt><trkpt lat="-26.983618" lon="-48.634138"><ele>-14</ele></trkpt><trkpt lat="-26.983618" lon="-48.634138"><ele>-14</ele></trkpt><trkpt lat="-26.983618" lon="-48.634138"><ele>-14</ele></trkpt><trkpt lat="-26.983618" lon="-48.634138"><ele>-14</ele></trkpt><trkpt lat="-26.983618" lon="-48.634138"><ele>-14</ele></trkpt><trkpt lat="-26.983618" lon="-48.634138"><ele>-14</ele></trkpt><trkpt lat="-26.983618" lon="-48.634138"><ele>-14</ele></trkpt><trkpt lat="-26.983618" lon="-48.634138"><ele>-14</ele></trkpt><trkpt lat="-26.983618" lon="-48.634138"><ele>-14</ele></trkpt><trkpt lat="-26.983618" lon="-48.634138"><ele>-14</ele></trkpt><trkpt lat="-26.983618" lon="-48.634138"><ele>-14</ele></trkpt><trkpt lat="-26.983618" lon="-48.634138"><ele>-14</ele></trkpt><trkpt lat="-26.983618" lon="-48.634138"><ele>-14</ele></trkpt><trkpt lat="-26.983618" lon="-48.634138"><ele>-14</ele></trkpt><trkpt lat="-26.983618" lon="-48.634138"><ele>-14</ele></trkpt><trkpt lat="-26.983618" lon="-48.634138"><ele>-14</ele></trkpt><trkpt lat="-26.983618" lon="-48.634138"><ele>-14</ele></trkpt><trkpt lat="-26.983618" lon="-48.634138"><ele>-14</ele></trkpt><trkpt lat="-26.983618" lon="-48.634138"><ele>-14</ele></trkpt><trkpt lat="-26.983618" lon="-48.634138"><ele>-14</ele></trkpt><trkpt lat="-26.983618" lon="-48.634138"><ele>-14</ele></trkpt><trkpt lat="-26.983618" lon="-48.634138"><ele>-14</ele></trkpt><trkpt lat="-26.983618" lon="-48.634138"><ele>-14</ele></trkpt><trkpt lat="-26.983618" lon="-48.634138"><ele>-14</ele></trkpt><trkpt lat="-26.983618" lon="-48.634138"><ele>-14</ele></trkpt><trkpt lat="-26.983618" lon="-48.634138"><ele>-14</ele></trkpt><trkpt lat="-26.983618" lon="-48.634138"><ele>-14</ele></trkpt><trkpt lat="-26.983618" lon="-48.634138"><ele>-14</ele></trkpt><trkpt lat="-26.983618" lon="-48.634138"><ele>-14</ele></trkpt><trkpt lat="-26.983618" lon="-48.634138"><ele>-14</ele></trkpt><trkpt lat="-26.983618" lon="-48.634138"><ele>-14</ele></trkpt><trkpt lat="-26.983618" lon="-48.634138"><ele>-14</ele></trkpt><trkpt lat="-26.983618" lon="-48.634138"><ele>-14</ele></trkpt><trkpt lat="-26.983618" lon="-48.634138"><ele>-14</ele></trkpt><trkpt lat="-26.983617" lon="-48.634112"><ele>-6.5</ele></trkpt><trkpt lat="-26.983617" lon="-48.634117"><ele>-6.6</ele></trkpt><trkpt lat="-26.98364" lon="-48.634177"><ele>-6.5</ele></trkpt><trkpt lat="-26.983667" lon="-48.634188"><ele>-6.7</ele></trkpt><trkpt lat="-26.98369" lon="-48.634193"><ele>-6.8</ele></trkpt><trkpt lat="-26.983702" lon="-48.634188"><ele>-6.9</ele></trkpt><trkpt lat="-26.983715" lon="-48.63418"><ele>-6.9</ele></trkpt><trkpt lat="-26.983712" lon="-48.634172"><ele>-6.6</ele></trkpt><trkpt lat="-26.983707" lon="-48.63416"><ele>-6.4</ele></trkpt><trkpt lat="-26.983698" lon="-48.634153"><ele>-6.3</ele></trkpt><trkpt lat="-26.983695" lon="-48.634148"><ele>-6.1</ele></trkpt><trkpt lat="-26.98369" lon="-48.634143"><ele>-6</ele></trkpt><trkpt lat="-26.983682" lon="-48.634133"><ele>-6.1</ele></trkpt><trkpt lat="-26.983675" lon="-48.634123"><ele>-6</ele></trkpt><trkpt lat="-26.983667" lon="-48.634113"><ele>-6.1</ele></trkpt><trkpt lat="-26.983662" lon="-48.634105"><ele>-6.2</ele></trkpt><trkpt lat="-26.983657" lon="-48.634098"><ele>-6.4</ele></trkpt><trkpt lat="-26.983652" lon="-48.634098"><ele>-6.6</ele></trkpt><trkpt lat="-26.98365" lon="-48.634098"><ele>-6.8</ele></trkpt><trkpt lat="-26.98365" lon="-48.634098"><ele>-6.8</ele></trkpt><trkpt lat="-26.983648" lon="-48.6341"><ele>-6.9</ele></trkpt><trkpt lat="-26.983643" lon="-48.6341"><ele>-6.9</ele></trkpt><trkpt lat="-26.983643" lon="-48.6341"><ele>-7</ele></trkpt><trkpt lat="-26.983638" lon="-48.6341"><ele>-7.1</ele></trkpt><trkpt lat="-26.983637" lon="-48.634098"><ele>-7</ele></trkpt><trkpt lat="-26.983638" lon="-48.6341"><ele>-7</ele></trkpt><trkpt lat="-26.98364" lon="-48.6341"><ele>-7</ele></trkpt><trkpt lat="-26.983642" lon="-48.6341"><ele>-7</ele></trkpt><trkpt lat="-26.983642" lon="-48.6341"><ele>-7</ele></trkpt><trkpt lat="-26.983642" lon="-48.634102"><ele>-7</ele></trkpt><trkpt lat="-26.983645" lon="-48.634103"><ele>-7</ele></trkpt><trkpt lat="-26.983647" lon="-48.634102"><ele>-6.9</ele></trkpt><trkpt lat="-26.983648" lon="-48.634102"><ele>-6.9</ele></trkpt><trkpt lat="-26.983647" lon="-48.634102"><ele>-6.8</ele></trkpt><trkpt lat="-26.983645" lon="-48.634103"><ele>-6.8</ele></trkpt><trkpt lat="-26.983647" lon="-48.634107"><ele>-6.7</ele></trkpt><trkpt lat="-26.983648" lon="-48.634108"><ele>-6.6</ele></trkpt><trkpt lat="-26.983647" lon="-48.634105"><ele>-6.5</ele></trkpt><trkpt lat="-26.983647" lon="-48.634105"><ele>-6.5</ele></trkpt><trkpt lat="-26.983647" lon="-48.634105"><ele>-6.5</ele></trkpt><trkpt lat="-26.983647" lon="-48.634105"><ele>-6.5</ele></trkpt><trkpt lat="-26.983647" lon="-48.634105"><ele>-6.5</ele></trkpt><trkpt lat="-26.983647" lon="-48.634105"><ele>-6.5</ele></trkpt><trkpt lat="-26.983647" lon="-48.634105"><ele>-6.5</ele></trkpt><trkpt lat="-26.983647" lon="-48.634105"><ele>-6.5</ele></trkpt><trkpt lat="-26.983647" lon="-48.634105"><ele>-6.5</ele></trkpt><trkpt lat="-26.983647" lon="-48.634105"><ele>-6.5</ele></trkpt><trkpt lat="-26.983647" lon="-48.634105"><ele>-6.5</ele></trkpt><trkpt lat="-26.983647" lon="-48.634105"><ele>-6.5</ele></trkpt><trkpt lat="-26.983647" lon="-48.634105"><ele>-6.5</ele></trkpt><trkpt lat="-26.983647" lon="-48.634105"><ele>-6.5</ele></trkpt><trkpt lat="-26.983647" lon="-48.634105"><ele>-6.5</ele></trkpt><trkpt lat="-26.983647" lon="-48.634105"><ele>-6.5</ele></trkpt><trkpt lat="-26.983647" lon="-48.634105"><ele>-6.5</ele></trkpt><trkpt lat="-26.983647" lon="-48.634105"><ele>-6.5</ele></trkpt><trkpt lat="-26.983647" lon="-48.634105"><ele>-6.5</ele></trkpt><trkpt lat="-26.983647" lon="-48.634105"><ele>-6.5</ele></trkpt><trkpt lat="-26.983647" lon="-48.634105"><ele>-6.5</ele></trkpt><trkpt lat="-26.983647" lon="-48.634105"><ele>-6.5</ele></trkpt><trkpt lat="-26.983647" lon="-48.634105"><ele>-6.5</ele></trkpt><trkpt lat="-26.983647" lon="-48.634105"><ele>-6.5</ele></trkpt><trkpt lat="-26.983647" lon="-48.634105"><ele>-6.5</ele></trkpt><trkpt lat="-26.983647" lon="-48.634105"><ele>-6.5</ele></trkpt><trkpt lat="-26.983647" lon="-48.634105"><ele>-6.5</ele></trkpt><trkpt lat="-26.983647" lon="-48.634105"><ele>-6.5</ele></trkpt><trkpt lat="-26.983647" lon="-48.634105"><ele>-6.5</ele></trkpt><trkpt lat="-26.983647" lon="-48.634105"><ele>-6.5</ele></trkpt><trkpt lat="-26.983647" lon="-48.634105"><ele>-6.5</ele></trkpt><trkpt lat="-26.983647" lon="-48.634105"><ele>-6.5</ele></trkpt><trkpt lat="-26.983647" lon="-48.634105"><ele>-6.5</ele></trkpt><trkpt lat="-26.983647" lon="-48.634105"><ele>-6.5</ele></trkpt><trkpt lat="-26.983647" lon="-48.634105"><ele>-6.5</ele></trkpt><trkpt lat="-26.983647" lon="-48.634105"><ele>-6.5</ele></trkpt><trkpt lat="-26.983647" lon="-48.634105"><ele>-6.5</ele></trkpt><trkpt lat="-26.983647" lon="-48.634105"><ele>-6.5</ele></trkpt><trkpt lat="-26.983647" lon="-48.634105"><ele>-6.5</ele></trkpt><trkpt lat="-26.983647" lon="-48.634105"><ele>-6.5</ele></trkpt><trkpt lat="-26.983647" lon="-48.634105"><ele>-6.5</ele></trkpt><trkpt lat="-26.983647" lon="-48.634105"><ele>-6.5</ele></trkpt><trkpt lat="-26.983647" lon="-48.634105"><ele>-6.5</ele></trkpt><trkpt lat="-26.983647" lon="-48.634105"><ele>-6.5</ele></trkpt><trkpt lat="-26.983647" lon="-48.634105"><ele>-6.5</ele></trkpt><trkpt lat="-26.983647" lon="-48.634105"><ele>-6.5</ele></trkpt><trkpt lat="-26.983647" lon="-48.634105"><ele>-6.5</ele></trkpt><trkpt lat="-26.983647" lon="-48.634105"><ele>-6.5</ele></trkpt><trkpt lat="-26.983647" lon="-48.634105"><ele>-6.5</ele></trkpt><trkpt lat="-26.983647" lon="-48.634105"><ele>-6.5</ele></trkpt><trkpt lat="-26.983647" lon="-48.634105"><ele>-6.5</ele></trkpt><trkpt lat="-26.983647" lon="-48.634105"><ele>-6.5</ele></trkpt><trkpt lat="-26.983647" lon="-48.634105"><ele>-6.5</ele></trkpt><trkpt lat="-26.983647" lon="-48.634105"><ele>-6.5</ele></trkpt><trkpt lat="-26.983647" lon="-48.634105"><ele>-6.5</ele></trkpt><trkpt lat="-26.983647" lon="-48.634105"><ele>-6.5</ele></trkpt><trkpt lat="-26.983647" lon="-48.634105"><ele>-6.5</ele></trkpt><trkpt lat="-26.983647" lon="-48.634105"><ele>-6.5</ele></trkpt><trkpt lat="-26.983647" lon="-48.634105"><ele>-6.5</ele></trkpt><trkpt lat="-26.983647" lon="-48.634105"><ele>-6.5</ele></trkpt><trkpt lat="-26.983647" lon="-48.634105"><ele>-6.5</ele></trkpt><trkpt lat="-26.983647" lon="-48.634105"><ele>-6.5</ele></trkpt><trkpt lat="-26.983647" lon="-48.634105"><ele>-6.5</ele></trkpt><trkpt lat="-26.983647" lon="-48.634105"><ele>-6.5</ele></trkpt><trkpt lat="-26.983647" lon="-48.634105"><ele>-6.5</ele></trkpt><trkpt lat="-26.983647" lon="-48.634105"><ele>-6.5</ele></trkpt><trkpt lat="-26.983647" lon="-48.634105"><ele>-6.5</ele></trkpt><trkpt lat="-26.983647" lon="-48.634105"><ele>-6.5</ele></trkpt><trkpt lat="-26.983647" lon="-48.634105"><ele>-6.5</ele></trkpt><trkpt lat="-26.983647" lon="-48.634105"><ele>-6.5</ele></trkpt><trkpt lat="-26.983647" lon="-48.634105"><ele>-6.5</ele></trkpt><trkpt lat="-26.983647" lon="-48.634105"><ele>-6.5</ele></trkpt><trkpt lat="-26.983647" lon="-48.634105"><ele>-6.5</ele></trkpt><trkpt lat="-26.983647" lon="-48.634105"><ele>-6.5</ele></trkpt><trkpt lat="-26.983647" lon="-48.634105"><ele>-6.5</ele></trkpt><trkpt lat="-26.983647" lon="-48.634105"><ele>-6.5</ele></trkpt><trkpt lat="-26.983647" lon="-48.634105"><ele>-6.5</ele></trkpt><trkpt lat="-26.983647" lon="-48.634105"><ele>-6.5</ele></trkpt><trkpt lat="-26.983647" lon="-48.634105"><ele>-6.5</ele></trkpt><trkpt lat="-26.983647" lon="-48.634105"><ele>-6.5</ele></trkpt><trkpt lat="-26.983647" lon="-48.634105"><ele>-6.5</ele></trkpt><trkpt lat="-26.983647" lon="-48.634105"><ele>-6.5</ele></trkpt><trkpt lat="-26.983647" lon="-48.634105"><ele>-6.5</ele></trkpt><trkpt lat="-26.983647" lon="-48.634105"><ele>-6.5</ele></trkpt><trkpt lat="-26.983647" lon="-48.634105"><ele>-6.5</ele></trkpt><trkpt lat="-26.983647" lon="-48.634105"><ele>-6.5</ele></trkpt><trkpt lat="-26.983647" lon="-48.634105"><ele>-6.5</ele></trkpt><trkpt lat="-26.983647" lon="-48.634105"><ele>-6.5</ele></trkpt><trkpt lat="-26.983647" lon="-48.634105"><ele>-6.5</ele></trkpt><trkpt lat="-26.983647" lon="-48.634105"><ele>-6.5</ele></trkpt><trkpt lat="-26.983647" lon="-48.634105"><ele>-6.5</ele></trkpt><trkpt lat="-26.983647" lon="-48.634105"><ele>-6.5</ele></trkpt><trkpt lat="-26.983647" lon="-48.634105"><ele>-6.5</ele></trkpt><trkpt lat="-26.983647" lon="-48.634105"><ele>-6.5</ele></trkpt><trkpt lat="-26.983647" lon="-48.634105"><ele>-6.5</ele></trkpt><trkpt lat="-26.983647" lon="-48.634105"><ele>-6.5</ele></trkpt><trkpt lat="-26.983647" lon="-48.634105"><ele>-6.5</ele></trkpt><trkpt lat="-26.983647" lon="-48.634105"><ele>-6.5</ele></trkpt><trkpt lat="-26.983647" lon="-48.634105"><ele>-6.5</ele></trkpt><trkpt lat="-26.983647" lon="-48.634105"><ele>-6.5</ele></trkpt><trkpt lat="-26.983647" lon="-48.634105"><ele>-6.5</ele></trkpt><trkpt lat="-26.983647" lon="-48.634105"><ele>-6.5</ele></trkpt><trkpt lat="-26.983647" lon="-48.634105"><ele>-6.5</ele></trkpt><trkpt lat="-26.983647" lon="-48.634105"><ele>-6.5</ele></trkpt><trkpt lat="-26.983647" lon="-48.634105"><ele>-6.5</ele></trkpt><trkpt lat="-26.983647" lon="-48.634105"><ele>-6.5</ele></trkpt><trkpt lat="-26.983647" lon="-48.634105"><ele>-6.5</ele></trkpt><trkpt lat="-26.983647" lon="-48.634105"><ele>-6.5</ele></trkpt><trkpt lat="-26.983647" lon="-48.634105"><ele>-6.5</ele></trkpt><trkpt lat="-26.983647" lon="-48.634105"><ele>-6.5</ele></trkpt><trkpt lat="-26.983647" lon="-48.634105"><ele>-6.5</ele></trkpt><trkpt lat="-26.983647" lon="-48.634105"><ele>-6.5</ele></trkpt><trkpt lat="-26.983647" lon="-48.634105"><ele>-6.5</ele></trkpt><trkpt lat="-26.983647" lon="-48.634105"><ele>-6.5</ele></trkpt><trkpt lat="-26.983647" lon="-48.634105"><ele>-6.5</ele></trkpt><trkpt lat="-26.983647" lon="-48.634105"><ele>-6.5</ele></trkpt><trkpt lat="-26.983647" lon="-48.634105"><ele>-6.5</ele></trkpt><trkpt lat="-26.983647" lon="-48.634105"><ele>-6.5</ele></trkpt><trkpt lat="-26.983647" lon="-48.634105"><ele>-6.5</ele></trkpt><trkpt lat="-26.983647" lon="-48.634105"><ele>-6.5</ele></trkpt><trkpt lat="-26.983647" lon="-48.634105"><ele>-6.5</ele></trkpt><trkpt lat="-26.983647" lon="-48.634105"><ele>-6.5</ele></trkpt><trkpt lat="-26.983647" lon="-48.634105"><ele>-6.5</ele></trkpt><trkpt lat="-26.983647" lon="-48.634105"><ele>-6.5</ele></trkpt><trkpt lat="-26.983647" lon="-48.634105"><ele>-6.5</ele></trkpt><trkpt lat="-26.983647" lon="-48.634105"><ele>-6.5</ele></trkpt><trkpt lat="-26.983647" lon="-48.634105"><ele>-6.5</ele></trkpt><trkpt lat="-26.983647" lon="-48.634105"><ele>-6.5</ele></trkpt><trkpt lat="-26.983647" lon="-48.634105"><ele>-6.5</ele></trkpt><trkpt lat="-26.983647" lon="-48.634105"><ele>-6.5</ele></trkpt><trkpt lat="-26.983647" lon="-48.634105"><ele>-6.5</ele></trkpt><trkpt lat="-26.983647" lon="-48.634105"><ele>-6.5</ele></trkpt><trkpt lat="-26.983647" lon="-48.634105"><ele>-6.5</ele></trkpt><trkpt lat="-26.983647" lon="-48.634105"><ele>-6.5</ele></trkpt><trkpt lat="-26.983647" lon="-48.634105"><ele>-6.5</ele></trkpt><trkpt lat="-26.983647" lon="-48.634105"><ele>-6.5</ele></trkpt><trkpt lat="-26.983647" lon="-48.634105"><ele>-6.5</ele></trkpt><trkpt lat="-26.983647" lon="-48.634105"><ele>-6.5</ele></trkpt><trkpt lat="-26.983647" lon="-48.634105"><ele>-6.5</ele></trkpt><trkpt lat="-26.983647" lon="-48.634105"><ele>-6.5</ele></trkpt><trkpt lat="-26.983647" lon="-48.634105"><ele>-6.5</ele></trkpt><trkpt lat="-26.983647" lon="-48.634105"><ele>-6.5</ele></trkpt><trkpt lat="-26.983647" lon="-48.634105"><ele>-6.5</ele></trkpt><trkpt lat="-26.983647" lon="-48.634105"><ele>-6.5</ele></trkpt><trkpt lat="-26.983647" lon="-48.634105"><ele>-6.5</ele></trkpt><trkpt lat="-26.983647" lon="-48.634105"><ele>-6.5</ele></trkpt><trkpt lat="-26.983647" lon="-48.634105"><ele>-6.5</ele></trkpt><trkpt lat="-26.983647" lon="-48.634105"><ele>-6.5</ele></trkpt><trkpt lat="-26.983647" lon="-48.634105"><ele>-6.5</ele></trkpt><trkpt lat="-26.983647" lon="-48.634105"><ele>-6.5</ele></trkpt><trkpt lat="-26.983647" lon="-48.634105"><ele>-6.5</ele></trkpt><trkpt lat="-26.983647" lon="-48.634105"><ele>-6.5</ele></trkpt><trkpt lat="-26.983647" lon="-48.634105"><ele>-6.5</ele></trkpt><trkpt lat="-26.983647" lon="-48.634105"><ele>-6.5</ele></trkpt><trkpt lat="-26.983647" lon="-48.634105"><ele>-6.5</ele></trkpt><trkpt lat="-26.983647" lon="-48.634105"><ele>-6.5</ele></trkpt><trkpt lat="-26.983647" lon="-48.634105"><ele>-6.5</ele></trkpt><trkpt lat="-26.983647" lon="-48.634105"><ele>-6.5</ele></trkpt><trkpt lat="-26.983647" lon="-48.634105"><ele>-6.5</ele></trkpt><trkpt lat="-26.983647" lon="-48.634105"><ele>-6.5</ele></trkpt><trkpt lat="-26.983647" lon="-48.634105"><ele>-6.5</ele></trkpt><trkpt lat="-26.983647" lon="-48.634105"><ele>-6.5</ele></trkpt><trkpt lat="-26.983647" lon="-48.634105"><ele>-6.5</ele></trkpt><trkpt lat="-26.983653" lon="-48.634147"><ele>-4.6</ele></trkpt><trkpt lat="-26.983657" lon="-48.634155"><ele>-4.6</ele></trkpt><trkpt lat="-26.983663" lon="-48.634165"><ele>-4.5</ele></trkpt><trkpt lat="-26.983673" lon="-48.634173"><ele>-4.5</ele></trkpt><trkpt lat="-26.98368" lon="-48.634178"><ele>-4.4</ele></trkpt><trkpt lat="-26.983683" lon="-48.634183"><ele>-4.3</ele></trkpt><trkpt lat="-26.983687" lon="-48.634192"><ele>-4.2</ele></trkpt><trkpt lat="-26.983693" lon="-48.634202"><ele>-4.2</ele></trkpt><trkpt lat="-26.983698" lon="-48.634205"><ele>-4.2</ele></trkpt><trkpt lat="-26.983707" lon="-48.634212"><ele>-4.1</ele></trkpt><trkpt lat="-26.983708" lon="-48.634205"><ele>-4.2</ele></trkpt><trkpt lat="-26.983707" lon="-48.634198"><ele>-4.1</ele></trkpt><trkpt lat="-26.983708" lon="-48.634195"><ele>-4.1</ele></trkpt><trkpt lat="-26.98371" lon="-48.634198"><ele>-3.6</ele></trkpt><trkpt lat="-26.983708" lon="-48.634202"><ele>-3.3</ele></trkpt><trkpt lat="-26.983708" lon="-48.634207"><ele>-3.1</ele></trkpt><trkpt lat="-26.983708" lon="-48.634207"><ele>-3.1</ele></trkpt><trkpt lat="-26.983708" lon="-48.634207"><ele>-3.1</ele></trkpt><trkpt lat="-26.983702" lon="-48.634213"><ele>-2.3</ele></trkpt><trkpt lat="-26.983702" lon="-48.634218"><ele>-2.3</ele></trkpt><trkpt lat="-26.9837" lon="-48.634223"><ele>-2.1</ele></trkpt><trkpt lat="-26.983703" lon="-48.634228"><ele>-2.2</ele></trkpt><trkpt lat="-26.9837" lon="-48.634228"><ele>-2</ele></trkpt><trkpt lat="-26.983702" lon="-48.63423"><ele>-2</ele></trkpt><trkpt lat="-26.983702" lon="-48.63423"><ele>-1.9</ele></trkpt><trkpt lat="-26.983703" lon="-48.634235"><ele>-1.7</ele></trkpt><trkpt lat="-26.983707" lon="-48.634235"><ele>-1.5</ele></trkpt><trkpt lat="-26.983708" lon="-48.634233"><ele>-1.3</ele></trkpt><trkpt lat="-26.98371" lon="-48.634232"><ele>-1.1</ele></trkpt><trkpt lat="-26.983712" lon="-48.63423"><ele>-0.9</ele></trkpt><trkpt lat="-26.983712" lon="-48.63423"><ele>-0.9</ele></trkpt><trkpt lat="-26.983712" lon="-48.63423"><ele>-0.9</ele></trkpt><trkpt lat="-26.983712" lon="-48.63423"><ele>-0.9</ele></trkpt><trkpt lat="-26.983712" lon="-48.63423"><ele>-0.9</ele></trkpt><trkpt lat="-26.983712" lon="-48.63423"><ele>-0.9</ele></trkpt><trkpt lat="-26.983712" lon="-48.63423"><ele>-0.9</ele></trkpt><trkpt lat="-26.983712" lon="-48.63423"><ele>-0.9</ele></trkpt><trkpt lat="-26.983712" lon="-48.63423"><ele>-0.9</ele></trkpt><trkpt lat="-26.983712" lon="-48.63423"><ele>-0.9</ele></trkpt><trkpt lat="-26.983712" lon="-48.63423"><ele>-0.9</ele></trkpt><trkpt lat="-26.983712" lon="-48.63423"><ele>-0.9</ele></trkpt><trkpt lat="-26.983712" lon="-48.63423"><ele>-0.9</ele></trkpt><trkpt lat="-26.983712" lon="-48.63423"><ele>-0.9</ele></trkpt><trkpt lat="-26.983712" lon="-48.63423"><ele>-0.9</ele></trkpt><trkpt lat="-26.983712" lon="-48.63423"><ele>-0.9</ele></trkpt><trkpt lat="-26.983712" lon="-48.63423"><ele>-0.9</ele></trkpt><trkpt lat="-26.983712" lon="-48.63423"><ele>-0.9</ele></trkpt><trkpt lat="-26.983712" lon="-48.63423"><ele>-0.9</ele></trkpt><trkpt lat="-26.983712" lon="-48.63423"><ele>-0.9</ele></trkpt><trkpt lat="-26.983712" lon="-48.63423"><ele>-0.9</ele></trkpt><trkpt lat="-26.983712" lon="-48.63423"><ele>-0.9</ele></trkpt><trkpt lat="-26.983712" lon="-48.63423"><ele>-0.9</ele></trkpt><trkpt lat="-26.983712" lon="-48.63423"><ele>-0.9</ele></trkpt><trkpt lat="-26.983712" lon="-48.63423"><ele>-0.9</ele></trkpt><trkpt lat="-26.983712" lon="-48.63423"><ele>-0.9</ele></trkpt><trkpt lat="-26.983712" lon="-48.63423"><ele>-0.9</ele></trkpt><trkpt lat="-26.983712" lon="-48.63423"><ele>-0.9</ele></trkpt><trkpt lat="-26.983712" lon="-48.63423"><ele>-0.9</ele></trkpt><trkpt lat="-26.983712" lon="-48.63423"><ele>-0.9</ele></trkpt><trkpt lat="-26.983712" lon="-48.63423"><ele>-0.9</ele></trkpt><trkpt lat="-26.983712" lon="-48.63423"><ele>-0.9</ele></trkpt><trkpt lat="-26.983712" lon="-48.63423"><ele>-0.9</ele></trkpt><trkpt lat="-26.983712" lon="-48.63423"><ele>-0.9</ele></trkpt><trkpt lat="-26.983712" lon="-48.63423"><ele>-0.9</ele></trkpt><trkpt lat="-26.983712" lon="-48.63423"><ele>-0.9</ele></trkpt><trkpt lat="-26.983712" lon="-48.63423"><ele>-0.9</ele></trkpt><trkpt lat="-26.983712" lon="-48.63423"><ele>-0.9</ele></trkpt><trkpt lat="-26.983712" lon="-48.63423"><ele>-0.9</ele></trkpt><trkpt lat="-26.983712" lon="-48.63423"><ele>-0.9</ele></trkpt><trkpt lat="-26.983802" lon="-48.63423"><ele>-3.9</ele></trkpt><trkpt lat="-26.983805" lon="-48.634232"><ele>-3.9</ele></trkpt><trkpt lat="-26.983803" lon="-48.634232"><ele>-4</ele></trkpt><trkpt lat="-26.983803" lon="-48.634233"><ele>-4.1</ele></trkpt><trkpt lat="-26.983803" lon="-48.634233"><ele>-4.1</ele></trkpt><trkpt lat="-26.983803" lon="-48.634233"><ele>-4.1</ele></trkpt><trkpt lat="-26.983803" lon="-48.634233"><ele>-4.1</ele></trkpt><trkpt lat="-26.983803" lon="-48.634233"><ele>-4.1</ele></trkpt><trkpt lat="-26.983803" lon="-48.634233"><ele>-4.1</ele></trkpt><trkpt lat="-26.983803" lon="-48.634233"><ele>-4.1</ele></trkpt><trkpt lat="-26.983803" lon="-48.634233"><ele>-4.1</ele></trkpt><trkpt lat="-26.983803" lon="-48.634233"><ele>-4.1</ele></trkpt><trkpt lat="-26.983803" lon="-48.634233"><ele>-4.1</ele></trkpt><trkpt lat="-26.983803" lon="-48.634233"><ele>-4.1</ele></trkpt><trkpt lat="-26.983803" lon="-48.634233"><ele>-4.1</ele></trkpt><trkpt lat="-26.983803" lon="-48.634233"><ele>-4.1</ele></trkpt><trkpt lat="-26.983803" lon="-48.634233"><ele>-4.1</ele></trkpt><trkpt lat="-26.983803" lon="-48.634233"><ele>-4.1</ele></trkpt><trkpt lat="-26.983803" lon="-48.634233"><ele>-4.1</ele></trkpt><trkpt lat="-26.983803" lon="-48.634233"><ele>-4.1</ele></trkpt><trkpt lat="-26.983803" lon="-48.634233"><ele>-4.1</ele></trkpt><trkpt lat="-26.983803" lon="-48.634233"><ele>-4.1</ele></trkpt><trkpt lat="-26.983803" lon="-48.634233"><ele>-4.1</ele></trkpt><trkpt lat="-26.983803" lon="-48.634233"><ele>-4.1</ele></trkpt><trkpt lat="-26.983803" lon="-48.634233"><ele>-4.1</ele></trkpt><trkpt lat="-26.983803" lon="-48.634233"><ele>-4.1</ele></trkpt><trkpt lat="-26.983803" lon="-48.634233"><ele>-4.1</ele></trkpt><trkpt lat="-26.983803" lon="-48.634233"><ele>-4.1</ele></trkpt><trkpt lat="-26.983803" lon="-48.634233"><ele>-4.1</ele></trkpt><trkpt lat="-26.983803" lon="-48.634233"><ele>-4.1</ele></trkpt><trkpt lat="-26.983803" lon="-48.634233"><ele>-4.1</ele></trkpt><trkpt lat="-26.983803" lon="-48.634233"><ele>-4.1</ele></trkpt><trkpt lat="-26.983803" lon="-48.634233"><ele>-4.1</ele></trkpt><trkpt lat="-26.983803" lon="-48.634233"><ele>-4.1</ele></trkpt><trkpt lat="-26.983803" lon="-48.634233"><ele>-4.1</ele></trkpt><trkpt lat="-26.983803" lon="-48.634233"><ele>-4.1</ele></trkpt><trkpt lat="-26.983803" lon="-48.634233"><ele>-4.1</ele></trkpt><trkpt lat="-26.983803" lon="-48.634233"><ele>-4.1</ele></trkpt><trkpt lat="-26.983803" lon="-48.634233"><ele>-4.1</ele></trkpt><trkpt lat="-26.983803" lon="-48.634233"><ele>-4.1</ele></trkpt><trkpt lat="-26.983803" lon="-48.634233"><ele>-4.1</ele></trkpt><trkpt lat="-26.983803" lon="-48.634233"><ele>-4.1</ele></trkpt><trkpt lat="-26.98372" lon="-48.634198"><ele>-4</ele></trkpt><trkpt lat="-26.983715" lon="-48.634197"><ele>-4.1</ele></trkpt><trkpt lat="-26.983712" lon="-48.634197"><ele>-4.1</ele></trkpt><trkpt lat="-26.983708" lon="-48.634197"><ele>-4.2</ele></trkpt><trkpt lat="-26.983708" lon="-48.634197"><ele>-4.2</ele></trkpt><trkpt lat="-26.983708" lon="-48.634197"><ele>-4.2</ele></trkpt><trkpt lat="-26.983708" lon="-48.634197"><ele>-4.2</ele></trkpt><trkpt lat="-26.983708" lon="-48.634197"><ele>-4.2</ele></trkpt><trkpt lat="-26.983708" lon="-48.634197"><ele>-4.2</ele></trkpt><trkpt lat="-26.983708" lon="-48.634197"><ele>-4.2</ele></trkpt><trkpt lat="-26.983708" lon="-48.634197"><ele>-4.2</ele></trkpt><trkpt lat="-26.983708" lon="-48.634197"><ele>-4.2</ele></trkpt><trkpt lat="-26.983708" lon="-48.634197"><ele>-4.2</ele></trkpt><trkpt lat="-26.983708" lon="-48.634197"><ele>-4.2</ele></trkpt><trkpt lat="-26.983708" lon="-48.634197"><ele>-4.2</ele></trkpt><trkpt lat="-26.983708" lon="-48.634197"><ele>-4.2</ele></trkpt><trkpt lat="-26.983708" lon="-48.634197"><ele>-4.2</ele></trkpt><trkpt lat="-26.983708" lon="-48.634197"><ele>-4.2</ele></trkpt><trkpt lat="-26.983708" lon="-48.634197"><ele>-4.2</ele></trkpt><trkpt lat="-26.983708" lon="-48.634197"><ele>-4.2</ele></trkpt><trkpt lat="-26.983708" lon="-48.634197"><ele>-4.2</ele></trkpt><trkpt lat="-26.983708" lon="-48.634197"><ele>-4.2</ele></trkpt><trkpt lat="-26.983708" lon="-48.634197"><ele>-4.2</ele></trkpt><trkpt lat="-26.983708" lon="-48.634197"><ele>-4.2</ele></trkpt><trkpt lat="-26.983708" lon="-48.634197"><ele>-4.2</ele></trkpt><trkpt lat="-26.983708" lon="-48.634197"><ele>-4.2</ele></trkpt><trkpt lat="-26.983708" lon="-48.634197"><ele>-4.2</ele></trkpt><trkpt lat="-26.983708" lon="-48.634197"><ele>-4.2</ele></trkpt><trkpt lat="-26.983708" lon="-48.634197"><ele>-4.2</ele></trkpt><trkpt lat="-26.983708" lon="-48.634197"><ele>-4.2</ele></trkpt><trkpt lat="-26.983708" lon="-48.634197"><ele>-4.2</ele></trkpt><trkpt lat="-26.983708" lon="-48.634197"><ele>-4.2</ele></trkpt><trkpt lat="-26.983708" lon="-48.634197"><ele>-4.2</ele></trkpt><trkpt lat="-26.983708" lon="-48.634197"><ele>-4.2</ele></trkpt><trkpt lat="-26.983708" lon="-48.634197"><ele>-4.2</ele></trkpt><trkpt lat="-26.983708" lon="-48.634197"><ele>-4.2</ele></trkpt><trkpt lat="-26.983708" lon="-48.634197"><ele>-4.2</ele></trkpt><trkpt lat="-26.983708" lon="-48.634197"><ele>-4.2</ele></trkpt><trkpt lat="-26.983708" lon="-48.634197"><ele>-4.2</ele></trkpt><trkpt lat="-26.983708" lon="-48.634197"><ele>-4.2</ele></trkpt><trkpt lat="-26.983708" lon="-48.634197"><ele>-4.2</ele></trkpt><trkpt lat="-26.983708" lon="-48.634197"><ele>-4.2</ele></trkpt><trkpt lat="-26.983708" lon="-48.634197"><ele>-4.2</ele></trkpt><trkpt lat="-26.983708" lon="-48.634197"><ele>-4.2</ele></trkpt><trkpt lat="-26.983708" lon="-48.634197"><ele>-4.2</ele></trkpt><trkpt lat="-26.983708" lon="-48.634197"><ele>-4.2</ele></trkpt><trkpt lat="-26.983708" lon="-48.634197"><ele>-4.2</ele></trkpt><trkpt lat="-26.983708" lon="-48.634197"><ele>-4.2</ele></trkpt><trkpt lat="-26.983708" lon="-48.634197"><ele>-4.2</ele></trkpt><trkpt lat="-26.983708" lon="-48.634197"><ele>-4.2</ele></trkpt><trkpt lat="-26.983708" lon="-48.634197"><ele>-4.2</ele></trkpt><trkpt lat="-26.983708" lon="-48.634197"><ele>-4.2</ele></trkpt><trkpt lat="-26.983708" lon="-48.634197"><ele>-4.2</ele></trkpt><trkpt lat="-26.983708" lon="-48.634197"><ele>-4.2</ele></trkpt><trkpt lat="-26.983708" lon="-48.634197"><ele>-4.2</ele></trkpt><trkpt lat="-26.983708" lon="-48.634197"><ele>-4.2</ele></trkpt><trkpt lat="-26.983708" lon="-48.634197"><ele>-4.2</ele></trkpt><trkpt lat="-26.983708" lon="-48.634197"><ele>-4.2</ele></trkpt><trkpt lat="-26.983708" lon="-48.634197"><ele>-4.2</ele></trkpt><trkpt lat="-26.983708" lon="-48.634197"><ele>-4.2</ele></trkpt><trkpt lat="-26.983708" lon="-48.634197"><ele>-4.2</ele></trkpt><trkpt lat="-26.983708" lon="-48.634197"><ele>-4.2</ele></trkpt><trkpt lat="-26.983708" lon="-48.634197"><ele>-4.2</ele></trkpt><trkpt lat="-26.983708" lon="-48.634197"><ele>-4.2</ele></trkpt><trkpt lat="-26.983708" lon="-48.634197"><ele>-4.2</ele></trkpt><trkpt lat="-26.983708" lon="-48.634197"><ele>-4.2</ele></trkpt><trkpt lat="-26.983708" lon="-48.634197"><ele>-4.2</ele></trkpt><trkpt lat="-26.983708" lon="-48.634197"><ele>-4.2</ele></trkpt><trkpt lat="-26.983708" lon="-48.634197"><ele>-4.2</ele></trkpt><trkpt lat="-26.983708" lon="-48.634197"><ele>-4.2</ele></trkpt><trkpt lat="-26.983708" lon="-48.634197"><ele>-4.2</ele></trkpt><trkpt lat="-26.983708" lon="-48.634197"><ele>-4.2</ele></trkpt><trkpt lat="-26.983708" lon="-48.634197"><ele>-4.2</ele></trkpt><trkpt lat="-26.983708" lon="-48.634197"><ele>-4.2</ele></trkpt><trkpt lat="-26.983708" lon="-48.634197"><ele>-4.2</ele></trkpt><trkpt lat="-26.983708" lon="-48.634197"><ele>-4.2</ele></trkpt><trkpt lat="-26.983708" lon="-48.634197"><ele>-4.2</ele></trkpt><trkpt lat="-26.983708" lon="-48.634197"><ele>-4.2</ele></trkpt><trkpt lat="-26.983708" lon="-48.634197"><ele>-4.2</ele></trkpt><trkpt lat="-26.983708" lon="-48.634197"><ele>-4.2</ele></trkpt><trkpt lat="-26.983708" lon="-48.634197"><ele>-4.2</ele></trkpt><trkpt lat="-26.983708" lon="-48.634197"><ele>-4.2</ele></trkpt><trkpt lat="-26.983708" lon="-48.634197"><ele>-4.2</ele></trkpt><trkpt lat="-26.983708" lon="-48.634197"><ele>-4.2</ele></trkpt><trkpt lat="-26.983708" lon="-48.634197"><ele>-4.2</ele></trkpt><trkpt lat="-26.983708" lon="-48.634197"><ele>-4.2</ele></trkpt><trkpt lat="-26.983708" lon="-48.634197"><ele>-4.2</ele></trkpt><trkpt lat="-26.983708" lon="-48.634197"><ele>-4.2</ele></trkpt><trkpt lat="-26.983708" lon="-48.634197"><ele>-4.2</ele></trkpt><trkpt lat="-26.983708" lon="-48.634197"><ele>-4.2</ele></trkpt><trkpt lat="-26.983708" lon="-48.634197"><ele>-4.2</ele></trkpt><trkpt lat="-26.983708" lon="-48.634197"><ele>-4.2</ele></trkpt><trkpt lat="-26.983708" lon="-48.634197"><ele>-4.2</ele></trkpt><trkpt lat="-26.983708" lon="-48.634197"><ele>-4.2</ele></trkpt><trkpt lat="-26.983708" lon="-48.634197"><ele>-4.2</ele></trkpt><trkpt lat="-26.983708" lon="-48.634197"><ele>-4.2</ele></trkpt><trkpt lat="-26.983708" lon="-48.634197"><ele>-4.2</ele></trkpt><trkpt lat="-26.983708" lon="-48.634197"><ele>-4.2</ele></trkpt><trkpt lat="-26.983708" lon="-48.634197"><ele>-4.2</ele></trkpt><trkpt lat="-26.983708" lon="-48.634197"><ele>-4.2</ele></trkpt><trkpt lat="-26.983708" lon="-48.634197"><ele>-4.2</ele></trkpt><trkpt lat="-26.983708" lon="-48.634197"><ele>-4.2</ele></trkpt><trkpt lat="-26.983708" lon="-48.634197"><ele>-4.2</ele></trkpt><trkpt lat="-26.983708" lon="-48.634197"><ele>-4.2</ele></trkpt><trkpt lat="-26.983708" lon="-48.634197"><ele>-4.2</ele></trkpt><trkpt lat="-26.983708" lon="-48.634197"><ele>-4.2</ele></trkpt><trkpt lat="-26.983708" lon="-48.634197"><ele>-4.2</ele></trkpt><trkpt lat="-26.983708" lon="-48.634197"><ele>-4.2</ele></trkpt><trkpt lat="-26.983708" lon="-48.634197"><ele>-4.2</ele></trkpt><trkpt lat="-26.983708" lon="-48.634197"><ele>-4.2</ele></trkpt><trkpt lat="-26.983708" lon="-48.634197"><ele>-4.2</ele></trkpt><trkpt lat="-26.983708" lon="-48.634197"><ele>-4.2</ele></trkpt><trkpt lat="-26.983708" lon="-48.634197"><ele>-4.2</ele></trkpt><trkpt lat="-26.983708" lon="-48.634197"><ele>-4.2</ele></trkpt><trkpt lat="-26.983708" lon="-48.634197"><ele>-4.2</ele></trkpt><trkpt lat="-26.983708" lon="-48.634197"><ele>-4.2</ele></trkpt><trkpt lat="-26.983708" lon="-48.634197"><ele>-4.2</ele></trkpt><trkpt lat="-26.983708" lon="-48.634197"><ele>-4.2</ele></trkpt><trkpt lat="-26.983708" lon="-48.634197"><ele>-4.2</ele></trkpt><trkpt lat="-26.983708" lon="-48.634197"><ele>-4.2</ele></trkpt><trkpt lat="-26.983708" lon="-48.634197"><ele>-4.2</ele></trkpt><trkpt lat="-26.983708" lon="-48.634197"><ele>-4.2</ele></trkpt><trkpt lat="-26.983708" lon="-48.634197"><ele>-4.2</ele></trkpt><trkpt lat="-26.983708" lon="-48.634197"><ele>-4.2</ele></trkpt><trkpt lat="-26.983708" lon="-48.634197"><ele>-4.2</ele></trkpt><trkpt lat="-26.983708" lon="-48.634197"><ele>-4.2</ele></trkpt><trkpt lat="-26.983708" lon="-48.634197"><ele>-4.2</ele></trkpt><trkpt lat="-26.983708" lon="-48.634197"><ele>-4.2</ele></trkpt><trkpt lat="-26.983708" lon="-48.634197"><ele>-4.2</ele></trkpt><trkpt lat="-26.983708" lon="-48.634197"><ele>-4.2</ele></trkpt><trkpt lat="-26.983708" lon="-48.634197"><ele>-4.2</ele></trkpt><trkpt lat="-26.983708" lon="-48.634197"><ele>-4.2</ele></trkpt><trkpt lat="-26.983708" lon="-48.634197"><ele>-4.2</ele></trkpt><trkpt lat="-26.983708" lon="-48.634197"><ele>-4.2</ele></trkpt><trkpt lat="-26.983708" lon="-48.634197"><ele>-4.2</ele></trkpt><trkpt lat="-26.983708" lon="-48.634197"><ele>-4.2</ele></trkpt><trkpt lat="-26.983708" lon="-48.634197"><ele>-4.2</ele></trkpt><trkpt lat="-26.983708" lon="-48.634197"><ele>-4.2</ele></trkpt><trkpt lat="-26.983708" lon="-48.634197"><ele>-4.2</ele></trkpt><trkpt lat="-26.983708" lon="-48.634197"><ele>-4.2</ele></trkpt><trkpt lat="-26.983708" lon="-48.634197"><ele>-4.2</ele></trkpt><trkpt lat="-26.983708" lon="-48.634197"><ele>-4.2</ele></trkpt><trkpt lat="-26.983708" lon="-48.634197"><ele>-4.2</ele></trkpt><trkpt lat="-26.983708" lon="-48.634197"><ele>-4.2</ele></trkpt><trkpt lat="-26.983708" lon="-48.634197"><ele>-4.2</ele></trkpt><trkpt lat="-26.983708" lon="-48.634197"><ele>-4.2</ele></trkpt><trkpt lat="-26.983708" lon="-48.634197"><ele>-4.2</ele></trkpt><trkpt lat="-26.983708" lon="-48.634197"><ele>-4.2</ele></trkpt><trkpt lat="-26.983708" lon="-48.634197"><ele>-4.2</ele></trkpt><trkpt lat="-26.983708" lon="-48.634197"><ele>-4.2</ele></trkpt><trkpt lat="-26.983708" lon="-48.634197"><ele>-4.2</ele></trkpt><trkpt lat="-26.983708" lon="-48.634197"><ele>-4.2</ele></trkpt><trkpt lat="-26.983708" lon="-48.634197"><ele>-4.2</ele></trkpt><trkpt lat="-26.983708" lon="-48.634197"><ele>-4.2</ele></trkpt><trkpt lat="-26.983618" lon="-48.634188"><ele>0.5</ele></trkpt><trkpt lat="-26.983618" lon="-48.634188"><ele>0.4</ele></trkpt><trkpt lat="-26.983618" lon="-48.63419"><ele>0.2</ele></trkpt><trkpt lat="-26.983618" lon="-48.634192"><ele>0.2</ele></trkpt><trkpt lat="-26.983618" lon="-48.634192"><ele>0.2</ele></trkpt><trkpt lat="-26.983618" lon="-48.634192"><ele>0.2</ele></trkpt><trkpt lat="-26.983618" lon="-48.634192"><ele>0.2</ele></trkpt><trkpt lat="-26.983618" lon="-48.634192"><ele>0.2</ele></trkpt><trkpt lat="-26.983618" lon="-48.634192"><ele>0.2</ele></trkpt><trkpt lat="-26.983618" lon="-48.634192"><ele>0.2</ele></trkpt><trkpt lat="-26.983618" lon="-48.634192"><ele>0.2</ele></trkpt><trkpt lat="-26.983618" lon="-48.634192"><ele>0.2</ele></trkpt><trkpt lat="-26.983618" lon="-48.634192"><ele>0.2</ele></trkpt><trkpt lat="-26.983618" lon="-48.634192"><ele>0.2</ele></trkpt><trkpt lat="-26.983618" lon="-48.634192"><ele>0.2</ele></trkpt><trkpt lat="-26.983618" lon="-48.634192"><ele>0.2</ele></trkpt><trkpt lat="-26.983618" lon="-48.634192"><ele>0.2</ele></trkpt><trkpt lat="-26.983618" lon="-48.634192"><ele>0.2</ele></trkpt><trkpt lat="-26.983618" lon="-48.634192"><ele>0.2</ele></trkpt><trkpt lat="-26.983618" lon="-48.634192"><ele>0.2</ele></trkpt><trkpt lat="-26.983618" lon="-48.634192"><ele>0.2</ele></trkpt><trkpt lat="-26.983618" lon="-48.634192"><ele>0.2</ele></trkpt><trkpt lat="-26.983618" lon="-48.634192"><ele>0.2</ele></trkpt><trkpt lat="-26.983618" lon="-48.634192"><ele>0.2</ele></trkpt><trkpt lat="-26.983618" lon="-48.634192"><ele>0.2</ele></trkpt><trkpt lat="-26.983618" lon="-48.634192"><ele>0.2</ele></trkpt><trkpt lat="-26.983618" lon="-48.634192"><ele>0.2</ele></trkpt><trkpt lat="-26.983618" lon="-48.634192"><ele>0.2</ele></trkpt><trkpt lat="-26.983618" lon="-48.634192"><ele>0.2</ele></trkpt><trkpt lat="-26.983618" lon="-48.634192"><ele>0.2</ele></trkpt><trkpt lat="-26.983618" lon="-48.634192"><ele>0.2</ele></trkpt><trkpt lat="-26.983618" lon="-48.634192"><ele>0.2</ele></trkpt><trkpt lat="-26.983618" lon="-48.634192"><ele>0.2</ele></trkpt><trkpt lat="-26.983618" lon="-48.634192"><ele>0.2</ele></trkpt><trkpt lat="-26.983618" lon="-48.634192"><ele>0.2</ele></trkpt><trkpt lat="-26.983618" lon="-48.634192"><ele>0.2</ele></trkpt><trkpt lat="-26.983618" lon="-48.634192"><ele>0.2</ele></trkpt><trkpt lat="-26.983618" lon="-48.634192"><ele>0.2</ele></trkpt><trkpt lat="-26.983618" lon="-48.634192"><ele>0.2</ele></trkpt><trkpt lat="-26.983618" lon="-48.634192"><ele>0.2</ele></trkpt><trkpt lat="-26.983618" lon="-48.634192"><ele>0.2</ele></trkpt><trkpt lat="-26.983618" lon="-48.634192"><ele>0.2</ele></trkpt><trkpt lat="-26.983618" lon="-48.634192"><ele>0.2</ele></trkpt><trkpt lat="-26.983618" lon="-48.634192"><ele>0.2</ele></trkpt><trkpt lat="-26.983618" lon="-48.634192"><ele>0.2</ele></trkpt><trkpt lat="-26.983618" lon="-48.634192"><ele>0.2</ele></trkpt><trkpt lat="-26.983618" lon="-48.634192"><ele>0.2</ele></trkpt><trkpt lat="-26.983618" lon="-48.634192"><ele>0.2</ele></trkpt><trkpt lat="-26.983618" lon="-48.634192"><ele>0.2</ele></trkpt><trkpt lat="-26.983618" lon="-48.634192"><ele>0.2</ele></trkpt><trkpt lat="-26.983618" lon="-48.634192"><ele>0.2</ele></trkpt><trkpt lat="-26.983618" lon="-48.634192"><ele>0.2</ele></trkpt><trkpt lat="-26.983618" lon="-48.634192"><ele>0.2</ele></trkpt><trkpt lat="-26.983618" lon="-48.634192"><ele>0.2</ele></trkpt><trkpt lat="-26.983618" lon="-48.634192"><ele>0.2</ele></trkpt><trkpt lat="-26.983618" lon="-48.634192"><ele>0.2</ele></trkpt><trkpt lat="-26.983618" lon="-48.634192"><ele>0.2</ele></trkpt><trkpt lat="-26.983618" lon="-48.634192"><ele>0.2</ele></trkpt><trkpt lat="-26.983618" lon="-48.634192"><ele>0.2</ele></trkpt><trkpt lat="-26.983618" lon="-48.634192"><ele>0.2</ele></trkpt><trkpt lat="-26.983618" lon="-48.634192"><ele>0.2</ele></trkpt><trkpt lat="-26.983618" lon="-48.634192"><ele>0.2</ele></trkpt><trkpt lat="-26.983618" lon="-48.634192"><ele>0.2</ele></trkpt><trkpt lat="-26.983618" lon="-48.634192"><ele>0.2</ele></trkpt><trkpt lat="-26.983618" lon="-48.634192"><ele>0.2</ele></trkpt><trkpt lat="-26.983618" lon="-48.634192"><ele>0.2</ele></trkpt><trkpt lat="-26.983618" lon="-48.634192"><ele>0.2</ele></trkpt><trkpt lat="-26.983618" lon="-48.634192"><ele>0.2</ele></trkpt><trkpt lat="-26.983618" lon="-48.634192"><ele>0.2</ele></trkpt><trkpt lat="-26.983618" lon="-48.634192"><ele>0.2</ele></trkpt><trkpt lat="-26.983618" lon="-48.634192"><ele>0.2</ele></trkpt><trkpt lat="-26.983618" lon="-48.634192"><ele>0.2</ele></trkpt><trkpt lat="-26.983618" lon="-48.634192"><ele>0.2</ele></trkpt><trkpt lat="-26.983618" lon="-48.634192"><ele>0.2</ele></trkpt><trkpt lat="-26.983618" lon="-48.634192"><ele>0.2</ele></trkpt><trkpt lat="-26.983618" lon="-48.634192"><ele>0.2</ele></trkpt><trkpt lat="-26.983618" lon="-48.634192"><ele>0.2</ele></trkpt><trkpt lat="-26.983618" lon="-48.634192"><ele>0.2</ele></trkpt><trkpt lat="-26.983618" lon="-48.634192"><ele>0.2</ele></trkpt><trkpt lat="-26.983618" lon="-48.634192"><ele>0.2</ele></trkpt><trkpt lat="-26.983618" lon="-48.634192"><ele>0.2</ele></trkpt><trkpt lat="-26.983618" lon="-48.634192"><ele>0.2</ele></trkpt><trkpt lat="-26.983618" lon="-48.634192"><ele>0.2</ele></trkpt><trkpt lat="-26.983618" lon="-48.634192"><ele>0.2</ele></trkpt><trkpt lat="-26.983618" lon="-48.634192"><ele>0.2</ele></trkpt><trkpt lat="-26.983618" lon="-48.634192"><ele>0.2</ele></trkpt><trkpt lat="-26.983618" lon="-48.634192"><ele>0.2</ele></trkpt><trkpt lat="-26.983618" lon="-48.634192"><ele>0.2</ele></trkpt><trkpt lat="-26.983618" lon="-48.634192"><ele>0.2</ele></trkpt><trkpt lat="-26.983702" lon="-48.634157"><ele>2.9</ele></trkpt><trkpt lat="-26.983705" lon="-48.634155"><ele>2.7</ele></trkpt><trkpt lat="-26.983708" lon="-48.634155"><ele>2.6</ele></trkpt><trkpt lat="-26.9837" lon="-48.634157"><ele>2.5</ele></trkpt><trkpt lat="-26.983703" lon="-48.634157"><ele>2.3</ele></trkpt><trkpt lat="-26.9837" lon="-48.634153"><ele>2.3</ele></trkpt><trkpt lat="-26.9837" lon="-48.634153"><ele>2.3</ele></trkpt><trkpt lat="-26.983695" lon="-48.634148"><ele>2.3</ele></trkpt><trkpt lat="-26.98369" lon="-48.63415"><ele>2.5</ele></trkpt><trkpt lat="-26.983687" lon="-48.634157"><ele>2.7</ele></trkpt><trkpt lat="-26.983688" lon="-48.63416"><ele>2.8</ele></trkpt><trkpt lat="-26.983688" lon="-48.634158"><ele>2.7</ele></trkpt><trkpt lat="-26.983692" lon="-48.634153"><ele>2.6</ele></trkpt><trkpt lat="-26.983697" lon="-48.634147"><ele>1.5</ele></trkpt><trkpt lat="-26.9837" lon="-48.634145"><ele>0.9</ele></trkpt><trkpt lat="-26.9837" lon="-48.634145"><ele>0.9</ele></trkpt><trkpt lat="-26.9837" lon="-48.634145"><ele>0.9</ele></trkpt><trkpt lat="-26.9837" lon="-48.634145"><ele>0.9</ele></trkpt><trkpt lat="-26.9837" lon="-48.634145"><ele>0.9</ele></trkpt><trkpt lat="-26.9837" lon="-48.634113"><ele>-0.2</ele></trkpt><trkpt lat="-26.983693" lon="-48.634098"><ele>-0.3</ele></trkpt><trkpt lat="-26.983678" lon="-48.634082"><ele>-0.8</ele></trkpt><trkpt lat="-26.983668" lon="-48.634063"><ele>-0.6</ele></trkpt><trkpt lat="-26.983648" lon="-48.634032"><ele>-3.9</ele></trkpt><trkpt lat="-26.98365" lon="-48.634033"><ele>-3.9</ele></trkpt><trkpt lat="-26.983655" lon="-48.634038"><ele>-4</ele></trkpt><trkpt lat="-26.983658" lon="-48.634042"><ele>-3.8</ele></trkpt><trkpt lat="-26.98366" lon="-48.634047"><ele>-3.4</ele></trkpt><trkpt lat="-26.983638" lon="-48.63403"><ele>0</ele></trkpt><trkpt lat="-26.983633" lon="-48.634032"><ele>-0.1</ele></trkpt><trkpt lat="-26.983628" lon="-48.634035"><ele>-0.1</ele></trkpt><trkpt lat="-26.98362" lon="-48.63404"><ele>-0.3</ele></trkpt><trkpt lat="-26.98362" lon="-48.63404"><ele>-0.3</ele></trkpt><trkpt lat="-26.983615" lon="-48.634045"><ele>-0.6</ele></trkpt><trkpt lat="-26.98361" lon="-48.634045"><ele>-0.6</ele></trkpt><trkpt lat="-26.983603" lon="-48.634043"><ele>-0.8</ele></trkpt><trkpt lat="-26.983595" lon="-48.634038"><ele>-0.6</ele></trkpt><trkpt lat="-26.983588" lon="-48.634035"><ele>-0.8</ele></trkpt><trkpt lat="-26.983583" lon="-48.634028"><ele>-1</ele></trkpt><trkpt lat="-26.983582" lon="-48.634028"><ele>-1</ele></trkpt><trkpt lat="-26.98358" lon="-48.634032"><ele>-1</ele></trkpt><trkpt lat="-26.983578" lon="-48.634025"><ele>-1.1</ele></trkpt><trkpt lat="-26.98358" lon="-48.634025"><ele>-1.2</ele></trkpt><trkpt lat="-26.983582" lon="-48.634028"><ele>-1.3</ele></trkpt><trkpt lat="-26.983587" lon="-48.634037"><ele>-1.6</ele></trkpt><trkpt lat="-26.98359" lon="-48.634038"><ele>-2</ele></trkpt><trkpt lat="-26.98359" lon="-48.634038"><ele>-2</ele></trkpt><trkpt lat="-26.98359" lon="-48.634038"><ele>-2</ele></trkpt><trkpt lat="-26.98359" lon="-48.634038"><ele>-2</ele></trkpt><trkpt lat="-26.98359" lon="-48.634038"><ele>-2</ele></trkpt><trkpt lat="-26.98359" lon="-48.634038"><ele>-2</ele></trkpt><trkpt lat="-26.983613" lon="-48.63405"><ele>-2.5</ele></trkpt><trkpt lat="-26.983618" lon="-48.634047"><ele>-2.5</ele></trkpt><trkpt lat="-26.98362" lon="-48.634047"><ele>-2.6</ele></trkpt><trkpt lat="-26.98362" lon="-48.634045"><ele>-2.4</ele></trkpt><trkpt lat="-26.98362" lon="-48.634045"><ele>-2.4</ele></trkpt><trkpt lat="-26.98362" lon="-48.634045"><ele>-2.4</ele></trkpt><trkpt lat="-26.98362" lon="-48.634045"><ele>-2.4</ele></trkpt><trkpt lat="-26.98362" lon="-48.634045"><ele>-2.4</ele></trkpt><trkpt lat="-26.98362" lon="-48.634045"><ele>-2.4</ele></trkpt><trkpt lat="-26.98362" lon="-48.634045"><ele>-2.4</ele></trkpt><trkpt lat="-26.98362" lon="-48.634045"><ele>-2.4</ele></trkpt><trkpt lat="-26.98362" lon="-48.634045"><ele>-2.4</ele></trkpt><trkpt lat="-26.98362" lon="-48.634045"><ele>-2.4</ele></trkpt><trkpt lat="-26.98362" lon="-48.634008"><ele>-2.4</ele></trkpt><trkpt lat="-26.98362" lon="-48.633993"><ele>-2.4</ele></trkpt><trkpt lat="-26.98361" lon="-48.633982"><ele>-2.1</ele></trkpt><trkpt lat="-26.9836" lon="-48.633968"><ele>-1.5</ele></trkpt><trkpt lat="-26.983587" lon="-48.633967"><ele>-1.2</ele></trkpt><trkpt lat="-26.983578" lon="-48.633972"><ele>-1.1</ele></trkpt><trkpt lat="-26.983572" lon="-48.63397"><ele>-1</ele></trkpt><trkpt lat="-26.983567" lon="-48.63397"><ele>-0.7</ele></trkpt><trkpt lat="-26.983567" lon="-48.633962"><ele>-0.4</ele></trkpt><trkpt lat="-26.983572" lon="-48.633958"><ele>-0.2</ele></trkpt><trkpt lat="-26.983583" lon="-48.633958"><ele>0.1</ele></trkpt><trkpt lat="-26.983593" lon="-48.633963"><ele>0.1</ele></trkpt><trkpt lat="-26.9836" lon="-48.633973"><ele>0.3</ele></trkpt><trkpt lat="-26.983603" lon="-48.63398"><ele>0.1</ele></trkpt><trkpt lat="-26.983612" lon="-48.633983"><ele>0</ele></trkpt><trkpt lat="-26.983615" lon="-48.633983"><ele>-0.5</ele></trkpt><trkpt lat="-26.98362" lon="-48.633983"><ele>-1.1</ele></trkpt><trkpt lat="-26.98362" lon="-48.633983"><ele>-1.1</ele></trkpt><trkpt lat="-26.98362" lon="-48.633983"><ele>-1.4</ele></trkpt><trkpt lat="-26.98362" lon="-48.633983"><ele>-1.4</ele></trkpt><trkpt lat="-26.98362" lon="-48.633983"><ele>-1.4</ele></trkpt><trkpt lat="-26.98362" lon="-48.633983"><ele>-1.4</ele></trkpt><trkpt lat="-26.98362" lon="-48.633983"><ele>-1.4</ele></trkpt><trkpt lat="-26.98362" lon="-48.633983"><ele>-1.4</ele></trkpt><trkpt lat="-26.98362" lon="-48.633983"><ele>-1.4</ele></trkpt><trkpt lat="-26.98362" lon="-48.633983"><ele>-1.4</ele></trkpt><trkpt lat="-26.98362" lon="-48.633983"><ele>-1.4</ele></trkpt><trkpt lat="-26.98362" lon="-48.633983"><ele>-1.4</ele></trkpt><trkpt lat="-26.98362" lon="-48.633983"><ele>-1.4</ele></trkpt><trkpt lat="-26.98362" lon="-48.633983"><ele>-1.4</ele></trkpt><trkpt lat="-26.98362" lon="-48.633983"><ele>-1.4</ele></trkpt><trkpt lat="-26.98362" lon="-48.633983"><ele>-1.4</ele></trkpt><trkpt lat="-26.98362" lon="-48.633983"><ele>-1.4</ele></trkpt><trkpt lat="-26.98362" lon="-48.633983"><ele>-1.4</ele></trkpt><trkpt lat="-26.98362" lon="-48.633983"><ele>-1.4</ele></trkpt><trkpt lat="-26.98362" lon="-48.633983"><ele>-1.4</ele></trkpt><trkpt lat="-26.98362" lon="-48.633983"><ele>-1.4</ele></trkpt><trkpt lat="-26.98362" lon="-48.633983"><ele>-1.4</ele></trkpt><trkpt lat="-26.98362" lon="-48.633983"><ele>-1.4</ele></trkpt><trkpt lat="-26.98362" lon="-48.633983"><ele>-1.4</ele></trkpt><trkpt lat="-26.98362" lon="-48.633983"><ele>-1.4</ele></trkpt><trkpt lat="-26.98362" lon="-48.633983"><ele>-1.4</ele></trkpt><trkpt lat="-26.98362" lon="-48.633983"><ele>-1.4</ele></trkpt><trkpt lat="-26.98362" lon="-48.633983"><ele>-1.4</ele></trkpt><trkpt lat="-26.98362" lon="-48.633983"><ele>-1.4</ele></trkpt><trkpt lat="-26.98362" lon="-48.633983"><ele>-1.4</ele></trkpt><trkpt lat="-26.98362" lon="-48.633983"><ele>-1.4</ele></trkpt><trkpt lat="-26.98362" lon="-48.633983"><ele>-1.4</ele></trkpt><trkpt lat="-26.98362" lon="-48.633983"><ele>-1.4</ele></trkpt><trkpt lat="-26.98362" lon="-48.633983"><ele>-1.4</ele></trkpt><trkpt lat="-26.98362" lon="-48.633983"><ele>-1.4</ele></trkpt><trkpt lat="-26.98362" lon="-48.633983"><ele>-1.4</ele></trkpt><trkpt lat="-26.98362" lon="-48.633983"><ele>-1.4</ele></trkpt><trkpt lat="-26.983625" lon="-48.633992"><ele>-2.9</ele></trkpt><trkpt lat="-26.983632" lon="-48.634003"><ele>-2.9</ele></trkpt><trkpt lat="-26.983633" lon="-48.634013"><ele>-2.8</ele></trkpt><trkpt lat="-26.983635" lon="-48.634028"><ele>-3.1</ele></trkpt><trkpt lat="-26.983643" lon="-48.634045"><ele>-3.5</ele></trkpt><trkpt lat="-26.983652" lon="-48.634058"><ele>-3.6</ele></trkpt><trkpt lat="-26.983653" lon="-48.634072"><ele>-4.1</ele></trkpt><trkpt lat="-26.983653" lon="-48.634085"><ele>-4.4</ele></trkpt><trkpt lat="-26.98365" lon="-48.634098"><ele>-4.2</ele></trkpt><trkpt lat="-26.983645" lon="-48.634112"><ele>-3.7</ele></trkpt><trkpt lat="-26.98364" lon="-48.634122"><ele>-3.1</ele></trkpt><trkpt lat="-26.983637" lon="-48.634133"><ele>-2.9</ele></trkpt><trkpt lat="-26.983635" lon="-48.634135"><ele>-2.3</ele></trkpt><trkpt lat="-26.983633" lon="-48.634133"><ele>-2</ele></trkpt><trkpt lat="-26.983633" lon="-48.634138"><ele>-1.7</ele></trkpt><trkpt lat="-26.983633" lon="-48.63414"><ele>-1.7</ele></trkpt><trkpt lat="-26.983633" lon="-48.63414"><ele>-1.7</ele></trkpt><trkpt lat="-26.983635" lon="-48.634142"><ele>-1.7</ele></trkpt><trkpt lat="-26.983637" lon="-48.634148"><ele>-1.7</ele></trkpt><trkpt lat="-26.983638" lon="-48.634155"><ele>-1.6</ele></trkpt><trkpt lat="-26.983637" lon="-48.634155"><ele>-1.6</ele></trkpt><trkpt lat="-26.983638" lon="-48.634158"><ele>-1.5</ele></trkpt><trkpt lat="-26.983638" lon="-48.634162"><ele>-1.3</ele></trkpt><trkpt lat="-26.98364" lon="-48.634162"><ele>-1.2</ele></trkpt><trkpt lat="-26.983647" lon="-48.634168"><ele>-1.3</ele></trkpt><trkpt lat="-26.983647" lon="-48.634168"><ele>-1.4</ele></trkpt><trkpt lat="-26.983655" lon="-48.63418"><ele>-0.6</ele></trkpt><trkpt lat="-26.98366" lon="-48.634192"><ele>-0.8</ele></trkpt><trkpt lat="-26.98366" lon="-48.634202"><ele>-0.5</ele></trkpt><trkpt lat="-26.983658" lon="-48.63421"><ele>-0.3</ele></trkpt><trkpt lat="-26.983662" lon="-48.634218"><ele>-0.2</ele></trkpt><trkpt lat="-26.983662" lon="-48.63422"><ele>-0.1</ele></trkpt><trkpt lat="-26.983662" lon="-48.63422"><ele>0.3</ele></trkpt><trkpt lat="-26.983663" lon="-48.634213"><ele>0.7</ele></trkpt><trkpt lat="-26.983665" lon="-48.634205"><ele>1.3</ele></trkpt><trkpt lat="-26.983667" lon="-48.634197"><ele>1.3</ele></trkpt><trkpt lat="-26.983672" lon="-48.634187"><ele>1.2</ele></trkpt><trkpt lat="-26.983675" lon="-48.634175"><ele>1</ele></trkpt><trkpt lat="-26.983678" lon="-48.634167"><ele>0.7</ele></trkpt><trkpt lat="-26.98368" lon="-48.634158"><ele>0.5</ele></trkpt><trkpt lat="-26.983682" lon="-48.634152"><ele>0.4</ele></trkpt><trkpt lat="-26.983683" lon="-48.63415"><ele>0.6</ele></trkpt><trkpt lat="-26.983683" lon="-48.63415"><ele>0.9</ele></trkpt><trkpt lat="-26.983683" lon="-48.63415"><ele>0.9</ele></trkpt><trkpt lat="-26.983682" lon="-48.634148"><ele>1.2</ele></trkpt><trkpt lat="-26.98368" lon="-48.63415"><ele>1.5</ele></trkpt><trkpt lat="-26.98368" lon="-48.634152"><ele>1.8</ele></trkpt><trkpt lat="-26.98368" lon="-48.634152"><ele>2.1</ele></trkpt><trkpt lat="-26.98368" lon="-48.634152"><ele>2.1</ele></trkpt><trkpt lat="-26.983682" lon="-48.634153"><ele>1.9</ele></trkpt><trkpt lat="-26.983683" lon="-48.634153"><ele>1.9</ele></trkpt><trkpt lat="-26.983683" lon="-48.634153"><ele>1.9</ele></trkpt><trkpt lat="-26.983683" lon="-48.634153"><ele>1.9</ele></trkpt><trkpt lat="-26.983683" lon="-48.634153"><ele>1.9</ele></trkpt><trkpt lat="-26.983683" lon="-48.634153"><ele>1.9</ele></trkpt><trkpt lat="-26.983683" lon="-48.634153"><ele>1.9</ele></trkpt><trkpt lat="-26.983683" lon="-48.634153"><ele>1.9</ele></trkpt><trkpt lat="-26.98368" lon="-48.63416"><ele>0.6</ele></trkpt><trkpt lat="-26.983682" lon="-48.634165"><ele>0.4</ele></trkpt><trkpt lat="-26.983682" lon="-48.634173"><ele>0.1</ele></trkpt><trkpt lat="-26.983682" lon="-48.634178"><ele>-0.1</ele></trkpt><trkpt lat="-26.983685" lon="-48.634183"><ele>-0.3</ele></trkpt><trkpt lat="-26.983688" lon="-48.63419"><ele>-0.5</ele></trkpt><trkpt lat="-26.98369" lon="-48.634198"><ele>-0.6</ele></trkpt><trkpt lat="-26.983692" lon="-48.634207"><ele>-0.6</ele></trkpt><trkpt lat="-26.983697" lon="-48.634212"><ele>-0.9</ele></trkpt><trkpt lat="-26.983702" lon="-48.634215"><ele>-0.9</ele></trkpt><trkpt lat="-26.983703" lon="-48.634215"><ele>-1</ele></trkpt><trkpt lat="-26.983707" lon="-48.634215"><ele>-1.1</ele></trkpt><trkpt lat="-26.983707" lon="-48.634213"><ele>-1.1</ele></trkpt><trkpt lat="-26.983707" lon="-48.634213"><ele>-1.1</ele></trkpt><trkpt lat="-26.983707" lon="-48.634213"><ele>-1.1</ele></trkpt><trkpt lat="-26.983707" lon="-48.634213"><ele>-1.1</ele></trkpt><trkpt lat="-26.983707" lon="-48.634213"><ele>-1.1</ele></trkpt><trkpt lat="-26.983707" lon="-48.634213"><ele>-1.1</ele></trkpt><trkpt lat="-26.983707" lon="-48.634213"><ele>-1.1</ele></trkpt><trkpt lat="-26.983707" lon="-48.634213"><ele>-1.1</ele></trkpt><trkpt lat="-26.983707" lon="-48.634213"><ele>-1.1</ele></trkpt><trkpt lat="-26.983707" lon="-48.634213"><ele>-1.1</ele></trkpt><trkpt lat="-26.983707" lon="-48.634213"><ele>-1.1</ele></trkpt><trkpt lat="-26.983707" lon="-48.634213"><ele>-1.1</ele></trkpt><trkpt lat="-26.983707" lon="-48.634213"><ele>-1.1</ele></trkpt><trkpt lat="-26.983707" lon="-48.634213"><ele>-1.1</ele></trkpt><trkpt lat="-26.983707" lon="-48.634213"><ele>-1.1</ele></trkpt><trkpt lat="-26.983707" lon="-48.634213"><ele>-1.1</ele></trkpt><trkpt lat="-26.983707" lon="-48.634213"><ele>-1.1</ele></trkpt><trkpt lat="-26.983707" lon="-48.634213"><ele>-1.1</ele></trkpt><trkpt lat="-26.983707" lon="-48.634213"><ele>-1.1</ele></trkpt><trkpt lat="-26.983707" lon="-48.634213"><ele>-1.1</ele></trkpt><trkpt lat="-26.983707" lon="-48.634213"><ele>-1.1</ele></trkpt><trkpt lat="-26.983707" lon="-48.634213"><ele>-1.1</ele></trkpt><trkpt lat="-26.983707" lon="-48.634213"><ele>-1.1</ele></trkpt><trkpt lat="-26.983707" lon="-48.634213"><ele>-1.1</ele></trkpt><trkpt lat="-26.983707" lon="-48.634213"><ele>-1.1</ele></trkpt><trkpt lat="-26.983687" lon="-48.634238"><ele>0</ele></trkpt><trkpt lat="-26.983687" lon="-48.63425"><ele>-0.2</ele></trkpt><trkpt lat="-26.983688" lon="-48.63427"><ele>-0.3</ele></trkpt><trkpt lat="-26.983693" lon="-48.634285"><ele>0.2</ele></trkpt><trkpt lat="-26.983695" lon="-48.634303"><ele>0.3</ele></trkpt><trkpt lat="-26.983693" lon="-48.634315"><ele>0.6</ele></trkpt><trkpt lat="-26.98369" lon="-48.634325"><ele>0.9</ele></trkpt><trkpt lat="-26.983687" lon="-48.63433"><ele>1.2</ele></trkpt><trkpt lat="-26.983688" lon="-48.634337"><ele>1.6</ele></trkpt><trkpt lat="-26.98369" lon="-48.634342"><ele>1.6</ele></trkpt><trkpt lat="-26.983693" lon="-48.634343"><ele>1.8</ele></trkpt><trkpt lat="-26.983693" lon="-48.634343"><ele>1.8</ele></trkpt><trkpt lat="-26.983693" lon="-48.634338"><ele>2</ele></trkpt><trkpt lat="-26.983693" lon="-48.634335"><ele>2.1</ele></trkpt><trkpt lat="-26.98369" lon="-48.634335"><ele>2.2</ele></trkpt><trkpt lat="-26.983692" lon="-48.634335"><ele>2.1</ele></trkpt><trkpt lat="-26.983698" lon="-48.634332"><ele>1.8</ele></trkpt><trkpt lat="-26.9837" lon="-48.63433"><ele>1.8</ele></trkpt><trkpt lat="-26.983697" lon="-48.63433"><ele>1.7</ele></trkpt><trkpt lat="-26.983693" lon="-48.634333"><ele>1.7</ele></trkpt><trkpt lat="-26.983693" lon="-48.634333"><ele>1.7</ele></trkpt><trkpt lat="-26.983693" lon="-48.634333"><ele>1.7</ele></trkpt><trkpt lat="-26.983693" lon="-48.634333"><ele>1.7</ele></trkpt><trkpt lat="-26.983698" lon="-48.634343"><ele>1.2</ele></trkpt><trkpt lat="-26.9837" lon="-48.634358"><ele>1</ele></trkpt><trkpt lat="-26.983702" lon="-48.634373"><ele>0.5</ele></trkpt><trkpt lat="-26.983707" lon="-48.634398"><ele>-0.5</ele></trkpt><trkpt lat="-26.983705" lon="-48.634418"><ele>-1.1</ele></trkpt><trkpt lat="-26.983698" lon="-48.634443"><ele>-1.7</ele></trkpt><trkpt lat="-26.983702" lon="-48.634472"><ele>-2.5</ele></trkpt><trkpt lat="-26.9837" lon="-48.634495"><ele>-2.4</ele></trkpt><trkpt lat="-26.9837" lon="-48.634517"><ele>-2.6</ele></trkpt><trkpt lat="-26.983705" lon="-48.634535"><ele>-3.3</ele></trkpt><trkpt lat="-26.983707" lon="-48.634555"><ele>-2.9</ele></trkpt><trkpt lat="-26.983702" lon="-48.634568"><ele>-2.8</ele></trkpt><trkpt lat="-26.983702" lon="-48.634568"><ele>-2.8</ele></trkpt><trkpt lat="-26.983697" lon="-48.63457"><ele>-2.6</ele></trkpt><trkpt lat="-26.983695" lon="-48.634572"><ele>-2.1</ele></trkpt><trkpt lat="-26.983695" lon="-48.634572"><ele>-2.1</ele></trkpt><trkpt lat="-26.983685" lon="-48.634573"><ele>-1.2</ele></trkpt><trkpt lat="-26.98368" lon="-48.634575"><ele>-0.4</ele></trkpt><trkpt lat="-26.98367" lon="-48.634582"><ele>0.5</ele></trkpt><trkpt lat="-26.983655" lon="-48.634588"><ele>1.7</ele></trkpt><trkpt lat="-26.983647" lon="-48.634593"><ele>2.5</ele></trkpt><trkpt lat="-26.983642" lon="-48.634598"><ele>3</ele></trkpt><trkpt lat="-26.983635" lon="-48.6346"><ele>3.4</ele></trkpt><trkpt lat="-26.983635" lon="-48.6346"><ele>3.4</ele></trkpt><trkpt lat="-26.983638" lon="-48.634613"><ele>4</ele></trkpt><trkpt lat="-26.983643" lon="-48.63463"><ele>4</ele></trkpt><trkpt lat="-26.983655" lon="-48.634647"><ele>3.5</ele></trkpt><trkpt lat="-26.983645" lon="-48.634675"><ele>4.1</ele></trkpt><trkpt lat="-26.983638" lon="-48.634708"><ele>4.5</ele></trkpt><trkpt lat="-26.98364" lon="-48.634738"><ele>4.6</ele></trkpt><trkpt lat="-26.983647" lon="-48.63477"><ele>4.3</ele></trkpt><trkpt lat="-26.98365" lon="-48.634803"><ele>4.1</ele></trkpt><trkpt lat="-26.98364" lon="-48.634838"><ele>4.3</ele></trkpt><trkpt lat="-26.983623" lon="-48.634868"><ele>5</ele></trkpt><trkpt lat="-26.983598" lon="-48.634903"><ele>6</ele></trkpt><trkpt lat="-26.983583" lon="-48.634927"><ele>6.5</ele></trkpt><trkpt lat="-26.983568" lon="-48.63495"><ele>6.7</ele></trkpt><trkpt lat="-26.983568" lon="-48.63495"><ele>6.7</ele></trkpt><trkpt lat="-26.983552" lon="-48.634965"><ele>7</ele></trkpt><trkpt lat="-26.983543" lon="-48.634987"><ele>7.2</ele></trkpt><trkpt lat="-26.98354" lon="-48.635"><ele>6.9</ele></trkpt><trkpt lat="-26.983535" lon="-48.635018"><ele>6.4</ele></trkpt><trkpt lat="-26.983523" lon="-48.635037"><ele>6.3</ele></trkpt><trkpt lat="-26.983503" lon="-48.635058"><ele>6.1</ele></trkpt><trkpt lat="-26.983495" lon="-48.635077"><ele>5.1</ele></trkpt><trkpt lat="-26.983495" lon="-48.6351"><ele>5.1</ele></trkpt><trkpt lat="-26.983493" lon="-48.635135"><ele>4.4</ele></trkpt><trkpt lat="-26.983485" lon="-48.635165"><ele>3.8</ele></trkpt><trkpt lat="-26.983483" lon="-48.635198"><ele>3.9</ele></trkpt><trkpt lat="-26.983483" lon="-48.635198"><ele>3.9</ele></trkpt><trkpt lat="-26.983482" lon="-48.635228"><ele>3.6</ele></trkpt><trkpt lat="-26.983485" lon="-48.63526"><ele>3.3</ele></trkpt><trkpt lat="-26.983487" lon="-48.635287"><ele>3</ele></trkpt><trkpt lat="-26.983488" lon="-48.635308"><ele>2.7</ele></trkpt><trkpt lat="-26.983492" lon="-48.63533"><ele>2.4</ele></trkpt><trkpt lat="-26.983497" lon="-48.635355"><ele>1.6</ele></trkpt><trkpt lat="-26.983502" lon="-48.635365"><ele>0.9</ele></trkpt><trkpt lat="-26.98351" lon="-48.63537"><ele>0.6</ele></trkpt><trkpt lat="-26.983513" lon="-48.635372"><ele>0.3</ele></trkpt><trkpt lat="-26.983518" lon="-48.635373"><ele>-0.2</ele></trkpt><trkpt lat="-26.983522" lon="-48.635378"><ele>-0.5</ele></trkpt><trkpt lat="-26.983523" lon="-48.635382"><ele>-0.9</ele></trkpt><trkpt lat="-26.983523" lon="-48.635382"><ele>-0.9</ele></trkpt><trkpt lat="-26.98352" lon="-48.635385"><ele>-1.3</ele></trkpt><trkpt lat="-26.983515" lon="-48.635387"><ele>-1.8</ele></trkpt><trkpt lat="-26.983508" lon="-48.635388"><ele>-2.5</ele></trkpt><trkpt lat="-26.983508" lon="-48.635392"><ele>-3.2</ele></trkpt><trkpt lat="-26.983502" lon="-48.635393"><ele>-3.2</ele></trkpt><trkpt lat="-26.983497" lon="-48.635397"><ele>-3.2</ele></trkpt><trkpt lat="-26.983497" lon="-48.635398"><ele>-3.3</ele></trkpt><trkpt lat="-26.983503" lon="-48.635403"><ele>-3.4</ele></trkpt><trkpt lat="-26.983512" lon="-48.635408"><ele>-3.5</ele></trkpt><trkpt lat="-26.983518" lon="-48.635412"><ele>-4.1</ele></trkpt><trkpt lat="-26.983518" lon="-48.635412"><ele>-4.1</ele></trkpt><trkpt lat="-26.983522" lon="-48.635422"><ele>-4.2</ele></trkpt><trkpt lat="-26.983528" lon="-48.635437"><ele>-4.6</ele></trkpt><trkpt lat="-26.983562" lon="-48.63546"><ele>-4.2</ele></trkpt><trkpt lat="-26.983567" lon="-48.63548"><ele>-4.6</ele></trkpt><trkpt lat="-26.98357" lon="-48.635498"><ele>-4.7</ele></trkpt><trkpt lat="-26.983568" lon="-48.635515"><ele>-4.7</ele></trkpt><trkpt lat="-26.983565" lon="-48.635527"><ele>-4.5</ele></trkpt><trkpt lat="-26.983565" lon="-48.63554"><ele>-4.5</ele></trkpt><trkpt lat="-26.98357" lon="-48.63555"><ele>-4.4</ele></trkpt><trkpt lat="-26.983555" lon="-48.635552"><ele>-4.1</ele></trkpt><trkpt lat="-26.983553" lon="-48.635548"><ele>-4.3</ele></trkpt><trkpt lat="-26.983558" lon="-48.635547"><ele>-4.5</ele></trkpt><trkpt lat="-26.983567" lon="-48.635552"><ele>-4.4</ele></trkpt><trkpt lat="-26.983567" lon="-48.635557"><ele>-4.4</ele></trkpt><trkpt lat="-26.983572" lon="-48.635557"><ele>-4.7</ele></trkpt><trkpt lat="-26.983573" lon="-48.635557"><ele>-4.8</ele></trkpt><trkpt lat="-26.983577" lon="-48.635558"><ele>-5</ele></trkpt><trkpt lat="-26.983577" lon="-48.635558"><ele>-5.1</ele></trkpt><trkpt lat="-26.98358" lon="-48.635558"><ele>-5.1</ele></trkpt><trkpt lat="-26.983582" lon="-48.635558"><ele>-5.1</ele></trkpt><trkpt lat="-26.983587" lon="-48.63556"><ele>-5.1</ele></trkpt><trkpt lat="-26.983587" lon="-48.635562"><ele>-5.2</ele></trkpt><trkpt lat="-26.983587" lon="-48.635562"><ele>-5.2</ele></trkpt><trkpt lat="-26.983587" lon="-48.635562"><ele>-5.2</ele></trkpt><trkpt lat="-26.983587" lon="-48.635562"><ele>-5.2</ele></trkpt><trkpt lat="-26.983587" lon="-48.635562"><ele>-5.2</ele></trkpt><trkpt lat="-26.983587" lon="-48.635562"><ele>-5.2</ele></trkpt><trkpt lat="-26.983587" lon="-48.635562"><ele>-5.2</ele></trkpt><trkpt lat="-26.983587" lon="-48.635562"><ele>-5.2</ele></trkpt><trkpt lat="-26.983587" lon="-48.635562"><ele>-5.2</ele></trkpt><trkpt lat="-26.983587" lon="-48.635562"><ele>-5.2</ele></trkpt><trkpt lat="-26.983587" lon="-48.635562"><ele>-5.2</ele></trkpt><trkpt lat="-26.983587" lon="-48.635562"><ele>-5.2</ele></trkpt><trkpt lat="-26.983587" lon="-48.635562"><ele>-5.2</ele></trkpt><trkpt lat="-26.983587" lon="-48.635562"><ele>-5.2</ele></trkpt><trkpt lat="-26.983587" lon="-48.635562"><ele>-5.2</ele></trkpt><trkpt lat="-26.983587" lon="-48.635562"><ele>-5.2</ele></trkpt><trkpt lat="-26.983587" lon="-48.635562"><ele>-5.2</ele></trkpt><trkpt lat="-26.983587" lon="-48.635562"><ele>-5.2</ele></trkpt><trkpt lat="-26.983587" lon="-48.635562"><ele>-5.2</ele></trkpt><trkpt lat="-26.983587" lon="-48.635562"><ele>-5.2</ele></trkpt><trkpt lat="-26.983587" lon="-48.635562"><ele>-5.2</ele></trkpt><trkpt lat="-26.983587" lon="-48.635562"><ele>-5.2</ele></trkpt><trkpt lat="-26.983648" lon="-48.635573"><ele>-3.1</ele></trkpt><trkpt lat="-26.983652" lon="-48.635575"><ele>-3</ele></trkpt><trkpt lat="-26.983653" lon="-48.635573"><ele>-2.8</ele></trkpt><trkpt lat="-26.983653" lon="-48.635573"><ele>-2.8</ele></trkpt><trkpt lat="-26.983653" lon="-48.635573"><ele>-2.8</ele></trkpt><trkpt lat="-26.983657" lon="-48.635582"><ele>-2.8</ele></trkpt><trkpt lat="-26.98366" lon="-48.635585"><ele>-3</ele></trkpt><trkpt lat="-26.983662" lon="-48.635585"><ele>-3</ele></trkpt><trkpt lat="-26.983668" lon="-48.635583"><ele>-2.9</ele></trkpt><trkpt lat="-26.983668" lon="-48.635583"><ele>-2.9</ele></trkpt><trkpt lat="-26.983668" lon="-48.635583"><ele>-2.9</ele></trkpt><trkpt lat="-26.983668" lon="-48.635583"><ele>-2.9</ele></trkpt><trkpt lat="-26.983668" lon="-48.635583"><ele>-2.9</ele></trkpt><trkpt lat="-26.983668" lon="-48.635583"><ele>-2.9</ele></trkpt><trkpt lat="-26.983668" lon="-48.635583"><ele>-2.9</ele></trkpt><trkpt lat="-26.983668" lon="-48.635583"><ele>-2.9</ele></trkpt><trkpt lat="-26.983668" lon="-48.635583"><ele>-2.9</ele></trkpt><trkpt lat="-26.983668" lon="-48.635583"><ele>-2.9</ele></trkpt><trkpt lat="-26.983668" lon="-48.635583"><ele>-2.9</ele></trkpt><trkpt lat="-26.983668" lon="-48.635583"><ele>-2.9</ele></trkpt><trkpt lat="-26.983668" lon="-48.635583"><ele>-2.9</ele></trkpt><trkpt lat="-26.983668" lon="-48.635583"><ele>-2.9</ele></trkpt><trkpt lat="-26.983668" lon="-48.635583"><ele>-2.9</ele></trkpt><trkpt lat="-26.983668" lon="-48.635583"><ele>-2.9</ele></trkpt><trkpt lat="-26.983668" lon="-48.635583"><ele>-2.9</ele></trkpt><trkpt lat="-26.983668" lon="-48.635583"><ele>-2.9</ele></trkpt><trkpt lat="-26.983668" lon="-48.635583"><ele>-2.9</ele></trkpt><trkpt lat="-26.983668" lon="-48.635583"><ele>-3</ele></trkpt><trkpt lat="-26.983668" lon="-48.635583"><ele>-3</ele></trkpt><trkpt lat="-26.983682" lon="-48.63556"><ele>-3.8</ele></trkpt><trkpt lat="-26.983685" lon="-48.635563"><ele>-3.8</ele></trkpt><trkpt lat="-26.983688" lon="-48.635565"><ele>-3.5</ele></trkpt><trkpt lat="-26.983692" lon="-48.635567"><ele>-3.3</ele></trkpt><trkpt lat="-26.983688" lon="-48.635568"><ele>-3.1</ele></trkpt><trkpt lat="-26.983688" lon="-48.635568"><ele>-2.9</ele></trkpt><trkpt lat="-26.983692" lon="-48.635568"><ele>-2.9</ele></trkpt><trkpt lat="-26.98369" lon="-48.635567"><ele>-3.1</ele></trkpt><trkpt lat="-26.983692" lon="-48.635565"><ele>-3.1</ele></trkpt><trkpt lat="-26.983693" lon="-48.635567"><ele>-3.2</ele></trkpt><trkpt lat="-26.983685" lon="-48.635562"><ele>-3.2</ele></trkpt><trkpt lat="-26.983682" lon="-48.635552"><ele>-2.8</ele></trkpt><trkpt lat="-26.983678" lon="-48.635552"><ele>-2.8</ele></trkpt><trkpt lat="-26.983678" lon="-48.635552"><ele>-2.8</ele></trkpt><trkpt lat="-26.983678" lon="-48.635552"><ele>-2.8</ele></trkpt><trkpt lat="-26.983678" lon="-48.635552"><ele>-2.8</ele></trkpt><trkpt lat="-26.983678" lon="-48.635552"><ele>-2.8</ele></trkpt><trkpt lat="-26.983678" lon="-48.635552"><ele>-2.8</ele></trkpt><trkpt lat="-26.983678" lon="-48.635552"><ele>-2.8</ele></trkpt><trkpt lat="-26.983678" lon="-48.635552"><ele>-2.8</ele></trkpt><trkpt lat="-26.983678" lon="-48.635552"><ele>-2.8</ele></trkpt><trkpt lat="-26.983678" lon="-48.635552"><ele>-2.8</ele></trkpt><trkpt lat="-26.983678" lon="-48.635552"><ele>-2.8</ele></trkpt><trkpt lat="-26.983678" lon="-48.635552"><ele>-2.8</ele></trkpt><trkpt lat="-26.983678" lon="-48.635552"><ele>-2.8</ele></trkpt><trkpt lat="-26.983678" lon="-48.635552"><ele>-2.8</ele></trkpt><trkpt lat="-26.983678" lon="-48.635552"><ele>-2.8</ele></trkpt><trkpt lat="-26.983678" lon="-48.635552"><ele>-2.8</ele></trkpt><trkpt lat="-26.983678" lon="-48.635552"><ele>-2.8</ele></trkpt><trkpt lat="-26.983678" lon="-48.635552"><ele>-2.8</ele></trkpt><trkpt lat="-26.983622" lon="-48.63554"><ele>-1.1</ele></trkpt><trkpt lat="-26.983627" lon="-48.635537"><ele>-0.9</ele></trkpt><trkpt lat="-26.983627" lon="-48.635537"><ele>-1</ele></trkpt><trkpt lat="-26.983627" lon="-48.635535"><ele>-1.1</ele></trkpt><trkpt lat="-26.983627" lon="-48.635535"><ele>-1.1</ele></trkpt><trkpt lat="-26.983627" lon="-48.635535"><ele>-1.1</ele></trkpt><trkpt lat="-26.983627" lon="-48.635535"><ele>-1.1</ele></trkpt><trkpt lat="-26.983627" lon="-48.635535"><ele>-1.1</ele></trkpt><trkpt lat="-26.983627" lon="-48.635535"><ele>-1.1</ele></trkpt><trkpt lat="-26.983627" lon="-48.635535"><ele>-1.1</ele></trkpt><trkpt lat="-26.983627" lon="-48.635535"><ele>-1.1</ele></trkpt><trkpt lat="-26.983627" lon="-48.635535"><ele>-1.1</ele></trkpt><trkpt lat="-26.983627" lon="-48.635535"><ele>-1.1</ele></trkpt><trkpt lat="-26.983627" lon="-48.635535"><ele>-1.1</ele></trkpt><trkpt lat="-26.983627" lon="-48.635535"><ele>-1.1</ele></trkpt><trkpt lat="-26.983627" lon="-48.635535"><ele>-1.1</ele></trkpt><trkpt lat="-26.983627" lon="-48.635535"><ele>-1.1</ele></trkpt><trkpt lat="-26.983627" lon="-48.635535"><ele>-1.1</ele></trkpt><trkpt lat="-26.983627" lon="-48.635535"><ele>-1.1</ele></trkpt><trkpt lat="-26.983627" lon="-48.635535"><ele>-1.1</ele></trkpt><trkpt lat="-26.983627" lon="-48.635535"><ele>-1.1</ele></trkpt><trkpt lat="-26.983627" lon="-48.635535"><ele>-1.1</ele></trkpt><trkpt lat="-26.983627" lon="-48.635535"><ele>-1.1</ele></trkpt><trkpt lat="-26.983627" lon="-48.635535"><ele>-1.1</ele></trkpt><trkpt lat="-26.983627" lon="-48.635535"><ele>-1.1</ele></trkpt><trkpt lat="-26.983627" lon="-48.635535"><ele>-1.1</ele></trkpt><trkpt lat="-26.983627" lon="-48.635535"><ele>-1.1</ele></trkpt><trkpt lat="-26.983627" lon="-48.635535"><ele>-1.1</ele></trkpt><trkpt lat="-26.983627" lon="-48.635535"><ele>-1.1</ele></trkpt><trkpt lat="-26.983627" lon="-48.635535"><ele>-1.1</ele></trkpt><trkpt lat="-26.983627" lon="-48.635535"><ele>-1.1</ele></trkpt><trkpt lat="-26.983627" lon="-48.635535"><ele>-1.1</ele></trkpt><trkpt lat="-26.983627" lon="-48.635535"><ele>-1.1</ele></trkpt><trkpt lat="-26.983627" lon="-48.635535"><ele>-1.1</ele></trkpt><trkpt lat="-26.983627" lon="-48.635535"><ele>-1.1</ele></trkpt><trkpt lat="-26.983627" lon="-48.635535"><ele>-1.1</ele></trkpt><trkpt lat="-26.983627" lon="-48.635535"><ele>-1.1</ele></trkpt><trkpt lat="-26.983627" lon="-48.635535"><ele>-1.1</ele></trkpt><trkpt lat="-26.983627" lon="-48.635535"><ele>-1.1</ele></trkpt><trkpt lat="-26.983627" lon="-48.635535"><ele>-1.1</ele></trkpt><trkpt lat="-26.983627" lon="-48.635535"><ele>-1.1</ele></trkpt><trkpt lat="-26.983627" lon="-48.635535"><ele>-1.1</ele></trkpt><trkpt lat="-26.983627" lon="-48.635535"><ele>-1.1</ele></trkpt><trkpt lat="-26.983627" lon="-48.635535"><ele>-1.1</ele></trkpt><trkpt lat="-26.983627" lon="-48.635535"><ele>-1.1</ele></trkpt><trkpt lat="-26.983627" lon="-48.635535"><ele>-1.1</ele></trkpt><trkpt lat="-26.983627" lon="-48.635535"><ele>-1.1</ele></trkpt><trkpt lat="-26.983627" lon="-48.635535"><ele>-1.1</ele></trkpt><trkpt lat="-26.983627" lon="-48.635535"><ele>-1.1</ele></trkpt><trkpt lat="-26.983627" lon="-48.635535"><ele>-1.1</ele></trkpt><trkpt lat="-26.983627" lon="-48.635535"><ele>-1.1</ele></trkpt><trkpt lat="-26.983627" lon="-48.635535"><ele>-1.1</ele></trkpt><trkpt lat="-26.983627" lon="-48.635535"><ele>-1.1</ele></trkpt><trkpt lat="-26.983627" lon="-48.635535"><ele>-1.1</ele></trkpt><trkpt lat="-26.983627" lon="-48.635535"><ele>-1.1</ele></trkpt><trkpt lat="-26.983627" lon="-48.635535"><ele>-1.1</ele></trkpt><trkpt lat="-26.983627" lon="-48.635535"><ele>-1.1</ele></trkpt><trkpt lat="-26.983627" lon="-48.635535"><ele>-1.1</ele></trkpt><trkpt lat="-26.983627" lon="-48.635535"><ele>-1.1</ele></trkpt><trkpt lat="-26.983627" lon="-48.635535"><ele>-1.1</ele></trkpt><trkpt lat="-26.983627" lon="-48.635535"><ele>-1.1</ele></trkpt><trkpt lat="-26.983627" lon="-48.635535"><ele>-1.1</ele></trkpt><trkpt lat="-26.983627" lon="-48.635535"><ele>-1.1</ele></trkpt><trkpt lat="-26.983627" lon="-48.635535"><ele>-1.1</ele></trkpt><trkpt lat="-26.983627" lon="-48.635535"><ele>-1.1</ele></trkpt><trkpt lat="-26.983627" lon="-48.635535"><ele>-1.1</ele></trkpt><trkpt lat="-26.983627" lon="-48.635535"><ele>-1.1</ele></trkpt><trkpt lat="-26.983627" lon="-48.635535"><ele>-1.1</ele></trkpt><trkpt lat="-26.983627" lon="-48.635535"><ele>-1.1</ele></trkpt><trkpt lat="-26.983627" lon="-48.635535"><ele>-1.1</ele></trkpt><trkpt lat="-26.983627" lon="-48.635535"><ele>-1.1</ele></trkpt><trkpt lat="-26.983627" lon="-48.635535"><ele>-1.1</ele></trkpt><trkpt lat="-26.983627" lon="-48.635535"><ele>-1.1</ele></trkpt><trkpt lat="-26.983627" lon="-48.635535"><ele>-1.1</ele></trkpt><trkpt lat="-26.983627" lon="-48.635535"><ele>-1.1</ele></trkpt><trkpt lat="-26.983627" lon="-48.635535"><ele>-1.1</ele></trkpt><trkpt lat="-26.983627" lon="-48.635535"><ele>-1.1</ele></trkpt><trkpt lat="-26.983627" lon="-48.635535"><ele>-1.1</ele></trkpt><trkpt lat="-26.983627" lon="-48.635535"><ele>-1.1</ele></trkpt><trkpt lat="-26.983627" lon="-48.635535"><ele>-1.1</ele></trkpt><trkpt lat="-26.983627" lon="-48.635535"><ele>-1.1</ele></trkpt><trkpt lat="-26.983627" lon="-48.635535"><ele>-1.1</ele></trkpt><trkpt lat="-26.983627" lon="-48.635535"><ele>-1.1</ele></trkpt><trkpt lat="-26.983627" lon="-48.635535"><ele>-1.1</ele></trkpt><trkpt lat="-26.983627" lon="-48.635535"><ele>-1.1</ele></trkpt><trkpt lat="-26.983627" lon="-48.635535"><ele>-1.1</ele></trkpt><trkpt lat="-26.983627" lon="-48.635535"><ele>-1.1</ele></trkpt><trkpt lat="-26.983627" lon="-48.635535"><ele>-1.1</ele></trkpt><trkpt lat="-26.983627" lon="-48.635535"><ele>-1.1</ele></trkpt><trkpt lat="-26.983627" lon="-48.635535"><ele>-1.1</ele></trkpt><trkpt lat="-26.983627" lon="-48.635535"><ele>-1.1</ele></trkpt><trkpt lat="-26.983627" lon="-48.635535"><ele>-1.1</ele></trkpt><trkpt lat="-26.983627" lon="-48.635535"><ele>-1.1</ele></trkpt><trkpt lat="-26.983627" lon="-48.635535"><ele>-1.1</ele></trkpt><trkpt lat="-26.983627" lon="-48.635535"><ele>-1.1</ele></trkpt><trkpt lat="-26.983627" lon="-48.635535"><ele>-1.1</ele></trkpt><trkpt lat="-26.983627" lon="-48.635535"><ele>-1.1</ele></trkpt><trkpt lat="-26.983627" lon="-48.635535"><ele>-1.1</ele></trkpt><trkpt lat="-26.983627" lon="-48.635535"><ele>-1.1</ele></trkpt><trkpt lat="-26.983627" lon="-48.635535"><ele>-1.1</ele></trkpt><trkpt lat="-26.983627" lon="-48.635535"><ele>-1.1</ele></trkpt><trkpt lat="-26.983627" lon="-48.635535"><ele>-1.1</ele></trkpt><trkpt lat="-26.983627" lon="-48.635535"><ele>-1.1</ele></trkpt><trkpt lat="-26.983627" lon="-48.635535"><ele>-1.1</ele></trkpt><trkpt lat="-26.983627" lon="-48.635535"><ele>-1.1</ele></trkpt><trkpt lat="-26.983627" lon="-48.635535"><ele>-1.1</ele></trkpt><trkpt lat="-26.983627" lon="-48.635535"><ele>-1.1</ele></trkpt><trkpt lat="-26.983627" lon="-48.635535"><ele>-1.1</ele></trkpt><trkpt lat="-26.983627" lon="-48.635535"><ele>-1.1</ele></trkpt><trkpt lat="-26.983627" lon="-48.635535"><ele>-1.1</ele></trkpt><trkpt lat="-26.983627" lon="-48.635535"><ele>-1.1</ele></trkpt><trkpt lat="-26.983627" lon="-48.635535"><ele>-1.1</ele></trkpt><trkpt lat="-26.983627" lon="-48.635535"><ele>-1.1</ele></trkpt><trkpt lat="-26.983627" lon="-48.635535"><ele>-1.1</ele></trkpt><trkpt lat="-26.983627" lon="-48.635535"><ele>-1.1</ele></trkpt><trkpt lat="-26.983627" lon="-48.635535"><ele>-1.1</ele></trkpt><trkpt lat="-26.983627" lon="-48.635535"><ele>-1.1</ele></trkpt><trkpt lat="-26.983627" lon="-48.635535"><ele>-1.1</ele></trkpt><trkpt lat="-26.983627" lon="-48.635535"><ele>-1.1</ele></trkpt><trkpt lat="-26.983627" lon="-48.635535"><ele>-1.1</ele></trkpt><trkpt lat="-26.983627" lon="-48.635535"><ele>-1.1</ele></trkpt><trkpt lat="-26.983627" lon="-48.635535"><ele>-1.1</ele></trkpt><trkpt lat="-26.983627" lon="-48.635535"><ele>-1.1</ele></trkpt><trkpt lat="-26.983632" lon="-48.635543"><ele>-2.7</ele></trkpt><trkpt lat="-26.983628" lon="-48.635542"><ele>-2.6</ele></trkpt><trkpt lat="-26.98363" lon="-48.635545"><ele>-3</ele></trkpt><trkpt lat="-26.983632" lon="-48.635547"><ele>-3.4</ele></trkpt><trkpt lat="-26.983635" lon="-48.635548"><ele>-3.5</ele></trkpt><trkpt lat="-26.983635" lon="-48.635548"><ele>-3.5</ele></trkpt><trkpt lat="-26.983635" lon="-48.635548"><ele>-3.5</ele></trkpt><trkpt lat="-26.983635" lon="-48.635548"><ele>-3.5</ele></trkpt><trkpt lat="-26.983635" lon="-48.635548"><ele>-3.5</ele></trkpt><trkpt lat="-26.983635" lon="-48.635548"><ele>-3.5</ele></trkpt><trkpt lat="-26.983635" lon="-48.635548"><ele>-3.5</ele></trkpt><trkpt lat="-26.983635" lon="-48.635548"><ele>-3.5</ele></trkpt><trkpt lat="-26.983635" lon="-48.635548"><ele>-3.5</ele></trkpt><trkpt lat="-26.983635" lon="-48.635548"><ele>-3.5</ele></trkpt><trkpt lat="-26.983635" lon="-48.635548"><ele>-3.5</ele></trkpt><trkpt lat="-26.983635" lon="-48.635548"><ele>-3.5</ele></trkpt><trkpt lat="-26.983635" lon="-48.635548"><ele>-3.5</ele></trkpt><trkpt lat="-26.983635" lon="-48.635548"><ele>-3.5</ele></trkpt><trkpt lat="-26.983635" lon="-48.635548"><ele>-3.5</ele></trkpt><trkpt lat="-26.983635" lon="-48.635548"><ele>-3.5</ele></trkpt><trkpt lat="-26.983635" lon="-48.635548"><ele>-3.5</ele></trkpt><trkpt lat="-26.983643" lon="-48.635555"><ele>-3.4</ele></trkpt><trkpt lat="-26.983638" lon="-48.635552"><ele>-3.8</ele></trkpt><trkpt lat="-26.983645" lon="-48.635552"><ele>-4.2</ele></trkpt><trkpt lat="-26.983647" lon="-48.635555"><ele>-4.2</ele></trkpt><trkpt lat="-26.983647" lon="-48.635555"><ele>-4.2</ele></trkpt><trkpt lat="-26.983647" lon="-48.635555"><ele>-4.2</ele></trkpt><trkpt lat="-26.983647" lon="-48.635555"><ele>-4.2</ele></trkpt><trkpt lat="-26.983647" lon="-48.635555"><ele>-4.2</ele></trkpt><trkpt lat="-26.983647" lon="-48.635555"><ele>-4.2</ele></trkpt><trkpt lat="-26.983647" lon="-48.635555"><ele>-4.2</ele></trkpt><trkpt lat="-26.983647" lon="-48.635555"><ele>-4.2</ele></trkpt><trkpt lat="-26.983647" lon="-48.635555"><ele>-4.2</ele></trkpt><trkpt lat="-26.983647" lon="-48.635555"><ele>-4.2</ele></trkpt><trkpt lat="-26.983647" lon="-48.635555"><ele>-4.2</ele></trkpt><trkpt lat="-26.983647" lon="-48.635555"><ele>-4.2</ele></trkpt><trkpt lat="-26.983647" lon="-48.635555"><ele>-4.2</ele></trkpt><trkpt lat="-26.983647" lon="-48.635555"><ele>-4.2</ele></trkpt><trkpt lat="-26.983647" lon="-48.635555"><ele>-4.2</ele></trkpt><trkpt lat="-26.983647" lon="-48.635555"><ele>-4.2</ele></trkpt><trkpt lat="-26.983647" lon="-48.635555"><ele>-4.2</ele></trkpt><trkpt lat="-26.983647" lon="-48.635555"><ele>-4.2</ele></trkpt><trkpt lat="-26.983647" lon="-48.635555"><ele>-4.2</ele></trkpt><trkpt lat="-26.983647" lon="-48.635555"><ele>-4.2</ele></trkpt><trkpt lat="-26.983647" lon="-48.635555"><ele>-4.2</ele></trkpt><trkpt lat="-26.983647" lon="-48.635555"><ele>-4.2</ele></trkpt><trkpt lat="-26.983647" lon="-48.635555"><ele>-4.2</ele></trkpt><trkpt lat="-26.983647" lon="-48.635555"><ele>-4.2</ele></trkpt><trkpt lat="-26.983647" lon="-48.635555"><ele>-4.2</ele></trkpt><trkpt lat="-26.983647" lon="-48.635555"><ele>-4.2</ele></trkpt><trkpt lat="-26.983647" lon="-48.635555"><ele>-4.2</ele></trkpt><trkpt lat="-26.983647" lon="-48.635555"><ele>-4.2</ele></trkpt><trkpt lat="-26.983647" lon="-48.635555"><ele>-4.2</ele></trkpt><trkpt lat="-26.983647" lon="-48.635555"><ele>-4.2</ele></trkpt><trkpt lat="-26.983647" lon="-48.635555"><ele>-4.2</ele></trkpt><trkpt lat="-26.983647" lon="-48.635555"><ele>-4.2</ele></trkpt><trkpt lat="-26.983647" lon="-48.635555"><ele>-4.2</ele></trkpt><trkpt lat="-26.983647" lon="-48.635555"><ele>-4.2</ele></trkpt><trkpt lat="-26.983647" lon="-48.635555"><ele>-4.2</ele></trkpt><trkpt lat="-26.983647" lon="-48.635555"><ele>-4.2</ele></trkpt><trkpt lat="-26.983647" lon="-48.635555"><ele>-4.2</ele></trkpt><trkpt lat="-26.983647" lon="-48.635555"><ele>-4.2</ele></trkpt><trkpt lat="-26.983647" lon="-48.635555"><ele>-4.2</ele></trkpt><trkpt lat="-26.983647" lon="-48.635555"><ele>-4.2</ele></trkpt><trkpt lat="-26.983647" lon="-48.635555"><ele>-4.2</ele></trkpt><trkpt lat="-26.983647" lon="-48.635555"><ele>-4.2</ele></trkpt><trkpt lat="-26.983647" lon="-48.635555"><ele>-4.2</ele></trkpt><trkpt lat="-26.983647" lon="-48.635555"><ele>-4.2</ele></trkpt><trkpt lat="-26.983647" lon="-48.635555"><ele>-4.2</ele></trkpt><trkpt lat="-26.983647" lon="-48.635555"><ele>-4.2</ele></trkpt><trkpt lat="-26.983647" lon="-48.635555"><ele>-4.2</ele></trkpt><trkpt lat="-26.983647" lon="-48.635555"><ele>-4.2</ele></trkpt><trkpt lat="-26.983647" lon="-48.635555"><ele>-4.2</ele></trkpt><trkpt lat="-26.983647" lon="-48.635555"><ele>-4.2</ele></trkpt><trkpt lat="-26.983647" lon="-48.635555"><ele>-4.2</ele></trkpt><trkpt lat="-26.983647" lon="-48.635555"><ele>-4.2</ele></trkpt><trkpt lat="-26.983647" lon="-48.635555"><ele>-4.2</ele></trkpt><trkpt lat="-26.983647" lon="-48.635555"><ele>-4.2</ele></trkpt><trkpt lat="-26.983647" lon="-48.635555"><ele>-4.2</ele></trkpt><trkpt lat="-26.983647" lon="-48.635555"><ele>-4.2</ele></trkpt><trkpt lat="-26.983647" lon="-48.635555"><ele>-4.2</ele></trkpt><trkpt lat="-26.983647" lon="-48.635555"><ele>-4.2</ele></trkpt><trkpt lat="-26.983647" lon="-48.635555"><ele>-4.2</ele></trkpt><trkpt lat="-26.983647" lon="-48.635555"><ele>-4.2</ele></trkpt><trkpt lat="-26.983647" lon="-48.635555"><ele>-4.2</ele></trkpt><trkpt lat="-26.983647" lon="-48.635555"><ele>-4.2</ele></trkpt><trkpt lat="-26.983647" lon="-48.635555"><ele>-4.2</ele></trkpt><trkpt lat="-26.983647" lon="-48.635555"><ele>-4.2</ele></trkpt><trkpt lat="-26.983647" lon="-48.635555"><ele>-4.2</ele></trkpt><trkpt lat="-26.983647" lon="-48.635555"><ele>-4.2</ele></trkpt><trkpt lat="-26.983647" lon="-48.635555"><ele>-4.2</ele></trkpt><trkpt lat="-26.983647" lon="-48.635555"><ele>-4.2</ele></trkpt><trkpt lat="-26.983647" lon="-48.635555"><ele>-4.2</ele></trkpt><trkpt lat="-26.983647" lon="-48.635555"><ele>-4.2</ele></trkpt><trkpt lat="-26.983647" lon="-48.635555"><ele>-4.2</ele></trkpt><trkpt lat="-26.983647" lon="-48.635555"><ele>-4.2</ele></trkpt><trkpt lat="-26.983647" lon="-48.635555"><ele>-4.2</ele></trkpt><trkpt lat="-26.983647" lon="-48.635555"><ele>-4.2</ele></trkpt><trkpt lat="-26.983647" lon="-48.635555"><ele>-4.2</ele></trkpt><trkpt lat="-26.983647" lon="-48.635555"><ele>-4.2</ele></trkpt><trkpt lat="-26.983647" lon="-48.635555"><ele>-4.2</ele></trkpt><trkpt lat="-26.983647" lon="-48.635555"><ele>-4.2</ele></trkpt><trkpt lat="-26.983647" lon="-48.635555"><ele>-4.2</ele></trkpt><trkpt lat="-26.983647" lon="-48.635555"><ele>-4.2</ele></trkpt><trkpt lat="-26.983647" lon="-48.635555"><ele>-4.2</ele></trkpt><trkpt lat="-26.983647" lon="-48.635555"><ele>-4.2</ele></trkpt><trkpt lat="-26.983647" lon="-48.635555"><ele>-4.2</ele></trkpt><trkpt lat="-26.983647" lon="-48.635555"><ele>-4.2</ele></trkpt><trkpt lat="-26.983647" lon="-48.635555"><ele>-4.2</ele></trkpt><trkpt lat="-26.983647" lon="-48.635555"><ele>-4.2</ele></trkpt><trkpt lat="-26.983647" lon="-48.635555"><ele>-4.2</ele></trkpt><trkpt lat="-26.983647" lon="-48.635555"><ele>-4.2</ele></trkpt><trkpt lat="-26.983647" lon="-48.635555"><ele>-4.2</ele></trkpt><trkpt lat="-26.983647" lon="-48.635555"><ele>-4.2</ele></trkpt><trkpt lat="-26.983647" lon="-48.635555"><ele>-4.2</ele></trkpt><trkpt lat="-26.983647" lon="-48.635555"><ele>-4.2</ele></trkpt><trkpt lat="-26.983647" lon="-48.635555"><ele>-4.2</ele></trkpt><trkpt lat="-26.983647" lon="-48.635555"><ele>-4.2</ele></trkpt><trkpt lat="-26.983647" lon="-48.635555"><ele>-4.2</ele></trkpt><trkpt lat="-26.983647" lon="-48.635555"><ele>-4.2</ele></trkpt><trkpt lat="-26.983647" lon="-48.635555"><ele>-4.2</ele></trkpt><trkpt lat="-26.983647" lon="-48.635555"><ele>-4.2</ele></trkpt><trkpt lat="-26.983647" lon="-48.635555"><ele>-4.2</ele></trkpt><trkpt lat="-26.983647" lon="-48.635555"><ele>-4.2</ele></trkpt><trkpt lat="-26.983647" lon="-48.635555"><ele>-4.2</ele></trkpt><trkpt lat="-26.983647" lon="-48.635555"><ele>-4.2</ele></trkpt><trkpt lat="-26.983647" lon="-48.635555"><ele>-4.2</ele></trkpt><trkpt lat="-26.983647" lon="-48.635555"><ele>-4.2</ele></trkpt><trkpt lat="-26.983647" lon="-48.635555"><ele>-4.2</ele></trkpt><trkpt lat="-26.983647" lon="-48.635555"><ele>-4.2</ele></trkpt><trkpt lat="-26.983647" lon="-48.635555"><ele>-4.2</ele></trkpt><trkpt lat="-26.983647" lon="-48.635555"><ele>-4.2</ele></trkpt><trkpt lat="-26.983647" lon="-48.635555"><ele>-4.2</ele></trkpt><trkpt lat="-26.983647" lon="-48.635555"><ele>-4.2</ele></trkpt><trkpt lat="-26.983647" lon="-48.635555"><ele>-4.2</ele></trkpt><trkpt lat="-26.983647" lon="-48.635555"><ele>-4.2</ele></trkpt><trkpt lat="-26.983647" lon="-48.635555"><ele>-4.2</ele></trkpt><trkpt lat="-26.983647" lon="-48.635555"><ele>-4.2</ele></trkpt><trkpt lat="-26.983647" lon="-48.635555"><ele>-4.2</ele></trkpt><trkpt lat="-26.983647" lon="-48.635555"><ele>-4.2</ele></trkpt><trkpt lat="-26.983647" lon="-48.635555"><ele>-4.2</ele></trkpt><trkpt lat="-26.983647" lon="-48.635555"><ele>-4.2</ele></trkpt><trkpt lat="-26.983647" lon="-48.635555"><ele>-4.2</ele></trkpt><trkpt lat="-26.983647" lon="-48.635555"><ele>-4.2</ele></trkpt><trkpt lat="-26.983647" lon="-48.635555"><ele>-4.2</ele></trkpt><trkpt lat="-26.983647" lon="-48.635555"><ele>-4.2</ele></trkpt><trkpt lat="-26.983647" lon="-48.635555"><ele>-4.2</ele></trkpt><trkpt lat="-26.983647" lon="-48.635555"><ele>-4.2</ele></trkpt><trkpt lat="-26.983647" lon="-48.635555"><ele>-4.2</ele></trkpt><trkpt lat="-26.983647" lon="-48.635555"><ele>-4.2</ele></trkpt><trkpt lat="-26.983647" lon="-48.635555"><ele>-4.2</ele></trkpt><trkpt lat="-26.983647" lon="-48.635555"><ele>-4.2</ele></trkpt><trkpt lat="-26.983647" lon="-48.635555"><ele>-4.2</ele></trkpt><trkpt lat="-26.983647" lon="-48.635555"><ele>-4.2</ele></trkpt><trkpt lat="-26.983647" lon="-48.635555"><ele>-4.2</ele></trkpt><trkpt lat="-26.983647" lon="-48.635555"><ele>-4.2</ele></trkpt><trkpt lat="-26.983647" lon="-48.635555"><ele>-4.2</ele></trkpt><trkpt lat="-26.983647" lon="-48.635555"><ele>-4.2</ele></trkpt><trkpt lat="-26.983647" lon="-48.635555"><ele>-4.2</ele></trkpt><trkpt lat="-26.983647" lon="-48.635555"><ele>-4.2</ele></trkpt><trkpt lat="-26.983647" lon="-48.635555"><ele>-4.2</ele></trkpt><trkpt lat="-26.983647" lon="-48.635555"><ele>-4.2</ele></trkpt><trkpt lat="-26.983647" lon="-48.635555"><ele>-4.2</ele></trkpt><trkpt lat="-26.983647" lon="-48.635555"><ele>-4.2</ele></trkpt><trkpt lat="-26.983647" lon="-48.635555"><ele>-4.2</ele></trkpt><trkpt lat="-26.983647" lon="-48.635555"><ele>-4.2</ele></trkpt><trkpt lat="-26.983647" lon="-48.635555"><ele>-4.2</ele></trkpt><trkpt lat="-26.983647" lon="-48.635555"><ele>-4.2</ele></trkpt><trkpt lat="-26.983647" lon="-48.635555"><ele>-4.2</ele></trkpt><trkpt lat="-26.983647" lon="-48.635555"><ele>-4.2</ele></trkpt><trkpt lat="-26.983647" lon="-48.635555"><ele>-4.2</ele></trkpt><trkpt lat="-26.983647" lon="-48.635555"><ele>-4.2</ele></trkpt><trkpt lat="-26.983647" lon="-48.635555"><ele>-4.2</ele></trkpt><trkpt lat="-26.983647" lon="-48.635555"><ele>-4.2</ele></trkpt><trkpt lat="-26.983647" lon="-48.635555"><ele>-4.2</ele></trkpt><trkpt lat="-26.983647" lon="-48.635555"><ele>-4.2</ele></trkpt><trkpt lat="-26.983647" lon="-48.635555"><ele>-4.2</ele></trkpt><trkpt lat="-26.983647" lon="-48.635555"><ele>-4.2</ele></trkpt><trkpt lat="-26.983647" lon="-48.635555"><ele>-4.2</ele></trkpt><trkpt lat="-26.983647" lon="-48.635555"><ele>-4.2</ele></trkpt><trkpt lat="-26.983647" lon="-48.635555"><ele>-4.2</ele></trkpt><trkpt lat="-26.983647" lon="-48.635555"><ele>-4.2</ele></trkpt><trkpt lat="-26.983647" lon="-48.635555"><ele>-4.2</ele></trkpt><trkpt lat="-26.983647" lon="-48.635555"><ele>-4.2</ele></trkpt><trkpt lat="-26.983647" lon="-48.635555"><ele>-4.2</ele></trkpt><trkpt lat="-26.983647" lon="-48.635555"><ele>-4.2</ele></trkpt><trkpt lat="-26.983647" lon="-48.635555"><ele>-4.2</ele></trkpt><trkpt lat="-26.983647" lon="-48.635555"><ele>-4.2</ele></trkpt><trkpt lat="-26.983647" lon="-48.635555"><ele>-4.2</ele></trkpt><trkpt lat="-26.983647" lon="-48.635555"><ele>-4.2</ele></trkpt><trkpt lat="-26.983647" lon="-48.635555"><ele>-4.2</ele></trkpt><trkpt lat="-26.983647" lon="-48.635555"><ele>-4.2</ele></trkpt><trkpt lat="-26.983647" lon="-48.635555"><ele>-4.2</ele></trkpt><trkpt lat="-26.983647" lon="-48.635555"><ele>-4.2</ele></trkpt><trkpt lat="-26.983647" lon="-48.635555"><ele>-4.2</ele></trkpt><trkpt lat="-26.983647" lon="-48.635555"><ele>-4.2</ele></trkpt><trkpt lat="-26.983647" lon="-48.635555"><ele>-4.2</ele></trkpt><trkpt lat="-26.983647" lon="-48.635555"><ele>-4.2</ele></trkpt><trkpt lat="-26.983647" lon="-48.635555"><ele>-4.2</ele></trkpt><trkpt lat="-26.983647" lon="-48.635555"><ele>-4.2</ele></trkpt><trkpt lat="-26.983647" lon="-48.635555"><ele>-4.2</ele></trkpt><trkpt lat="-26.983647" lon="-48.635555"><ele>-4.2</ele></trkpt><trkpt lat="-26.983647" lon="-48.635555"><ele>-4.2</ele></trkpt><trkpt lat="-26.983647" lon="-48.635555"><ele>-4.2</ele></trkpt><trkpt lat="-26.983647" lon="-48.635555"><ele>-4.2</ele></trkpt><trkpt lat="-26.983647" lon="-48.635555"><ele>-4.2</ele></trkpt><trkpt lat="-26.983647" lon="-48.635555"><ele>-4.2</ele></trkpt><trkpt lat="-26.983647" lon="-48.635555"><ele>-4.2</ele></trkpt><trkpt lat="-26.983647" lon="-48.635555"><ele>-4.2</ele></trkpt><trkpt lat="-26.983647" lon="-48.635555"><ele>-4.2</ele></trkpt><trkpt lat="-26.983647" lon="-48.635555"><ele>-4.2</ele></trkpt><trkpt lat="-26.983647" lon="-48.635555"><ele>-4.2</ele></trkpt><trkpt lat="-26.983647" lon="-48.635555"><ele>-4.2</ele></trkpt><trkpt lat="-26.983647" lon="-48.635555"><ele>-4.2</ele></trkpt><trkpt lat="-26.983647" lon="-48.635555"><ele>-4.2</ele></trkpt><trkpt lat="-26.983647" lon="-48.635555"><ele>-4.2</ele></trkpt><trkpt lat="-26.983647" lon="-48.635555"><ele>-4.2</ele></trkpt><trkpt lat="-26.983647" lon="-48.635555"><ele>-4.2</ele></trkpt><trkpt lat="-26.983647" lon="-48.635555"><ele>-4.2</ele></trkpt><trkpt lat="-26.983647" lon="-48.635555"><ele>-4.2</ele></trkpt><trkpt lat="-26.983647" lon="-48.635555"><ele>-4.2</ele></trkpt><trkpt lat="-26.983647" lon="-48.635555"><ele>-4.2</ele></trkpt><trkpt lat="-26.983647" lon="-48.635555"><ele>-4.2</ele></trkpt><trkpt lat="-26.983647" lon="-48.635555"><ele>-4.2</ele></trkpt><trkpt lat="-26.983647" lon="-48.635555"><ele>-4.2</ele></trkpt><trkpt lat="-26.983647" lon="-48.635555"><ele>-4.2</ele></trkpt><trkpt lat="-26.983647" lon="-48.635555"><ele>-4.2</ele></trkpt><trkpt lat="-26.983647" lon="-48.635555"><ele>-4.2</ele></trkpt><trkpt lat="-26.983647" lon="-48.635555"><ele>-4.2</ele></trkpt><trkpt lat="-26.983647" lon="-48.635555"><ele>-4.2</ele></trkpt><trkpt lat="-26.983647" lon="-48.635555"><ele>-4.2</ele></trkpt><trkpt lat="-26.983647" lon="-48.635555"><ele>-4.2</ele></trkpt><trkpt lat="-26.983647" lon="-48.635555"><ele>-4.2</ele></trkpt><trkpt lat="-26.983647" lon="-48.635555"><ele>-4.2</ele></trkpt><trkpt lat="-26.983637" lon="-48.635565"><ele>-8.1</ele></trkpt><trkpt lat="-26.983638" lon="-48.635567"><ele>-8.2</ele></trkpt><trkpt lat="-26.983867" lon="-48.635365"><ele>28.7</ele></trkpt><trkpt lat="-26.983852" lon="-48.635378"><ele>27.8</ele></trkpt><trkpt lat="-26.983837" lon="-48.635385"><ele>27.2</ele></trkpt><trkpt lat="-26.983828" lon="-48.635393"><ele>26.8</ele></trkpt><trkpt lat="-26.983815" lon="-48.635417"><ele>23.6</ele></trkpt><trkpt lat="-26.983757" lon="-48.635508"><ele>13.2</ele></trkpt><trkpt lat="-26.983757" lon="-48.635508"><ele>13.2</ele></trkpt><trkpt lat="-26.983735" lon="-48.635527"><ele>10</ele></trkpt><trkpt lat="-26.983735" lon="-48.635527"><ele>10</ele></trkpt><trkpt lat="-26.98372" lon="-48.635532"><ele>9.4</ele></trkpt><trkpt lat="-26.983725" lon="-48.63547"><ele>15.2</ele></trkpt><trkpt lat="-26.983743" lon="-48.635463"><ele>16</ele></trkpt><trkpt lat="-26.983745" lon="-48.635465"><ele>14.6</ele></trkpt><trkpt lat="-26.983745" lon="-48.63547"><ele>12.9</ele></trkpt><trkpt lat="-26.98375" lon="-48.63547"><ele>12.4</ele></trkpt><trkpt lat="-26.983747" lon="-48.635488"><ele>4</ele></trkpt><trkpt lat="-26.983735" lon="-48.635492"><ele>1.1</ele></trkpt><trkpt lat="-26.983728" lon="-48.635497"><ele>-0.6</ele></trkpt><trkpt lat="-26.983723" lon="-48.635497"><ele>-1.1</ele></trkpt></trkseg></trk></gpx>