<?xml version="1.0" encoding="UTF-8"?>
<gpx xmlns="http://www.topografix.com/GPX/1/1" version="1.1" creator="@dwayneparton/geojson-to-gpx"><wpt lat="-27.01964731" lon="-48.66951547"><ele>8.734832763671875</ele></wpt><wpt lat="-27.01922558" lon="-48.66923735"><ele>11.629974365234375</ele><name>2 faixas</name></wpt><wpt lat="-27.01921627" lon="-48.66922283"><ele>11.24945068359375</ele><name>50km/h</name></wpt><wpt lat="-27.01921964" lon="-48.66926343"><ele>9.065093994140625</ele><name>202</name></wpt><wpt lat="-27.01922569" lon="-48.66925973"><ele>8.06024169921875</ele><name>234</name></wpt><wpt lat="-27.01922712" lon="-48.66925"><ele>9.550567626953125</ele><name>360</name></wpt><wpt lat="-27.01922576" lon="-48.66925714"><ele>9.897186279296875</ele><name>1196</name></wpt><wpt lat="-27.02057131" lon="-48.67001929"><ele>8.990936279296875</ele><name>A ciclo é completamente reta.</name></wpt><wpt lat="-27.02057019" lon="-48.67001952"><ele>9.506744384765625</ele><name>A pintura é MUITO falha, mostrando muito asfalto</name></wpt><wpt lat="-27.01922335" lon="-48.66926295"><ele>8.14825439453125</ele><name>Área de amortecimento da ciclo (cm)</name></wpt><wpt lat="-27.01922079" lon="-48.66926272"><ele>9.0859375</ele><name>Área transitável da ciclo (cm)</name></wpt><wpt lat="-27.01922329" lon="-48.66924939"><ele>9.373931884765625</ele><name>Bidirecional</name></wpt><wpt lat="-27.02024285" lon="-48.66979457"><ele>7.72784423828125</ele><name>Bueiro</name></wpt><wpt lat="-27.0192285" lon="-48.66925983"><ele>11.916534423828125</ele><name>Segregador: calçada entre a ciclo e a via</name></wpt><wpt lat="-27.01922316" lon="-48.66924938"><ele>9.69952392578125</ele><name>Ciclovia</name></wpt><wpt lat="-27.02055239" lon="-48.67000389"><ele>8.660980224609375</ele><name>Complementar</name></wpt><wpt lat="-27.019855" lon="-48.66959214"><ele>8.66619873046875</ele><name>Desnível</name></wpt><wpt lat="-27.01989556" lon="-48.66961191"><ele>8.25946044921875</ele><name>Desnível</name></wpt><wpt lat="-27.0199145" lon="-48.66961921"><ele>8.22833251953125</ele><name>Desnível</name></wpt><wpt lat="-27.01922521" lon="-48.66924998"><ele>11.451446533203125</ele><name>Estacionamento proibido na via</name></wpt><wpt lat="-27.01922628" lon="-48.66925196"><ele>9.44580078125</ele><name>Faixa de carros logo ao lado da ciclo (cm)</name></wpt><wpt lat="-27.0191768" lon="-48.66921871"><ele>11.329254150390625</ele><name>Foto</name></wpt><wpt lat="-27.01920823" lon="-48.66922708"><ele>10.649627685546875</ele><name>Foto</name></wpt><wpt lat="-27.0205549" lon="-48.67001003"><ele>9.1944580078125</ele><name>Foto</name></wpt><wpt lat="-27.02054832" lon="-48.67000819"><ele>10.556732177734375</ele><name>Foto</name></wpt><wpt lat="-27.0193811" lon="-48.66940421"><ele>8.825347900390625</ele><name>Grade alinhada ao pneu</name></wpt><wpt lat="-27.01949318" lon="-48.66945341"><ele>9.0882568359375</ele><name>Grade alinhada ao pneu</name></wpt><wpt lat="-27.01967658" lon="-48.669528"><ele>8.78118896484375</ele><name>Grade alinhada ao pneu</name></wpt><wpt lat="-27.01999188" lon="-48.66965331"><ele>8.412353515625</ele><name>Grade alinhada ao pneu</name></wpt><wpt lat="-27.02054933" lon="-48.67000736"><ele>8.356414794921875</ele><name>Grade alinhada ao pneu</name></wpt><wpt lat="-27.02056142" lon="-48.67001365"><ele>9.734283447265625</ele><name>Iluminação geral na via do outro lado da infraestrutura</name></wpt><wpt lat="-27.01921736" lon="-48.66926039"><ele>11.28472900390625</ele><name>Mão Dupla</name></wpt><wpt lat="-27.02057283" lon="-48.67001863"><ele>9.042510986328125</ele><name>Não há árvores nem mudas</name></wpt><wpt lat="-27.01922194" lon="-48.66924942"><ele>10.598114013671875</ele><name>No bordo direito de Via de Mão Única</name></wpt><wpt lat="-27.01922792" lon="-48.66926098"><ele>11.8822021484375</ele><name>Outro segregador</name></wpt><wpt lat="-27.02056401" lon="-48.6700119"><ele>9.55731201171875</ele><name>Pequenas imperfeições, como fissuras</name></wpt><wpt lat="-27.02058144" lon="-48.67002008"><ele>10.095611572265625</ele><name>SE CICLOVIA: segregação impede completamente a invasão de automóvel e não há trechos desprotegidos</name></wpt><wpt lat="-27.02057383" lon="-48.67002414"><ele>9.486114501953125</ele><name>Segregadores DIFICULTAM o acesso parcialmente de ciclistas</name></wpt><wpt lat="-27.01922315" lon="-48.66924117"><ele>11.58111572265625</ele><name>Tijolo intertravado</name></wpt><wpt lat="-27.01922603" lon="-48.6692563"><ele>12.193115234375</ele><name>Toda área de circulação pintada de vermelho</name></wpt><wpt lat="-27.01922546" lon="-48.66925585"><ele>9.69110107421875</ele><name>Total da via (incluindo a ciclo) (cm)</name></wpt><trk><name>Ciclovia Av. João da Costa T1 - Cb</name><trkseg><trkpt lat="-27.01918778" lon="-48.66922047"><ele>-18.24932861328125</ele></trkpt><trkpt lat="-27.01912025" lon="-48.66924353"><ele>-2.2177734375</ele></trkpt><trkpt lat="-27.01920043" lon="-48.66920924"><ele>7.952880859375</ele></trkpt><trkpt lat="-27.01921357" lon="-48.66921037"><ele>2.4254150390625</ele></trkpt><trkpt lat="-27.01919298" lon="-48.66920081"><ele>7.87255859375</ele></trkpt><trkpt lat="-27.01919644" lon="-48.66919512"><ele>9.176116943359375</ele></trkpt><trkpt lat="-27.01917988" lon="-48.6692096"><ele>9.306060791015625</ele></trkpt><trkpt lat="-27.01918131" lon="-48.6692106"><ele>8.8880615234375</ele></trkpt><trkpt lat="-27.0191802" lon="-48.66921445"><ele>9.7706298828125</ele></trkpt><trkpt lat="-27.01917842" lon="-48.66921897"><ele>10.423980712890625</ele></trkpt><trkpt lat="-27.01917787" lon="-48.66921972"><ele>10.8387451171875</ele></trkpt><trkpt lat="-27.0191768" lon="-48.66921871"><ele>11.329254150390625</ele></trkpt><trkpt lat="-27.0191768" lon="-48.66921871"><ele>11.329254150390625</ele></trkpt><trkpt lat="-27.01917568" lon="-48.66921905"><ele>11.57373046875</ele></trkpt><trkpt lat="-27.01917396" lon="-48.66921687"><ele>11.391143798828125</ele></trkpt><trkpt lat="-27.01917798" lon="-48.66922256"><ele>11.670074462890625</ele></trkpt><trkpt lat="-27.01918295" lon="-48.66923021"><ele>11.738525390625</ele></trkpt><trkpt lat="-27.01918542" lon="-48.66923846"><ele>11.389862060546875</ele></trkpt><trkpt lat="-27.01919245" lon="-48.66924258"><ele>10.970977783203125</ele></trkpt><trkpt lat="-27.01919555" lon="-48.66924386"><ele>11.03570556640625</ele></trkpt><trkpt lat="-27.01919594" lon="-48.66925116"><ele>10.760162353515625</ele></trkpt><trkpt lat="-27.01919675" lon="-48.6692512"><ele>10.820220947265625</ele></trkpt><trkpt lat="-27.01919757" lon="-48.66924915"><ele>10.763427734375</ele></trkpt><trkpt lat="-27.01919698" lon="-48.66924811"><ele>11.27020263671875</ele></trkpt><trkpt lat="-27.01919544" lon="-48.6692492"><ele>10.9818115234375</ele></trkpt><trkpt lat="-27.01919204" lon="-48.66925188"><ele>10.955841064453125</ele></trkpt><trkpt lat="-27.01918715" lon="-48.6692533"><ele>10.80810546875</ele></trkpt><trkpt lat="-27.01918663" lon="-48.66925341"><ele>11.020538330078125</ele></trkpt><trkpt lat="-27.01918678" lon="-48.66925233"><ele>11.07989501953125</ele></trkpt><trkpt lat="-27.01918803" lon="-48.6692491"><ele>11.099884033203125</ele></trkpt><trkpt lat="-27.01918791" lon="-48.6692476"><ele>11.31500244140625</ele></trkpt><trkpt lat="-27.01918961" lon="-48.66924916"><ele>11.03021240234375</ele></trkpt><trkpt lat="-27.01919081" lon="-48.66924887"><ele>10.988861083984375</ele></trkpt><trkpt lat="-27.01919468" lon="-48.6692509"><ele>11.01611328125</ele></trkpt><trkpt lat="-27.01919802" lon="-48.66925171"><ele>11.0413818359375</ele></trkpt><trkpt lat="-27.01920191" lon="-48.66925257"><ele>10.832244873046875</ele></trkpt><trkpt lat="-27.01920313" lon="-48.66925375"><ele>10.706207275390625</ele></trkpt><trkpt lat="-27.01920092" lon="-48.66925427"><ele>10.842681884765625</ele></trkpt><trkpt lat="-27.01920069" lon="-48.66925257"><ele>10.606903076171875</ele></trkpt><trkpt lat="-27.01919985" lon="-48.66925032"><ele>10.5771484375</ele></trkpt><trkpt lat="-27.01920071" lon="-48.66924809"><ele>10.443328857421875</ele></trkpt><trkpt lat="-27.01920122" lon="-48.66924623"><ele>10.847808837890625</ele></trkpt><trkpt lat="-27.01920294" lon="-48.66924442"><ele>10.578887939453125</ele></trkpt><trkpt lat="-27.01920387" lon="-48.66924307"><ele>10.612548828125</ele></trkpt><trkpt lat="-27.01920461" lon="-48.66924175"><ele>10.376068115234375</ele></trkpt><trkpt lat="-27.0192038" lon="-48.66924057"><ele>10.48779296875</ele></trkpt><trkpt lat="-27.01920297" lon="-48.66924081"><ele>10.762603759765625</ele></trkpt><trkpt lat="-27.01920146" lon="-48.66924081"><ele>11.3040771484375</ele></trkpt><trkpt lat="-27.01919728" lon="-48.66923899"><ele>11.205535888671875</ele></trkpt><trkpt lat="-27.01919713" lon="-48.66923878"><ele>10.935089111328125</ele></trkpt><trkpt lat="-27.01919593" lon="-48.66924136"><ele>10.91400146484375</ele></trkpt><trkpt lat="-27.01919562" lon="-48.66924214"><ele>10.911041259765625</ele></trkpt><trkpt lat="-27.01919552" lon="-48.66924232"><ele>10.913330078125</ele></trkpt><trkpt lat="-27.01919607" lon="-48.66923813"><ele>11.084625244140625</ele></trkpt><trkpt lat="-27.01919917" lon="-48.66923278"><ele>10.99676513671875</ele></trkpt><trkpt lat="-27.01920364" lon="-48.66922688"><ele>11.0244140625</ele></trkpt><trkpt lat="-27.01920815" lon="-48.66922148"><ele>10.942596435546875</ele></trkpt><trkpt lat="-27.01921195" lon="-48.66922058"><ele>10.4229736328125</ele></trkpt><trkpt lat="-27.01921451" lon="-48.66921863"><ele>10.916717529296875</ele></trkpt><trkpt lat="-27.01921384" lon="-48.66921668"><ele>10.890777587890625</ele></trkpt><trkpt lat="-27.01921167" lon="-48.66921906"><ele>10.706207275390625</ele></trkpt><trkpt lat="-27.01920817" lon="-48.66922687"><ele>10.346405029296875</ele></trkpt><trkpt lat="-27.01920789" lon="-48.66923155"><ele>10.33868408203125</ele></trkpt><trkpt lat="-27.01920881" lon="-48.66923408"><ele>10.271881103515625</ele></trkpt><trkpt lat="-27.01920771" lon="-48.66923354"><ele>10.197235107421875</ele></trkpt><trkpt lat="-27.01920775" lon="-48.66923291"><ele>10.213043212890625</ele></trkpt><trkpt lat="-27.01920718" lon="-48.66922479"><ele>10.585205078125</ele></trkpt><trkpt lat="-27.01920719" lon="-48.6692174"><ele>10.579742431640625</ele></trkpt><trkpt lat="-27.01920722" lon="-48.66921649"><ele>10.58099365234375</ele></trkpt><trkpt lat="-27.01920713" lon="-48.66921675"><ele>10.259490966796875</ele></trkpt><trkpt lat="-27.01920971" lon="-48.66921732"><ele>10.21319580078125</ele></trkpt><trkpt lat="-27.01921356" lon="-48.66920552"><ele>10.744354248046875</ele></trkpt><trkpt lat="-27.01921572" lon="-48.66918627"><ele>11.044189453125</ele></trkpt><trkpt lat="-27.0192194" lon="-48.66918032"><ele>10.790496826171875</ele></trkpt><trkpt lat="-27.01922303" lon="-48.66918182"><ele>10.5157470703125</ele></trkpt><trkpt lat="-27.01922395" lon="-48.66918214"><ele>10.516510009765625</ele></trkpt><trkpt lat="-27.01922416" lon="-48.66918223"><ele>10.517242431640625</ele></trkpt><trkpt lat="-27.01922411" lon="-48.66918087"><ele>10.4197998046875</ele></trkpt><trkpt lat="-27.01922943" lon="-48.66917675"><ele>9.87945556640625</ele></trkpt><trkpt lat="-27.01923886" lon="-48.66917432"><ele>9.96923828125</ele></trkpt><trkpt lat="-27.01924727" lon="-48.66916966"><ele>10.261138916015625</ele></trkpt><trkpt lat="-27.01925458" lon="-48.66916327"><ele>10.579315185546875</ele></trkpt><trkpt lat="-27.01925305" lon="-48.66916041"><ele>10.398468017578125</ele></trkpt><trkpt lat="-27.0192455" lon="-48.66916688"><ele>10.135162353515625</ele></trkpt><trkpt lat="-27.01923872" lon="-48.66918348"><ele>9.938720703125</ele></trkpt><trkpt lat="-27.01923366" lon="-48.66919886"><ele>9.85797119140625</ele></trkpt><trkpt lat="-27.01923171" lon="-48.66920516"><ele>9.748748779296875</ele></trkpt><trkpt lat="-27.0192311" lon="-48.66920874"><ele>9.73382568359375</ele></trkpt><trkpt lat="-27.01923105" lon="-48.66920955"><ele>9.739471435546875</ele></trkpt><trkpt lat="-27.01923104" lon="-48.66920977"><ele>9.744049072265625</ele></trkpt><trkpt lat="-27.01922952" lon="-48.66921201"><ele>10.0821533203125</ele></trkpt><trkpt lat="-27.01922882" lon="-48.66921324"><ele>10.086151123046875</ele></trkpt><trkpt lat="-27.01922871" lon="-48.66921352"><ele>10.08111572265625</ele></trkpt><trkpt lat="-27.0192283" lon="-48.66921798"><ele>10.439971923828125</ele></trkpt><trkpt lat="-27.0192285" lon="-48.66922016"><ele>10.268585205078125</ele></trkpt><trkpt lat="-27.01922939" lon="-48.66922061"><ele>10.27716064453125</ele></trkpt><trkpt lat="-27.01922715" lon="-48.66922245"><ele>10.038909912109375</ele></trkpt><trkpt lat="-27.01923025" lon="-48.66921618"><ele>10.041778564453125</ele></trkpt><trkpt lat="-27.01924241" lon="-48.66920717"><ele>9.9747314453125</ele></trkpt><trkpt lat="-27.01925559" lon="-48.66920021"><ele>9.74237060546875</ele></trkpt><trkpt lat="-27.01926322" lon="-48.66919629"><ele>9.47930908203125</ele></trkpt><trkpt lat="-27.01926699" lon="-48.66919185"><ele>9.5003662109375</ele></trkpt><trkpt lat="-27.01927121" lon="-48.66918633"><ele>10.233062744140625</ele></trkpt><trkpt lat="-27.01927512" lon="-48.66918265"><ele>9.686492919921875</ele></trkpt><trkpt lat="-27.01927796" lon="-48.66918049"><ele>9.8153076171875</ele></trkpt><trkpt lat="-27.01928206" lon="-48.6691798"><ele>9.76556396484375</ele></trkpt><trkpt lat="-27.01928368" lon="-48.66917974"><ele>9.726654052734375</ele></trkpt><trkpt lat="-27.01928375" lon="-48.66917752"><ele>9.877166748046875</ele></trkpt><trkpt lat="-27.01928343" lon="-48.66917586"><ele>9.873626708984375</ele></trkpt><trkpt lat="-27.0192832" lon="-48.66917585"><ele>9.81085205078125</ele></trkpt><trkpt lat="-27.0192621" lon="-48.66922715"><ele>9.412384033203125</ele></trkpt><trkpt lat="-27.01925426" lon="-48.66924287"><ele>8.68865966796875</ele></trkpt><trkpt lat="-27.01924982" lon="-48.66924959"><ele>10.706878662109375</ele></trkpt><trkpt lat="-27.0192412" lon="-48.66925464"><ele>11.129425048828125</ele></trkpt><trkpt lat="-27.01923213" lon="-48.66925621"><ele>10.7069091796875</ele></trkpt><trkpt lat="-27.01923113" lon="-48.66926197"><ele>9.904205322265625</ele></trkpt><trkpt lat="-27.01923363" lon="-48.66926181"><ele>9.783172607421875</ele></trkpt><trkpt lat="-27.0192305" lon="-48.66926304"><ele>9.21112060546875</ele></trkpt><trkpt lat="-27.01922721" lon="-48.66926462"><ele>9.2396240234375</ele></trkpt><trkpt lat="-27.01922772" lon="-48.66926667"><ele>9.32440185546875</ele></trkpt><trkpt lat="-27.01922544" lon="-48.66926964"><ele>9.481170654296875</ele></trkpt><trkpt lat="-27.01922487" lon="-48.66927035"><ele>9.074432373046875</ele></trkpt><trkpt lat="-27.01922584" lon="-48.66926713"><ele>9.333099365234375</ele></trkpt><trkpt lat="-27.01922686" lon="-48.66926824"><ele>9.21270751953125</ele></trkpt><trkpt lat="-27.01922628" lon="-48.66926824"><ele>9.3939208984375</ele></trkpt><trkpt lat="-27.01922488" lon="-48.66926399"><ele>9.475738525390625</ele></trkpt><trkpt lat="-27.01922681" lon="-48.66926018"><ele>9.53582763671875</ele></trkpt><trkpt lat="-27.01922903" lon="-48.66925859"><ele>9.6044921875</ele></trkpt><trkpt lat="-27.01922981" lon="-48.66925834"><ele>9.45703125</ele></trkpt><trkpt lat="-27.01922848" lon="-48.66925639"><ele>9.62298583984375</ele></trkpt><trkpt lat="-27.01922997" lon="-48.66925604"><ele>9.500335693359375</ele></trkpt><trkpt lat="-27.01923242" lon="-48.66925785"><ele>9.455535888671875</ele></trkpt><trkpt lat="-27.01923332" lon="-48.6692585"><ele>9.524871826171875</ele></trkpt><trkpt lat="-27.01923681" lon="-48.6692589"><ele>9.741912841796875</ele></trkpt><trkpt lat="-27.01923889" lon="-48.6692595"><ele>9.50201416015625</ele></trkpt><trkpt lat="-27.0192383" lon="-48.66925986"><ele>9.2977294921875</ele></trkpt><trkpt lat="-27.01923589" lon="-48.66926074"><ele>8.9658203125</ele></trkpt><trkpt lat="-27.01923323" lon="-48.66926247"><ele>8.709991455078125</ele></trkpt><trkpt lat="-27.01922964" lon="-48.66926415"><ele>8.474884033203125</ele></trkpt><trkpt lat="-27.01922742" lon="-48.66926444"><ele>8.506195068359375</ele></trkpt><trkpt lat="-27.01922382" lon="-48.66926255"><ele>8.965087890625</ele></trkpt><trkpt lat="-27.01922079" lon="-48.66926272"><ele>9.0859375</ele></trkpt><trkpt lat="-27.01922079" lon="-48.66926272"><ele>9.0859375</ele></trkpt><trkpt lat="-27.01921964" lon="-48.66926343"><ele>9.065093994140625</ele></trkpt><trkpt lat="-27.01921964" lon="-48.66926343"><ele>9.065093994140625</ele></trkpt><trkpt lat="-27.01921928" lon="-48.66926712"><ele>9.034332275390625</ele></trkpt><trkpt lat="-27.01921922" lon="-48.66926815"><ele>8.993499755859375</ele></trkpt><trkpt lat="-27.01922038" lon="-48.66926919"><ele>8.617706298828125</ele></trkpt><trkpt lat="-27.01922131" lon="-48.6692672"><ele>8.6295166015625</ele></trkpt><trkpt lat="-27.01922153" lon="-48.66926734"><ele>8.540191650390625</ele></trkpt><trkpt lat="-27.01922089" lon="-48.66926784"><ele>8.48797607421875</ele></trkpt><trkpt lat="-27.01922075" lon="-48.66926644"><ele>8.029449462890625</ele></trkpt><trkpt lat="-27.0192197" lon="-48.66926494"><ele>8.211822509765625</ele></trkpt><trkpt lat="-27.01922006" lon="-48.66926531"><ele>8.04107666015625</ele></trkpt><trkpt lat="-27.01922183" lon="-48.66926344"><ele>8.066558837890625</ele></trkpt><trkpt lat="-27.01922213" lon="-48.66926311"><ele>8.244842529296875</ele></trkpt><trkpt lat="-27.01922335" lon="-48.66926295"><ele>8.14825439453125</ele></trkpt><trkpt lat="-27.01922335" lon="-48.66926295"><ele>8.14825439453125</ele></trkpt><trkpt lat="-27.01922569" lon="-48.66925973"><ele>8.06024169921875</ele></trkpt><trkpt lat="-27.01922569" lon="-48.66925973"><ele>8.06024169921875</ele></trkpt><trkpt lat="-27.01922613" lon="-48.66925856"><ele>8.549774169921875</ele></trkpt><trkpt lat="-27.01922723" lon="-48.66925831"><ele>8.603851318359375</ele></trkpt><trkpt lat="-27.0192276" lon="-48.66925785"><ele>9.0401611328125</ele></trkpt><trkpt lat="-27.01922813" lon="-48.66925546"><ele>9.482177734375</ele></trkpt><trkpt lat="-27.01922719" lon="-48.66925429"><ele>9.460540771484375</ele></trkpt><trkpt lat="-27.01922628" lon="-48.66925196"><ele>9.44580078125</ele></trkpt><trkpt lat="-27.01922628" lon="-48.66925196"><ele>9.44580078125</ele></trkpt><trkpt lat="-27.01922656" lon="-48.6692505"><ele>9.438262939453125</ele></trkpt><trkpt lat="-27.01922712" lon="-48.66925"><ele>9.550567626953125</ele></trkpt><trkpt lat="-27.01922712" lon="-48.66925"><ele>9.550567626953125</ele></trkpt><trkpt lat="-27.01922699" lon="-48.66924955"><ele>9.74566650390625</ele></trkpt><trkpt lat="-27.01922689" lon="-48.66924954"><ele>9.810394287109375</ele></trkpt><trkpt lat="-27.01922688" lon="-48.66924938"><ele>9.817718505859375</ele></trkpt><trkpt lat="-27.01922697" lon="-48.6692492"><ele>9.800445556640625</ele></trkpt><trkpt lat="-27.01922706" lon="-48.66924902"><ele>9.79296875</ele></trkpt><trkpt lat="-27.01922711" lon="-48.66924896"><ele>9.795989990234375</ele></trkpt><trkpt lat="-27.01922713" lon="-48.66924896"><ele>9.799072265625</ele></trkpt><trkpt lat="-27.01922668" lon="-48.66925009"><ele>9.8240966796875</ele></trkpt><trkpt lat="-27.01922578" lon="-48.66925251"><ele>9.60833740234375</ele></trkpt><trkpt lat="-27.0192258" lon="-48.66925531"><ele>9.6279296875</ele></trkpt><trkpt lat="-27.01922546" lon="-48.66925585"><ele>9.69110107421875</ele></trkpt><trkpt lat="-27.01922546" lon="-48.66925585"><ele>9.69110107421875</ele></trkpt><trkpt lat="-27.01922576" lon="-48.66925714"><ele>9.897186279296875</ele></trkpt><trkpt lat="-27.01922576" lon="-48.66925714"><ele>9.897186279296875</ele></trkpt><trkpt lat="-27.01922608" lon="-48.66925715"><ele>9.760711669921875</ele></trkpt><trkpt lat="-27.01922544" lon="-48.66925662"><ele>9.688812255859375</ele></trkpt><trkpt lat="-27.01922511" lon="-48.66925496"><ele>9.709503173828125</ele></trkpt><trkpt lat="-27.01922486" lon="-48.66925648"><ele>9.679168701171875</ele></trkpt><trkpt lat="-27.01922583" lon="-48.66925781"><ele>9.851806640625</ele></trkpt><trkpt lat="-27.01922521" lon="-48.66925766"><ele>10.088897705078125</ele></trkpt><trkpt lat="-27.01922528" lon="-48.66925638"><ele>10.24798583984375</ele></trkpt><trkpt lat="-27.01922529" lon="-48.66925645"><ele>10.18896484375</ele></trkpt><trkpt lat="-27.01922456" lon="-48.66925406"><ele>10.269195556640625</ele></trkpt><trkpt lat="-27.01922416" lon="-48.6692526"><ele>10.25238037109375</ele></trkpt><trkpt lat="-27.01922414" lon="-48.66925297"><ele>10.239501953125</ele></trkpt><trkpt lat="-27.01922482" lon="-48.66925333"><ele>9.93182373046875</ele></trkpt><trkpt lat="-27.01922342" lon="-48.66925146"><ele>10.24664306640625</ele></trkpt><trkpt lat="-27.01922557" lon="-48.66924835"><ele>10.13458251953125</ele></trkpt><trkpt lat="-27.01922546" lon="-48.6692483"><ele>10.022735595703125</ele></trkpt><trkpt lat="-27.01922477" lon="-48.66924878"><ele>9.9241943359375</ele></trkpt><trkpt lat="-27.01922316" lon="-48.66924938"><ele>9.69952392578125</ele></trkpt><trkpt lat="-27.01922316" lon="-48.66924938"><ele>9.69952392578125</ele></trkpt><trkpt lat="-27.01922262" lon="-48.66924972"><ele>9.617645263671875</ele></trkpt><trkpt lat="-27.01922329" lon="-48.66924939"><ele>9.373931884765625</ele></trkpt><trkpt lat="-27.01922329" lon="-48.66924939"><ele>9.373931884765625</ele></trkpt><trkpt lat="-27.01922435" lon="-48.66925098"><ele>9.213714599609375</ele></trkpt><trkpt lat="-27.01922507" lon="-48.6692529"><ele>9.039825439453125</ele></trkpt><trkpt lat="-27.01922535" lon="-48.66925398"><ele>9.164825439453125</ele></trkpt><trkpt lat="-27.01922544" lon="-48.66925518"><ele>9.3916015625</ele></trkpt><trkpt lat="-27.01922724" lon="-48.66925414"><ele>9.4749755859375</ele></trkpt><trkpt lat="-27.01922723" lon="-48.66925254"><ele>9.534912109375</ele></trkpt><trkpt lat="-27.01922611" lon="-48.66925002"><ele>9.791900634765625</ele></trkpt><trkpt lat="-27.01922484" lon="-48.66924944"><ele>10.26806640625</ele></trkpt><trkpt lat="-27.01922329" lon="-48.66924953"><ele>10.605072021484375</ele></trkpt><trkpt lat="-27.01922198" lon="-48.66924971"><ele>10.660919189453125</ele></trkpt><trkpt lat="-27.01922194" lon="-48.66924942"><ele>10.598114013671875</ele></trkpt><trkpt lat="-27.01922194" lon="-48.66924942"><ele>10.598114013671875</ele></trkpt><trkpt lat="-27.01922112" lon="-48.66924955"><ele>10.52337646484375</ele></trkpt><trkpt lat="-27.01922146" lon="-48.66924877"><ele>10.522186279296875</ele></trkpt><trkpt lat="-27.01922136" lon="-48.66924835"><ele>10.50091552734375</ele></trkpt><trkpt lat="-27.01922125" lon="-48.66924787"><ele>10.479736328125</ele></trkpt><trkpt lat="-27.01921905" lon="-48.66924812"><ele>10.53826904296875</ele></trkpt><trkpt lat="-27.01921965" lon="-48.66924888"><ele>10.5419921875</ele></trkpt><trkpt lat="-27.01922035" lon="-48.66924922"><ele>10.424560546875</ele></trkpt><trkpt lat="-27.01922157" lon="-48.66924838"><ele>10.735595703125</ele></trkpt><trkpt lat="-27.0192216" lon="-48.66924833"><ele>10.77606201171875</ele></trkpt><trkpt lat="-27.01921972" lon="-48.66925141"><ele>10.704498291015625</ele></trkpt><trkpt lat="-27.01921863" lon="-48.6692562"><ele>10.930908203125</ele></trkpt><trkpt lat="-27.01921885" lon="-48.66925866"><ele>11.123870849609375</ele></trkpt><trkpt lat="-27.01922097" lon="-48.66925825"><ele>11.05670166015625</ele></trkpt><trkpt lat="-27.01922115" lon="-48.66925835"><ele>11.080230712890625</ele></trkpt><trkpt lat="-27.01922159" lon="-48.66925817"><ele>11.24298095703125</ele></trkpt><trkpt lat="-27.01922159" lon="-48.66925817"><ele>11.24298095703125</ele></trkpt><trkpt lat="-27.01922044" lon="-48.66925881"><ele>11.43890380859375</ele></trkpt><trkpt lat="-27.01921966" lon="-48.66926001"><ele>11.571868896484375</ele></trkpt><trkpt lat="-27.01921876" lon="-48.66926049"><ele>11.507537841796875</ele></trkpt><trkpt lat="-27.0192184" lon="-48.66926168"><ele>11.253082275390625</ele></trkpt><trkpt lat="-27.01921783" lon="-48.66926146"><ele>11.287384033203125</ele></trkpt><trkpt lat="-27.01921783" lon="-48.66926146"><ele>11.287384033203125</ele></trkpt><trkpt lat="-27.01921753" lon="-48.66926105"><ele>11.288177490234375</ele></trkpt><trkpt lat="-27.01921745" lon="-48.66926063"><ele>11.2845458984375</ele></trkpt><trkpt lat="-27.01921739" lon="-48.66926046"><ele>11.282470703125</ele></trkpt><trkpt lat="-27.01921736" lon="-48.66926039"><ele>11.28472900390625</ele></trkpt><trkpt lat="-27.01921736" lon="-48.66926039"><ele>11.28472900390625</ele></trkpt><trkpt lat="-27.01921674" lon="-48.66926038"><ele>11.653228759765625</ele></trkpt><trkpt lat="-27.01921729" lon="-48.66926365"><ele>11.87713623046875</ele></trkpt><trkpt lat="-27.01922108" lon="-48.66925948"><ele>12.0003662109375</ele></trkpt><trkpt lat="-27.01922375" lon="-48.66925814"><ele>12.13665771484375</ele></trkpt><trkpt lat="-27.01922554" lon="-48.66925666"><ele>12.27081298828125</ele></trkpt><trkpt lat="-27.01922485" lon="-48.66925604"><ele>12.199462890625</ele></trkpt><trkpt lat="-27.01922469" lon="-48.66925587"><ele>12.20074462890625</ele></trkpt><trkpt lat="-27.01922484" lon="-48.66925605"><ele>12.213134765625</ele></trkpt><trkpt lat="-27.01922515" lon="-48.66925611"><ele>12.21856689453125</ele></trkpt><trkpt lat="-27.01922603" lon="-48.6692563"><ele>12.193115234375</ele></trkpt><trkpt lat="-27.01922603" lon="-48.6692563"><ele>12.193115234375</ele></trkpt><trkpt lat="-27.01922667" lon="-48.66925659"><ele>12.117919921875</ele></trkpt><trkpt lat="-27.01922691" lon="-48.6692572"><ele>12.08770751953125</ele></trkpt><trkpt lat="-27.01922709" lon="-48.6692572"><ele>12.09844970703125</ele></trkpt><trkpt lat="-27.01922679" lon="-48.6692566"><ele>12.16741943359375</ele></trkpt><trkpt lat="-27.01922662" lon="-48.66925622"><ele>12.19842529296875</ele></trkpt><trkpt lat="-27.01922653" lon="-48.66925608"><ele>12.20220947265625</ele></trkpt><trkpt lat="-27.01922648" lon="-48.66925599"><ele>12.2064208984375</ele></trkpt><trkpt lat="-27.01922646" lon="-48.66925593"><ele>12.20672607421875</ele></trkpt><trkpt lat="-27.01922645" lon="-48.6692559"><ele>12.2076416015625</ele></trkpt><trkpt lat="-27.01922644" lon="-48.66925587"><ele>12.209228515625</ele></trkpt><trkpt lat="-27.01922644" lon="-48.66925583"><ele>12.2095947265625</ele></trkpt><trkpt lat="-27.01922691" lon="-48.66925584"><ele>12.07513427734375</ele></trkpt><trkpt lat="-27.01922849" lon="-48.66925633"><ele>11.809783935546875</ele></trkpt><trkpt lat="-27.01922796" lon="-48.66925885"><ele>11.708740234375</ele></trkpt><trkpt lat="-27.01922792" lon="-48.66926098"><ele>11.8822021484375</ele></trkpt><trkpt lat="-27.01922792" lon="-48.66926098"><ele>11.8822021484375</ele></trkpt><trkpt lat="-27.01922832" lon="-48.66926083"><ele>11.915557861328125</ele></trkpt><trkpt lat="-27.0192285" lon="-48.66925983"><ele>11.916534423828125</ele></trkpt><trkpt lat="-27.0192285" lon="-48.66925983"><ele>11.916534423828125</ele></trkpt><trkpt lat="-27.01922874" lon="-48.66925755"><ele>11.859100341796875</ele></trkpt><trkpt lat="-27.01922925" lon="-48.66925584"><ele>11.79644775390625</ele></trkpt><trkpt lat="-27.01922955" lon="-48.66925422"><ele>11.8563232421875</ele></trkpt><trkpt lat="-27.01922914" lon="-48.6692533"><ele>11.736297607421875</ele></trkpt><trkpt lat="-27.01922824" lon="-48.66925311"><ele>11.6158447265625</ele></trkpt><trkpt lat="-27.01922809" lon="-48.66925265"><ele>11.59442138671875</ele></trkpt><trkpt lat="-27.01922805" lon="-48.66925213"><ele>11.588104248046875</ele></trkpt><trkpt lat="-27.01922794" lon="-48.66925192"><ele>11.590362548828125</ele></trkpt><trkpt lat="-27.01922787" lon="-48.6692519"><ele>11.583587646484375</ele></trkpt><trkpt lat="-27.01922783" lon="-48.66925189"><ele>11.580718994140625</ele></trkpt><trkpt lat="-27.01922782" lon="-48.66925187"><ele>11.579742431640625</ele></trkpt><trkpt lat="-27.01922781" lon="-48.66925184"><ele>11.58123779296875</ele></trkpt><trkpt lat="-27.01922782" lon="-48.66925183"><ele>11.581787109375</ele></trkpt><trkpt lat="-27.0192265" lon="-48.66925118"><ele>11.72833251953125</ele></trkpt><trkpt lat="-27.01922622" lon="-48.66925078"><ele>11.796173095703125</ele></trkpt><trkpt lat="-27.0192254" lon="-48.66925005"><ele>11.982696533203125</ele></trkpt><trkpt lat="-27.01922422" lon="-48.66924712"><ele>11.9273681640625</ele></trkpt><trkpt lat="-27.01922325" lon="-48.6692458"><ele>11.829376220703125</ele></trkpt><trkpt lat="-27.01922252" lon="-48.66924398"><ele>11.928070068359375</ele></trkpt><trkpt lat="-27.01922335" lon="-48.66924214"><ele>11.756988525390625</ele></trkpt><trkpt lat="-27.0192234" lon="-48.66924206"><ele>11.59710693359375</ele></trkpt><trkpt lat="-27.01922315" lon="-48.66924117"><ele>11.58111572265625</ele></trkpt><trkpt lat="-27.01922315" lon="-48.66924117"><ele>11.58111572265625</ele></trkpt><trkpt lat="-27.01922367" lon="-48.66924106"><ele>11.427276611328125</ele></trkpt><trkpt lat="-27.01922488" lon="-48.66924075"><ele>11.216552734375</ele></trkpt><trkpt lat="-27.01922533" lon="-48.66924039"><ele>11.186676025390625</ele></trkpt><trkpt lat="-27.0192251" lon="-48.66923876"><ele>11.2900390625</ele></trkpt><trkpt lat="-27.01922574" lon="-48.6692376"><ele>11.468597412109375</ele></trkpt><trkpt lat="-27.01922558" lon="-48.66923735"><ele>11.629974365234375</ele></trkpt><trkpt lat="-27.01922558" lon="-48.66923735"><ele>11.629974365234375</ele></trkpt><trkpt lat="-27.01922598" lon="-48.66923741"><ele>11.633514404296875</ele></trkpt><trkpt lat="-27.01922664" lon="-48.66923738"><ele>11.50439453125</ele></trkpt><trkpt lat="-27.01922612" lon="-48.66923863"><ele>11.298828125</ele></trkpt><trkpt lat="-27.01922563" lon="-48.66923978"><ele>11.234619140625</ele></trkpt><trkpt lat="-27.01922236" lon="-48.66924555"><ele>11.30853271484375</ele></trkpt><trkpt lat="-27.01922213" lon="-48.66924774"><ele>11.361724853515625</ele></trkpt><trkpt lat="-27.01922371" lon="-48.66924885"><ele>11.445892333984375</ele></trkpt><trkpt lat="-27.01922521" lon="-48.66924998"><ele>11.451446533203125</ele></trkpt><trkpt lat="-27.01922521" lon="-48.66924998"><ele>11.451446533203125</ele></trkpt><trkpt lat="-27.01922558" lon="-48.66925093"><ele>11.169708251953125</ele></trkpt><trkpt lat="-27.01922371" lon="-48.66924789"><ele>11.4412841796875</ele></trkpt><trkpt lat="-27.01922047" lon="-48.66924422"><ele>11.058502197265625</ele></trkpt><trkpt lat="-27.01921919" lon="-48.66923831"><ele>11.02691650390625</ele></trkpt><trkpt lat="-27.01921572" lon="-48.6692316"><ele>11.16400146484375</ele></trkpt><trkpt lat="-27.01921606" lon="-48.66922582"><ele>11.297393798828125</ele></trkpt><trkpt lat="-27.0192164" lon="-48.66922356"><ele>11.299072265625</ele></trkpt><trkpt lat="-27.01921502" lon="-48.66922594"><ele>11.3623046875</ele></trkpt><trkpt lat="-27.01921546" lon="-48.66922696"><ele>11.362152099609375</ele></trkpt><trkpt lat="-27.0192166" lon="-48.66922742"><ele>11.4005126953125</ele></trkpt><trkpt lat="-27.01921791" lon="-48.66922779"><ele>11.31964111328125</ele></trkpt><trkpt lat="-27.01921844" lon="-48.6692284"><ele>11.2532958984375</ele></trkpt><trkpt lat="-27.01921694" lon="-48.66922482"><ele>11.35076904296875</ele></trkpt><trkpt lat="-27.01921678" lon="-48.66922245"><ele>11.235809326171875</ele></trkpt><trkpt lat="-27.01921627" lon="-48.66922283"><ele>11.24945068359375</ele></trkpt><trkpt lat="-27.01921627" lon="-48.66922283"><ele>11.24945068359375</ele></trkpt><trkpt lat="-27.01921422" lon="-48.66922408"><ele>11.2401123046875</ele></trkpt><trkpt lat="-27.01921295" lon="-48.66922599"><ele>11.041015625</ele></trkpt><trkpt lat="-27.01921205" lon="-48.66922691"><ele>10.66571044921875</ele></trkpt><trkpt lat="-27.01920898" lon="-48.66922909"><ele>10.4920654296875</ele></trkpt><trkpt lat="-27.01920804" lon="-48.66922901"><ele>10.633392333984375</ele></trkpt><trkpt lat="-27.01920823" lon="-48.66922708"><ele>10.649627685546875</ele></trkpt><trkpt lat="-27.01920823" lon="-48.66922708"><ele>10.649627685546875</ele></trkpt><trkpt lat="-27.01920798" lon="-48.66922398"><ele>10.4744873046875</ele></trkpt><trkpt lat="-27.01920764" lon="-48.66922375"><ele>10.4508056640625</ele></trkpt><trkpt lat="-27.01920844" lon="-48.66922535"><ele>10.106201171875</ele></trkpt><trkpt lat="-27.01920952" lon="-48.66922685"><ele>10.2462158203125</ele></trkpt><trkpt lat="-27.01921157" lon="-48.66922992"><ele>10.001617431640625</ele></trkpt><trkpt lat="-27.01922062" lon="-48.66924033"><ele>9.90869140625</ele></trkpt><trkpt lat="-27.0192227" lon="-48.66924318"><ele>9.952850341796875</ele></trkpt><trkpt lat="-27.01922351" lon="-48.66924426"><ele>10.09716796875</ele></trkpt><trkpt lat="-27.01922418" lon="-48.66924569"><ele>10.200958251953125</ele></trkpt><trkpt lat="-27.01922404" lon="-48.66924765"><ele>10.176422119140625</ele></trkpt><trkpt lat="-27.01922328" lon="-48.66924849"><ele>10.20361328125</ele></trkpt><trkpt lat="-27.01922317" lon="-48.6692483"><ele>10.29534912109375</ele></trkpt><trkpt lat="-27.01922337" lon="-48.66924891"><ele>10.436553955078125</ele></trkpt><trkpt lat="-27.01922273" lon="-48.66924997"><ele>10.53985595703125</ele></trkpt><trkpt lat="-27.01922292" lon="-48.66925138"><ele>10.574951171875</ele></trkpt><trkpt lat="-27.01922337" lon="-48.66925188"><ele>10.585968017578125</ele></trkpt><trkpt lat="-27.01922351" lon="-48.66925207"><ele>10.5787353515625</ele></trkpt><trkpt lat="-27.01922379" lon="-48.66925205"><ele>10.567626953125</ele></trkpt><trkpt lat="-27.01922385" lon="-48.66925208"><ele>10.569000244140625</ele></trkpt><trkpt lat="-27.01922387" lon="-48.66925208"><ele>10.56927490234375</ele></trkpt><trkpt lat="-27.01922388" lon="-48.66925208"><ele>10.567962646484375</ele></trkpt><trkpt lat="-27.01922389" lon="-48.66925208"><ele>10.567718505859375</ele></trkpt><trkpt lat="-27.0192239" lon="-48.66925209"><ele>10.567718505859375</ele></trkpt><trkpt lat="-27.01922342" lon="-48.66925239"><ele>10.39727783203125</ele></trkpt><trkpt lat="-27.01922584" lon="-48.66925658"><ele>10.503631591796875</ele></trkpt><trkpt lat="-27.01923041" lon="-48.66926134"><ele>10.46990966796875</ele></trkpt><trkpt lat="-27.01923465" lon="-48.66927372"><ele>10.196563720703125</ele></trkpt><trkpt lat="-27.01924412" lon="-48.6692887"><ele>10.37957763671875</ele></trkpt><trkpt lat="-27.01925446" lon="-48.66930739"><ele>9.98394775390625</ele></trkpt><trkpt lat="-27.01926714" lon="-48.66932759"><ele>9.93035888671875</ele></trkpt><trkpt lat="-27.0192813" lon="-48.66934637"><ele>9.827667236328125</ele></trkpt><trkpt lat="-27.0193038" lon="-48.66936402"><ele>9.448272705078125</ele></trkpt><trkpt lat="-27.01932441" lon="-48.66938134"><ele>8.95501708984375</ele></trkpt><trkpt lat="-27.01934239" lon="-48.66939187"><ele>8.904541015625</ele></trkpt><trkpt lat="-27.01935747" lon="-48.66939894"><ele>8.59124755859375</ele></trkpt><trkpt lat="-27.0193714" lon="-48.66940594"><ele>8.43463134765625</ele></trkpt><trkpt lat="-27.01937981" lon="-48.66941165"><ele>8.33551025390625</ele></trkpt><trkpt lat="-27.01938483" lon="-48.66941217"><ele>8.779266357421875</ele></trkpt><trkpt lat="-27.01938704" lon="-48.66940982"><ele>8.981903076171875</ele></trkpt><trkpt lat="-27.01938463" lon="-48.66940506"><ele>9.0594482421875</ele></trkpt><trkpt lat="-27.01938135" lon="-48.6694042"><ele>8.972381591796875</ele></trkpt><trkpt lat="-27.0193811" lon="-48.66940421"><ele>8.825347900390625</ele></trkpt><trkpt lat="-27.0193811" lon="-48.66940421"><ele>8.825347900390625</ele></trkpt><trkpt lat="-27.01938043" lon="-48.669402"><ele>8.86309814453125</ele></trkpt><trkpt lat="-27.01937985" lon="-48.66940087"><ele>8.9381103515625</ele></trkpt><trkpt lat="-27.01938398" lon="-48.66940311"><ele>9.025421142578125</ele></trkpt><trkpt lat="-27.01939419" lon="-48.66940998"><ele>9.084075927734375</ele></trkpt><trkpt lat="-27.01940946" lon="-48.66941904"><ele>8.91888427734375</ele></trkpt><trkpt lat="-27.01942911" lon="-48.66942961"><ele>9.012603759765625</ele></trkpt><trkpt lat="-27.01945075" lon="-48.66943886"><ele>9.165130615234375</ele></trkpt><trkpt lat="-27.01947142" lon="-48.66944812"><ele>9.1014404296875</ele></trkpt><trkpt lat="-27.01948812" lon="-48.66945449"><ele>9.1016845703125</ele></trkpt><trkpt lat="-27.01949318" lon="-48.66945341"><ele>9.0882568359375</ele></trkpt><trkpt lat="-27.01949318" lon="-48.66945341"><ele>9.0882568359375</ele></trkpt><trkpt lat="-27.01949386" lon="-48.66945154"><ele>9.175750732421875</ele></trkpt><trkpt lat="-27.01949491" lon="-48.66944881"><ele>9.085540771484375</ele></trkpt><trkpt lat="-27.01949797" lon="-48.66944974"><ele>9.055694580078125</ele></trkpt><trkpt lat="-27.01950122" lon="-48.66944848"><ele>9.097900390625</ele></trkpt><trkpt lat="-27.01950374" lon="-48.66944747"><ele>9.06298828125</ele></trkpt><trkpt lat="-27.01950462" lon="-48.6694481"><ele>8.96295166015625</ele></trkpt><trkpt lat="-27.0195055" lon="-48.66944799"><ele>8.802947998046875</ele></trkpt><trkpt lat="-27.01950627" lon="-48.66944769"><ele>8.834686279296875</ele></trkpt><trkpt lat="-27.01950618" lon="-48.66944654"><ele>8.9954833984375</ele></trkpt><trkpt lat="-27.01950659" lon="-48.66944518"><ele>9.1319580078125</ele></trkpt><trkpt lat="-27.01950669" lon="-48.66944432"><ele>9.237548828125</ele></trkpt><trkpt lat="-27.01951429" lon="-48.66945026"><ele>9.191009521484375</ele></trkpt><trkpt lat="-27.01952559" lon="-48.66945885"><ele>9.076171875</ele></trkpt><trkpt lat="-27.01954013" lon="-48.6694659"><ele>8.99066162109375</ele></trkpt><trkpt lat="-27.0195583" lon="-48.66947331"><ele>8.74560546875</ele></trkpt><trkpt lat="-27.01957741" lon="-48.66948246"><ele>8.757080078125</ele></trkpt><trkpt lat="-27.01959717" lon="-48.66949123"><ele>8.61376953125</ele></trkpt><trkpt lat="-27.01961819" lon="-48.66950129"><ele>8.66363525390625</ele></trkpt><trkpt lat="-27.01963405" lon="-48.66950886"><ele>8.7550048828125</ele></trkpt><trkpt lat="-27.01964731" lon="-48.66951547"><ele>8.734832763671875</ele></trkpt><trkpt lat="-27.01964731" lon="-48.66951547"><ele>8.734832763671875</ele></trkpt><trkpt lat="-27.01965864" lon="-48.66952108"><ele>8.834808349609375</ele></trkpt><trkpt lat="-27.01966978" lon="-48.66952615"><ele>8.79052734375</ele></trkpt><trkpt lat="-27.01967533" lon="-48.66952795"><ele>8.95440673828125</ele></trkpt><trkpt lat="-27.01967658" lon="-48.669528"><ele>8.78118896484375</ele></trkpt><trkpt lat="-27.01967658" lon="-48.669528"><ele>8.78118896484375</ele></trkpt><trkpt lat="-27.01967696" lon="-48.66952851"><ele>8.6116943359375</ele></trkpt><trkpt lat="-27.01968031" lon="-48.66952974"><ele>8.482208251953125</ele></trkpt><trkpt lat="-27.01968962" lon="-48.66953434"><ele>8.363555908203125</ele></trkpt><trkpt lat="-27.01970586" lon="-48.66954162"><ele>8.317047119140625</ele></trkpt><trkpt lat="-27.01972394" lon="-48.6695508"><ele>8.255462646484375</ele></trkpt><trkpt lat="-27.01974428" lon="-48.66955938"><ele>8.142608642578125</ele></trkpt><trkpt lat="-27.01976564" lon="-48.6695704"><ele>8.078094482421875</ele></trkpt><trkpt lat="-27.01978882" lon="-48.6695808"><ele>8.225616455078125</ele></trkpt><trkpt lat="-27.01981394" lon="-48.66958996"><ele>8.368408203125</ele></trkpt><trkpt lat="-27.01983318" lon="-48.66959553"><ele>8.61138916015625</ele></trkpt><trkpt lat="-27.01984581" lon="-48.6695974"><ele>8.51922607421875</ele></trkpt><trkpt lat="-27.01985417" lon="-48.66959306"><ele>8.72479248046875</ele></trkpt><trkpt lat="-27.01985608" lon="-48.66959162"><ele>8.57635498046875</ele></trkpt><trkpt lat="-27.01985516" lon="-48.66959178"><ele>8.65447998046875</ele></trkpt><trkpt lat="-27.019855" lon="-48.66959214"><ele>8.66619873046875</ele></trkpt><trkpt lat="-27.019855" lon="-48.66959214"><ele>8.66619873046875</ele></trkpt><trkpt lat="-27.01985666" lon="-48.66959243"><ele>8.582000732421875</ele></trkpt><trkpt lat="-27.01985577" lon="-48.66959225"><ele>8.613494873046875</ele></trkpt><trkpt lat="-27.019859" lon="-48.66959395"><ele>8.589080810546875</ele></trkpt><trkpt lat="-27.01986733" lon="-48.66959747"><ele>8.59857177734375</ele></trkpt><trkpt lat="-27.0198799" lon="-48.66960359"><ele>8.346435546875</ele></trkpt><trkpt lat="-27.01989556" lon="-48.66961191"><ele>8.25946044921875</ele></trkpt><trkpt lat="-27.01989556" lon="-48.66961191"><ele>8.25946044921875</ele></trkpt><trkpt lat="-27.0199145" lon="-48.66961921"><ele>8.22833251953125</ele></trkpt><trkpt lat="-27.0199145" lon="-48.66961921"><ele>8.22833251953125</ele></trkpt><trkpt lat="-27.01993428" lon="-48.66962982"><ele>8.1873779296875</ele></trkpt><trkpt lat="-27.01995534" lon="-48.66964203"><ele>8.123809814453125</ele></trkpt><trkpt lat="-27.01997552" lon="-48.66964828"><ele>8.28143310546875</ele></trkpt><trkpt lat="-27.01999188" lon="-48.66965331"><ele>8.412353515625</ele></trkpt><trkpt lat="-27.01999188" lon="-48.66965331"><ele>8.412353515625</ele></trkpt><trkpt lat="-27.02000627" lon="-48.6696595"><ele>8.577606201171875</ele></trkpt><trkpt lat="-27.02001962" lon="-48.66967155"><ele>8.288238525390625</ele></trkpt><trkpt lat="-27.02003942" lon="-48.66968244"><ele>8.3109130859375</ele></trkpt><trkpt lat="-27.02006286" lon="-48.66969412"><ele>8.100830078125</ele></trkpt><trkpt lat="-27.02008605" lon="-48.6697057"><ele>8.07666015625</ele></trkpt><trkpt lat="-27.02010926" lon="-48.66971772"><ele>8.075439453125</ele></trkpt><trkpt lat="-27.02013253" lon="-48.66973015"><ele>8.08837890625</ele></trkpt><trkpt lat="-27.02015438" lon="-48.66974411"><ele>8.1143798828125</ele></trkpt><trkpt lat="-27.02017877" lon="-48.66975707"><ele>7.906890869140625</ele></trkpt><trkpt lat="-27.02020559" lon="-48.66976994"><ele>8.02154541015625</ele></trkpt><trkpt lat="-27.02022608" lon="-48.66978189"><ele>7.971527099609375</ele></trkpt><trkpt lat="-27.02024285" lon="-48.66979457"><ele>7.72784423828125</ele></trkpt><trkpt lat="-27.02024285" lon="-48.66979457"><ele>7.72784423828125</ele></trkpt><trkpt lat="-27.02026019" lon="-48.66980597"><ele>7.825775146484375</ele></trkpt><trkpt lat="-27.02028055" lon="-48.66981904"><ele>8.019073486328125</ele></trkpt><trkpt lat="-27.02030058" lon="-48.66983263"><ele>7.844146728515625</ele></trkpt><trkpt lat="-27.02032185" lon="-48.66984569"><ele>7.77655029296875</ele></trkpt><trkpt lat="-27.02034404" lon="-48.66985789"><ele>7.6392822265625</ele></trkpt><trkpt lat="-27.02036621" lon="-48.66987101"><ele>7.625732421875</ele></trkpt><trkpt lat="-27.02038724" lon="-48.6698877"><ele>7.830413818359375</ele></trkpt><trkpt lat="-27.02041009" lon="-48.66990113"><ele>7.9832763671875</ele></trkpt><trkpt lat="-27.02043505" lon="-48.66991451"><ele>7.905853271484375</ele></trkpt><trkpt lat="-27.02045706" lon="-48.66993112"><ele>7.79449462890625</ele></trkpt><trkpt lat="-27.02047741" lon="-48.66994866"><ele>7.918426513671875</ele></trkpt><trkpt lat="-27.02049846" lon="-48.66996521"><ele>7.947021484375</ele></trkpt><trkpt lat="-27.02051754" lon="-48.66997975"><ele>8.047393798828125</ele></trkpt><trkpt lat="-27.02053447" lon="-48.6699945"><ele>8.240753173828125</ele></trkpt><trkpt lat="-27.02054466" lon="-48.67000444"><ele>8.50482177734375</ele></trkpt><trkpt lat="-27.02054882" lon="-48.67000729"><ele>8.33343505859375</ele></trkpt><trkpt lat="-27.02054933" lon="-48.67000736"><ele>8.356414794921875</ele></trkpt><trkpt lat="-27.02054933" lon="-48.67000736"><ele>8.356414794921875</ele></trkpt><trkpt lat="-27.02054975" lon="-48.67000582"><ele>8.2021484375</ele></trkpt><trkpt lat="-27.02055066" lon="-48.67000572"><ele>8.3865966796875</ele></trkpt><trkpt lat="-27.02055015" lon="-48.67000471"><ele>8.67779541015625</ele></trkpt><trkpt lat="-27.02055102" lon="-48.67000414"><ele>8.52313232421875</ele></trkpt><trkpt lat="-27.0205521" lon="-48.67000367"><ele>8.4803466796875</ele></trkpt><trkpt lat="-27.02055284" lon="-48.67000275"><ele>8.638916015625</ele></trkpt><trkpt lat="-27.02055389" lon="-48.67000242"><ele>8.71392822265625</ele></trkpt><trkpt lat="-27.02055445" lon="-48.67000316"><ele>8.62109375</ele></trkpt><trkpt lat="-27.02055366" lon="-48.67000423"><ele>8.67071533203125</ele></trkpt><trkpt lat="-27.02055273" lon="-48.6700047"><ele>8.652984619140625</ele></trkpt><trkpt lat="-27.02055243" lon="-48.67000441"><ele>8.64752197265625</ele></trkpt><trkpt lat="-27.02055239" lon="-48.67000389"><ele>8.660980224609375</ele></trkpt><trkpt lat="-27.02055239" lon="-48.67000389"><ele>8.660980224609375</ele></trkpt><trkpt lat="-27.02055267" lon="-48.67000366"><ele>8.631072998046875</ele></trkpt><trkpt lat="-27.02055279" lon="-48.6700035"><ele>8.6260986328125</ele></trkpt><trkpt lat="-27.02055289" lon="-48.67000341"><ele>8.84820556640625</ele></trkpt><trkpt lat="-27.02055213" lon="-48.67000362"><ele>9.2174072265625</ele></trkpt><trkpt lat="-27.02055317" lon="-48.67000482"><ele>9.252532958984375</ele></trkpt><trkpt lat="-27.02055443" lon="-48.67000715"><ele>9.18902587890625</ele></trkpt><trkpt lat="-27.0205549" lon="-48.67001003"><ele>9.1944580078125</ele></trkpt><trkpt lat="-27.0205549" lon="-48.67001003"><ele>9.1944580078125</ele></trkpt><trkpt lat="-27.0205547" lon="-48.67001317"><ele>9.12860107421875</ele></trkpt><trkpt lat="-27.02055509" lon="-48.67001314"><ele>9.03515625</ele></trkpt><trkpt lat="-27.0205556" lon="-48.67001278"><ele>8.950958251953125</ele></trkpt><trkpt lat="-27.02055663" lon="-48.67001213"><ele>8.970123291015625</ele></trkpt><trkpt lat="-27.0205585" lon="-48.67001143"><ele>8.890869140625</ele></trkpt><trkpt lat="-27.02056032" lon="-48.67000988"><ele>8.977783203125</ele></trkpt><trkpt lat="-27.02056175" lon="-48.67000985"><ele>8.938323974609375</ele></trkpt><trkpt lat="-27.02056271" lon="-48.67001041"><ele>9.00347900390625</ele></trkpt><trkpt lat="-27.02056275" lon="-48.6700121"><ele>9.0430908203125</ele></trkpt><trkpt lat="-27.02056246" lon="-48.67001341"><ele>8.92877197265625</ele></trkpt><trkpt lat="-27.02056246" lon="-48.67001341"><ele>8.92877197265625</ele></trkpt><trkpt lat="-27.02056245" lon="-48.6700142"><ele>8.8760986328125</ele></trkpt><trkpt lat="-27.02056122" lon="-48.67001419"><ele>8.93890380859375</ele></trkpt><trkpt lat="-27.02056084" lon="-48.67001443"><ele>8.9122314453125</ele></trkpt><trkpt lat="-27.02056064" lon="-48.67001417"><ele>9.002288818359375</ele></trkpt><trkpt lat="-27.02055865" lon="-48.67001298"><ele>9.065948486328125</ele></trkpt><trkpt lat="-27.02055708" lon="-48.67001212"><ele>9.10693359375</ele></trkpt><trkpt lat="-27.02055671" lon="-48.67001163"><ele>8.980316162109375</ele></trkpt><trkpt lat="-27.02055573" lon="-48.67001208"><ele>8.962188720703125</ele></trkpt><trkpt lat="-27.02055277" lon="-48.67001301"><ele>8.95166015625</ele></trkpt><trkpt lat="-27.02055062" lon="-48.67001263"><ele>8.95550537109375</ele></trkpt><trkpt lat="-27.02054873" lon="-48.67001244"><ele>8.871124267578125</ele></trkpt><trkpt lat="-27.02054812" lon="-48.6700113"><ele>8.971832275390625</ele></trkpt><trkpt lat="-27.02054545" lon="-48.67000901"><ele>9.178375244140625</ele></trkpt><trkpt lat="-27.02054415" lon="-48.67000778"><ele>9.31976318359375</ele></trkpt><trkpt lat="-27.02054365" lon="-48.67000646"><ele>9.607391357421875</ele></trkpt><trkpt lat="-27.02054396" lon="-48.67000684"><ele>9.655731201171875</ele></trkpt><trkpt lat="-27.02054375" lon="-48.67000769"><ele>9.64459228515625</ele></trkpt><trkpt lat="-27.02054237" lon="-48.6700083"><ele>9.861663818359375</ele></trkpt><trkpt lat="-27.02054204" lon="-48.6700091"><ele>9.95428466796875</ele></trkpt><trkpt lat="-27.02054231" lon="-48.67000947"><ele>9.8411865234375</ele></trkpt><trkpt lat="-27.02054321" lon="-48.67000917"><ele>9.9461669921875</ele></trkpt><trkpt lat="-27.02054332" lon="-48.67000904"><ele>9.993927001953125</ele></trkpt><trkpt lat="-27.02054326" lon="-48.67000995"><ele>9.936981201171875</ele></trkpt><trkpt lat="-27.02054391" lon="-48.67000985"><ele>10.078857421875</ele></trkpt><trkpt lat="-27.02054454" lon="-48.6700097"><ele>10.162872314453125</ele></trkpt><trkpt lat="-27.02054526" lon="-48.67000847"><ele>10.280364990234375</ele></trkpt><trkpt lat="-27.02054668" lon="-48.67000865"><ele>10.317596435546875</ele></trkpt><trkpt lat="-27.02054684" lon="-48.67000997"><ele>10.38519287109375</ele></trkpt><trkpt lat="-27.02054837" lon="-48.67001094"><ele>10.4139404296875</ele></trkpt><trkpt lat="-27.0205486" lon="-48.67001185"><ele>10.292083740234375</ele></trkpt><trkpt lat="-27.02054941" lon="-48.67001328"><ele>10.39093017578125</ele></trkpt><trkpt lat="-27.02054874" lon="-48.67001396"><ele>10.252716064453125</ele></trkpt><trkpt lat="-27.02054661" lon="-48.670014"><ele>10.23480224609375</ele></trkpt><trkpt lat="-27.02054562" lon="-48.67001413"><ele>10.137542724609375</ele></trkpt><trkpt lat="-27.02054523" lon="-48.67001398"><ele>10.0916748046875</ele></trkpt><trkpt lat="-27.02054508" lon="-48.67001363"><ele>10.119384765625</ele></trkpt><trkpt lat="-27.02054526" lon="-48.67001342"><ele>10.1114501953125</ele></trkpt><trkpt lat="-27.02054531" lon="-48.67001386"><ele>10.0426025390625</ele></trkpt><trkpt lat="-27.02054611" lon="-48.67001062"><ele>10.12518310546875</ele></trkpt><trkpt lat="-27.02054683" lon="-48.67001012"><ele>10.21441650390625</ele></trkpt><trkpt lat="-27.02054818" lon="-48.67000783"><ele>10.217498779296875</ele></trkpt><trkpt lat="-27.02054832" lon="-48.67000819"><ele>10.556732177734375</ele></trkpt><trkpt lat="-27.02054832" lon="-48.67000819"><ele>10.556732177734375</ele></trkpt><trkpt lat="-27.02054964" lon="-48.67000668"><ele>10.166717529296875</ele></trkpt><trkpt lat="-27.02054874" lon="-48.67000458"><ele>10.133880615234375</ele></trkpt><trkpt lat="-27.02054938" lon="-48.67000489"><ele>10.177459716796875</ele></trkpt><trkpt lat="-27.02054956" lon="-48.67000679"><ele>10.00640869140625</ele></trkpt><trkpt lat="-27.02054975" lon="-48.67000651"><ele>10.014007568359375</ele></trkpt><trkpt lat="-27.0205504" lon="-48.67000625"><ele>9.998779296875</ele></trkpt><trkpt lat="-27.02055135" lon="-48.67000545"><ele>9.964996337890625</ele></trkpt><trkpt lat="-27.02055214" lon="-48.67000531"><ele>9.97906494140625</ele></trkpt><trkpt lat="-27.02055888" lon="-48.67000986"><ele>10.17266845703125</ele></trkpt><trkpt lat="-27.02056833" lon="-48.67001555"><ele>10.18267822265625</ele></trkpt><trkpt lat="-27.0205768" lon="-48.67002017"><ele>10.280609130859375</ele></trkpt><trkpt lat="-27.02058323" lon="-48.67002415"><ele>10.146148681640625</ele></trkpt><trkpt lat="-27.02058398" lon="-48.67002441"><ele>10.0859375</ele></trkpt><trkpt lat="-27.02058235" lon="-48.67002119"><ele>10.300689697265625</ele></trkpt><trkpt lat="-27.02058199" lon="-48.67002098"><ele>10.216461181640625</ele></trkpt><trkpt lat="-27.02058211" lon="-48.67002016"><ele>10.156982421875</ele></trkpt><trkpt lat="-27.02058239" lon="-48.67002003"><ele>10.08807373046875</ele></trkpt><trkpt lat="-27.02058169" lon="-48.67001984"><ele>10.17083740234375</ele></trkpt><trkpt lat="-27.02058144" lon="-48.67002008"><ele>10.095611572265625</ele></trkpt><trkpt lat="-27.02058144" lon="-48.67002008"><ele>10.095611572265625</ele></trkpt><trkpt lat="-27.02058015" lon="-48.67002025"><ele>10.222991943359375</ele></trkpt><trkpt lat="-27.02057823" lon="-48.67002181"><ele>10.0906982421875</ele></trkpt><trkpt lat="-27.02057757" lon="-48.67002168"><ele>10.089385986328125</ele></trkpt><trkpt lat="-27.02057658" lon="-48.67002226"><ele>9.93212890625</ele></trkpt><trkpt lat="-27.02057635" lon="-48.67002185"><ele>9.923187255859375</ele></trkpt><trkpt lat="-27.02057383" lon="-48.67002414"><ele>9.486114501953125</ele></trkpt><trkpt lat="-27.02057383" lon="-48.67002414"><ele>9.486114501953125</ele></trkpt><trkpt lat="-27.02057094" lon="-48.6700271"><ele>9.35302734375</ele></trkpt><trkpt lat="-27.02056517" lon="-48.67002764"><ele>9.34088134765625</ele></trkpt><trkpt lat="-27.02056513" lon="-48.67002596"><ele>9.309844970703125</ele></trkpt><trkpt lat="-27.02056588" lon="-48.67002528"><ele>9.16192626953125</ele></trkpt><trkpt lat="-27.02056701" lon="-48.67002425"><ele>8.976715087890625</ele></trkpt><trkpt lat="-27.02056983" lon="-48.67002084"><ele>9.028717041015625</ele></trkpt><trkpt lat="-27.020571" lon="-48.67002021"><ele>9.023468017578125</ele></trkpt><trkpt lat="-27.02057131" lon="-48.67001929"><ele>8.990936279296875</ele></trkpt><trkpt lat="-27.02057131" lon="-48.67001929"><ele>8.990936279296875</ele></trkpt><trkpt lat="-27.02057207" lon="-48.67001857"><ele>8.908233642578125</ele></trkpt><trkpt lat="-27.02057389" lon="-48.6700201"><ele>8.796234130859375</ele></trkpt><trkpt lat="-27.02057608" lon="-48.67002104"><ele>8.854248046875</ele></trkpt><trkpt lat="-27.02057793" lon="-48.6700215"><ele>8.79248046875</ele></trkpt><trkpt lat="-27.02057681" lon="-48.67002159"><ele>8.9295654296875</ele></trkpt><trkpt lat="-27.02057617" lon="-48.67002047"><ele>9.038818359375</ele></trkpt><trkpt lat="-27.0205751" lon="-48.67001912"><ele>9.01324462890625</ele></trkpt><trkpt lat="-27.02057376" lon="-48.67001904"><ele>9.044281005859375</ele></trkpt><trkpt lat="-27.02057283" lon="-48.67001863"><ele>9.042510986328125</ele></trkpt><trkpt lat="-27.02057283" lon="-48.67001863"><ele>9.042510986328125</ele></trkpt><trkpt lat="-27.02057307" lon="-48.67001897"><ele>8.89251708984375</ele></trkpt><trkpt lat="-27.02057411" lon="-48.67001812"><ele>8.912506103515625</ele></trkpt><trkpt lat="-27.02057384" lon="-48.67001835"><ele>9.07391357421875</ele></trkpt><trkpt lat="-27.02057076" lon="-48.67002006"><ele>9.08087158203125</ele></trkpt><trkpt lat="-27.02057007" lon="-48.67002008"><ele>9.00347900390625</ele></trkpt><trkpt lat="-27.02056931" lon="-48.67002027"><ele>9.013458251953125</ele></trkpt><trkpt lat="-27.02056864" lon="-48.67002147"><ele>8.997802734375</ele></trkpt><trkpt lat="-27.02056983" lon="-48.67002056"><ele>9.29010009765625</ele></trkpt><trkpt lat="-27.02057019" lon="-48.67001952"><ele>9.506744384765625</ele></trkpt><trkpt lat="-27.02057019" lon="-48.67001952"><ele>9.506744384765625</ele></trkpt><trkpt lat="-27.0205699" lon="-48.6700179"><ele>9.538177490234375</ele></trkpt><trkpt lat="-27.02057203" lon="-48.67001609"><ele>9.534576416015625</ele></trkpt><trkpt lat="-27.02056739" lon="-48.67001251"><ele>9.550567626953125</ele></trkpt><trkpt lat="-27.02056401" lon="-48.6700119"><ele>9.55731201171875</ele></trkpt><trkpt lat="-27.02056401" lon="-48.6700119"><ele>9.55731201171875</ele></trkpt><trkpt lat="-27.02056169" lon="-48.67001138"><ele>9.649688720703125</ele></trkpt><trkpt lat="-27.02056149" lon="-48.67001137"><ele>9.6328125</ele></trkpt><trkpt lat="-27.02056229" lon="-48.6700114"><ele>9.76422119140625</ele></trkpt><trkpt lat="-27.02056124" lon="-48.67001204"><ele>9.66082763671875</ele></trkpt><trkpt lat="-27.020561" lon="-48.67001206"><ele>9.780487060546875</ele></trkpt><trkpt lat="-27.02056012" lon="-48.67001322"><ele>9.74517822265625</ele></trkpt><trkpt lat="-27.02056142" lon="-48.67001365"><ele>9.734283447265625</ele></trkpt><trkpt lat="-27.02056142" lon="-48.67001365"><ele>9.734283447265625</ele></trkpt><trkpt lat="-27.02056173" lon="-48.67001673"><ele>9.5552978515625</ele></trkpt><trkpt lat="-27.02056339" lon="-48.67001966"><ele>9.53753662109375</ele></trkpt><trkpt lat="-27.02056468" lon="-48.67002014"><ele>9.559051513671875</ele></trkpt><trkpt lat="-27.02056524" lon="-48.67002152"><ele>9.49212646484375</ele></trkpt><trkpt lat="-27.02056574" lon="-48.6700218"><ele>9.531005859375</ele></trkpt><trkpt lat="-27.02056533" lon="-48.67002315"><ele>9.507293701171875</ele></trkpt><trkpt lat="-27.02056547" lon="-48.67002388"><ele>9.28875732421875</ele></trkpt><trkpt lat="-27.02056478" lon="-48.67002414"><ele>9.294647216796875</ele></trkpt></trkseg></trk></gpx>