<?xml version="1.0" encoding="UTF-8"?>
<gpx xmlns="http://www.topografix.com/GPX/1/1" version="1.1" creator="@dwayneparton/geojson-to-gpx"><wpt lat="-27.034309" lon="-48.660219"><ele>16.245422</ele><name>1 faixa</name></wpt><wpt lat="-27.034397" lon="-48.660148"><name>22</name></wpt><wpt lat="-27.034592" lon="-48.659625"><ele>19.936035</ele><name>75</name></wpt><wpt lat="-27.034571" lon="-48.65962"><ele>22.780029</ele><name>390</name></wpt><wpt lat="-27.034557" lon="-48.659612"><ele>26.07959</ele><name>696</name></wpt><wpt lat="-27.034972" lon="-48.658344"><name>A ciclo é completamente reta.</name></wpt><wpt lat="-27.035038" lon="-48.658194"><name>A pintura está boa, COMPLETA e visível</name></wpt><wpt lat="-27.035017" lon="-48.658247"><name>AMBAS: Poucos trechos COM segregadores. Automóvel consegue passar POR ENTRE estes com facilidade.</name></wpt><wpt lat="-27.034329" lon="-48.660209"><ele>14.458008</ele><name>Apenas faixas vermelhas nas bordas, com travessias pintadas nos cruzamentos</name></wpt><wpt lat="-27.034393" lon="-48.660181"><name>Área de amortecimento da ciclo (cm)</name></wpt><wpt lat="-27.034579" lon="-48.65959"><ele>2.878204</ele><name>Área transitável da ciclo (cm)</name></wpt><wpt lat="-27.034589" lon="-48.659625"><ele>19.376404</ele><name>Área transitável da ciclo (cm)</name></wpt><wpt lat="-27.034308" lon="-48.660218"><ele>12.044312</ele><name>Asfalto</name></wpt><wpt lat="-27.034916" lon="-48.658497"><name>Ausência de conexão entre ciclos.</name></wpt><wpt lat="-27.034316" lon="-48.660219"><ele>5.347534</ele><name>Bidirecional</name></wpt><wpt lat="-27.034389" lon="-48.660149"><ele>24.384949</ele><name>Bueiro</name></wpt><wpt lat="-27.034562" lon="-48.659694"><ele>23.716187</ele><name>Bueiro</name></wpt><wpt lat="-27.034608" lon="-48.659378"><ele>23.764526</ele><name>Bueiro</name></wpt><wpt lat="-27.034657" lon="-48.659277"><ele>19.875977</ele><name>Bueiro</name></wpt><wpt lat="-27.034803" lon="-48.658927"><ele>18.189758</ele><name>Bueiro</name></wpt><wpt lat="-27.034861" lon="-48.658736"><ele>17.969788</ele><name>Bueiro</name></wpt><wpt lat="-27.034389" lon="-48.660151"><ele>24.39093</ele><name>Buraco</name></wpt><wpt lat="-27.034614" lon="-48.659377"><ele>24.114685</ele><name>Buraco</name></wpt><wpt lat="-27.034319" lon="-48.660218"><ele>7.304749</ele><name>Ciclofaixa</name></wpt><wpt lat="-27.034936" lon="-48.658455"><name>Cruzamento perigoso. EXPLIQUE.</name></wpt><wpt lat="-27.034563" lon="-48.659697"><ele>23.933777</ele><name>Em cruzamento BOA condição</name></wpt><wpt lat="-27.034308" lon="-48.66022"><ele>16.630859</ele><name>Estacionamento de um lado, incluso na circulação</name></wpt><wpt lat="-27.034937" lon="-48.658435"><name>explicação do cruzamento: ciclofaixa troca de lado após o cruzamento</name></wpt><wpt lat="-27.034571" lon="-48.659621"><ele>23.005371</ele><name>Faixa de carros logo ao lado da ciclo (cm)</name></wpt><wpt lat="-27.034338" lon="-48.660237"><ele>13.426147</ele><name>Foto</name></wpt><wpt lat="-27.034389" lon="-48.660156"><ele>24.277222</ele><name>Foto</name></wpt><wpt lat="-27.034541" lon="-48.659763"><ele>26.032593</ele><name>Foto</name></wpt><wpt lat="-27.034562" lon="-48.659694"><ele>23.674866</ele><name>Foto</name></wpt><wpt lat="-27.03461" lon="-48.659379"><ele>23.567871</ele><name>Foto</name></wpt><wpt lat="-27.034922" lon="-48.658533"><ele>20.613647</ele><name>Foto</name></wpt><wpt lat="-27.034936" lon="-48.658532"><ele>20.943176</ele><name>Foto</name></wpt><wpt lat="-27.034389" lon="-48.660152"><ele>24.380188</ele><name>Grade alinhada ao pneu</name></wpt><wpt lat="-27.03494" lon="-48.658551"><ele>17.194702</ele><name>Iluminação geral na via do outro lado da infraestrutura</name></wpt><wpt lat="-27.034334" lon="-48.660215"><ele>7.19989</ele><name>Mão Única</name></wpt><wpt lat="-27.035062" lon="-48.658148"><name>Não há árvores nem mudas</name></wpt><wpt lat="-27.034337" lon="-48.660216"><ele>4.11673</ele><name>No bordo esquerdo de Via de Mão Única</name></wpt><wpt lat="-27.03494" lon="-48.658552"><ele>17.639282</ele><name>Pequenas imperfeições, como fissuras</name></wpt><wpt lat="-27.034434" lon="-48.660156"><name>Em cruzamento BOA condição</name></wpt><wpt lat="-27.03492" lon="-48.658449"><name>Em cruzamento MÁ condição</name></wpt><wpt lat="-27.034943" lon="-48.658402"><name>R3m0v3r Avaliação de Proteção 🗑️</name></wpt><wpt lat="-27.034931" lon="-48.658563"><ele>19.918823</ele><name>SE CICLOFAIXA: para invadir a ciclo parte do automóvel passa obrigatoriamente por cima de segregadores</name></wpt><wpt lat="-27.034993" lon="-48.658285"><name>Segregadores NÃO DIFICULTAM o acesso de ciclistas</name></wpt><wpt lat="-27.034964" lon="-48.658367"><name>SEM pintura no cruzamento</name></wpt><wpt lat="-27.034322" lon="-48.660211"><ele>9.942505</ele><name>Tachões</name></wpt><wpt lat="-27.034557" lon="-48.659612"><ele>26.077515</ele><name>Total da via (incluindo a ciclo) (cm)</name></wpt><wpt lat="-27.034677" lon="-48.659249"><ele>20.431885</ele><name>Travessia de pedestre em nível (lombofaixa)</name></wpt><wpt lat="-27.034967" lon="-48.658399"><name>Travessia de pedestre em nível (lombofaixa)</name></wpt><trk><name>Ciclofaixa R. Jesuíno A. Pereira T1 - Cb</name><trkseg><trkpt lat="-27.034589" lon="-48.660451"><ele>129.290649</ele></trkpt><trkpt lat="-27.034559" lon="-48.660435"><ele>-12.339355</ele></trkpt><trkpt lat="-27.034527" lon="-48.660371"><ele>-12.294647</ele></trkpt><trkpt lat="-27.034557" lon="-48.660271"><ele>-11.569733</ele></trkpt><trkpt lat="-27.03455" lon="-48.660276"><ele>-8.157471</ele></trkpt><trkpt lat="-27.034535" lon="-48.660282"><ele>-8.212494</ele></trkpt><trkpt lat="-27.034514" lon="-48.660282"><ele>-6.935669</ele></trkpt><trkpt lat="-27.034116" lon="-48.660114"><ele>-7.61441</ele></trkpt><trkpt lat="-27.034155" lon="-48.660159"><ele>-14.710785</ele></trkpt><trkpt lat="-27.03417" lon="-48.660178"><ele>-14.819885</ele></trkpt><trkpt lat="-27.034229" lon="-48.660168"><ele>-14.53595</ele></trkpt><trkpt lat="-27.034248" lon="-48.660173"><ele>-13.25058</ele></trkpt><trkpt lat="-27.034268" lon="-48.660179"><ele>-12.086853</ele></trkpt><trkpt lat="-27.034286" lon="-48.660193"><ele>-9.794556</ele></trkpt><trkpt lat="-27.034307" lon="-48.6602"><ele>-7.426239</ele></trkpt><trkpt lat="-27.034313" lon="-48.660207"><ele>-5.729492</ele></trkpt><trkpt lat="-27.034321" lon="-48.660211"><ele>-4.825775</ele></trkpt><trkpt lat="-27.034329" lon="-48.660212"><ele>-2.336761</ele></trkpt><trkpt lat="-27.034331" lon="-48.660211"><ele>-0.611328</ele></trkpt><trkpt lat="-27.03433" lon="-48.660214"><ele>-0.138031</ele></trkpt><trkpt lat="-27.034329" lon="-48.660218"><ele>0.089478</ele></trkpt><trkpt lat="-27.034332" lon="-48.66022"><ele>1.307953</ele></trkpt><trkpt lat="-27.034345" lon="-48.660211"><ele>3.842377</ele></trkpt><trkpt lat="-27.034346" lon="-48.660211"><ele>4.06665</ele></trkpt><trkpt lat="-27.034345" lon="-48.660207"><ele>2.926483</ele></trkpt><trkpt lat="-27.034344" lon="-48.660204"><ele>3.779877</ele></trkpt><trkpt lat="-27.034345" lon="-48.6602"><ele>2.651489</ele></trkpt><trkpt lat="-27.034341" lon="-48.660191"><ele>2.489471</ele></trkpt><trkpt lat="-27.034338" lon="-48.660187"><ele>2.973083</ele></trkpt><trkpt lat="-27.034338" lon="-48.660186"><ele>3.031982</ele></trkpt><trkpt lat="-27.034338" lon="-48.660186"><ele>3.329895</ele></trkpt><trkpt lat="-27.034338" lon="-48.660186"><ele>3.671722</ele></trkpt><trkpt lat="-27.034337" lon="-48.660186"><ele>4.058655</ele></trkpt><trkpt lat="-27.034337" lon="-48.660186"><ele>5.298859</ele></trkpt><trkpt lat="-27.034336" lon="-48.660187"><ele>5.646759</ele></trkpt><trkpt lat="-27.034337" lon="-48.660191"><ele>4.879272</ele></trkpt><trkpt lat="-27.034337" lon="-48.660192"><ele>5.521912</ele></trkpt><trkpt lat="-27.034337" lon="-48.660192"><ele>5.700745</ele></trkpt><trkpt lat="-27.034334" lon="-48.660191"><ele>4.958038</ele></trkpt><trkpt lat="-27.034333" lon="-48.660192"><ele>4.250244</ele></trkpt><trkpt lat="-27.034332" lon="-48.660205"><ele>4.919861</ele></trkpt><trkpt lat="-27.034329" lon="-48.660214"><ele>11.363586</ele></trkpt><trkpt lat="-27.034324" lon="-48.66022"><ele>10.545441</ele></trkpt><trkpt lat="-27.034323" lon="-48.66022"><ele>8.925629</ele></trkpt><trkpt lat="-27.034323" lon="-48.660219"><ele>8.590576</ele></trkpt><trkpt lat="-27.034323" lon="-48.660219"><ele>7.812775</ele></trkpt><trkpt lat="-27.034323" lon="-48.660215"><ele>7.976044</ele></trkpt><trkpt lat="-27.034319" lon="-48.660218"><ele>7.304749</ele></trkpt><trkpt lat="-27.034319" lon="-48.660218"><ele>7.304749</ele></trkpt><trkpt lat="-27.034317" lon="-48.660219"><ele>6.608765</ele></trkpt><trkpt lat="-27.034317" lon="-48.660219"><ele>6.099121</ele></trkpt><trkpt lat="-27.034316" lon="-48.660219"><ele>5.347534</ele></trkpt><trkpt lat="-27.034316" lon="-48.660219"><ele>5.347534</ele></trkpt><trkpt lat="-27.034316" lon="-48.660218"><ele>6.248871</ele></trkpt><trkpt lat="-27.034319" lon="-48.660217"><ele>7.758484</ele></trkpt><trkpt lat="-27.034331" lon="-48.660226"><ele>7.952606</ele></trkpt><trkpt lat="-27.034333" lon="-48.660228"><ele>7.509949</ele></trkpt><trkpt lat="-27.034335" lon="-48.660228"><ele>8.641846</ele></trkpt><trkpt lat="-27.03434" lon="-48.66023"><ele>9.060303</ele></trkpt><trkpt lat="-27.03434" lon="-48.66023"><ele>9.72757</ele></trkpt><trkpt lat="-27.034341" lon="-48.660231"><ele>10.045288</ele></trkpt><trkpt lat="-27.034341" lon="-48.660231"><ele>9.01889</ele></trkpt><trkpt lat="-27.034341" lon="-48.660231"><ele>11.161255</ele></trkpt><trkpt lat="-27.034341" lon="-48.660224"><ele>11.38855</ele></trkpt><trkpt lat="-27.034341" lon="-48.660214"><ele>4.892944</ele></trkpt><trkpt lat="-27.034337" lon="-48.660216"><ele>4.11673</ele></trkpt><trkpt lat="-27.034337" lon="-48.660216"><ele>4.11673</ele></trkpt><trkpt lat="-27.034336" lon="-48.660216"><ele>4.609039</ele></trkpt><trkpt lat="-27.034335" lon="-48.660216"><ele>5.174316</ele></trkpt><trkpt lat="-27.034335" lon="-48.660216"><ele>4.855682</ele></trkpt><trkpt lat="-27.034335" lon="-48.660216"><ele>5.30307</ele></trkpt><trkpt lat="-27.034335" lon="-48.660216"><ele>5.569885</ele></trkpt><trkpt lat="-27.034335" lon="-48.660216"><ele>6.576782</ele></trkpt><trkpt lat="-27.034335" lon="-48.660216"><ele>6.774445</ele></trkpt><trkpt lat="-27.034334" lon="-48.660216"><ele>5.4198</ele></trkpt><trkpt lat="-27.034334" lon="-48.660215"><ele>5.270325</ele></trkpt><trkpt lat="-27.034334" lon="-48.660215"><ele>7.545807</ele></trkpt><trkpt lat="-27.034334" lon="-48.660215"><ele>8.637207</ele></trkpt><trkpt lat="-27.034334" lon="-48.660215"><ele>8.702454</ele></trkpt><trkpt lat="-27.034334" lon="-48.660215"><ele>9.825165</ele></trkpt><trkpt lat="-27.034334" lon="-48.660215"><ele>8.469757</ele></trkpt><trkpt lat="-27.034334" lon="-48.660215"><ele>7.19989</ele></trkpt><trkpt lat="-27.034334" lon="-48.660215"><ele>7.19989</ele></trkpt><trkpt lat="-27.034334" lon="-48.660215"><ele>6.701385</ele></trkpt><trkpt lat="-27.034334" lon="-48.660215"><ele>6.41748</ele></trkpt><trkpt lat="-27.034334" lon="-48.660215"><ele>4.97583</ele></trkpt><trkpt lat="-27.034334" lon="-48.660215"><ele>3.187531</ele></trkpt><trkpt lat="-27.034334" lon="-48.660215"><ele>3.085114</ele></trkpt><trkpt lat="-27.034332" lon="-48.660214"><ele>1.643555</ele></trkpt><trkpt lat="-27.034331" lon="-48.660214"><ele>0.606476</ele></trkpt><trkpt lat="-27.034331" lon="-48.660214"><ele>2.40036</ele></trkpt><trkpt lat="-27.034331" lon="-48.660214"><ele>3.943848</ele></trkpt><trkpt lat="-27.03433" lon="-48.660213"><ele>4.122528</ele></trkpt><trkpt lat="-27.03433" lon="-48.660213"><ele>4.149231</ele></trkpt><trkpt lat="-27.03433" lon="-48.660213"><ele>4.930359</ele></trkpt><trkpt lat="-27.03433" lon="-48.660213"><ele>7.363983</ele></trkpt><trkpt lat="-27.034329" lon="-48.660213"><ele>8.607513</ele></trkpt><trkpt lat="-27.034329" lon="-48.660213"><ele>8.938477</ele></trkpt><trkpt lat="-27.034329" lon="-48.660213"><ele>9.861633</ele></trkpt><trkpt lat="-27.034329" lon="-48.660213"><ele>10.09668</ele></trkpt><trkpt lat="-27.034329" lon="-48.660213"><ele>9.717651</ele></trkpt><trkpt lat="-27.034329" lon="-48.660208"><ele>15.279846</ele></trkpt><trkpt lat="-27.034329" lon="-48.660206"><ele>15.451111</ele></trkpt><trkpt lat="-27.034329" lon="-48.660209"><ele>14.458008</ele></trkpt><trkpt lat="-27.034329" lon="-48.660209"><ele>14.458008</ele></trkpt><trkpt lat="-27.034329" lon="-48.660209"><ele>14.021423</ele></trkpt><trkpt lat="-27.034329" lon="-48.66021"><ele>13.604858</ele></trkpt><trkpt lat="-27.034329" lon="-48.66021"><ele>8.259521</ele></trkpt><trkpt lat="-27.034328" lon="-48.66021"><ele>7.894897</ele></trkpt><trkpt lat="-27.034328" lon="-48.66021"><ele>6.647003</ele></trkpt><trkpt lat="-27.034328" lon="-48.66021"><ele>6.204071</ele></trkpt><trkpt lat="-27.034325" lon="-48.660211"><ele>7.226776</ele></trkpt><trkpt lat="-27.034322" lon="-48.660211"><ele>9.942505</ele></trkpt><trkpt lat="-27.034322" lon="-48.660211"><ele>9.942505</ele></trkpt><trkpt lat="-27.034322" lon="-48.660211"><ele>11.036163</ele></trkpt><trkpt lat="-27.034323" lon="-48.660213"><ele>11.261108</ele></trkpt><trkpt lat="-27.034323" lon="-48.660213"><ele>11.439056</ele></trkpt><trkpt lat="-27.034323" lon="-48.660214"><ele>12.560242</ele></trkpt><trkpt lat="-27.034323" lon="-48.660214"><ele>10.771973</ele></trkpt><trkpt lat="-27.034323" lon="-48.660214"><ele>10.807312</ele></trkpt><trkpt lat="-27.034322" lon="-48.660214"><ele>11.643951</ele></trkpt><trkpt lat="-27.034322" lon="-48.660215"><ele>11.927521</ele></trkpt><trkpt lat="-27.034321" lon="-48.660215"><ele>19.028381</ele></trkpt><trkpt lat="-27.034321" lon="-48.660215"><ele>20.277527</ele></trkpt><trkpt lat="-27.034321" lon="-48.660215"><ele>21.391541</ele></trkpt><trkpt lat="-27.034321" lon="-48.660215"><ele>21.594116</ele></trkpt><trkpt lat="-27.034321" lon="-48.660215"><ele>21.672791</ele></trkpt><trkpt lat="-27.034321" lon="-48.660215"><ele>22.281494</ele></trkpt><trkpt lat="-27.034321" lon="-48.660215"><ele>22.289551</ele></trkpt><trkpt lat="-27.034321" lon="-48.660215"><ele>22.68927</ele></trkpt><trkpt lat="-27.034321" lon="-48.660215"><ele>23.520752</ele></trkpt><trkpt lat="-27.034321" lon="-48.660215"><ele>22.614075</ele></trkpt><trkpt lat="-27.034322" lon="-48.660217"><ele>22.19281</ele></trkpt><trkpt lat="-27.034322" lon="-48.660217"><ele>22.383057</ele></trkpt><trkpt lat="-27.034322" lon="-48.660218"><ele>22.136536</ele></trkpt><trkpt lat="-27.034322" lon="-48.660218"><ele>19.277222</ele></trkpt><trkpt lat="-27.034322" lon="-48.660218"><ele>19.908203</ele></trkpt><trkpt lat="-27.034322" lon="-48.660218"><ele>20.921143</ele></trkpt><trkpt lat="-27.034322" lon="-48.660218"><ele>20.33728</ele></trkpt><trkpt lat="-27.034322" lon="-48.660218"><ele>21.345886</ele></trkpt><trkpt lat="-27.034321" lon="-48.660218"><ele>20.631653</ele></trkpt><trkpt lat="-27.034321" lon="-48.660218"><ele>20.576111</ele></trkpt><trkpt lat="-27.034321" lon="-48.660218"><ele>20.410706</ele></trkpt><trkpt lat="-27.034316" lon="-48.66022"><ele>17.513672</ele></trkpt><trkpt lat="-27.034311" lon="-48.660219"><ele>16.843445</ele></trkpt><trkpt lat="-27.034311" lon="-48.660219"><ele>11.107635</ele></trkpt><trkpt lat="-27.034309" lon="-48.660218"><ele>8.232819</ele></trkpt><trkpt lat="-27.034308" lon="-48.660218"><ele>8.034119</ele></trkpt><trkpt lat="-27.034308" lon="-48.660218"><ele>8.198212</ele></trkpt><trkpt lat="-27.034308" lon="-48.660218"><ele>9.151733</ele></trkpt><trkpt lat="-27.034308" lon="-48.660218"><ele>10.132263</ele></trkpt><trkpt lat="-27.034308" lon="-48.660218"><ele>11.102875</ele></trkpt><trkpt lat="-27.034308" lon="-48.660218"><ele>11.141479</ele></trkpt><trkpt lat="-27.034308" lon="-48.660218"><ele>12.044312</ele></trkpt><trkpt lat="-27.034308" lon="-48.660218"><ele>12.044312</ele></trkpt><trkpt lat="-27.034308" lon="-48.660218"><ele>12.653687</ele></trkpt><trkpt lat="-27.034308" lon="-48.660218"><ele>12.452026</ele></trkpt><trkpt lat="-27.034308" lon="-48.660218"><ele>12.794922</ele></trkpt><trkpt lat="-27.034309" lon="-48.660219"><ele>17.462463</ele></trkpt><trkpt lat="-27.034309" lon="-48.660219"><ele>17.274475</ele></trkpt><trkpt lat="-27.034309" lon="-48.660219"><ele>16.489441</ele></trkpt><trkpt lat="-27.034309" lon="-48.660219"><ele>15.549744</ele></trkpt><trkpt lat="-27.034309" lon="-48.660219"><ele>16.099609</ele></trkpt><trkpt lat="-27.034309" lon="-48.660219"><ele>16.245422</ele></trkpt><trkpt lat="-27.034309" lon="-48.660219"><ele>16.245422</ele></trkpt><trkpt lat="-27.034308" lon="-48.660221"><ele>16.737793</ele></trkpt><trkpt lat="-27.034307" lon="-48.660221"><ele>17.118408</ele></trkpt><trkpt lat="-27.034307" lon="-48.660222"><ele>17.635132</ele></trkpt><trkpt lat="-27.034307" lon="-48.660222"><ele>18.067993</ele></trkpt><trkpt lat="-27.034307" lon="-48.660222"><ele>18.451172</ele></trkpt><trkpt lat="-27.034307" lon="-48.660222"><ele>18.706055</ele></trkpt><trkpt lat="-27.034307" lon="-48.660222"><ele>18.835083</ele></trkpt><trkpt lat="-27.034307" lon="-48.660222"><ele>19.097961</ele></trkpt><trkpt lat="-27.034307" lon="-48.660222"><ele>19.097046</ele></trkpt><trkpt lat="-27.034308" lon="-48.660221"><ele>19.414795</ele></trkpt><trkpt lat="-27.034308" lon="-48.66022"><ele>19.001221</ele></trkpt><trkpt lat="-27.034308" lon="-48.66022"><ele>16.972595</ele></trkpt><trkpt lat="-27.034308" lon="-48.66022"><ele>16.630859</ele></trkpt><trkpt lat="-27.034308" lon="-48.66022"><ele>16.630859</ele></trkpt><trkpt lat="-27.034308" lon="-48.66022"><ele>16.397461</ele></trkpt><trkpt lat="-27.034311" lon="-48.660222"><ele>17.315369</ele></trkpt><trkpt lat="-27.034311" lon="-48.660227"><ele>19.35321</ele></trkpt><trkpt lat="-27.03431" lon="-48.660236"><ele>18.520752</ele></trkpt><trkpt lat="-27.034304" lon="-48.660242"><ele>19.943359</ele></trkpt><trkpt lat="-27.034297" lon="-48.66025"><ele>19.15387</ele></trkpt><trkpt lat="-27.034298" lon="-48.660251"><ele>19.955566</ele></trkpt><trkpt lat="-27.034302" lon="-48.660241"><ele>19.820984</ele></trkpt><trkpt lat="-27.034311" lon="-48.660225"><ele>19.710205</ele></trkpt><trkpt lat="-27.034319" lon="-48.660213"><ele>18.60675</ele></trkpt><trkpt lat="-27.034324" lon="-48.660212"><ele>18.904602</ele></trkpt><trkpt lat="-27.034325" lon="-48.660213"><ele>18.664673</ele></trkpt><trkpt lat="-27.034325" lon="-48.660213"><ele>18.9422</ele></trkpt><trkpt lat="-27.034323" lon="-48.660211"><ele>18.681946</ele></trkpt><trkpt lat="-27.034316" lon="-48.660218"><ele>18.616943</ele></trkpt><trkpt lat="-27.03431" lon="-48.660226"><ele>18.451599</ele></trkpt><trkpt lat="-27.034312" lon="-48.660229"><ele>17.145874</ele></trkpt><trkpt lat="-27.034312" lon="-48.66023"><ele>16.286926</ele></trkpt><trkpt lat="-27.034314" lon="-48.660229"><ele>14.927734</ele></trkpt><trkpt lat="-27.034318" lon="-48.660229"><ele>14.651123</ele></trkpt><trkpt lat="-27.034322" lon="-48.660229"><ele>14.347656</ele></trkpt><trkpt lat="-27.034326" lon="-48.660227"><ele>13.946716</ele></trkpt><trkpt lat="-27.034334" lon="-48.660233"><ele>13.88385</ele></trkpt><trkpt lat="-27.034338" lon="-48.660237"><ele>13.426147</ele></trkpt><trkpt lat="-27.034338" lon="-48.660237"><ele>13.426147</ele></trkpt><trkpt lat="-27.034336" lon="-48.660241"><ele>13.387634</ele></trkpt><trkpt lat="-27.034335" lon="-48.660242"><ele>13.378357</ele></trkpt><trkpt lat="-27.034335" lon="-48.660241"><ele>13.695862</ele></trkpt><trkpt lat="-27.034333" lon="-48.660246"><ele>13.912109</ele></trkpt><trkpt lat="-27.034319" lon="-48.660259"><ele>9.157501</ele></trkpt><trkpt lat="-27.034304" lon="-48.660269"><ele>8.45813</ele></trkpt><trkpt lat="-27.034292" lon="-48.660274"><ele>8.30603</ele></trkpt><trkpt lat="-27.034303" lon="-48.660274"><ele>9.066772</ele></trkpt><trkpt lat="-27.034307" lon="-48.660273"><ele>8.880798</ele></trkpt><trkpt lat="-27.03431" lon="-48.660271"><ele>8.683624</ele></trkpt><trkpt lat="-27.034315" lon="-48.660268"><ele>8.588654</ele></trkpt><trkpt lat="-27.034319" lon="-48.660263"><ele>8.363617</ele></trkpt><trkpt lat="-27.034319" lon="-48.660254"><ele>7.50235</ele></trkpt><trkpt lat="-27.034316" lon="-48.660239"><ele>6.934906</ele></trkpt><trkpt lat="-27.034322" lon="-48.660226"><ele>7.851593</ele></trkpt><trkpt lat="-27.034329" lon="-48.660212"><ele>7.676483</ele></trkpt><trkpt lat="-27.034338" lon="-48.660196"><ele>7.112793</ele></trkpt><trkpt lat="-27.034346" lon="-48.660181"><ele>7.198303</ele></trkpt><trkpt lat="-27.034354" lon="-48.660166"><ele>16.539429</ele></trkpt><trkpt lat="-27.034361" lon="-48.660155"><ele>17.559326</ele></trkpt><trkpt lat="-27.034368" lon="-48.660145"><ele>22.502747</ele></trkpt><trkpt lat="-27.034374" lon="-48.660135"><ele>22.093628</ele></trkpt><trkpt lat="-27.03438" lon="-48.660125"><ele>22.549622</ele></trkpt><trkpt lat="-27.034386" lon="-48.660115"><ele>25.48822</ele></trkpt><trkpt lat="-27.03439" lon="-48.660105"><ele>25.899475</ele></trkpt><trkpt lat="-27.034393" lon="-48.660107"><ele>25.266174</ele></trkpt><trkpt lat="-27.034395" lon="-48.660121"><ele>24.676392</ele></trkpt><trkpt lat="-27.034396" lon="-48.660129"><ele>24.63739</ele></trkpt><trkpt lat="-27.034389" lon="-48.660141"><ele>24.266113</ele></trkpt><trkpt lat="-27.034389" lon="-48.660149"><ele>24.384949</ele></trkpt><trkpt lat="-27.034389" lon="-48.660149"><ele>24.384949</ele></trkpt><trkpt lat="-27.034389" lon="-48.660151"><ele>24.39093</ele></trkpt><trkpt lat="-27.034389" lon="-48.660151"><ele>24.39093</ele></trkpt><trkpt lat="-27.034389" lon="-48.660152"><ele>24.409058</ele></trkpt><trkpt lat="-27.034389" lon="-48.660152"><ele>24.427368</ele></trkpt><trkpt lat="-27.034389" lon="-48.660152"><ele>24.435303</ele></trkpt><trkpt lat="-27.034389" lon="-48.660152"><ele>24.443787</ele></trkpt><trkpt lat="-27.034389" lon="-48.660152"><ele>24.407349</ele></trkpt><trkpt lat="-27.034389" lon="-48.660152"><ele>24.402771</ele></trkpt><trkpt lat="-27.034389" lon="-48.660152"><ele>24.380188</ele></trkpt><trkpt lat="-27.034389" lon="-48.660152"><ele>24.380188</ele></trkpt><trkpt lat="-27.034389" lon="-48.660152"><ele>24.353027</ele></trkpt><trkpt lat="-27.034389" lon="-48.660152"><ele>24.354797</ele></trkpt><trkpt lat="-27.034389" lon="-48.660152"><ele>24.338318</ele></trkpt><trkpt lat="-27.034389" lon="-48.660152"><ele>24.331848</ele></trkpt><trkpt lat="-27.034389" lon="-48.660152"><ele>24.295837</ele></trkpt><trkpt lat="-27.03439" lon="-48.660152"><ele>24.227417</ele></trkpt><trkpt lat="-27.03439" lon="-48.660152"><ele>24.232056</ele></trkpt><trkpt lat="-27.03439" lon="-48.660152"><ele>24.235046</ele></trkpt><trkpt lat="-27.03439" lon="-48.660152"><ele>24.23938</ele></trkpt><trkpt lat="-27.03439" lon="-48.660152"><ele>24.275879</ele></trkpt><trkpt lat="-27.03439" lon="-48.660152"><ele>24.28418</ele></trkpt><trkpt lat="-27.034388" lon="-48.660155"><ele>24.256897</ele></trkpt><trkpt lat="-27.034389" lon="-48.660156"><ele>24.277222</ele></trkpt><trkpt lat="-27.034389" lon="-48.660156"><ele>24.277222</ele></trkpt><trkpt lat="-27.03439" lon="-48.660156"><ele>24.393799</ele></trkpt><trkpt lat="-27.034392" lon="-48.660158"><ele>24.330872</ele></trkpt><trkpt lat="-27.034391" lon="-48.660162"><ele>23.951111</ele></trkpt><trkpt lat="-27.034393" lon="-48.660166"><ele>23.679443</ele></trkpt><trkpt lat="-27.034396" lon="-48.660169"><ele>23.442932</ele></trkpt><trkpt lat="-27.0344" lon="-48.660171"><ele>24.00177</ele></trkpt><trkpt lat="-27.034404" lon="-48.660171"><ele>24.098694</ele></trkpt><trkpt lat="-27.034408" lon="-48.660171"><ele>24.090942</ele></trkpt><trkpt lat="-27.034409" lon="-48.660171"><ele>24.089294</ele></trkpt><trkpt lat="-27.034409" lon="-48.660169"><ele>23.684082</ele></trkpt><trkpt lat="-27.034409" lon="-48.660168"><ele>23.795959</ele></trkpt><trkpt lat="-27.034409" lon="-48.660168"><ele>23.808289</ele></trkpt><trkpt lat="-27.034409" lon="-48.660168"><ele>23.808716</ele></trkpt><trkpt lat="-27.034409" lon="-48.660168"><ele>23.81604</ele></trkpt><trkpt lat="-27.034411" lon="-48.660166"><ele>23.975586</ele></trkpt><trkpt lat="-27.034411" lon="-48.660166"><ele>23.975586</ele></trkpt><trkpt lat="-27.034414" lon="-48.660161"><ele>24.748108</ele></trkpt><trkpt lat="-27.034418" lon="-48.660156"><ele>24.789429</ele></trkpt><trkpt lat="-27.034424" lon="-48.660144"><ele>24.565796</ele></trkpt><trkpt lat="-27.034428" lon="-48.66013"><ele>24.150024</ele></trkpt><trkpt lat="-27.034431" lon="-48.660114"><ele>23.901245</ele></trkpt><trkpt lat="-27.034437" lon="-48.660094"><ele>24.567871</ele></trkpt><trkpt lat="-27.034442" lon="-48.660076"><ele>25.493896</ele></trkpt><trkpt lat="-27.034445" lon="-48.660057"><ele>25.511719</ele></trkpt><trkpt lat="-27.034452" lon="-48.660037"><ele>25.499329</ele></trkpt><trkpt lat="-27.034456" lon="-48.660023"><ele>23.114136</ele></trkpt><trkpt lat="-27.034458" lon="-48.660005"><ele>22.701538</ele></trkpt><trkpt lat="-27.034464" lon="-48.659987"><ele>23.001343</ele></trkpt><trkpt lat="-27.03447" lon="-48.65997"><ele>22.922546</ele></trkpt><trkpt lat="-27.034473" lon="-48.659956"><ele>22.11499</ele></trkpt><trkpt lat="-27.034476" lon="-48.659952"><ele>21.403198</ele></trkpt><trkpt lat="-27.034476" lon="-48.65995"><ele>21.789124</ele></trkpt><trkpt lat="-27.034476" lon="-48.659949"><ele>21.708984</ele></trkpt><trkpt lat="-27.034479" lon="-48.659942"><ele>21.685181</ele></trkpt><trkpt lat="-27.034483" lon="-48.659934"><ele>21.41394</ele></trkpt><trkpt lat="-27.03449" lon="-48.659915"><ele>22.609924</ele></trkpt><trkpt lat="-27.034496" lon="-48.659897"><ele>23.763977</ele></trkpt><trkpt lat="-27.034505" lon="-48.659876"><ele>24.484436</ele></trkpt><trkpt lat="-27.034512" lon="-48.659857"><ele>24.40564</ele></trkpt><trkpt lat="-27.034516" lon="-48.659839"><ele>25.173645</ele></trkpt><trkpt lat="-27.03452" lon="-48.659823"><ele>25.289856</ele></trkpt><trkpt lat="-27.034526" lon="-48.659804"><ele>25.247986</ele></trkpt><trkpt lat="-27.034533" lon="-48.659783"><ele>25.372009</ele></trkpt><trkpt lat="-27.034541" lon="-48.659763"><ele>26.032593</ele></trkpt><trkpt lat="-27.034541" lon="-48.659763"><ele>26.032593</ele></trkpt><trkpt lat="-27.034549" lon="-48.659746"><ele>26.20813</ele></trkpt><trkpt lat="-27.034555" lon="-48.659729"><ele>26.538147</ele></trkpt><trkpt lat="-27.034557" lon="-48.659715"><ele>26.221375</ele></trkpt><trkpt lat="-27.034559" lon="-48.659706"><ele>25.697327</ele></trkpt><trkpt lat="-27.034561" lon="-48.659702"><ele>26.248718</ele></trkpt><trkpt lat="-27.034561" lon="-48.659701"><ele>26.582397</ele></trkpt><trkpt lat="-27.034561" lon="-48.6597"><ele>26.612488</ele></trkpt><trkpt lat="-27.034561" lon="-48.6597"><ele>26.966919</ele></trkpt><trkpt lat="-27.034561" lon="-48.6597"><ele>26.967224</ele></trkpt><trkpt lat="-27.034562" lon="-48.6597"><ele>26.973511</ele></trkpt><trkpt lat="-27.034562" lon="-48.6597"><ele>26.980591</ele></trkpt><trkpt lat="-27.034562" lon="-48.6597"><ele>26.982971</ele></trkpt><trkpt lat="-27.034561" lon="-48.6597"><ele>26.991882</ele></trkpt><trkpt lat="-27.034565" lon="-48.659697"><ele>27.401489</ele></trkpt><trkpt lat="-27.034566" lon="-48.659696"><ele>27.522583</ele></trkpt><trkpt lat="-27.034567" lon="-48.659697"><ele>22.904358</ele></trkpt><trkpt lat="-27.034566" lon="-48.659696"><ele>22.532532</ele></trkpt><trkpt lat="-27.034564" lon="-48.659697"><ele>22.486206</ele></trkpt><trkpt lat="-27.034563" lon="-48.659697"><ele>22.483704</ele></trkpt><trkpt lat="-27.034563" lon="-48.659697"><ele>22.473755</ele></trkpt><trkpt lat="-27.034563" lon="-48.659697"><ele>22.456482</ele></trkpt><trkpt lat="-27.034563" lon="-48.659697"><ele>22.447815</ele></trkpt><trkpt lat="-27.034563" lon="-48.659697"><ele>24.014282</ele></trkpt><trkpt lat="-27.034563" lon="-48.659697"><ele>23.965393</ele></trkpt><trkpt lat="-27.034563" lon="-48.659697"><ele>23.963562</ele></trkpt><trkpt lat="-27.034563" lon="-48.659697"><ele>23.960449</ele></trkpt><trkpt lat="-27.034563" lon="-48.659697"><ele>23.956238</ele></trkpt><trkpt lat="-27.034563" lon="-48.659697"><ele>23.954224</ele></trkpt><trkpt lat="-27.034563" lon="-48.659697"><ele>23.949036</ele></trkpt><trkpt lat="-27.034563" lon="-48.659697"><ele>23.94397</ele></trkpt><trkpt lat="-27.034563" lon="-48.659697"><ele>23.938965</ele></trkpt><trkpt lat="-27.034563" lon="-48.659697"><ele>23.933777</ele></trkpt><trkpt lat="-27.034563" lon="-48.659697"><ele>23.933777</ele></trkpt><trkpt lat="-27.034563" lon="-48.659697"><ele>23.932922</ele></trkpt><trkpt lat="-27.034563" lon="-48.659697"><ele>23.937012</ele></trkpt><trkpt lat="-27.034563" lon="-48.659697"><ele>23.938232</ele></trkpt><trkpt lat="-27.034563" lon="-48.659697"><ele>23.935242</ele></trkpt><trkpt lat="-27.034563" lon="-48.659697"><ele>23.931885</ele></trkpt><trkpt lat="-27.034563" lon="-48.659697"><ele>23.930969</ele></trkpt><trkpt lat="-27.034563" lon="-48.659697"><ele>23.937622</ele></trkpt><trkpt lat="-27.034563" lon="-48.659697"><ele>23.945007</ele></trkpt><trkpt lat="-27.034563" lon="-48.659697"><ele>23.630859</ele></trkpt><trkpt lat="-27.034563" lon="-48.659694"><ele>23.929016</ele></trkpt><trkpt lat="-27.034562" lon="-48.659694"><ele>23.718323</ele></trkpt><trkpt lat="-27.034562" lon="-48.659694"><ele>23.716187</ele></trkpt><trkpt lat="-27.034562" lon="-48.659694"><ele>23.716187</ele></trkpt><trkpt lat="-27.034562" lon="-48.659694"><ele>23.711975</ele></trkpt><trkpt lat="-27.034562" lon="-48.659694"><ele>23.700317</ele></trkpt><trkpt lat="-27.034562" lon="-48.659694"><ele>23.698975</ele></trkpt><trkpt lat="-27.034562" lon="-48.659694"><ele>23.694336</ele></trkpt><trkpt lat="-27.034562" lon="-48.659694"><ele>23.679443</ele></trkpt><trkpt lat="-27.034562" lon="-48.659694"><ele>23.679016</ele></trkpt><trkpt lat="-27.034562" lon="-48.659694"><ele>23.685181</ele></trkpt><trkpt lat="-27.034562" lon="-48.659694"><ele>23.677673</ele></trkpt><trkpt lat="-27.034562" lon="-48.659694"><ele>23.641968</ele></trkpt><trkpt lat="-27.034562" lon="-48.659694"><ele>23.650085</ele></trkpt><trkpt lat="-27.034562" lon="-48.659694"><ele>23.674866</ele></trkpt><trkpt lat="-27.034562" lon="-48.659694"><ele>23.674866</ele></trkpt><trkpt lat="-27.034562" lon="-48.659694"><ele>23.674194</ele></trkpt><trkpt lat="-27.034562" lon="-48.659694"><ele>23.674011</ele></trkpt><trkpt lat="-27.034562" lon="-48.659693"><ele>23.891479</ele></trkpt><trkpt lat="-27.034566" lon="-48.659687"><ele>23.957581</ele></trkpt><trkpt lat="-27.034571" lon="-48.659677"><ele>23.610901</ele></trkpt><trkpt lat="-27.034576" lon="-48.659663"><ele>22.131165</ele></trkpt><trkpt lat="-27.034584" lon="-48.659652"><ele>21.809326</ele></trkpt><trkpt lat="-27.034591" lon="-48.659648"><ele>22.226318</ele></trkpt><trkpt lat="-27.034591" lon="-48.659646"><ele>22.213196</ele></trkpt><trkpt lat="-27.034594" lon="-48.659644"><ele>22.181824</ele></trkpt><trkpt lat="-27.034599" lon="-48.659642"><ele>21.483948</ele></trkpt><trkpt lat="-27.034599" lon="-48.659638"><ele>20.933594</ele></trkpt><trkpt lat="-27.034595" lon="-48.659636"><ele>20.827942</ele></trkpt><trkpt lat="-27.034591" lon="-48.659634"><ele>20.518494</ele></trkpt><trkpt lat="-27.034586" lon="-48.659634"><ele>19.814087</ele></trkpt><trkpt lat="-27.034579" lon="-48.659635"><ele>19.844604</ele></trkpt><trkpt lat="-27.034569" lon="-48.659632"><ele>19.987976</ele></trkpt><trkpt lat="-27.034566" lon="-48.659629"><ele>19.650269</ele></trkpt><trkpt lat="-27.034567" lon="-48.659625"><ele>19.267639</ele></trkpt><trkpt lat="-27.034569" lon="-48.659617"><ele>19.403015</ele></trkpt><trkpt lat="-27.034568" lon="-48.659615"><ele>19.255188</ele></trkpt><trkpt lat="-27.034567" lon="-48.659615"><ele>19.212891</ele></trkpt><trkpt lat="-27.034566" lon="-48.659612"><ele>19.003967</ele></trkpt><trkpt lat="-27.03456" lon="-48.659613"><ele>18.953735</ele></trkpt><trkpt lat="-27.034552" lon="-48.659616"><ele>17.872986</ele></trkpt><trkpt lat="-27.034545" lon="-48.659619"><ele>17.879333</ele></trkpt><trkpt lat="-27.034546" lon="-48.659622"><ele>17.574463</ele></trkpt><trkpt lat="-27.03454" lon="-48.659632"><ele>18.310913</ele></trkpt><trkpt lat="-27.03454" lon="-48.659634"><ele>18.271118</ele></trkpt><trkpt lat="-27.03454" lon="-48.659634"><ele>18.270264</ele></trkpt><trkpt lat="-27.03454" lon="-48.659634"><ele>18.2677</ele></trkpt><trkpt lat="-27.03454" lon="-48.659634"><ele>18.266968</ele></trkpt><trkpt lat="-27.03454" lon="-48.659634"><ele>18.271484</ele></trkpt><trkpt lat="-27.03454" lon="-48.659634"><ele>18.161133</ele></trkpt><trkpt lat="-27.03454" lon="-48.659635"><ele>18.157227</ele></trkpt><trkpt lat="-27.03454" lon="-48.659635"><ele>18.156006</ele></trkpt><trkpt lat="-27.03454" lon="-48.659634"><ele>17.922119</ele></trkpt><trkpt lat="-27.034543" lon="-48.659632"><ele>17.93689</ele></trkpt><trkpt lat="-27.034543" lon="-48.659632"><ele>17.934631</ele></trkpt><trkpt lat="-27.034545" lon="-48.659629"><ele>17.779663</ele></trkpt><trkpt lat="-27.034547" lon="-48.659626"><ele>17.427734</ele></trkpt><trkpt lat="-27.034548" lon="-48.659624"><ele>17.786743</ele></trkpt><trkpt lat="-27.034549" lon="-48.659623"><ele>17.725525</ele></trkpt><trkpt lat="-27.034549" lon="-48.659622"><ele>17.867981</ele></trkpt><trkpt lat="-27.034552" lon="-48.659616"><ele>18.275208</ele></trkpt><trkpt lat="-27.03455" lon="-48.659611"><ele>18.449585</ele></trkpt><trkpt lat="-27.034549" lon="-48.65961"><ele>18.452026</ele></trkpt><trkpt lat="-27.034549" lon="-48.659607"><ele>18.232361</ele></trkpt><trkpt lat="-27.03455" lon="-48.659606"><ele>18.241699</ele></trkpt><trkpt lat="-27.03455" lon="-48.659605"><ele>18.238403</ele></trkpt><trkpt lat="-27.034548" lon="-48.659604"><ele>18.427429</ele></trkpt><trkpt lat="-27.034547" lon="-48.659603"><ele>18.441711</ele></trkpt><trkpt lat="-27.034544" lon="-48.659602"><ele>23.07074</ele></trkpt><trkpt lat="-27.034542" lon="-48.659601"><ele>23.079468</ele></trkpt><trkpt lat="-27.034541" lon="-48.659601"><ele>23.0802</ele></trkpt><trkpt lat="-27.034541" lon="-48.659601"><ele>23.08197</ele></trkpt><trkpt lat="-27.034541" lon="-48.659601"><ele>23.079163</ele></trkpt><trkpt lat="-27.034541" lon="-48.659601"><ele>23.076843</ele></trkpt><trkpt lat="-27.034541" lon="-48.659601"><ele>23.075317</ele></trkpt><trkpt lat="-27.034545" lon="-48.6596"><ele>23.205994</ele></trkpt><trkpt lat="-27.034548" lon="-48.6596"><ele>23.237183</ele></trkpt><trkpt lat="-27.034549" lon="-48.6596"><ele>23.237854</ele></trkpt><trkpt lat="-27.034549" lon="-48.6596"><ele>23.237061</ele></trkpt><trkpt lat="-27.034549" lon="-48.659597"><ele>23.22937</ele></trkpt><trkpt lat="-27.03455" lon="-48.659593"><ele>23.155945</ele></trkpt><trkpt lat="-27.034551" lon="-48.659592"><ele>23.154663</ele></trkpt><trkpt lat="-27.034551" lon="-48.659592"><ele>23.156372</ele></trkpt><trkpt lat="-27.034551" lon="-48.659592"><ele>23.153748</ele></trkpt><trkpt lat="-27.034551" lon="-48.659593"><ele>23.483826</ele></trkpt><trkpt lat="-27.03455" lon="-48.659595"><ele>23.517578</ele></trkpt><trkpt lat="-27.034551" lon="-48.659596"><ele>23.140747</ele></trkpt><trkpt lat="-27.034553" lon="-48.659596"><ele>23.152222</ele></trkpt><trkpt lat="-27.034553" lon="-48.659596"><ele>14.760437</ele></trkpt><trkpt lat="-27.034553" lon="-48.659598"><ele>14.828735</ele></trkpt><trkpt lat="-27.034552" lon="-48.659599"><ele>14.815613</ele></trkpt><trkpt lat="-27.034552" lon="-48.659599"><ele>14.814087</ele></trkpt><trkpt lat="-27.034552" lon="-48.659599"><ele>14.812866</ele></trkpt><trkpt lat="-27.034552" lon="-48.659599"><ele>14.815247</ele></trkpt><trkpt lat="-27.034551" lon="-48.659598"><ele>14.872131</ele></trkpt><trkpt lat="-27.03455" lon="-48.659599"><ele>14.839111</ele></trkpt><trkpt lat="-27.034549" lon="-48.659599"><ele>14.84375</ele></trkpt><trkpt lat="-27.034549" lon="-48.659599"><ele>14.844116</ele></trkpt><trkpt lat="-27.034547" lon="-48.659601"><ele>14.614502</ele></trkpt><trkpt lat="-27.034546" lon="-48.659601"><ele>14.06665</ele></trkpt><trkpt lat="-27.034546" lon="-48.659602"><ele>14.601318</ele></trkpt><trkpt lat="-27.034546" lon="-48.659602"><ele>14.711853</ele></trkpt><trkpt lat="-27.034545" lon="-48.659606"><ele>23.213318</ele></trkpt><trkpt lat="-27.034649" lon="-48.659537"><ele>36.999573</ele></trkpt><trkpt lat="-27.034607" lon="-48.659542"><ele>30.148621</ele></trkpt><trkpt lat="-27.034579" lon="-48.65959"><ele>2.878204</ele></trkpt><trkpt lat="-27.034579" lon="-48.65959"><ele>2.878204</ele></trkpt><trkpt lat="-27.034577" lon="-48.659612"><ele>7.467834</ele></trkpt><trkpt lat="-27.034587" lon="-48.659602"><ele>8.579895</ele></trkpt><trkpt lat="-27.034585" lon="-48.659609"><ele>10.119354</ele></trkpt><trkpt lat="-27.034581" lon="-48.659616"><ele>12.365784</ele></trkpt><trkpt lat="-27.034581" lon="-48.659619"><ele>15.134644</ele></trkpt><trkpt lat="-27.034584" lon="-48.659622"><ele>17.514343</ele></trkpt><trkpt lat="-27.034587" lon="-48.659622"><ele>18.29187</ele></trkpt><trkpt lat="-27.034587" lon="-48.659622"><ele>18.29187</ele></trkpt><trkpt lat="-27.034589" lon="-48.659625"><ele>19.376404</ele></trkpt><trkpt lat="-27.034589" lon="-48.659625"><ele>19.376404</ele></trkpt><trkpt lat="-27.034592" lon="-48.659625"><ele>19.936035</ele></trkpt><trkpt lat="-27.034592" lon="-48.659625"><ele>19.936035</ele></trkpt><trkpt lat="-27.034593" lon="-48.659628"><ele>20.095703</ele></trkpt><trkpt lat="-27.034593" lon="-48.659626"><ele>20.233032</ele></trkpt><trkpt lat="-27.034593" lon="-48.659626"><ele>19.477356</ele></trkpt><trkpt lat="-27.034593" lon="-48.659624"><ele>19.862366</ele></trkpt><trkpt lat="-27.034594" lon="-48.659624"><ele>20.137085</ele></trkpt><trkpt lat="-27.034592" lon="-48.659622"><ele>19.700867</ele></trkpt><trkpt lat="-27.034588" lon="-48.659621"><ele>20.258667</ele></trkpt><trkpt lat="-27.034586" lon="-48.65962"><ele>22.303284</ele></trkpt><trkpt lat="-27.034579" lon="-48.65962"><ele>22.159729</ele></trkpt><trkpt lat="-27.034573" lon="-48.659618"><ele>23.167908</ele></trkpt><trkpt lat="-27.034571" lon="-48.65962"><ele>23.262512</ele></trkpt><trkpt lat="-27.034571" lon="-48.659622"><ele>22.859131</ele></trkpt><trkpt lat="-27.034571" lon="-48.659621"><ele>23.005371</ele></trkpt><trkpt lat="-27.034571" lon="-48.659621"><ele>23.005371</ele></trkpt><trkpt lat="-27.034571" lon="-48.65962"><ele>22.780029</ele></trkpt><trkpt lat="-27.034571" lon="-48.65962"><ele>22.780029</ele></trkpt><trkpt lat="-27.03457" lon="-48.659619"><ele>23.761475</ele></trkpt><trkpt lat="-27.034568" lon="-48.659617"><ele>25.371765</ele></trkpt><trkpt lat="-27.034564" lon="-48.659615"><ele>26.455994</ele></trkpt><trkpt lat="-27.034562" lon="-48.659614"><ele>27.210449</ele></trkpt><trkpt lat="-27.034559" lon="-48.659615"><ele>27.03772</ele></trkpt><trkpt lat="-27.034557" lon="-48.659614"><ele>26.67041</ele></trkpt><trkpt lat="-27.034557" lon="-48.659613"><ele>26.590393</ele></trkpt><trkpt lat="-27.034556" lon="-48.659613"><ele>26.103271</ele></trkpt><trkpt lat="-27.034556" lon="-48.659612"><ele>26.083191</ele></trkpt><trkpt lat="-27.034557" lon="-48.659612"><ele>26.05426</ele></trkpt><trkpt lat="-27.034557" lon="-48.659612"><ele>26.061096</ele></trkpt><trkpt lat="-27.034557" lon="-48.659612"><ele>26.078125</ele></trkpt><trkpt lat="-27.034557" lon="-48.659612"><ele>26.081421</ele></trkpt><trkpt lat="-27.034557" lon="-48.659612"><ele>26.077515</ele></trkpt><trkpt lat="-27.034557" lon="-48.659612"><ele>26.077515</ele></trkpt><trkpt lat="-27.034557" lon="-48.659612"><ele>26.07959</ele></trkpt><trkpt lat="-27.034557" lon="-48.659612"><ele>26.07959</ele></trkpt><trkpt lat="-27.034557" lon="-48.659612"><ele>26.08374</ele></trkpt><trkpt lat="-27.034557" lon="-48.659612"><ele>26.093567</ele></trkpt><trkpt lat="-27.034557" lon="-48.659612"><ele>26.101624</ele></trkpt><trkpt lat="-27.034557" lon="-48.659612"><ele>26.10376</ele></trkpt><trkpt lat="-27.034557" lon="-48.659612"><ele>26.339111</ele></trkpt><trkpt lat="-27.034555" lon="-48.659612"><ele>26.378784</ele></trkpt><trkpt lat="-27.034553" lon="-48.659613"><ele>26.470825</ele></trkpt><trkpt lat="-27.034554" lon="-48.659614"><ele>27.986694</ele></trkpt><trkpt lat="-27.034554" lon="-48.659614"><ele>27.697693</ele></trkpt><trkpt lat="-27.034551" lon="-48.659615"><ele>27.561584</ele></trkpt><trkpt lat="-27.034553" lon="-48.659612"><ele>27.963318</ele></trkpt><trkpt lat="-27.034557" lon="-48.659606"><ele>27.656555</ele></trkpt><trkpt lat="-27.034557" lon="-48.659606"><ele>27.653442</ele></trkpt><trkpt lat="-27.034558" lon="-48.659606"><ele>27.593323</ele></trkpt><trkpt lat="-27.034561" lon="-48.659608"><ele>28.007446</ele></trkpt><trkpt lat="-27.03456" lon="-48.65961"><ele>27.648926</ele></trkpt><trkpt lat="-27.034557" lon="-48.659609"><ele>25.548218</ele></trkpt><trkpt lat="-27.034557" lon="-48.659609"><ele>25.439758</ele></trkpt><trkpt lat="-27.034554" lon="-48.659607"><ele>25.093323</ele></trkpt><trkpt lat="-27.034553" lon="-48.659606"><ele>27.499817</ele></trkpt><trkpt lat="-27.034554" lon="-48.659605"><ele>27.301819</ele></trkpt><trkpt lat="-27.034555" lon="-48.659605"><ele>27.031494</ele></trkpt><trkpt lat="-27.034555" lon="-48.659605"><ele>26.86261</ele></trkpt><trkpt lat="-27.034554" lon="-48.659606"><ele>26.763123</ele></trkpt><trkpt lat="-27.034555" lon="-48.659608"><ele>26.51593</ele></trkpt><trkpt lat="-27.034555" lon="-48.659608"><ele>26.658447</ele></trkpt><trkpt lat="-27.034551" lon="-48.659609"><ele>26.432617</ele></trkpt><trkpt lat="-27.034551" lon="-48.659611"><ele>26.416016</ele></trkpt><trkpt lat="-27.03455" lon="-48.659612"><ele>26.413025</ele></trkpt><trkpt lat="-27.034548" lon="-48.659614"><ele>26.176025</ele></trkpt><trkpt lat="-27.034547" lon="-48.659615"><ele>26.269531</ele></trkpt><trkpt lat="-27.034548" lon="-48.659616"><ele>26.120605</ele></trkpt><trkpt lat="-27.034548" lon="-48.659616"><ele>26.06958</ele></trkpt><trkpt lat="-27.03455" lon="-48.659615"><ele>26.073914</ele></trkpt><trkpt lat="-27.03455" lon="-48.659615"><ele>25.846313</ele></trkpt><trkpt lat="-27.03455" lon="-48.659616"><ele>26.23584</ele></trkpt><trkpt lat="-27.034551" lon="-48.659617"><ele>26.564209</ele></trkpt><trkpt lat="-27.034552" lon="-48.659618"><ele>22.053833</ele></trkpt><trkpt lat="-27.034553" lon="-48.659618"><ele>22.055176</ele></trkpt><trkpt lat="-27.034554" lon="-48.65962"><ele>22.024353</ele></trkpt><trkpt lat="-27.034554" lon="-48.659618"><ele>21.900146</ele></trkpt><trkpt lat="-27.034554" lon="-48.659616"><ele>21.889709</ele></trkpt><trkpt lat="-27.034554" lon="-48.659613"><ele>21.826843</ele></trkpt><trkpt lat="-27.034554" lon="-48.659612"><ele>21.607483</ele></trkpt><trkpt lat="-27.034556" lon="-48.659611"><ele>21.627075</ele></trkpt><trkpt lat="-27.034555" lon="-48.65961"><ele>21.697083</ele></trkpt><trkpt lat="-27.034554" lon="-48.659609"><ele>21.806396</ele></trkpt><trkpt lat="-27.034553" lon="-48.659608"><ele>23.41394</ele></trkpt><trkpt lat="-27.034554" lon="-48.659608"><ele>23.655701</ele></trkpt><trkpt lat="-27.034555" lon="-48.659608"><ele>23.68811</ele></trkpt><trkpt lat="-27.034556" lon="-48.65961"><ele>23.788818</ele></trkpt><trkpt lat="-27.034558" lon="-48.659611"><ele>23.951904</ele></trkpt><trkpt lat="-27.034559" lon="-48.659611"><ele>24.260254</ele></trkpt><trkpt lat="-27.03456" lon="-48.659611"><ele>24.363708</ele></trkpt><trkpt lat="-27.03456" lon="-48.659611"><ele>24.391907</ele></trkpt><trkpt lat="-27.03456" lon="-48.659611"><ele>22.898682</ele></trkpt><trkpt lat="-27.034559" lon="-48.659612"><ele>22.576477</ele></trkpt><trkpt lat="-27.034558" lon="-48.659613"><ele>21.840027</ele></trkpt><trkpt lat="-27.03456" lon="-48.659616"><ele>20.905518</ele></trkpt><trkpt lat="-27.034562" lon="-48.659618"><ele>21.047668</ele></trkpt><trkpt lat="-27.034566" lon="-48.659619"><ele>20.716858</ele></trkpt><trkpt lat="-27.034567" lon="-48.659621"><ele>19.920532</ele></trkpt><trkpt lat="-27.034567" lon="-48.659622"><ele>20.237366</ele></trkpt><trkpt lat="-27.034566" lon="-48.659624"><ele>20.708618</ele></trkpt><trkpt lat="-27.034563" lon="-48.659625"><ele>20.454834</ele></trkpt><trkpt lat="-27.034563" lon="-48.659611"><ele>19.47522</ele></trkpt><trkpt lat="-27.034568" lon="-48.659598"><ele>19.674683</ele></trkpt><trkpt lat="-27.034568" lon="-48.659595"><ele>19.917542</ele></trkpt><trkpt lat="-27.034569" lon="-48.659594"><ele>21.587769</ele></trkpt><trkpt lat="-27.034566" lon="-48.659592"><ele>21.822021</ele></trkpt><trkpt lat="-27.034567" lon="-48.659591"><ele>21.341492</ele></trkpt><trkpt lat="-27.034565" lon="-48.659589"><ele>21.377197</ele></trkpt><trkpt lat="-27.034565" lon="-48.659589"><ele>21.125732</ele></trkpt><trkpt lat="-27.034564" lon="-48.659587"><ele>21.133606</ele></trkpt><trkpt lat="-27.034563" lon="-48.659585"><ele>24.691589</ele></trkpt><trkpt lat="-27.034565" lon="-48.659572"><ele>24.584839</ele></trkpt><trkpt lat="-27.034567" lon="-48.659556"><ele>24.452942</ele></trkpt><trkpt lat="-27.034574" lon="-48.659535"><ele>24.47345</ele></trkpt><trkpt lat="-27.034584" lon="-48.659513"><ele>24.394165</ele></trkpt><trkpt lat="-27.034593" lon="-48.659489"><ele>24.546143</ele></trkpt><trkpt lat="-27.034599" lon="-48.659466"><ele>24.242615</ele></trkpt><trkpt lat="-27.034607" lon="-48.659442"><ele>24.352234</ele></trkpt><trkpt lat="-27.034613" lon="-48.659427"><ele>23.670166</ele></trkpt><trkpt lat="-27.034617" lon="-48.659417"><ele>23.444946</ele></trkpt><trkpt lat="-27.034617" lon="-48.659403"><ele>23.603943</ele></trkpt><trkpt lat="-27.034616" lon="-48.659392"><ele>23.952087</ele></trkpt><trkpt lat="-27.034618" lon="-48.659382"><ele>24.785583</ele></trkpt><trkpt lat="-27.034618" lon="-48.659379"><ele>24.255249</ele></trkpt><trkpt lat="-27.034614" lon="-48.659377"><ele>24.114685</ele></trkpt><trkpt lat="-27.034614" lon="-48.659377"><ele>24.114685</ele></trkpt><trkpt lat="-27.034611" lon="-48.659378"><ele>24.01355</ele></trkpt><trkpt lat="-27.034608" lon="-48.659378"><ele>23.764526</ele></trkpt><trkpt lat="-27.034608" lon="-48.659378"><ele>23.764526</ele></trkpt><trkpt lat="-27.034607" lon="-48.659378"><ele>23.762024</ele></trkpt><trkpt lat="-27.034606" lon="-48.659378"><ele>23.475037</ele></trkpt><trkpt lat="-27.034605" lon="-48.659377"><ele>23.439636</ele></trkpt><trkpt lat="-27.034605" lon="-48.659377"><ele>23.443665</ele></trkpt><trkpt lat="-27.034605" lon="-48.659377"><ele>23.423523</ele></trkpt><trkpt lat="-27.034605" lon="-48.659377"><ele>23.453125</ele></trkpt><trkpt lat="-27.034605" lon="-48.659377"><ele>23.473999</ele></trkpt><trkpt lat="-27.034605" lon="-48.659377"><ele>23.485535</ele></trkpt><trkpt lat="-27.034607" lon="-48.659377"><ele>23.414307</ele></trkpt><trkpt lat="-27.03461" lon="-48.659379"><ele>23.567871</ele></trkpt><trkpt lat="-27.03461" lon="-48.659379"><ele>23.567871</ele></trkpt><trkpt lat="-27.034615" lon="-48.659381"><ele>23.595276</ele></trkpt><trkpt lat="-27.034616" lon="-48.659383"><ele>23.277161</ele></trkpt><trkpt lat="-27.034611" lon="-48.659385"><ele>22.448303</ele></trkpt><trkpt lat="-27.034609" lon="-48.659383"><ele>22.453857</ele></trkpt><trkpt lat="-27.034613" lon="-48.659372"><ele>22.217407</ele></trkpt><trkpt lat="-27.034619" lon="-48.65936"><ele>22.617249</ele></trkpt><trkpt lat="-27.034627" lon="-48.659345"><ele>21.77655</ele></trkpt><trkpt lat="-27.034636" lon="-48.659329"><ele>21.403503</ele></trkpt><trkpt lat="-27.034645" lon="-48.659309"><ele>21.033569</ele></trkpt><trkpt lat="-27.034651" lon="-48.659291"><ele>20.786499</ele></trkpt><trkpt lat="-27.034654" lon="-48.659281"><ele>20.89209</ele></trkpt><trkpt lat="-27.034657" lon="-48.659277"><ele>19.875977</ele></trkpt><trkpt lat="-27.034657" lon="-48.659277"><ele>19.875977</ele></trkpt><trkpt lat="-27.034658" lon="-48.659277"><ele>19.868347</ele></trkpt><trkpt lat="-27.034658" lon="-48.659277"><ele>19.867615</ele></trkpt><trkpt lat="-27.034659" lon="-48.659276"><ele>19.846069</ele></trkpt><trkpt lat="-27.034665" lon="-48.659267"><ele>20.112671</ele></trkpt><trkpt lat="-27.034672" lon="-48.659256"><ele>20.232971</ele></trkpt><trkpt lat="-27.034675" lon="-48.659249"><ele>20.445496</ele></trkpt><trkpt lat="-27.034677" lon="-48.659249"><ele>20.449402</ele></trkpt><trkpt lat="-27.034677" lon="-48.659249"><ele>20.445374</ele></trkpt><trkpt lat="-27.034677" lon="-48.659249"><ele>20.441223</ele></trkpt><trkpt lat="-27.034677" lon="-48.659249"><ele>20.437988</ele></trkpt><trkpt lat="-27.034677" lon="-48.659249"><ele>20.435242</ele></trkpt><trkpt lat="-27.034677" lon="-48.659249"><ele>20.433594</ele></trkpt><trkpt lat="-27.034677" lon="-48.659249"><ele>20.431885</ele></trkpt><trkpt lat="-27.034677" lon="-48.659249"><ele>20.431885</ele></trkpt><trkpt lat="-27.034677" lon="-48.659249"><ele>20.497742</ele></trkpt><trkpt lat="-27.034678" lon="-48.659248"><ele>20.490417</ele></trkpt><trkpt lat="-27.034678" lon="-48.659248"><ele>20.338501</ele></trkpt><trkpt lat="-27.034677" lon="-48.659248"><ele>20.10968</ele></trkpt><trkpt lat="-27.034672" lon="-48.65925"><ele>19.828918</ele></trkpt><trkpt lat="-27.034673" lon="-48.659249"><ele>19.765076</ele></trkpt><trkpt lat="-27.034678" lon="-48.65925"><ele>19.310364</ele></trkpt><trkpt lat="-27.034681" lon="-48.659254"><ele>19.45459</ele></trkpt><trkpt lat="-27.034684" lon="-48.659255"><ele>19.528625</ele></trkpt><trkpt lat="-27.034685" lon="-48.659255"><ele>19.528442</ele></trkpt><trkpt lat="-27.034685" lon="-48.659255"><ele>19.530884</ele></trkpt><trkpt lat="-27.034685" lon="-48.659255"><ele>19.644958</ele></trkpt><trkpt lat="-27.034685" lon="-48.659255"><ele>19.696167</ele></trkpt><trkpt lat="-27.034686" lon="-48.659256"><ele>19.612061</ele></trkpt><trkpt lat="-27.034684" lon="-48.659256"><ele>19.560547</ele></trkpt><trkpt lat="-27.034682" lon="-48.659255"><ele>19.602905</ele></trkpt><trkpt lat="-27.034682" lon="-48.659255"><ele>19.620728</ele></trkpt><trkpt lat="-27.034681" lon="-48.659255"><ele>19.650513</ele></trkpt><trkpt lat="-27.034681" lon="-48.659255"><ele>19.666992</ele></trkpt><trkpt lat="-27.034681" lon="-48.659254"><ele>19.68927</ele></trkpt><trkpt lat="-27.034681" lon="-48.659254"><ele>19.53949</ele></trkpt><trkpt lat="-27.034681" lon="-48.659254"><ele>19.521362</ele></trkpt><trkpt lat="-27.034685" lon="-48.659252"><ele>19.302856</ele></trkpt><trkpt lat="-27.034689" lon="-48.659245"><ele>19.41156</ele></trkpt><trkpt lat="-27.034691" lon="-48.659235"><ele>19.65918</ele></trkpt><trkpt lat="-27.034694" lon="-48.659227"><ele>20.689087</ele></trkpt><trkpt lat="-27.034696" lon="-48.659224"><ele>20.733154</ele></trkpt><trkpt lat="-27.034697" lon="-48.659225"><ele>19.865295</ele></trkpt><trkpt lat="-27.034697" lon="-48.659228"><ele>19.904846</ele></trkpt><trkpt lat="-27.034697" lon="-48.659229"><ele>19.882874</ele></trkpt><trkpt lat="-27.034698" lon="-48.659228"><ele>19.890991</ele></trkpt><trkpt lat="-27.034699" lon="-48.659228"><ele>19.858582</ele></trkpt><trkpt lat="-27.034699" lon="-48.659228"><ele>19.855347</ele></trkpt><trkpt lat="-27.0347" lon="-48.659227"><ele>19.875061</ele></trkpt><trkpt lat="-27.0347" lon="-48.659224"><ele>19.83197</ele></trkpt><trkpt lat="-27.0347" lon="-48.659222"><ele>20.129333</ele></trkpt><trkpt lat="-27.034704" lon="-48.659219"><ele>20.363403</ele></trkpt><trkpt lat="-27.034713" lon="-48.659207"><ele>20.521179</ele></trkpt><trkpt lat="-27.034721" lon="-48.659187"><ele>20.15155</ele></trkpt><trkpt lat="-27.034726" lon="-48.659163"><ele>19.556213</ele></trkpt><trkpt lat="-27.034732" lon="-48.659139"><ele>18.959045</ele></trkpt><trkpt lat="-27.034741" lon="-48.659115"><ele>18.756897</ele></trkpt><trkpt lat="-27.034749" lon="-48.65909"><ele>18.714661</ele></trkpt><trkpt lat="-27.034757" lon="-48.659065"><ele>18.445007</ele></trkpt><trkpt lat="-27.034765" lon="-48.65904"><ele>18.463867</ele></trkpt><trkpt lat="-27.034774" lon="-48.659011"><ele>18.645996</ele></trkpt><trkpt lat="-27.03478" lon="-48.658989"><ele>18.48468</ele></trkpt><trkpt lat="-27.034786" lon="-48.65897"><ele>18.436951</ele></trkpt><trkpt lat="-27.034796" lon="-48.658952"><ele>18.679138</ele></trkpt><trkpt lat="-27.034802" lon="-48.658938"><ele>18.505859</ele></trkpt><trkpt lat="-27.034803" lon="-48.658927"><ele>18.189758</ele></trkpt><trkpt lat="-27.034803" lon="-48.658927"><ele>18.189758</ele></trkpt><trkpt lat="-27.034805" lon="-48.658916"><ele>18.038879</ele></trkpt><trkpt lat="-27.034807" lon="-48.658902"><ele>17.820984</ele></trkpt><trkpt lat="-27.034813" lon="-48.658882"><ele>17.787903</ele></trkpt><trkpt lat="-27.03482" lon="-48.658858"><ele>18.377319</ele></trkpt><trkpt lat="-27.034828" lon="-48.658835"><ele>18.301758</ele></trkpt><trkpt lat="-27.034837" lon="-48.658809"><ele>18.34314</ele></trkpt><trkpt lat="-27.034845" lon="-48.658782"><ele>18.34082</ele></trkpt><trkpt lat="-27.034854" lon="-48.658757"><ele>17.914978</ele></trkpt><trkpt lat="-27.034861" lon="-48.658736"><ele>17.969788</ele></trkpt><trkpt lat="-27.034861" lon="-48.658736"><ele>17.969788</ele></trkpt><trkpt lat="-27.034868" lon="-48.658717"><ele>18.332214</ele></trkpt><trkpt lat="-27.034873" lon="-48.6587"><ele>18.964905</ele></trkpt><trkpt lat="-27.03488" lon="-48.658678"><ele>19.07019</ele></trkpt><trkpt lat="-27.034887" lon="-48.658657"><ele>19.819214</ele></trkpt><trkpt lat="-27.034894" lon="-48.658633"><ele>19.285339</ele></trkpt><trkpt lat="-27.034901" lon="-48.65861"><ele>19.303345</ele></trkpt><trkpt lat="-27.034907" lon="-48.658591"><ele>18.546265</ele></trkpt><trkpt lat="-27.034913" lon="-48.658575"><ele>18.141418</ele></trkpt><trkpt lat="-27.034917" lon="-48.658561"><ele>18.853333</ele></trkpt><trkpt lat="-27.034919" lon="-48.658552"><ele>18.777466</ele></trkpt><trkpt lat="-27.034923" lon="-48.658544"><ele>19.153198</ele></trkpt><trkpt lat="-27.034928" lon="-48.658539"><ele>18.957214</ele></trkpt><trkpt lat="-27.034931" lon="-48.658538"><ele>18.981873</ele></trkpt><trkpt lat="-27.034932" lon="-48.658534"><ele>19.167664</ele></trkpt><trkpt lat="-27.034932" lon="-48.658533"><ele>17.743164</ele></trkpt><trkpt lat="-27.034934" lon="-48.658533"><ele>18.28009</ele></trkpt><trkpt lat="-27.034934" lon="-48.658534"><ele>18.195801</ele></trkpt><trkpt lat="-27.034934" lon="-48.658534"><ele>18.503967</ele></trkpt><trkpt lat="-27.034935" lon="-48.658535"><ele>18.729492</ele></trkpt><trkpt lat="-27.034936" lon="-48.658534"><ele>18.590515</ele></trkpt><trkpt lat="-27.034937" lon="-48.658533"><ele>18.56311</ele></trkpt><trkpt lat="-27.034937" lon="-48.658533"><ele>18.572144</ele></trkpt><trkpt lat="-27.034936" lon="-48.65854"><ele>18.616272</ele></trkpt><trkpt lat="-27.034935" lon="-48.658543"><ele>18.977417</ele></trkpt><trkpt lat="-27.034934" lon="-48.658545"><ele>18.996704</ele></trkpt><trkpt lat="-27.034934" lon="-48.658546"><ele>18.996216</ele></trkpt><trkpt lat="-27.034932" lon="-48.658545"><ele>18.903748</ele></trkpt><trkpt lat="-27.034931" lon="-48.658544"><ele>18.804199</ele></trkpt><trkpt lat="-27.034931" lon="-48.658544"><ele>18.803772</ele></trkpt><trkpt lat="-27.034931" lon="-48.658544"><ele>18.810303</ele></trkpt><trkpt lat="-27.034931" lon="-48.658544"><ele>18.814392</ele></trkpt><trkpt lat="-27.034931" lon="-48.658544"><ele>18.817261</ele></trkpt><trkpt lat="-27.034931" lon="-48.658544"><ele>18.818115</ele></trkpt><trkpt lat="-27.034931" lon="-48.658544"><ele>18.818604</ele></trkpt><trkpt lat="-27.034931" lon="-48.658544"><ele>18.82428</ele></trkpt><trkpt lat="-27.03493" lon="-48.658545"><ele>14.371216</ele></trkpt><trkpt lat="-27.034929" lon="-48.658537"><ele>14.372131</ele></trkpt><trkpt lat="-27.034928" lon="-48.658538"><ele>12.612427</ele></trkpt><trkpt lat="-27.034927" lon="-48.658542"><ele>17.096802</ele></trkpt><trkpt lat="-27.034927" lon="-48.658543"><ele>17.102661</ele></trkpt><trkpt lat="-27.034927" lon="-48.658543"><ele>17.107117</ele></trkpt><trkpt lat="-27.034927" lon="-48.658543"><ele>17.105164</ele></trkpt><trkpt lat="-27.034927" lon="-48.658543"><ele>17.103088</ele></trkpt><trkpt lat="-27.034924" lon="-48.658541"><ele>16.224304</ele></trkpt><trkpt lat="-27.034923" lon="-48.658536"><ele>14.525696</ele></trkpt><trkpt lat="-27.034922" lon="-48.658535"><ele>20.60907</ele></trkpt><trkpt lat="-27.034922" lon="-48.658533"><ele>20.613647</ele></trkpt><trkpt lat="-27.034922" lon="-48.658533"><ele>20.613647</ele></trkpt><trkpt lat="-27.034922" lon="-48.658532"><ele>20.616028</ele></trkpt><trkpt lat="-27.034921" lon="-48.658534"><ele>20.622742</ele></trkpt><trkpt lat="-27.034922" lon="-48.658535"><ele>20.618652</ele></trkpt><trkpt lat="-27.034922" lon="-48.658536"><ele>20.907776</ele></trkpt><trkpt lat="-27.034923" lon="-48.658537"><ele>20.906616</ele></trkpt><trkpt lat="-27.034923" lon="-48.658537"><ele>20.919189</ele></trkpt><trkpt lat="-27.034924" lon="-48.658537"><ele>20.923645</ele></trkpt><trkpt lat="-27.034924" lon="-48.658537"><ele>20.923645</ele></trkpt><trkpt lat="-27.034924" lon="-48.658537"><ele>20.927734</ele></trkpt><trkpt lat="-27.034924" lon="-48.658538"><ele>20.928955</ele></trkpt><trkpt lat="-27.034926" lon="-48.658538"><ele>21.159058</ele></trkpt><trkpt lat="-27.034928" lon="-48.658537"><ele>21.178772</ele></trkpt><trkpt lat="-27.034928" lon="-48.658537"><ele>21.178772</ele></trkpt><trkpt lat="-27.034929" lon="-48.658537"><ele>21.182251</ele></trkpt><trkpt lat="-27.034929" lon="-48.658537"><ele>21.185974</ele></trkpt><trkpt lat="-27.034928" lon="-48.658538"><ele>20.905212</ele></trkpt><trkpt lat="-27.034927" lon="-48.658539"><ele>20.889526</ele></trkpt><trkpt lat="-27.034927" lon="-48.658539"><ele>20.889404</ele></trkpt><trkpt lat="-27.034927" lon="-48.658539"><ele>20.891541</ele></trkpt><trkpt lat="-27.034927" lon="-48.658539"><ele>20.895203</ele></trkpt><trkpt lat="-27.034927" lon="-48.658539"><ele>20.895447</ele></trkpt><trkpt lat="-27.034928" lon="-48.658538"><ele>21.08136</ele></trkpt><trkpt lat="-27.034928" lon="-48.658538"><ele>21.088135</ele></trkpt><trkpt lat="-27.034929" lon="-48.658537"><ele>21.086853</ele></trkpt><trkpt lat="-27.034928" lon="-48.658533"><ele>20.968201</ele></trkpt><trkpt lat="-27.034928" lon="-48.658531"><ele>21.363586</ele></trkpt><trkpt lat="-27.034928" lon="-48.658531"><ele>21.330078</ele></trkpt><trkpt lat="-27.034928" lon="-48.658532"><ele>21.332275</ele></trkpt><trkpt lat="-27.034929" lon="-48.658531"><ele>21.31897</ele></trkpt><trkpt lat="-27.034929" lon="-48.658531"><ele>21.320007</ele></trkpt><trkpt lat="-27.034931" lon="-48.658532"><ele>21.691284</ele></trkpt><trkpt lat="-27.034937" lon="-48.658532"><ele>21.924805</ele></trkpt><trkpt lat="-27.03494" lon="-48.658531"><ele>21.775818</ele></trkpt><trkpt lat="-27.034939" lon="-48.65853"><ele>21.397095</ele></trkpt><trkpt lat="-27.034937" lon="-48.65853"><ele>21.399292</ele></trkpt><trkpt lat="-27.034937" lon="-48.65853"><ele>21.393616</ele></trkpt><trkpt lat="-27.034937" lon="-48.65853"><ele>21.397644</ele></trkpt><trkpt lat="-27.034936" lon="-48.658532"><ele>20.943176</ele></trkpt><trkpt lat="-27.034936" lon="-48.658532"><ele>20.943176</ele></trkpt><trkpt lat="-27.034937" lon="-48.658532"><ele>20.689209</ele></trkpt><trkpt lat="-27.034936" lon="-48.658533"><ele>20.487</ele></trkpt><trkpt lat="-27.034937" lon="-48.658534"><ele>20.454041</ele></trkpt><trkpt lat="-27.034937" lon="-48.658534"><ele>20.45874</ele></trkpt><trkpt lat="-27.034937" lon="-48.658534"><ele>20.465759</ele></trkpt><trkpt lat="-27.034937" lon="-48.658534"><ele>20.470276</ele></trkpt><trkpt lat="-27.034937" lon="-48.658534"><ele>20.470276</ele></trkpt><trkpt lat="-27.034937" lon="-48.658534"><ele>20.475281</ele></trkpt><trkpt lat="-27.034937" lon="-48.658534"><ele>20.477783</ele></trkpt><trkpt lat="-27.034937" lon="-48.658534"><ele>20.544373</ele></trkpt><trkpt lat="-27.034936" lon="-48.658534"><ele>20.417664</ele></trkpt><trkpt lat="-27.034937" lon="-48.658533"><ele>20.432495</ele></trkpt><trkpt lat="-27.034937" lon="-48.658533"><ele>20.441467</ele></trkpt><trkpt lat="-27.034939" lon="-48.658538"><ele>20.395996</ele></trkpt><trkpt lat="-27.034938" lon="-48.658546"><ele>19.565369</ele></trkpt><trkpt lat="-27.034935" lon="-48.65855"><ele>19.59021</ele></trkpt><trkpt lat="-27.034933" lon="-48.658551"><ele>19.246338</ele></trkpt><trkpt lat="-27.034933" lon="-48.658548"><ele>19.0896</ele></trkpt><trkpt lat="-27.034933" lon="-48.658548"><ele>19.033569</ele></trkpt><trkpt lat="-27.034931" lon="-48.65855"><ele>18.707336</ele></trkpt><trkpt lat="-27.03493" lon="-48.658552"><ele>18.690369</ele></trkpt><trkpt lat="-27.034931" lon="-48.658554"><ele>18.777039</ele></trkpt><trkpt lat="-27.034933" lon="-48.658555"><ele>19.608276</ele></trkpt><trkpt lat="-27.034934" lon="-48.658555"><ele>19.62262</ele></trkpt><trkpt lat="-27.034934" lon="-48.658556"><ele>19.642639</ele></trkpt><trkpt lat="-27.034934" lon="-48.658555"><ele>19.366943</ele></trkpt><trkpt lat="-27.034934" lon="-48.658555"><ele>19.402039</ele></trkpt><trkpt lat="-27.034934" lon="-48.658553"><ele>19.548828</ele></trkpt><trkpt lat="-27.034931" lon="-48.658548"><ele>18.910645</ele></trkpt><trkpt lat="-27.034931" lon="-48.658546"><ele>18.961487</ele></trkpt><trkpt lat="-27.03493" lon="-48.658546"><ele>18.962036</ele></trkpt><trkpt lat="-27.03493" lon="-48.658546"><ele>18.965088</ele></trkpt><trkpt lat="-27.034931" lon="-48.658545"><ele>19.016846</ele></trkpt><trkpt lat="-27.034931" lon="-48.658545"><ele>19.108643</ele></trkpt><trkpt lat="-27.03493" lon="-48.658544"><ele>19.805115</ele></trkpt><trkpt lat="-27.034931" lon="-48.658545"><ele>19.361328</ele></trkpt><trkpt lat="-27.034931" lon="-48.658546"><ele>19.685425</ele></trkpt><trkpt lat="-27.034931" lon="-48.658543"><ele>19.738525</ele></trkpt><trkpt lat="-27.03493" lon="-48.658537"><ele>20.04071</ele></trkpt><trkpt lat="-27.03493" lon="-48.658536"><ele>20.045959</ele></trkpt><trkpt lat="-27.034932" lon="-48.658533"><ele>19.961731</ele></trkpt><trkpt lat="-27.034937" lon="-48.658532"><ele>19.679749</ele></trkpt><trkpt lat="-27.034938" lon="-48.658532"><ele>19.422119</ele></trkpt><trkpt lat="-27.034938" lon="-48.658532"><ele>19.645691</ele></trkpt><trkpt lat="-27.034948" lon="-48.658461"><ele>19.877625</ele></trkpt><trkpt lat="-27.034948" lon="-48.658535"><ele>20.035461</ele></trkpt><trkpt lat="-27.034951" lon="-48.658541"><ele>20.256104</ele></trkpt><trkpt lat="-27.034936" lon="-48.658451"><ele>20.280701</ele></trkpt><trkpt lat="-27.034962" lon="-48.658558"><ele>20.463074</ele></trkpt><trkpt lat="-27.034963" lon="-48.658563"><ele>20.781799</ele></trkpt><trkpt lat="-27.034961" lon="-48.658565"><ele>20.406433</ele></trkpt><trkpt lat="-27.034952" lon="-48.658564"><ele>19.779297</ele></trkpt><trkpt lat="-27.034943" lon="-48.658563"><ele>19.764587</ele></trkpt><trkpt lat="-27.034941" lon="-48.658563"><ele>19.765503</ele></trkpt><trkpt lat="-27.03494" lon="-48.658563"><ele>19.763428</ele></trkpt><trkpt lat="-27.034938" lon="-48.658563"><ele>19.614258</ele></trkpt><trkpt lat="-27.034937" lon="-48.658564"><ele>19.657288</ele></trkpt><trkpt lat="-27.034936" lon="-48.658564"><ele>19.667358</ele></trkpt><trkpt lat="-27.034936" lon="-48.658564"><ele>19.674011</ele></trkpt><trkpt lat="-27.034936" lon="-48.658564"><ele>20.298035</ele></trkpt><trkpt lat="-27.034935" lon="-48.658565"><ele>20.289001</ele></trkpt><trkpt lat="-27.034933" lon="-48.658566"><ele>19.968262</ele></trkpt><trkpt lat="-27.034933" lon="-48.658567"><ele>19.97998</ele></trkpt><trkpt lat="-27.034934" lon="-48.658567"><ele>19.827942</ele></trkpt><trkpt lat="-27.034935" lon="-48.658567"><ele>19.82373</ele></trkpt><trkpt lat="-27.034935" lon="-48.658567"><ele>19.824219</ele></trkpt><trkpt lat="-27.034935" lon="-48.658567"><ele>19.825562</ele></trkpt><trkpt lat="-27.034935" lon="-48.658567"><ele>19.815247</ele></trkpt><trkpt lat="-27.034935" lon="-48.658567"><ele>19.821838</ele></trkpt><trkpt lat="-27.034935" lon="-48.658567"><ele>19.814575</ele></trkpt><trkpt lat="-27.034935" lon="-48.658567"><ele>19.819092</ele></trkpt><trkpt lat="-27.034935" lon="-48.658567"><ele>19.817017</ele></trkpt><trkpt lat="-27.034935" lon="-48.658567"><ele>19.817627</ele></trkpt><trkpt lat="-27.034935" lon="-48.658567"><ele>19.815125</ele></trkpt><trkpt lat="-27.034937" lon="-48.658567"><ele>19.913025</ele></trkpt><trkpt lat="-27.034933" lon="-48.658565"><ele>19.832031</ele></trkpt><trkpt lat="-27.034931" lon="-48.658564"><ele>19.926758</ele></trkpt><trkpt lat="-27.034931" lon="-48.658563"><ele>19.926208</ele></trkpt><trkpt lat="-27.034931" lon="-48.658563"><ele>19.925537</ele></trkpt><trkpt lat="-27.034931" lon="-48.658563"><ele>19.925781</ele></trkpt><trkpt lat="-27.034931" lon="-48.658563"><ele>19.926941</ele></trkpt><trkpt lat="-27.034931" lon="-48.658563"><ele>19.926086</ele></trkpt><trkpt lat="-27.034931" lon="-48.658563"><ele>19.926147</ele></trkpt><trkpt lat="-27.034931" lon="-48.658563"><ele>19.925598</ele></trkpt><trkpt lat="-27.034931" lon="-48.658563"><ele>19.920044</ele></trkpt><trkpt lat="-27.034931" lon="-48.658563"><ele>19.920593</ele></trkpt><trkpt lat="-27.034931" lon="-48.658563"><ele>19.921082</ele></trkpt><trkpt lat="-27.034931" lon="-48.658563"><ele>19.918518</ele></trkpt><trkpt lat="-27.034931" lon="-48.658563"><ele>19.917664</ele></trkpt><trkpt lat="-27.034931" lon="-48.658563"><ele>19.925293</ele></trkpt><trkpt lat="-27.034931" lon="-48.658563"><ele>19.92395</ele></trkpt><trkpt lat="-27.034931" lon="-48.658563"><ele>19.919434</ele></trkpt><trkpt lat="-27.034931" lon="-48.658563"><ele>19.922302</ele></trkpt><trkpt lat="-27.034931" lon="-48.658563"><ele>19.918701</ele></trkpt><trkpt lat="-27.034931" lon="-48.658563"><ele>19.918823</ele></trkpt><trkpt lat="-27.034931" lon="-48.658563"><ele>19.918823</ele></trkpt><trkpt lat="-27.034931" lon="-48.658563"><ele>19.917358</ele></trkpt><trkpt lat="-27.034929" lon="-48.658564"><ele>19.655579</ele></trkpt><trkpt lat="-27.034932" lon="-48.658569"><ele>19.618652</ele></trkpt><trkpt lat="-27.034935" lon="-48.658573"><ele>19.395996</ele></trkpt><trkpt lat="-27.034934" lon="-48.658574"><ele>19.539124</ele></trkpt><trkpt lat="-27.034933" lon="-48.658574"><ele>19.562561</ele></trkpt><trkpt lat="-27.03493" lon="-48.658575"><ele>19.504639</ele></trkpt><trkpt lat="-27.03493" lon="-48.658578"><ele>19.283752</ele></trkpt><trkpt lat="-27.034929" lon="-48.658579"><ele>19.282776</ele></trkpt><trkpt lat="-27.034929" lon="-48.658579"><ele>19.276062</ele></trkpt><trkpt lat="-27.034929" lon="-48.658579"><ele>19.275635</ele></trkpt><trkpt lat="-27.034929" lon="-48.658579"><ele>19.277588</ele></trkpt><trkpt lat="-27.034929" lon="-48.658579"><ele>19.278809</ele></trkpt><trkpt lat="-27.034929" lon="-48.658579"><ele>19.285706</ele></trkpt><trkpt lat="-27.034929" lon="-48.658579"><ele>19.283875</ele></trkpt><trkpt lat="-27.034931" lon="-48.658581"><ele>19.117432</ele></trkpt><trkpt lat="-27.034931" lon="-48.658581"><ele>19.117432</ele></trkpt><trkpt lat="-27.034933" lon="-48.658581"><ele>19.114441</ele></trkpt><trkpt lat="-27.034935" lon="-48.65858"><ele>18.487793</ele></trkpt><trkpt lat="-27.034936" lon="-48.658578"><ele>17.764893</ele></trkpt><trkpt lat="-27.034946" lon="-48.658571"><ele>17.496033</ele></trkpt><trkpt lat="-27.034951" lon="-48.658565"><ele>17.446228</ele></trkpt><trkpt lat="-27.034952" lon="-48.658564"><ele>17.443481</ele></trkpt><trkpt lat="-27.034952" lon="-48.658564"><ele>17.440857</ele></trkpt><trkpt lat="-27.034952" lon="-48.658564"><ele>17.437561</ele></trkpt><trkpt lat="-27.034952" lon="-48.658563"><ele>17.443604</ele></trkpt><trkpt lat="-27.034952" lon="-48.658563"><ele>17.440308</ele></trkpt><trkpt lat="-27.034952" lon="-48.658563"><ele>17.438171</ele></trkpt><trkpt lat="-27.034952" lon="-48.658563"><ele>17.442871</ele></trkpt><trkpt lat="-27.034952" lon="-48.658563"><ele>17.442871</ele></trkpt><trkpt lat="-27.034952" lon="-48.658563"><ele>17.437744</ele></trkpt><trkpt lat="-27.034952" lon="-48.658564"><ele>17.408997</ele></trkpt><trkpt lat="-27.034953" lon="-48.658563"><ele>17.462036</ele></trkpt><trkpt lat="-27.034952" lon="-48.658563"><ele>17.461243</ele></trkpt><trkpt lat="-27.034951" lon="-48.658563"><ele>17.459473</ele></trkpt><trkpt lat="-27.034951" lon="-48.658563"><ele>17.466919</ele></trkpt><trkpt lat="-27.034951" lon="-48.658563"><ele>17.457703</ele></trkpt><trkpt lat="-27.034951" lon="-48.658563"><ele>17.4552</ele></trkpt><trkpt lat="-27.034953" lon="-48.658564"><ele>17.607849</ele></trkpt><trkpt lat="-27.034953" lon="-48.658563"><ele>17.657593</ele></trkpt><trkpt lat="-27.034952" lon="-48.658564"><ele>17.800537</ele></trkpt><trkpt lat="-27.034952" lon="-48.658564"><ele>17.788818</ele></trkpt><trkpt lat="-27.034952" lon="-48.658565"><ele>17.936951</ele></trkpt><trkpt lat="-27.034953" lon="-48.658565"><ele>18.427246</ele></trkpt><trkpt lat="-27.034955" lon="-48.658563"><ele>18.472839</ele></trkpt><trkpt lat="-27.034955" lon="-48.658563"><ele>18.472839</ele></trkpt><trkpt lat="-27.034956" lon="-48.658563"><ele>18.476379</ele></trkpt><trkpt lat="-27.034956" lon="-48.658563"><ele>18.448242</ele></trkpt><trkpt lat="-27.034956" lon="-48.658563"><ele>18.438232</ele></trkpt><trkpt lat="-27.035099" lon="-48.657978"><ele>18.417664</ele></trkpt><trkpt lat="-27.035069" lon="-48.658133"/><trkpt lat="-27.034951" lon="-48.658419"/><trkpt lat="-27.034955" lon="-48.658562"><ele>18.43811</ele></trkpt><trkpt lat="-27.034954" lon="-48.658562"><ele>18.568726</ele></trkpt><trkpt lat="-27.034954" lon="-48.658563"><ele>18.577576</ele></trkpt><trkpt lat="-27.034954" lon="-48.658563"><ele>18.577576</ele></trkpt><trkpt lat="-27.034954" lon="-48.658563"><ele>18.578918</ele></trkpt><trkpt lat="-27.034954" lon="-48.658563"><ele>18.580383</ele></trkpt><trkpt lat="-27.034954" lon="-48.658563"><ele>18.579651</ele></trkpt><trkpt lat="-27.034954" lon="-48.658563"><ele>18.579041</ele></trkpt><trkpt lat="-27.034954" lon="-48.658563"><ele>18.578674</ele></trkpt><trkpt lat="-27.034954" lon="-48.658563"><ele>18.578186</ele></trkpt><trkpt lat="-27.034954" lon="-48.658563"><ele>18.576538</ele></trkpt><trkpt lat="-27.034954" lon="-48.658563"><ele>18.576538</ele></trkpt><trkpt lat="-27.034954" lon="-48.658563"><ele>18.572205</ele></trkpt><trkpt lat="-27.034954" lon="-48.658563"><ele>18.575256</ele></trkpt><trkpt lat="-27.034954" lon="-48.658563"><ele>18.571655</ele></trkpt><trkpt lat="-27.034954" lon="-48.658563"><ele>18.568909</ele></trkpt><trkpt lat="-27.034954" lon="-48.658563"><ele>18.57489</ele></trkpt><trkpt lat="-27.03495" lon="-48.658563"><ele>18.43689</ele></trkpt><trkpt lat="-27.034948" lon="-48.658562"><ele>18.233765</ele></trkpt><trkpt lat="-27.034947" lon="-48.658562"><ele>18.236084</ele></trkpt><trkpt lat="-27.034947" lon="-48.658561"><ele>18.232849</ele></trkpt><trkpt lat="-27.034947" lon="-48.65856"><ele>18.165222</ele></trkpt><trkpt lat="-27.034947" lon="-48.658559"><ele>18.162048</ele></trkpt><trkpt lat="-27.034948" lon="-48.658559"><ele>18.157593</ele></trkpt><trkpt lat="-27.034948" lon="-48.658559"><ele>18.156067</ele></trkpt><trkpt lat="-27.034948" lon="-48.658559"><ele>18.156067</ele></trkpt><trkpt lat="-27.034946" lon="-48.658559"><ele>18.33905</ele></trkpt><trkpt lat="-27.034942" lon="-48.65856"><ele>18.253113</ele></trkpt><trkpt lat="-27.03494" lon="-48.658557"><ele>17.762634</ele></trkpt><trkpt lat="-27.03494" lon="-48.658553"><ele>17.78595</ele></trkpt><trkpt lat="-27.034941" lon="-48.658552"><ele>17.789673</ele></trkpt><trkpt lat="-27.034941" lon="-48.658552"><ele>17.790283</ele></trkpt><trkpt lat="-27.034941" lon="-48.658552"><ele>17.786621</ele></trkpt><trkpt lat="-27.034941" lon="-48.658552"><ele>17.783875</ele></trkpt><trkpt lat="-27.034941" lon="-48.658552"><ele>17.785767</ele></trkpt><trkpt lat="-27.034941" lon="-48.658552"><ele>17.789673</ele></trkpt><trkpt lat="-27.034941" lon="-48.658552"><ele>17.79657</ele></trkpt><trkpt lat="-27.034941" lon="-48.658552"><ele>17.799011</ele></trkpt><trkpt lat="-27.034941" lon="-48.658552"><ele>17.801208</ele></trkpt><trkpt lat="-27.034941" lon="-48.658552"><ele>17.801147</ele></trkpt><trkpt lat="-27.034941" lon="-48.658552"><ele>17.797058</ele></trkpt><trkpt lat="-27.034941" lon="-48.658552"><ele>17.800659</ele></trkpt><trkpt lat="-27.03494" lon="-48.658552"><ele>17.654114</ele></trkpt><trkpt lat="-27.03494" lon="-48.658552"><ele>17.639282</ele></trkpt><trkpt lat="-27.03494" lon="-48.658552"><ele>17.639282</ele></trkpt><trkpt lat="-27.03494" lon="-48.658551"><ele>17.510803</ele></trkpt><trkpt lat="-27.03494" lon="-48.658551"><ele>17.210999</ele></trkpt><trkpt lat="-27.03494" lon="-48.658551"><ele>17.191895</ele></trkpt><trkpt lat="-27.03494" lon="-48.658551"><ele>17.193665</ele></trkpt><trkpt lat="-27.03494" lon="-48.658551"><ele>17.192932</ele></trkpt><trkpt lat="-27.03494" lon="-48.658551"><ele>17.192932</ele></trkpt><trkpt lat="-27.03494" lon="-48.658551"><ele>17.190735</ele></trkpt><trkpt lat="-27.03494" lon="-48.658551"><ele>17.194702</ele></trkpt><trkpt lat="-27.03494" lon="-48.658551"><ele>17.194702</ele></trkpt><trkpt lat="-27.03494" lon="-48.658551"><ele>17.191284</ele></trkpt><trkpt lat="-27.03494" lon="-48.658551"><ele>17.184753</ele></trkpt><trkpt lat="-27.03494" lon="-48.658551"><ele>17.181152</ele></trkpt><trkpt lat="-27.03494" lon="-48.658551"><ele>17.182373</ele></trkpt><trkpt lat="-27.034942" lon="-48.658552"><ele>17.122742</ele></trkpt><trkpt lat="-27.034943" lon="-48.658553"><ele>17.127319</ele></trkpt><trkpt lat="-27.034943" lon="-48.658553"><ele>17.125793</ele></trkpt><trkpt lat="-27.034943" lon="-48.658553"><ele>17.12738</ele></trkpt><trkpt lat="-27.034943" lon="-48.658553"><ele>17.132019</ele></trkpt><trkpt lat="-27.034943" lon="-48.658553"><ele>15.720276</ele></trkpt><trkpt lat="-27.034943" lon="-48.658553"><ele>15.759338</ele></trkpt><trkpt lat="-27.034943" lon="-48.658553"><ele>15.756836</ele></trkpt><trkpt lat="-27.034942" lon="-48.658554"><ele>15.386353</ele></trkpt><trkpt lat="-27.03494" lon="-48.658554"><ele>15.355835</ele></trkpt><trkpt lat="-27.03494" lon="-48.658555"><ele>15.355713</ele></trkpt><trkpt lat="-27.03494" lon="-48.658555"><ele>15.357056</ele></trkpt><trkpt lat="-27.03494" lon="-48.658555"><ele>15.35498</ele></trkpt><trkpt lat="-27.03494" lon="-48.658555"><ele>15.352905</ele></trkpt><trkpt lat="-27.03494" lon="-48.658555"><ele>15.350525</ele></trkpt></trkseg></trk></gpx>