<?xml version="1.0" encoding="UTF-8"?>
<gpx xmlns="http://www.topografix.com/GPX/1/1" version="1.1" creator="@dwayneparton/geojson-to-gpx"><wpt lat="-27.017695000000003" lon="-48.65257499999999"><ele>2.5</ele><name>3 faixas</name></wpt><wpt lat="-27.01917166666666" lon="-48.65667333333334"><ele>1.8</ele><name>3 faixas</name></wpt><wpt lat="-27.019173333333335" lon="-48.65667333333334"><ele>1.3</ele><name>23</name></wpt><wpt lat="-27.019146666666664" lon="-48.65667499999999"><ele>1.2000000000000002</ele><name>185</name></wpt><wpt lat="-27.017978333333335" lon="-48.654320000000006"><ele>4.300000000000001</ele><name>310</name></wpt><wpt lat="-27.017991666666664" lon="-48.65436"><ele>4.9</ele><name>1180</name></wpt><wpt lat="-27.017999999999997" lon="-48.654328333333325"><ele>1.9000000000000001</ele><name>A ciclo é completamente reta.</name></wpt><wpt lat="-27.017999999999997" lon="-48.654328333333325"><ele>1.9000000000000001</ele><name>A pintura está boa, COMPLETA e visível</name></wpt><wpt lat="-27.019173333333335" lon="-48.65667333333334"><ele>1.3</ele><name>Área de amortecimento da ciclo (cm)</name></wpt><wpt lat="-27.019146666666664" lon="-48.65667499999999"><ele>1.2000000000000002</ele><name>Área transitável da ciclo (cm)</name></wpt><wpt lat="-27.017691666666664" lon="-48.65256833333333"><ele>2.9000000000000004</ele><name>Asfalto</name></wpt><wpt lat="-27.017695000000003" lon="-48.65257666666666"><ele>8.4</ele><name>Bidirecional</name></wpt><wpt lat="-27.017999999999997" lon="-48.654328333333325"><ele>1.9000000000000001</ele><name>Bom estado</name></wpt><wpt lat="-27.017698333333335" lon="-48.65258000000001"><ele>8.1</ele><name>Ciclofaixa</name></wpt><wpt lat="-27.017695000000003" lon="-48.65257666666666"><ele>2.4000000000000004</ele><name>Estacionamento proibido na via</name></wpt><wpt lat="-27.017978333333335" lon="-48.654320000000006"><ele>4.300000000000001</ele><name>Faixa de carros logo ao lado da ciclo (cm)</name></wpt><wpt lat="-27.017725000000002" lon="-48.652675"><ele>23.400000000000002</ele><name>Foto</name></wpt><wpt lat="-27.01771833333333" lon="-48.65258833333334"><ele>7.9</ele><name>Foto</name></wpt><wpt lat="-27.017819999999997" lon="-48.65286666666666"><ele>4.5</ele><name>Foto</name></wpt><wpt lat="-27.017818333333334" lon="-48.652865000000006"><ele>5.800000000000001</ele><name>Foto</name></wpt><wpt lat="-27.01770333333333" lon="-48.65290333333334"><ele>4.7</ele><name>Foto</name></wpt><wpt lat="-27.017656666666667" lon="-48.65295"><ele>6.699999999999999</ele><name>Foto</name></wpt><wpt lat="-27.01765833333333" lon="-48.653090000000006"><ele>7.699999999999999</ele><name>Foto</name></wpt><wpt lat="-27.01783833333333" lon="-48.653776666666666"><ele>3.3</ele><name>Foto</name></wpt><wpt lat="-27.017950000000003" lon="-48.654135"><ele>2.6</ele><name>Foto</name></wpt><wpt lat="-27.018230000000003" lon="-48.654823333333326"><ele>3.4000000000000004</ele><name>Foto</name></wpt><wpt lat="-27.01837666666667" lon="-48.655075000000004"><ele>6.9</ele><name>Foto</name></wpt><wpt lat="-27.018555" lon="-48.655345000000004"><ele>7.4</ele><name>Foto</name></wpt><wpt lat="-27.018665000000002" lon="-48.65547"><ele>6.1</ele><name>Foto</name></wpt><wpt lat="-27.0189" lon="-48.65589833333333"><ele>4.5</ele><name>Foto</name></wpt><wpt lat="-27.019046666666668" lon="-48.65629833333334"><ele>3.2</ele><name>Foto</name></wpt><wpt lat="-27.019231666666663" lon="-48.65689999999999"><ele>3.2</ele><name>Foto</name></wpt><wpt lat="-27.019385000000003" lon="-48.65714"><ele>1.3</ele><name>Foto</name></wpt><wpt lat="-27.017999999999997" lon="-48.654328333333325"><ele>1.9000000000000001</ele><name>Iluminação geral na via do mesmo lado da estrutura</name></wpt><wpt lat="-27.017683333333334" lon="-48.65257666666666"><ele>5.800000000000001</ele><name>Mão Única</name></wpt><wpt lat="-27.017683333333334" lon="-48.65257166666667"><ele>6.699999999999999</ele><name>No bordo esquerdo de Via de Mão Única</name></wpt><wpt lat="-27.017710000000005" lon="-48.652908333333336"><ele>4.1</ele><name>Outro obstáculo</name></wpt><wpt lat="-27.018665000000002" lon="-48.65547"><ele>6.1</ele><name>Outro obstáculo</name></wpt><wpt lat="-27.018665000000002" lon="-48.65547"><ele>6.1</ele><name>Obstáculo: rampa para subir a calçada construída sobre a ciclofaixa</name></wpt><wpt lat="-27.017996666666665" lon="-48.65432666666667"><ele>2</ele><name>SE CICLOFAIXA: para invadir a ciclo parte do automóvel passa obrigatoriamente por cima de segregadores</name></wpt><wpt lat="-27.017999999999997" lon="-48.654328333333325"><ele>1.9000000000000001</ele><name>Sombras em alguns trechos, SEM mudas novas</name></wpt><wpt lat="-27.017693333333334" lon="-48.65257166666667"><ele>3.4000000000000004</ele><name>Tachões</name></wpt><wpt lat="-27.017710000000005" lon="-48.652908333333336"><ele>4.1</ele><name>Obstáculo: rampa de inspeção rebaixada</name></wpt><wpt lat="-27.017693333333334" lon="-48.65257499999999"><ele>4.1</ele><name>Toda área de circulação pintada de vermelho</name></wpt><wpt lat="-27.017991666666664" lon="-48.65436"><ele>4.9</ele><name>Total da via (incluindo a ciclo) (cm)</name></wpt><wpt lat="-27.017651666666666" lon="-48.653085"><ele>7.6</ele><name>Travessia de pedestre em nível (lombofaixa)</name></wpt><wpt lat="-27.018386666666668" lon="-48.655065"><ele>4.9</ele><name>Travessia de pedestre em nível (lombofaixa)</name></wpt><wpt lat="-27.019248333333334" lon="-48.656974999999996"><ele>2.4000000000000004</ele><name>Travessia de pedestre em nível (lombofaixa)</name></wpt><trk><name>Ciclofaixa R. Joaquim Garcia - Cb</name><trkseg><trkpt lat="-27.017398333333336" lon="-48.652255"><ele>3</ele></trkpt><trkpt lat="-27.01751" lon="-48.65234166666667"><ele>7.9</ele></trkpt><trkpt lat="-27.01757" lon="-48.65240833333334"><ele>5.9</ele></trkpt><trkpt lat="-27.017639999999997" lon="-48.652559999999994"><ele>5.9</ele></trkpt><trkpt lat="-27.017533333333336" lon="-48.65240833333334"><ele>6</ele></trkpt><trkpt lat="-27.017648333333334" lon="-48.65251166666667"><ele>6.1</ele></trkpt><trkpt lat="-27.01769" lon="-48.65256333333333"><ele>6.9</ele></trkpt><trkpt lat="-27.017695000000003" lon="-48.65257499999999"><ele>7.300000000000001</ele></trkpt><trkpt lat="-27.017698333333335" lon="-48.65258000000001"><ele>8.1</ele></trkpt><trkpt lat="-27.017698333333335" lon="-48.65258000000001"><ele>8.1</ele></trkpt><trkpt lat="-27.017696666666666" lon="-48.65258000000001"><ele>8.6</ele></trkpt><trkpt lat="-27.017695000000003" lon="-48.65257666666666"><ele>8.4</ele></trkpt><trkpt lat="-27.017695000000003" lon="-48.65257666666666"><ele>8.4</ele></trkpt><trkpt lat="-27.017691666666664" lon="-48.65257"><ele>8.2</ele></trkpt><trkpt lat="-27.01769" lon="-48.65257166666667"><ele>8.1</ele></trkpt><trkpt lat="-27.017688333333332" lon="-48.652573333333336"><ele>7.699999999999999</ele></trkpt><trkpt lat="-27.017684999999997" lon="-48.65257166666667"><ele>7.4</ele></trkpt><trkpt lat="-27.017684999999997" lon="-48.65257166666667"><ele>7</ele></trkpt><trkpt lat="-27.017683333333334" lon="-48.65257166666667"><ele>6.699999999999999</ele></trkpt><trkpt lat="-27.017683333333334" lon="-48.65257166666667"><ele>6.699999999999999</ele></trkpt><trkpt lat="-27.017683333333334" lon="-48.652573333333336"><ele>6.5</ele></trkpt><trkpt lat="-27.017683333333334" lon="-48.65257499999999"><ele>6.199999999999999</ele></trkpt><trkpt lat="-27.017681666666665" lon="-48.65257499999999"><ele>5.9</ele></trkpt><trkpt lat="-27.017683333333334" lon="-48.65257666666666"><ele>5.800000000000001</ele></trkpt><trkpt lat="-27.017683333333334" lon="-48.65257666666666"><ele>5.800000000000001</ele></trkpt><trkpt lat="-27.017684999999997" lon="-48.65257833333333"><ele>5.699999999999999</ele></trkpt><trkpt lat="-27.017684999999997" lon="-48.65258000000001"><ele>5.6</ele></trkpt><trkpt lat="-27.01768666666667" lon="-48.65258000000001"><ele>5.4</ele></trkpt><trkpt lat="-27.01769" lon="-48.65257833333333"><ele>5.300000000000001</ele></trkpt><trkpt lat="-27.017691666666664" lon="-48.65257833333333"><ele>5.1</ele></trkpt><trkpt lat="-27.017693333333334" lon="-48.65257833333333"><ele>4.800000000000001</ele></trkpt><trkpt lat="-27.017693333333334" lon="-48.65257833333333"><ele>4.6</ele></trkpt><trkpt lat="-27.017693333333334" lon="-48.65257666666666"><ele>4.4</ele></trkpt><trkpt lat="-27.017693333333334" lon="-48.65257499999999"><ele>4.1</ele></trkpt><trkpt lat="-27.017693333333334" lon="-48.65257499999999"><ele>4.1</ele></trkpt><trkpt lat="-27.017695000000003" lon="-48.652573333333336"><ele>3.8000000000000003</ele></trkpt><trkpt lat="-27.017695000000003" lon="-48.65257166666667"><ele>3.6</ele></trkpt><trkpt lat="-27.017693333333334" lon="-48.65257166666667"><ele>3.4000000000000004</ele></trkpt><trkpt lat="-27.017693333333334" lon="-48.65257166666667"><ele>3.4000000000000004</ele></trkpt><trkpt lat="-27.017693333333334" lon="-48.65257"><ele>3.2</ele></trkpt><trkpt lat="-27.017695000000003" lon="-48.65256833333333"><ele>3</ele></trkpt><trkpt lat="-27.017691666666664" lon="-48.65256833333333"><ele>2.9000000000000004</ele></trkpt><trkpt lat="-27.017691666666664" lon="-48.65256833333333"><ele>2.9000000000000004</ele></trkpt><trkpt lat="-27.017695000000003" lon="-48.65257"><ele>2.8</ele></trkpt><trkpt lat="-27.017696666666666" lon="-48.652573333333336"><ele>2.6</ele></trkpt><trkpt lat="-27.017695000000003" lon="-48.65257499999999"><ele>2.5</ele></trkpt><trkpt lat="-27.017695000000003" lon="-48.65257499999999"><ele>2.5</ele></trkpt><trkpt lat="-27.017695000000003" lon="-48.65257666666666"><ele>2.4000000000000004</ele></trkpt><trkpt lat="-27.017695000000003" lon="-48.65257666666666"><ele>2.4000000000000004</ele></trkpt><trkpt lat="-27.017695000000003" lon="-48.65257666666666"><ele>2.4000000000000004</ele></trkpt><trkpt lat="-27.017695000000003" lon="-48.65257666666666"><ele>2.4000000000000004</ele></trkpt><trkpt lat="-27.017695000000003" lon="-48.65257666666666"><ele>2.4000000000000004</ele></trkpt><trkpt lat="-27.017695000000003" lon="-48.65257666666666"><ele>2.4000000000000004</ele></trkpt><trkpt lat="-27.017695000000003" lon="-48.65257666666666"><ele>2.4000000000000004</ele></trkpt><trkpt lat="-27.017695000000003" lon="-48.65257666666666"><ele>2.4000000000000004</ele></trkpt><trkpt lat="-27.017695000000003" lon="-48.65257666666666"><ele>2.4000000000000004</ele></trkpt><trkpt lat="-27.017695000000003" lon="-48.65257666666666"><ele>2.4000000000000004</ele></trkpt><trkpt lat="-27.017695000000003" lon="-48.65257666666666"><ele>2.4000000000000004</ele></trkpt><trkpt lat="-27.017695000000003" lon="-48.65257666666666"><ele>2.4000000000000004</ele></trkpt><trkpt lat="-27.017695000000003" lon="-48.65257666666666"><ele>2.4000000000000004</ele></trkpt><trkpt lat="-27.017695000000003" lon="-48.65257666666666"><ele>2.4000000000000004</ele></trkpt><trkpt lat="-27.017695000000003" lon="-48.65257666666666"><ele>2.4000000000000004</ele></trkpt><trkpt lat="-27.017701666666667" lon="-48.6526"><ele>3</ele></trkpt><trkpt lat="-27.017701666666667" lon="-48.65260166666667"><ele>3.1</ele></trkpt><trkpt lat="-27.017710000000005" lon="-48.65260833333333"><ele>3.5</ele></trkpt><trkpt lat="-27.017713333333337" lon="-48.652604999999994"><ele>4</ele></trkpt><trkpt lat="-27.017713333333337" lon="-48.65260166666667"><ele>4.300000000000001</ele></trkpt><trkpt lat="-27.017713333333337" lon="-48.65260166666667"><ele>4.300000000000001</ele></trkpt><trkpt lat="-27.017708333333335" lon="-48.65270166666666"><ele>30</ele></trkpt><trkpt lat="-27.01771666666667" lon="-48.65269333333334"><ele>27.1</ele></trkpt><trkpt lat="-27.017723333333333" lon="-48.652683333333336"><ele>24.8</ele></trkpt><trkpt lat="-27.017725000000002" lon="-48.652675"><ele>23.400000000000002</ele></trkpt><trkpt lat="-27.017725000000002" lon="-48.652675"><ele>23.400000000000002</ele></trkpt><trkpt lat="-27.017725000000002" lon="-48.652675"><ele>23.400000000000002</ele></trkpt><trkpt lat="-27.017725000000002" lon="-48.652675"><ele>23.400000000000002</ele></trkpt><trkpt lat="-27.017725000000002" lon="-48.652675"><ele>23.400000000000002</ele></trkpt><trkpt lat="-27.017725000000002" lon="-48.652675"><ele>23.400000000000002</ele></trkpt><trkpt lat="-27.017725000000002" lon="-48.652675"><ele>23.400000000000002</ele></trkpt><trkpt lat="-27.017725000000002" lon="-48.652675"><ele>23.400000000000002</ele></trkpt><trkpt lat="-27.017725000000002" lon="-48.652675"><ele>23.400000000000002</ele></trkpt><trkpt lat="-27.017725000000002" lon="-48.652675"><ele>23.400000000000002</ele></trkpt><trkpt lat="-27.017725000000002" lon="-48.652675"><ele>23.400000000000002</ele></trkpt><trkpt lat="-27.017725000000002" lon="-48.652675"><ele>23.400000000000002</ele></trkpt><trkpt lat="-27.017725000000002" lon="-48.652675"><ele>23.400000000000002</ele></trkpt><trkpt lat="-27.017725000000002" lon="-48.652675"><ele>23.400000000000002</ele></trkpt><trkpt lat="-27.017725000000002" lon="-48.652675"><ele>23.400000000000002</ele></trkpt><trkpt lat="-27.017725000000002" lon="-48.652675"><ele>23.400000000000002</ele></trkpt><trkpt lat="-27.017725000000002" lon="-48.652675"><ele>23.400000000000002</ele></trkpt><trkpt lat="-27.017725000000002" lon="-48.652675"><ele>23.400000000000002</ele></trkpt><trkpt lat="-27.017725000000002" lon="-48.652675"><ele>23.400000000000002</ele></trkpt><trkpt lat="-27.017723333333333" lon="-48.65260166666667"><ele>9.1</ele></trkpt><trkpt lat="-27.017726666666665" lon="-48.652595000000005"><ele>8.6</ele></trkpt><trkpt lat="-27.017723333333333" lon="-48.652593333333336"><ele>8.3</ele></trkpt><trkpt lat="-27.01771833333333" lon="-48.65258833333334"><ele>7.9</ele></trkpt><trkpt lat="-27.01771833333333" lon="-48.65258833333334"><ele>7.9</ele></trkpt><trkpt lat="-27.01771833333333" lon="-48.65258833333334"><ele>7.9</ele></trkpt><trkpt lat="-27.01771833333333" lon="-48.65258833333334"><ele>7.9</ele></trkpt><trkpt lat="-27.01771833333333" lon="-48.65258833333334"><ele>7.9</ele></trkpt><trkpt lat="-27.01771833333333" lon="-48.65258833333334"><ele>7.9</ele></trkpt><trkpt lat="-27.017708333333335" lon="-48.65259833333333"><ele>5.1</ele></trkpt><trkpt lat="-27.017706666666662" lon="-48.6526"><ele>5</ele></trkpt><trkpt lat="-27.017701666666667" lon="-48.65259833333333"><ele>5</ele></trkpt><trkpt lat="-27.017696666666666" lon="-48.652595000000005"><ele>5.1</ele></trkpt><trkpt lat="-27.01769" lon="-48.652593333333336"><ele>4.9</ele></trkpt><trkpt lat="-27.017683333333334" lon="-48.652593333333336"><ele>4.7</ele></trkpt><trkpt lat="-27.017675" lon="-48.652593333333336"><ele>4.4</ele></trkpt><trkpt lat="-27.01767333333333" lon="-48.652593333333336"><ele>4</ele></trkpt><trkpt lat="-27.017676666666663" lon="-48.652596666666675"><ele>3.8000000000000003</ele></trkpt><trkpt lat="-27.017688333333332" lon="-48.652593333333336"><ele>3.9</ele></trkpt><trkpt lat="-27.017698333333335" lon="-48.652593333333336"><ele>4.1</ele></trkpt><trkpt lat="-27.017701666666667" lon="-48.65259833333333"><ele>3.8000000000000003</ele></trkpt><trkpt lat="-27.017708333333335" lon="-48.65260166666667"><ele>3.6</ele></trkpt><trkpt lat="-27.017708333333335" lon="-48.65260833333333"><ele>3.9</ele></trkpt><trkpt lat="-27.017711666666667" lon="-48.65261166666666"><ele>3.9</ele></trkpt><trkpt lat="-27.017715" lon="-48.652615"><ele>3.7</ele></trkpt><trkpt lat="-27.01771833333333" lon="-48.65262166666666"><ele>3.6</ele></trkpt><trkpt lat="-27.01771833333333" lon="-48.65262166666666"><ele>3.6</ele></trkpt><trkpt lat="-27.017728333333334" lon="-48.652638333333336"><ele>3.6</ele></trkpt><trkpt lat="-27.01773166666667" lon="-48.65266"><ele>3.8000000000000003</ele></trkpt><trkpt lat="-27.017738333333334" lon="-48.652683333333336"><ele>3.6</ele></trkpt><trkpt lat="-27.017744999999998" lon="-48.65270666666667"><ele>3.5</ele></trkpt><trkpt lat="-27.017751666666662" lon="-48.652728333333336"><ele>3.5</ele></trkpt><trkpt lat="-27.017755000000005" lon="-48.65274833333333"><ele>3.6</ele></trkpt><trkpt lat="-27.017758333333337" lon="-48.65276833333334"><ele>3.2</ele></trkpt><trkpt lat="-27.017765" lon="-48.652784999999994"><ele>2.9000000000000004</ele></trkpt><trkpt lat="-27.017773333333334" lon="-48.65280500000001"><ele>2.7</ele></trkpt><trkpt lat="-27.017786666666666" lon="-48.652818333333336"><ele>2.5</ele></trkpt><trkpt lat="-27.017796666666662" lon="-48.65282833333334"><ele>2.4000000000000004</ele></trkpt><trkpt lat="-27.017803333333337" lon="-48.65283833333333"><ele>2</ele></trkpt><trkpt lat="-27.01780666666667" lon="-48.652851666666656"><ele>2</ele></trkpt><trkpt lat="-27.01780833333333" lon="-48.65286166666667"><ele>1.8</ele></trkpt><trkpt lat="-27.01781" lon="-48.652863333333336"><ele>2.3</ele></trkpt><trkpt lat="-27.017811666666663" lon="-48.65286833333333"><ele>2.7</ele></trkpt><trkpt lat="-27.017815000000002" lon="-48.65287"><ele>3</ele></trkpt><trkpt lat="-27.017816666666665" lon="-48.65287333333334"><ele>3.2</ele></trkpt><trkpt lat="-27.017815000000002" lon="-48.652876666666664"><ele>3.3</ele></trkpt><trkpt lat="-27.017811666666663" lon="-48.652878333333334"><ele>3.5</ele></trkpt><trkpt lat="-27.017813333333333" lon="-48.652876666666664"><ele>3.5</ele></trkpt><trkpt lat="-27.017816666666665" lon="-48.65287166666667"><ele>4.1</ele></trkpt><trkpt lat="-27.017819999999997" lon="-48.65286666666666"><ele>4.5</ele></trkpt><trkpt lat="-27.017819999999997" lon="-48.65286666666666"><ele>4.5</ele></trkpt><trkpt lat="-27.017819999999997" lon="-48.65286666666666"><ele>4.5</ele></trkpt><trkpt lat="-27.017819999999997" lon="-48.65286666666666"><ele>4.5</ele></trkpt><trkpt lat="-27.017819999999997" lon="-48.65286666666666"><ele>4.5</ele></trkpt><trkpt lat="-27.017819999999997" lon="-48.65286666666666"><ele>4.5</ele></trkpt><trkpt lat="-27.017819999999997" lon="-48.65286666666666"><ele>4.5</ele></trkpt><trkpt lat="-27.017819999999997" lon="-48.65286666666666"><ele>4.5</ele></trkpt><trkpt lat="-27.017819999999997" lon="-48.65286666666666"><ele>4.5</ele></trkpt><trkpt lat="-27.017819999999997" lon="-48.65286666666666"><ele>4.5</ele></trkpt><trkpt lat="-27.017815000000002" lon="-48.652863333333336"><ele>5.9</ele></trkpt><trkpt lat="-27.017818333333334" lon="-48.65286666666666"><ele>5.9</ele></trkpt><trkpt lat="-27.017816666666665" lon="-48.65286833333333"><ele>5.800000000000001</ele></trkpt><trkpt lat="-27.017818333333334" lon="-48.652865000000006"><ele>5.800000000000001</ele></trkpt><trkpt lat="-27.017818333333334" lon="-48.652865000000006"><ele>5.800000000000001</ele></trkpt><trkpt lat="-27.017818333333334" lon="-48.652865000000006"><ele>5.800000000000001</ele></trkpt><trkpt lat="-27.017818333333334" lon="-48.652865000000006"><ele>5.800000000000001</ele></trkpt><trkpt lat="-27.017818333333334" lon="-48.652865000000006"><ele>5.800000000000001</ele></trkpt><trkpt lat="-27.017818333333334" lon="-48.652865000000006"><ele>5.800000000000001</ele></trkpt><trkpt lat="-27.017818333333334" lon="-48.652865000000006"><ele>5.800000000000001</ele></trkpt><trkpt lat="-27.017818333333334" lon="-48.652865000000006"><ele>5.800000000000001</ele></trkpt><trkpt lat="-27.017818333333334" lon="-48.652865000000006"><ele>5.800000000000001</ele></trkpt><trkpt lat="-27.017818333333334" lon="-48.652865000000006"><ele>5.800000000000001</ele></trkpt><trkpt lat="-27.017818333333334" lon="-48.652865000000006"><ele>5.800000000000001</ele></trkpt><trkpt lat="-27.017818333333334" lon="-48.652865000000006"><ele>5.800000000000001</ele></trkpt><trkpt lat="-27.017818333333334" lon="-48.652865000000006"><ele>5.800000000000001</ele></trkpt><trkpt lat="-27.017818333333334" lon="-48.652865000000006"><ele>5.800000000000001</ele></trkpt><trkpt lat="-27.017818333333334" lon="-48.652865000000006"><ele>5.800000000000001</ele></trkpt><trkpt lat="-27.017818333333334" lon="-48.652865000000006"><ele>5.800000000000001</ele></trkpt><trkpt lat="-27.017831666666666" lon="-48.65286166666667"><ele>5.800000000000001</ele></trkpt><trkpt lat="-27.017830000000004" lon="-48.652865000000006"><ele>5.800000000000001</ele></trkpt><trkpt lat="-27.017825000000002" lon="-48.65286833333333"><ele>5.6</ele></trkpt><trkpt lat="-27.017813333333333" lon="-48.652874999999995"><ele>5.300000000000001</ele></trkpt><trkpt lat="-27.017798333333335" lon="-48.65288333333333"><ele>5</ele></trkpt><trkpt lat="-27.017778333333332" lon="-48.65288666666667"><ele>4.7</ele></trkpt><trkpt lat="-27.017755000000005" lon="-48.65288666666667"><ele>4.6</ele></trkpt><trkpt lat="-27.017740000000003" lon="-48.65289166666666"><ele>4.2</ele></trkpt><trkpt lat="-27.017726666666665" lon="-48.652905"><ele>3.8000000000000003</ele></trkpt><trkpt lat="-27.01771833333333" lon="-48.65291666666667"><ele>3.5</ele></trkpt><trkpt lat="-27.017713333333337" lon="-48.652915"><ele>3.8000000000000003</ele></trkpt><trkpt lat="-27.017711666666667" lon="-48.652910000000006"><ele>4.1</ele></trkpt><trkpt lat="-27.017710000000005" lon="-48.652908333333336"><ele>4.1</ele></trkpt><trkpt lat="-27.017710000000005" lon="-48.652908333333336"><ele>4.1</ele></trkpt><trkpt lat="-27.017710000000005" lon="-48.652908333333336"><ele>4.1</ele></trkpt><trkpt lat="-27.017708333333335" lon="-48.652905"><ele>4.2</ele></trkpt><trkpt lat="-27.017706666666662" lon="-48.65290333333334"><ele>4.300000000000001</ele></trkpt><trkpt lat="-27.017705" lon="-48.65290166666667"><ele>4.4</ele></trkpt><trkpt lat="-27.017705" lon="-48.65290333333334"><ele>4.4</ele></trkpt><trkpt lat="-27.017705" lon="-48.65290333333334"><ele>4.5</ele></trkpt><trkpt lat="-27.017705" lon="-48.65290333333334"><ele>4.6</ele></trkpt><trkpt lat="-27.01770333333333" lon="-48.65290333333334"><ele>4.7</ele></trkpt><trkpt lat="-27.01770333333333" lon="-48.65290333333334"><ele>4.7</ele></trkpt><trkpt lat="-27.01770333333333" lon="-48.65290333333334"><ele>4.7</ele></trkpt><trkpt lat="-27.01770333333333" lon="-48.65290333333334"><ele>4.7</ele></trkpt><trkpt lat="-27.01770333333333" lon="-48.65290333333334"><ele>4.7</ele></trkpt><trkpt lat="-27.01770333333333" lon="-48.65290333333334"><ele>4.7</ele></trkpt><trkpt lat="-27.01770333333333" lon="-48.65290333333334"><ele>4.7</ele></trkpt><trkpt lat="-27.01770333333333" lon="-48.65290333333334"><ele>4.7</ele></trkpt><trkpt lat="-27.01770333333333" lon="-48.65290333333334"><ele>4.7</ele></trkpt><trkpt lat="-27.01770333333333" lon="-48.65290333333334"><ele>4.7</ele></trkpt><trkpt lat="-27.017701666666667" lon="-48.65290166666667"><ele>5.699999999999999</ele></trkpt><trkpt lat="-27.017698333333335" lon="-48.65289833333333"><ele>6</ele></trkpt><trkpt lat="-27.017691666666664" lon="-48.652896666666656"><ele>6.300000000000001</ele></trkpt><trkpt lat="-27.017681666666665" lon="-48.65290333333334"><ele>6.5</ele></trkpt><trkpt lat="-27.01767166666667" lon="-48.65291333333333"><ele>6.6</ele></trkpt><trkpt lat="-27.017663333333335" lon="-48.65293166666667"><ele>6.5</ele></trkpt><trkpt lat="-27.017656666666667" lon="-48.65295"><ele>6.699999999999999</ele></trkpt><trkpt lat="-27.017656666666667" lon="-48.65295"><ele>6.699999999999999</ele></trkpt><trkpt lat="-27.017650000000003" lon="-48.65297"><ele>6.6</ele></trkpt><trkpt lat="-27.017646666666664" lon="-48.652995"><ele>6.9</ele></trkpt><trkpt lat="-27.017645" lon="-48.65301833333333"><ele>7.300000000000001</ele></trkpt><trkpt lat="-27.017646666666664" lon="-48.653043333333336"><ele>7.1</ele></trkpt><trkpt lat="-27.017650000000003" lon="-48.65306999999999"><ele>7.6</ele></trkpt><trkpt lat="-27.017653333333335" lon="-48.65308333333334"><ele>7.699999999999999</ele></trkpt><trkpt lat="-27.017651666666666" lon="-48.653085"><ele>7.5</ele></trkpt><trkpt lat="-27.017651666666666" lon="-48.653085"><ele>7.6</ele></trkpt><trkpt lat="-27.017651666666666" lon="-48.653085"><ele>7.6</ele></trkpt><trkpt lat="-27.017651666666666" lon="-48.65308333333334"><ele>7.6</ele></trkpt><trkpt lat="-27.017653333333335" lon="-48.653085"><ele>7.699999999999999</ele></trkpt><trkpt lat="-27.017654999999998" lon="-48.653085"><ele>7.699999999999999</ele></trkpt><trkpt lat="-27.017656666666667" lon="-48.65308666666667"><ele>7.699999999999999</ele></trkpt><trkpt lat="-27.01765833333333" lon="-48.653090000000006"><ele>7.699999999999999</ele></trkpt><trkpt lat="-27.01765833333333" lon="-48.653090000000006"><ele>7.699999999999999</ele></trkpt><trkpt lat="-27.01765833333333" lon="-48.653090000000006"><ele>7.5</ele></trkpt><trkpt lat="-27.01765833333333" lon="-48.65309166666666"><ele>7.199999999999999</ele></trkpt><trkpt lat="-27.017656666666667" lon="-48.653099999999995"><ele>7</ele></trkpt><trkpt lat="-27.017661666666662" lon="-48.65311666666666"><ele>6.9</ele></trkpt><trkpt lat="-27.017665000000004" lon="-48.65313833333333"><ele>6.699999999999999</ele></trkpt><trkpt lat="-27.01767166666667" lon="-48.65316166666666"><ele>6.5</ele></trkpt><trkpt lat="-27.017680000000002" lon="-48.65318833333334"><ele>6.1</ele></trkpt><trkpt lat="-27.01768666666667" lon="-48.65321833333334"><ele>5.4</ele></trkpt><trkpt lat="-27.017696666666666" lon="-48.65324999999999"><ele>5.1</ele></trkpt><trkpt lat="-27.017706666666662" lon="-48.65327666666667"><ele>5.300000000000001</ele></trkpt><trkpt lat="-27.01771666666667" lon="-48.653305"><ele>4.800000000000001</ele></trkpt><trkpt lat="-27.017726666666665" lon="-48.65333333333333"><ele>4.5</ele></trkpt><trkpt lat="-27.017733333333332" lon="-48.65336166666666"><ele>4.5</ele></trkpt><trkpt lat="-27.017740000000003" lon="-48.653393333333334"><ele>4.800000000000001</ele></trkpt><trkpt lat="-27.017751666666662" lon="-48.65342666666667"><ele>4.7</ele></trkpt><trkpt lat="-27.01776166666667" lon="-48.65345833333334"><ele>5</ele></trkpt><trkpt lat="-27.017771666666665" lon="-48.65349333333334"><ele>5.5</ele></trkpt><trkpt lat="-27.017780000000002" lon="-48.65352666666666"><ele>5.300000000000001</ele></trkpt><trkpt lat="-27.017788333333336" lon="-48.65356166666667"><ele>4.7</ele></trkpt><trkpt lat="-27.017795" lon="-48.65359333333334"><ele>4.1</ele></trkpt><trkpt lat="-27.017801666666667" lon="-48.653625"><ele>4.6</ele></trkpt><trkpt lat="-27.017811666666663" lon="-48.65366166666666"><ele>4.300000000000001</ele></trkpt><trkpt lat="-27.01782166666667" lon="-48.65369666666667"><ele>4.1</ele></trkpt><trkpt lat="-27.017831666666666" lon="-48.653733333333335"><ele>3.7</ele></trkpt><trkpt lat="-27.01783833333333" lon="-48.653776666666666"><ele>3.3</ele></trkpt><trkpt lat="-27.01783833333333" lon="-48.653776666666666"><ele>3.3</ele></trkpt><trkpt lat="-27.017846666666667" lon="-48.65381666666667"><ele>2.4000000000000004</ele></trkpt><trkpt lat="-27.017860000000002" lon="-48.65385333333334"><ele>2.8</ele></trkpt><trkpt lat="-27.017875000000004" lon="-48.653895"><ele>3.5</ele></trkpt><trkpt lat="-27.017891666666667" lon="-48.65393833333333"><ele>3.9</ele></trkpt><trkpt lat="-27.017903333333333" lon="-48.653981666666674"><ele>3.8000000000000003</ele></trkpt><trkpt lat="-27.017915000000002" lon="-48.654025000000004"><ele>3.7</ele></trkpt><trkpt lat="-27.01793" lon="-48.654059999999994"><ele>3.1</ele></trkpt><trkpt lat="-27.01794166666667" lon="-48.65409833333333"><ele>2.1</ele></trkpt><trkpt lat="-27.017950000000003" lon="-48.654135"><ele>2.6</ele></trkpt><trkpt lat="-27.017950000000003" lon="-48.654135"><ele>2.6</ele></trkpt><trkpt lat="-27.017960000000002" lon="-48.65416833333334"><ele>2.8</ele></trkpt><trkpt lat="-27.017966666666666" lon="-48.65421166666667"><ele>3</ele></trkpt><trkpt lat="-27.017975" lon="-48.654248333333335"><ele>2.6</ele></trkpt><trkpt lat="-27.017983333333337" lon="-48.654284999999994"><ele>3.1</ele></trkpt><trkpt lat="-27.01799" lon="-48.654328333333325"><ele>3.4000000000000004</ele></trkpt><trkpt lat="-27.01800166666667" lon="-48.654373333333325"><ele>4.4</ele></trkpt><trkpt lat="-27.01802" lon="-48.65440666666667"><ele>3.7</ele></trkpt><trkpt lat="-27.01803166666667" lon="-48.65444833333333"><ele>3</ele></trkpt><trkpt lat="-27.01804666666667" lon="-48.65449"><ele>2.5</ele></trkpt><trkpt lat="-27.01806" lon="-48.654531666666664"><ele>2.7</ele></trkpt><trkpt lat="-27.018075" lon="-48.65456833333333"><ele>3.6</ele></trkpt><trkpt lat="-27.01809166666667" lon="-48.65460666666666"><ele>3.8000000000000003</ele></trkpt><trkpt lat="-27.01811" lon="-48.654643333333325"><ele>4.4</ele></trkpt><trkpt lat="-27.018129999999996" lon="-48.65467333333333"><ele>4.5</ele></trkpt><trkpt lat="-27.01815" lon="-48.65470666666667"><ele>4</ele></trkpt><trkpt lat="-27.01817" lon="-48.65473999999999"><ele>3.9</ele></trkpt><trkpt lat="-27.018191666666667" lon="-48.65476999999999"><ele>3.5</ele></trkpt><trkpt lat="-27.01821" lon="-48.654795"><ele>3.4000000000000004</ele></trkpt><trkpt lat="-27.018230000000003" lon="-48.654823333333326"><ele>3.4000000000000004</ele></trkpt><trkpt lat="-27.018230000000003" lon="-48.654823333333326"><ele>3.4000000000000004</ele></trkpt><trkpt lat="-27.01825" lon="-48.65485333333333"><ele>3.4000000000000004</ele></trkpt><trkpt lat="-27.01827166666667" lon="-48.654878333333336"><ele>4</ele></trkpt><trkpt lat="-27.01829" lon="-48.65490666666666"><ele>4.4</ele></trkpt><trkpt lat="-27.018309999999996" lon="-48.65493333333334"><ele>4.5</ele></trkpt><trkpt lat="-27.018328333333336" lon="-48.65495666666667"><ele>4.5</ele></trkpt><trkpt lat="-27.018345" lon="-48.65497666666667"><ele>4.7</ele></trkpt><trkpt lat="-27.018365000000003" lon="-48.65500166666667"><ele>5</ele></trkpt><trkpt lat="-27.018385" lon="-48.65503166666667"><ele>4.9</ele></trkpt><trkpt lat="-27.01839166666667" lon="-48.655051666666665"><ele>4.800000000000001</ele></trkpt><trkpt lat="-27.01839" lon="-48.655061666666676"><ele>4.9</ele></trkpt><trkpt lat="-27.018386666666668" lon="-48.655065"><ele>4.9</ele></trkpt><trkpt lat="-27.018386666666668" lon="-48.655065"><ele>4.9</ele></trkpt><trkpt lat="-27.018383333333336" lon="-48.65506666666667"><ele>5</ele></trkpt><trkpt lat="-27.018383333333336" lon="-48.65506666666667"><ele>5.5</ele></trkpt><trkpt lat="-27.018381666666663" lon="-48.655069999999995"><ele>6.199999999999999</ele></trkpt><trkpt lat="-27.01838" lon="-48.655069999999995"><ele>6.699999999999999</ele></trkpt><trkpt lat="-27.01838" lon="-48.655071666666664"><ele>6.699999999999999</ele></trkpt><trkpt lat="-27.01837666666667" lon="-48.655075000000004"><ele>6.9</ele></trkpt><trkpt lat="-27.01837666666667" lon="-48.655075000000004"><ele>6.9</ele></trkpt><trkpt lat="-27.01837666666667" lon="-48.655075000000004"><ele>6.9</ele></trkpt><trkpt lat="-27.01837833333333" lon="-48.655075000000004"><ele>6.9</ele></trkpt><trkpt lat="-27.018381666666663" lon="-48.65507666666667"><ele>6.9</ele></trkpt><trkpt lat="-27.018381666666663" lon="-48.65507666666667"><ele>6.9</ele></trkpt><trkpt lat="-27.018381666666663" lon="-48.65507666666667"><ele>6.9</ele></trkpt><trkpt lat="-27.01839" lon="-48.65508833333333"><ele>7.5</ele></trkpt><trkpt lat="-27.018398333333334" lon="-48.655105000000006"><ele>7.9</ele></trkpt><trkpt lat="-27.018408333333333" lon="-48.655118333333334"><ele>8.2</ele></trkpt><trkpt lat="-27.018418333333337" lon="-48.65513166666666"><ele>7.9</ele></trkpt><trkpt lat="-27.01843" lon="-48.65514666666666"><ele>7.9</ele></trkpt><trkpt lat="-27.018440000000002" lon="-48.655163333333334"><ele>7.699999999999999</ele></trkpt><trkpt lat="-27.018449999999998" lon="-48.655188333333335"><ele>7.6</ele></trkpt><trkpt lat="-27.018463333333337" lon="-48.65521333333333"><ele>7.699999999999999</ele></trkpt><trkpt lat="-27.018478333333338" lon="-48.655240000000006"><ele>7.699999999999999</ele></trkpt><trkpt lat="-27.01849333333333" lon="-48.65526666666666"><ele>7.5</ele></trkpt><trkpt lat="-27.018515" lon="-48.65529166666667"><ele>7.699999999999999</ele></trkpt><trkpt lat="-27.018533333333334" lon="-48.65531833333333"><ele>7.699999999999999</ele></trkpt><trkpt lat="-27.018555" lon="-48.655345000000004"><ele>7.4</ele></trkpt><trkpt lat="-27.018555" lon="-48.655345000000004"><ele>7.4</ele></trkpt><trkpt lat="-27.018573333333332" lon="-48.65537166666666"><ele>7.1</ele></trkpt><trkpt lat="-27.018594999999998" lon="-48.65539666666667"><ele>7</ele></trkpt><trkpt lat="-27.018615" lon="-48.65542333333333"><ele>7.300000000000001</ele></trkpt><trkpt lat="-27.018636666666666" lon="-48.65544499999999"><ele>7.300000000000001</ele></trkpt><trkpt lat="-27.018655" lon="-48.655466666666676"><ele>7.300000000000001</ele></trkpt><trkpt lat="-27.018668333333334" lon="-48.655480000000004"><ele>7.199999999999999</ele></trkpt><trkpt lat="-27.018671666666666" lon="-48.655481666666674"><ele>7.199999999999999</ele></trkpt><trkpt lat="-27.018669999999997" lon="-48.655474999999996"><ele>7.199999999999999</ele></trkpt><trkpt lat="-27.018671666666666" lon="-48.65547333333334"><ele>7</ele></trkpt><trkpt lat="-27.018668333333334" lon="-48.65547333333334"><ele>7</ele></trkpt><trkpt lat="-27.018668333333334" lon="-48.65547166666667"><ele>6.699999999999999</ele></trkpt><trkpt lat="-27.018668333333334" lon="-48.65547166666667"><ele>6.800000000000001</ele></trkpt><trkpt lat="-27.018668333333334" lon="-48.65547166666667"><ele>6.9</ele></trkpt><trkpt lat="-27.018666666666665" lon="-48.65547"><ele>7.1</ele></trkpt><trkpt lat="-27.018665000000002" lon="-48.65547166666667"><ele>6.800000000000001</ele></trkpt><trkpt lat="-27.018665000000002" lon="-48.65547"><ele>6.4</ele></trkpt><trkpt lat="-27.018665000000002" lon="-48.65547"><ele>6.1</ele></trkpt><trkpt lat="-27.018665000000002" lon="-48.65547"><ele>6.1</ele></trkpt><trkpt lat="-27.018665000000002" lon="-48.65547"><ele>6.1</ele></trkpt><trkpt lat="-27.018665000000002" lon="-48.65547"><ele>6.1</ele></trkpt><trkpt lat="-27.018665000000002" lon="-48.65547"><ele>6.1</ele></trkpt><trkpt lat="-27.018665000000002" lon="-48.65547"><ele>6.1</ele></trkpt><trkpt lat="-27.018665000000002" lon="-48.65547"><ele>6.1</ele></trkpt><trkpt lat="-27.018665000000002" lon="-48.65547"><ele>6.1</ele></trkpt><trkpt lat="-27.018665000000002" lon="-48.65547"><ele>6.1</ele></trkpt><trkpt lat="-27.018665000000002" lon="-48.65547"><ele>6.1</ele></trkpt><trkpt lat="-27.018665000000002" lon="-48.65547"><ele>6.1</ele></trkpt><trkpt lat="-27.018665000000002" lon="-48.65547"><ele>6.1</ele></trkpt><trkpt lat="-27.018665000000002" lon="-48.65547"><ele>6.1</ele></trkpt><trkpt lat="-27.018665000000002" lon="-48.65547"><ele>6.1</ele></trkpt><trkpt lat="-27.018665000000002" lon="-48.65547"><ele>6.1</ele></trkpt><trkpt lat="-27.018665000000002" lon="-48.65547"><ele>6.1</ele></trkpt><trkpt lat="-27.018665000000002" lon="-48.65547"><ele>6.1</ele></trkpt><trkpt lat="-27.018665000000002" lon="-48.65547"><ele>6.1</ele></trkpt><trkpt lat="-27.018665000000002" lon="-48.65547"><ele>6.1</ele></trkpt><trkpt lat="-27.018665000000002" lon="-48.65547"><ele>6.1</ele></trkpt><trkpt lat="-27.018665000000002" lon="-48.65547"><ele>6.1</ele></trkpt><trkpt lat="-27.018665000000002" lon="-48.65547"><ele>6.1</ele></trkpt><trkpt lat="-27.018665000000002" lon="-48.65547"><ele>6.1</ele></trkpt><trkpt lat="-27.018665000000002" lon="-48.65547"><ele>6.1</ele></trkpt><trkpt lat="-27.018665000000002" lon="-48.65547"><ele>6.1</ele></trkpt><trkpt lat="-27.018665000000002" lon="-48.65547"><ele>6.1</ele></trkpt><trkpt lat="-27.01867333333333" lon="-48.655476666666665"><ele>5</ele></trkpt><trkpt lat="-27.018680000000003" lon="-48.655495"><ele>6</ele></trkpt><trkpt lat="-27.01869166666667" lon="-48.65551833333334"><ele>7.800000000000001</ele></trkpt><trkpt lat="-27.0187" lon="-48.65554333333333"><ele>9</ele></trkpt><trkpt lat="-27.018710000000002" lon="-48.65557666666667"><ele>9.9</ele></trkpt><trkpt lat="-27.01873333333333" lon="-48.655609999999996"><ele>9.3</ele></trkpt><trkpt lat="-27.01876666666667" lon="-48.65564333333334"><ele>7.699999999999999</ele></trkpt><trkpt lat="-27.01879666666667" lon="-48.65567333333333"><ele>6</ele></trkpt><trkpt lat="-27.018819999999998" lon="-48.65571666666666"><ele>5.2</ele></trkpt><trkpt lat="-27.01884166666667" lon="-48.655765"><ele>5.4</ele></trkpt><trkpt lat="-27.018861666666666" lon="-48.65581166666666"><ele>5.300000000000001</ele></trkpt><trkpt lat="-27.018878333333337" lon="-48.65585666666666"><ele>5.2</ele></trkpt><trkpt lat="-27.0189" lon="-48.65589833333333"><ele>4.5</ele></trkpt><trkpt lat="-27.0189" lon="-48.65589833333333"><ele>4.5</ele></trkpt><trkpt lat="-27.018915" lon="-48.65594166666666"><ele>4.7</ele></trkpt><trkpt lat="-27.018933333333333" lon="-48.65598333333334"><ele>5.5</ele></trkpt><trkpt lat="-27.018950000000004" lon="-48.65602166666666"><ele>5.800000000000001</ele></trkpt><trkpt lat="-27.018968333333337" lon="-48.65605166666666"><ele>5.9</ele></trkpt><trkpt lat="-27.018981666666665" lon="-48.65608833333334"><ele>6</ele></trkpt><trkpt lat="-27.01898833333333" lon="-48.65612666666666"><ele>5.6</ele></trkpt><trkpt lat="-27.018998333333336" lon="-48.65616333333334"><ele>5.4</ele></trkpt><trkpt lat="-27.019011666666664" lon="-48.656196666666666"><ele>5.2</ele></trkpt><trkpt lat="-27.019023333333333" lon="-48.65623166666666"><ele>4.300000000000001</ele></trkpt><trkpt lat="-27.019035" lon="-48.65626666666667"><ele>3.6</ele></trkpt><trkpt lat="-27.019046666666668" lon="-48.65629833333334"><ele>3.2</ele></trkpt><trkpt lat="-27.019046666666668" lon="-48.65629833333334"><ele>3.2</ele></trkpt><trkpt lat="-27.01906" lon="-48.65633166666667"><ele>3</ele></trkpt><trkpt lat="-27.019073333333335" lon="-48.65636666666666"><ele>3.4000000000000004</ele></trkpt><trkpt lat="-27.019085000000004" lon="-48.65640499999999"><ele>3.3</ele></trkpt><trkpt lat="-27.019098333333332" lon="-48.65644166666666"><ele>3</ele></trkpt><trkpt lat="-27.01910666666667" lon="-48.656483333333334"><ele>3.6</ele></trkpt><trkpt lat="-27.019119999999997" lon="-48.656524999999995"><ele>3.5</ele></trkpt><trkpt lat="-27.019135" lon="-48.656565"><ele>3.7</ele></trkpt><trkpt lat="-27.019148333333337" lon="-48.656605000000006"><ele>3.4000000000000004</ele></trkpt><trkpt lat="-27.019163333333335" lon="-48.65664"><ele>3.1</ele></trkpt><trkpt lat="-27.019175000000004" lon="-48.65667833333334"><ele>3.2</ele></trkpt><trkpt lat="-27.019186666666663" lon="-48.656715"><ele>3.1</ele></trkpt><trkpt lat="-27.019195" lon="-48.656751666666665"><ele>3</ele></trkpt><trkpt lat="-27.019205000000003" lon="-48.65678166666667"><ele>2.7</ele></trkpt><trkpt lat="-27.01921333333333" lon="-48.65680999999999"><ele>2.7</ele></trkpt><trkpt lat="-27.019220000000004" lon="-48.65683333333333"><ele>2.6</ele></trkpt><trkpt lat="-27.019223333333336" lon="-48.65685666666666"><ele>2.8</ele></trkpt><trkpt lat="-27.01922833333333" lon="-48.65687833333333"><ele>2.7</ele></trkpt><trkpt lat="-27.019231666666663" lon="-48.65689999999999"><ele>3.2</ele></trkpt><trkpt lat="-27.019231666666663" lon="-48.65689999999999"><ele>3.2</ele></trkpt><trkpt lat="-27.019235000000002" lon="-48.65692000000001"><ele>2.9000000000000004</ele></trkpt><trkpt lat="-27.01924" lon="-48.65693833333333"><ele>3</ele></trkpt><trkpt lat="-27.019245" lon="-48.65695833333333"><ele>2.9000000000000004</ele></trkpt><trkpt lat="-27.019251666666666" lon="-48.65698333333333"><ele>2.3</ele></trkpt><trkpt lat="-27.01926" lon="-48.65700166666667"><ele>1.7000000000000002</ele></trkpt><trkpt lat="-27.019268333333336" lon="-48.65701666666667"><ele>1.6</ele></trkpt><trkpt lat="-27.019275" lon="-48.65704000000001"><ele>1</ele></trkpt><trkpt lat="-27.01928666666667" lon="-48.657066666666665"><ele>1.2000000000000002</ele></trkpt><trkpt lat="-27.019299999999998" lon="-48.657095"><ele>1.2000000000000002</ele></trkpt><trkpt lat="-27.019315" lon="-48.65712"><ele>1</ele></trkpt><trkpt lat="-27.019333333333332" lon="-48.65714166666667"><ele>0.6000000000000001</ele></trkpt><trkpt lat="-27.019355000000004" lon="-48.657156666666666"><ele>0.20000000000000018</ele></trkpt><trkpt lat="-27.019373333333338" lon="-48.65716166666666"><ele>1.2000000000000002</ele></trkpt><trkpt lat="-27.019388333333335" lon="-48.657154999999996"><ele>1.2000000000000002</ele></trkpt><trkpt lat="-27.019391666666667" lon="-48.65714833333333"><ele>0.8</ele></trkpt><trkpt lat="-27.019389999999998" lon="-48.65714"><ele>0.6000000000000001</ele></trkpt><trkpt lat="-27.019388333333335" lon="-48.65714"><ele>0.40000000000000013</ele></trkpt><trkpt lat="-27.019386666666666" lon="-48.65714333333334"><ele>0.40000000000000013</ele></trkpt><trkpt lat="-27.019388333333335" lon="-48.65714333333334"><ele>0.7000000000000001</ele></trkpt><trkpt lat="-27.019388333333335" lon="-48.65714500000001"><ele>0.7000000000000001</ele></trkpt><trkpt lat="-27.019386666666666" lon="-48.65714333333334"><ele>0.5</ele></trkpt><trkpt lat="-27.019386666666666" lon="-48.65714333333334"><ele>0.7000000000000001</ele></trkpt><trkpt lat="-27.019386666666666" lon="-48.65714333333334"><ele>0.5</ele></trkpt><trkpt lat="-27.019386666666666" lon="-48.65714166666667"><ele>0.6000000000000001</ele></trkpt><trkpt lat="-27.019386666666666" lon="-48.65713833333333"><ele>1.1</ele></trkpt><trkpt lat="-27.019385000000003" lon="-48.65714"><ele>1.3</ele></trkpt><trkpt lat="-27.019385000000003" lon="-48.65714"><ele>1.3</ele></trkpt><trkpt lat="-27.019385000000003" lon="-48.65714"><ele>1.3</ele></trkpt><trkpt lat="-27.019385000000003" lon="-48.65714"><ele>1.3</ele></trkpt><trkpt lat="-27.019385000000003" lon="-48.65714"><ele>1.3</ele></trkpt><trkpt lat="-27.019385000000003" lon="-48.65714"><ele>1.3</ele></trkpt><trkpt lat="-27.019385000000003" lon="-48.65714"><ele>1.3</ele></trkpt><trkpt lat="-27.019385000000003" lon="-48.65714"><ele>1.3</ele></trkpt><trkpt lat="-27.019388333333335" lon="-48.65712499999999"><ele>0.7000000000000001</ele></trkpt><trkpt lat="-27.019381666666664" lon="-48.657108333333326"><ele>1.2000000000000002</ele></trkpt><trkpt lat="-27.019370000000002" lon="-48.65710000000001"><ele>1.7000000000000002</ele></trkpt><trkpt lat="-27.019358333333336" lon="-48.657088333333334"><ele>1.7000000000000002</ele></trkpt><trkpt lat="-27.019340000000003" lon="-48.657070000000004"><ele>1.9000000000000001</ele></trkpt><trkpt lat="-27.019323333333332" lon="-48.65705666666666"><ele>1.9000000000000001</ele></trkpt><trkpt lat="-27.019310000000004" lon="-48.657043333333334"><ele>1.9000000000000001</ele></trkpt><trkpt lat="-27.019293333333334" lon="-48.65703"><ele>2</ele></trkpt><trkpt lat="-27.019278333333332" lon="-48.657015"><ele>2</ele></trkpt><trkpt lat="-27.019266666666667" lon="-48.656998333333334"><ele>2.3</ele></trkpt><trkpt lat="-27.01925833333333" lon="-48.65698666666667"><ele>2.1</ele></trkpt><trkpt lat="-27.019251666666666" lon="-48.656978333333335"><ele>1.7000000000000002</ele></trkpt><trkpt lat="-27.019250000000003" lon="-48.656973333333326"><ele>1.6</ele></trkpt><trkpt lat="-27.019248333333334" lon="-48.65697166666667"><ele>1.5</ele></trkpt><trkpt lat="-27.019248333333334" lon="-48.65696833333333"><ele>1.7000000000000002</ele></trkpt><trkpt lat="-27.019248333333334" lon="-48.65696833333333"><ele>2.3</ele></trkpt><trkpt lat="-27.019248333333334" lon="-48.65697166666667"><ele>2.4000000000000004</ele></trkpt><trkpt lat="-27.019248333333334" lon="-48.656974999999996"><ele>2.4000000000000004</ele></trkpt><trkpt lat="-27.019248333333334" lon="-48.656974999999996"><ele>2.4000000000000004</ele></trkpt><trkpt lat="-27.019250000000003" lon="-48.656976666666665"><ele>2.5</ele></trkpt><trkpt lat="-27.019250000000003" lon="-48.656980000000004"><ele>2.5</ele></trkpt><trkpt lat="-27.019250000000003" lon="-48.656985"><ele>2.5</ele></trkpt><trkpt lat="-27.019250000000003" lon="-48.656988333333324"><ele>2.5</ele></trkpt><trkpt lat="-27.019250000000003" lon="-48.656988333333324"><ele>2.5</ele></trkpt><trkpt lat="-27.019250000000003" lon="-48.656988333333324"><ele>2.5</ele></trkpt><trkpt lat="-27.019250000000003" lon="-48.656988333333324"><ele>2.5</ele></trkpt><trkpt lat="-27.019250000000003" lon="-48.656988333333324"><ele>2.5</ele></trkpt><trkpt lat="-27.019250000000003" lon="-48.656988333333324"><ele>2.5</ele></trkpt><trkpt lat="-27.019243333333332" lon="-48.65696666666666"><ele>2.4000000000000004</ele></trkpt><trkpt lat="-27.019236666666664" lon="-48.656943333333324"><ele>2.6</ele></trkpt><trkpt lat="-27.019231666666663" lon="-48.65691166666667"><ele>2.6</ele></trkpt><trkpt lat="-27.019225" lon="-48.65687833333333"><ele>2.5</ele></trkpt><trkpt lat="-27.01921666666666" lon="-48.65684833333333"><ele>2.5</ele></trkpt><trkpt lat="-27.019209999999998" lon="-48.65682"><ele>2.5</ele></trkpt><trkpt lat="-27.019203333333333" lon="-48.656796666666665"><ele>2.6</ele></trkpt><trkpt lat="-27.019198333333332" lon="-48.656771666666664"><ele>2.4000000000000004</ele></trkpt><trkpt lat="-27.019193333333337" lon="-48.656749999999995"><ele>2.5</ele></trkpt><trkpt lat="-27.019188333333332" lon="-48.65673333333334"><ele>2.7</ele></trkpt><trkpt lat="-27.019181666666668" lon="-48.65671666666667"><ele>2.7</ele></trkpt><trkpt lat="-27.01917166666666" lon="-48.65670166666667"><ele>2.2</ele></trkpt><trkpt lat="-27.019166666666667" lon="-48.656695000000006"><ele>1.7000000000000002</ele></trkpt><trkpt lat="-27.019166666666667" lon="-48.65669666666666"><ele>1.6</ele></trkpt><trkpt lat="-27.01916833333333" lon="-48.65669833333333"><ele>1.4000000000000001</ele></trkpt><trkpt lat="-27.01916833333333" lon="-48.65669833333333"><ele>1.2000000000000002</ele></trkpt><trkpt lat="-27.01916833333333" lon="-48.65669833333333"><ele>1.2000000000000002</ele></trkpt><trkpt lat="-27.019166666666667" lon="-48.65669333333334"><ele>1.3</ele></trkpt><trkpt lat="-27.019164999999997" lon="-48.65668833333334"><ele>1.1</ele></trkpt><trkpt lat="-27.019163333333335" lon="-48.65668333333333"><ele>0.8</ele></trkpt><trkpt lat="-27.019163333333335" lon="-48.65668333333333"><ele>0.8</ele></trkpt><trkpt lat="-27.019161666666665" lon="-48.65668333333333"><ele>0.8</ele></trkpt><trkpt lat="-27.019148333333337" lon="-48.65667833333334"><ele>0.9000000000000001</ele></trkpt><trkpt lat="-27.019146666666664" lon="-48.65667499999999"><ele>0.9000000000000001</ele></trkpt><trkpt lat="-27.019145" lon="-48.65667499999999"><ele>1</ele></trkpt><trkpt lat="-27.019146666666664" lon="-48.65667499999999"><ele>1.2000000000000002</ele></trkpt><trkpt lat="-27.019146666666664" lon="-48.65667499999999"><ele>1.2000000000000002</ele></trkpt><trkpt lat="-27.019146666666664" lon="-48.65667499999999"><ele>1.2000000000000002</ele></trkpt><trkpt lat="-27.019146666666664" lon="-48.65667333333334"><ele>1.4000000000000001</ele></trkpt><trkpt lat="-27.019148333333337" lon="-48.65667333333334"><ele>1.6</ele></trkpt><trkpt lat="-27.01915166666667" lon="-48.65667166666667"><ele>1.7000000000000002</ele></trkpt><trkpt lat="-27.019155" lon="-48.65666833333333"><ele>1.8</ele></trkpt><trkpt lat="-27.019158333333333" lon="-48.65666666666666"><ele>2</ele></trkpt><trkpt lat="-27.019161666666665" lon="-48.656663333333334"><ele>2.2</ele></trkpt><trkpt lat="-27.019164999999997" lon="-48.656661666666665"><ele>2.4000000000000004</ele></trkpt><trkpt lat="-27.01916833333333" lon="-48.656659999999995"><ele>2.4000000000000004</ele></trkpt><trkpt lat="-27.01917" lon="-48.656661666666665"><ele>2.4000000000000004</ele></trkpt><trkpt lat="-27.01917166666666" lon="-48.656663333333334"><ele>2.4000000000000004</ele></trkpt><trkpt lat="-27.01917166666666" lon="-48.65666666666666"><ele>2.3</ele></trkpt><trkpt lat="-27.01917" lon="-48.65667"><ele>2.1</ele></trkpt><trkpt lat="-27.01917" lon="-48.65667166666667"><ele>1.9000000000000001</ele></trkpt><trkpt lat="-27.01917166666666" lon="-48.65667333333334"><ele>1.8</ele></trkpt><trkpt lat="-27.01917166666666" lon="-48.65667333333334"><ele>1.8</ele></trkpt><trkpt lat="-27.01917" lon="-48.65667333333334"><ele>1.6</ele></trkpt><trkpt lat="-27.01917" lon="-48.65667333333334"><ele>1.6</ele></trkpt><trkpt lat="-27.01917" lon="-48.65667499999999"><ele>1.6</ele></trkpt><trkpt lat="-27.01917" lon="-48.65667166666667"><ele>1.6</ele></trkpt><trkpt lat="-27.019173333333335" lon="-48.65667166666667"><ele>1.5</ele></trkpt><trkpt lat="-27.019173333333335" lon="-48.65667499999999"><ele>1.5</ele></trkpt><trkpt lat="-27.01917166666666" lon="-48.65667666666666"><ele>1.4000000000000001</ele></trkpt><trkpt lat="-27.01917166666666" lon="-48.65667499999999"><ele>1.3</ele></trkpt><trkpt lat="-27.019173333333335" lon="-48.65667333333334"><ele>1.3</ele></trkpt><trkpt lat="-27.019173333333335" lon="-48.65667333333334"><ele>1.3</ele></trkpt><trkpt lat="-27.019173333333335" lon="-48.65667333333334"><ele>1.3</ele></trkpt><trkpt lat="-27.019175000000004" lon="-48.65667166666667"><ele>1.4000000000000001</ele></trkpt><trkpt lat="-27.019176666666667" lon="-48.65667166666667"><ele>1.4000000000000001</ele></trkpt><trkpt lat="-27.019176666666667" lon="-48.65667"><ele>1.4000000000000001</ele></trkpt><trkpt lat="-27.019175000000004" lon="-48.65667333333334"><ele>1.4000000000000001</ele></trkpt><trkpt lat="-27.019173333333335" lon="-48.65667833333334"><ele>1.5</ele></trkpt><trkpt lat="-27.01917166666666" lon="-48.65667833333334"><ele>1.5</ele></trkpt><trkpt lat="-27.019175000000004" lon="-48.65668000000001"><ele>1.6</ele></trkpt><trkpt lat="-27.019175000000004" lon="-48.65668000000001"><ele>1.6</ele></trkpt><trkpt lat="-27.019175000000004" lon="-48.65668000000001"><ele>1.6</ele></trkpt><trkpt lat="-27.019175000000004" lon="-48.65668000000001"><ele>1.6</ele></trkpt><trkpt lat="-27.019175000000004" lon="-48.65668000000001"><ele>1.6</ele></trkpt><trkpt lat="-27.019175000000004" lon="-48.65668000000001"><ele>1.6</ele></trkpt><trkpt lat="-27.019175000000004" lon="-48.65668000000001"><ele>1.6</ele></trkpt><trkpt lat="-27.01916833333333" lon="-48.65663833333333"><ele>1.9000000000000001</ele></trkpt><trkpt lat="-27.01915166666667" lon="-48.656614999999995"><ele>2</ele></trkpt><trkpt lat="-27.019143333333332" lon="-48.65658166666667"><ele>2.5</ele></trkpt><trkpt lat="-27.019131666666667" lon="-48.65654833333333"><ele>3.2</ele></trkpt><trkpt lat="-27.019119999999997" lon="-48.65651666666666"><ele>3.6</ele></trkpt><trkpt lat="-27.01911" lon="-48.65649"><ele>3.2</ele></trkpt><trkpt lat="-27.019096666666663" lon="-48.65646166666667"><ele>3.2</ele></trkpt><trkpt lat="-27.019085000000004" lon="-48.65643"><ele>3</ele></trkpt><trkpt lat="-27.019074999999997" lon="-48.6564"><ele>2.8</ele></trkpt><trkpt lat="-27.019066666666664" lon="-48.65637"><ele>2.3</ele></trkpt><trkpt lat="-27.019055" lon="-48.65632666666667"><ele>2.5</ele></trkpt><trkpt lat="-27.019043333333336" lon="-48.656290000000006"><ele>2.5</ele></trkpt><trkpt lat="-27.01903333333333" lon="-48.65625333333334"><ele>2.4000000000000004</ele></trkpt><trkpt lat="-27.019021666666664" lon="-48.65622166666667"><ele>2.4000000000000004</ele></trkpt><trkpt lat="-27.01901" lon="-48.65618333333334"><ele>3.2</ele></trkpt><trkpt lat="-27.018995000000004" lon="-48.65614666666667"><ele>4</ele></trkpt><trkpt lat="-27.018986666666667" lon="-48.65611833333334"><ele>4</ele></trkpt><trkpt lat="-27.018975" lon="-48.65608833333334"><ele>4.1</ele></trkpt><trkpt lat="-27.018963333333332" lon="-48.65605666666667"><ele>3.9</ele></trkpt><trkpt lat="-27.018951666666666" lon="-48.65602666666667"><ele>3.6</ele></trkpt><trkpt lat="-27.018941666666667" lon="-48.655998333333336"><ele>3.3</ele></trkpt><trkpt lat="-27.01893" lon="-48.65596666666667"><ele>3</ele></trkpt><trkpt lat="-27.01892" lon="-48.655935"><ele>2.5</ele></trkpt><trkpt lat="-27.018909999999998" lon="-48.65590333333333"><ele>2.5</ele></trkpt><trkpt lat="-27.018903333333334" lon="-48.65586666666666"><ele>2.6</ele></trkpt><trkpt lat="-27.018891666666665" lon="-48.65583333333334"><ele>2.6</ele></trkpt><trkpt lat="-27.01888" lon="-48.65580333333334"><ele>2.4000000000000004</ele></trkpt><trkpt lat="-27.01887" lon="-48.65577"><ele>2.4000000000000004</ele></trkpt><trkpt lat="-27.018858333333334" lon="-48.655728333333336"><ele>2.2</ele></trkpt><trkpt lat="-27.018843333333333" lon="-48.65569166666668"><ele>2.2</ele></trkpt><trkpt lat="-27.01883" lon="-48.655654999999996"><ele>2.2</ele></trkpt><trkpt lat="-27.018831666666664" lon="-48.65563166666667"><ele>1.8</ele></trkpt><trkpt lat="-27.018815000000004" lon="-48.65559666666666"><ele>1.4000000000000001</ele></trkpt><trkpt lat="-27.01879166666667" lon="-48.65556"><ele>1.1</ele></trkpt><trkpt lat="-27.018768333333334" lon="-48.655525000000004"><ele>1.2000000000000002</ele></trkpt><trkpt lat="-27.018743333333337" lon="-48.65548999999999"><ele>1.3</ele></trkpt><trkpt lat="-27.018711666666665" lon="-48.65545"><ele>1.9000000000000001</ele></trkpt><trkpt lat="-27.01870166666667" lon="-48.65541833333334"><ele>1.4000000000000001</ele></trkpt><trkpt lat="-27.018674999999998" lon="-48.655386666666665"><ele>1.9000000000000001</ele></trkpt><trkpt lat="-27.01865666666667" lon="-48.65535666666666"><ele>1.9000000000000001</ele></trkpt><trkpt lat="-27.01862833333333" lon="-48.655323333333335"><ele>1.9000000000000001</ele></trkpt><trkpt lat="-27.018608333333336" lon="-48.65529333333334"><ele>2</ele></trkpt><trkpt lat="-27.018590000000003" lon="-48.65526"><ele>1.9000000000000001</ele></trkpt><trkpt lat="-27.01857166666667" lon="-48.655225"><ele>2</ele></trkpt><trkpt lat="-27.018549999999998" lon="-48.65519333333334"><ele>2.1</ele></trkpt><trkpt lat="-27.018518333333336" lon="-48.655163333333334"><ele>3.3</ele></trkpt><trkpt lat="-27.018494999999998" lon="-48.65514833333334"><ele>4.7</ele></trkpt><trkpt lat="-27.01848166666667" lon="-48.65513666666667"><ele>5.300000000000001</ele></trkpt><trkpt lat="-27.018473333333336" lon="-48.65512666666667"><ele>5.699999999999999</ele></trkpt><trkpt lat="-27.01846833333333" lon="-48.65512333333333"><ele>5.800000000000001</ele></trkpt><trkpt lat="-27.018458333333335" lon="-48.655114999999995"><ele>6.4</ele></trkpt><trkpt lat="-27.01845166666667" lon="-48.65510333333334"><ele>6.5</ele></trkpt><trkpt lat="-27.018444999999996" lon="-48.65509166666667"><ele>6.199999999999999</ele></trkpt><trkpt lat="-27.018440000000002" lon="-48.65508666666666"><ele>6.199999999999999</ele></trkpt><trkpt lat="-27.018438333333332" lon="-48.65508499999999"><ele>6</ele></trkpt><trkpt lat="-27.018435" lon="-48.65508499999999"><ele>5.800000000000001</ele></trkpt><trkpt lat="-27.01843666666667" lon="-48.65508333333334"><ele>5.6</ele></trkpt><trkpt lat="-27.018435" lon="-48.65508166666667"><ele>5.5</ele></trkpt><trkpt lat="-27.018431666666668" lon="-48.65508"><ele>5.800000000000001</ele></trkpt><trkpt lat="-27.018428333333336" lon="-48.65508"><ele>5.800000000000001</ele></trkpt><trkpt lat="-27.018426666666663" lon="-48.65508166666667"><ele>5.699999999999999</ele></trkpt><trkpt lat="-27.01842166666667" lon="-48.65508333333334"><ele>5.800000000000001</ele></trkpt><trkpt lat="-27.018418333333337" lon="-48.65508499999999"><ele>5.800000000000001</ele></trkpt><trkpt lat="-27.018418333333337" lon="-48.65508499999999"><ele>5.800000000000001</ele></trkpt><trkpt lat="-27.018418333333337" lon="-48.65508499999999"><ele>5.800000000000001</ele></trkpt><trkpt lat="-27.018418333333337" lon="-48.65508499999999"><ele>5.800000000000001</ele></trkpt><trkpt lat="-27.018418333333337" lon="-48.65508499999999"><ele>5.800000000000001</ele></trkpt><trkpt lat="-27.018418333333337" lon="-48.65508499999999"><ele>5.800000000000001</ele></trkpt><trkpt lat="-27.018418333333337" lon="-48.65508499999999"><ele>5.800000000000001</ele></trkpt><trkpt lat="-27.018418333333337" lon="-48.65508499999999"><ele>5.800000000000001</ele></trkpt><trkpt lat="-27.018418333333337" lon="-48.65508499999999"><ele>5.800000000000001</ele></trkpt><trkpt lat="-27.018418333333337" lon="-48.65508499999999"><ele>5.800000000000001</ele></trkpt><trkpt lat="-27.018418333333337" lon="-48.65508499999999"><ele>5.800000000000001</ele></trkpt><trkpt lat="-27.018418333333337" lon="-48.65508499999999"><ele>5.800000000000001</ele></trkpt><trkpt lat="-27.018418333333337" lon="-48.65508499999999"><ele>5.800000000000001</ele></trkpt><trkpt lat="-27.018418333333337" lon="-48.65508499999999"><ele>5.800000000000001</ele></trkpt><trkpt lat="-27.018418333333337" lon="-48.65508499999999"><ele>5.800000000000001</ele></trkpt><trkpt lat="-27.018418333333337" lon="-48.65508499999999"><ele>5.800000000000001</ele></trkpt><trkpt lat="-27.018418333333337" lon="-48.65508499999999"><ele>5.800000000000001</ele></trkpt><trkpt lat="-27.018418333333337" lon="-48.65508499999999"><ele>5.800000000000001</ele></trkpt><trkpt lat="-27.018418333333337" lon="-48.65508499999999"><ele>5.800000000000001</ele></trkpt><trkpt lat="-27.018418333333337" lon="-48.65508499999999"><ele>5.800000000000001</ele></trkpt><trkpt lat="-27.018418333333337" lon="-48.65508499999999"><ele>5.800000000000001</ele></trkpt><trkpt lat="-27.018418333333337" lon="-48.65508499999999"><ele>5.800000000000001</ele></trkpt><trkpt lat="-27.018418333333337" lon="-48.65508499999999"><ele>5.800000000000001</ele></trkpt><trkpt lat="-27.018418333333337" lon="-48.65508499999999"><ele>5.800000000000001</ele></trkpt><trkpt lat="-27.018418333333337" lon="-48.65508499999999"><ele>5.800000000000001</ele></trkpt><trkpt lat="-27.018418333333337" lon="-48.65508499999999"><ele>5.800000000000001</ele></trkpt><trkpt lat="-27.018418333333337" lon="-48.65508499999999"><ele>5.800000000000001</ele></trkpt><trkpt lat="-27.018418333333337" lon="-48.65508499999999"><ele>5.800000000000001</ele></trkpt><trkpt lat="-27.018418333333337" lon="-48.65508499999999"><ele>5.800000000000001</ele></trkpt><trkpt lat="-27.018418333333337" lon="-48.65508499999999"><ele>5.800000000000001</ele></trkpt><trkpt lat="-27.018418333333337" lon="-48.65508499999999"><ele>5.800000000000001</ele></trkpt><trkpt lat="-27.018418333333337" lon="-48.65508499999999"><ele>5.800000000000001</ele></trkpt><trkpt lat="-27.018418333333337" lon="-48.65508499999999"><ele>5.800000000000001</ele></trkpt><trkpt lat="-27.018418333333337" lon="-48.65508499999999"><ele>5.800000000000001</ele></trkpt><trkpt lat="-27.018418333333337" lon="-48.65508499999999"><ele>5.800000000000001</ele></trkpt><trkpt lat="-27.018418333333337" lon="-48.65508499999999"><ele>5.800000000000001</ele></trkpt><trkpt lat="-27.018418333333337" lon="-48.65508499999999"><ele>5.800000000000001</ele></trkpt><trkpt lat="-27.018418333333337" lon="-48.65508499999999"><ele>5.800000000000001</ele></trkpt><trkpt lat="-27.018418333333337" lon="-48.65508499999999"><ele>5.800000000000001</ele></trkpt><trkpt lat="-27.018418333333337" lon="-48.65508499999999"><ele>5.800000000000001</ele></trkpt><trkpt lat="-27.018418333333337" lon="-48.65508499999999"><ele>5.800000000000001</ele></trkpt><trkpt lat="-27.018418333333337" lon="-48.65508499999999"><ele>5.800000000000001</ele></trkpt><trkpt lat="-27.018418333333337" lon="-48.65508499999999"><ele>5.800000000000001</ele></trkpt><trkpt lat="-27.018418333333337" lon="-48.65508499999999"><ele>5.800000000000001</ele></trkpt><trkpt lat="-27.018418333333337" lon="-48.65508499999999"><ele>5.800000000000001</ele></trkpt><trkpt lat="-27.018418333333337" lon="-48.65508499999999"><ele>5.800000000000001</ele></trkpt><trkpt lat="-27.018418333333337" lon="-48.65508499999999"><ele>5.800000000000001</ele></trkpt><trkpt lat="-27.018418333333337" lon="-48.65508499999999"><ele>5.800000000000001</ele></trkpt><trkpt lat="-27.018418333333337" lon="-48.65508499999999"><ele>5.800000000000001</ele></trkpt><trkpt lat="-27.018418333333337" lon="-48.65508499999999"><ele>5.800000000000001</ele></trkpt><trkpt lat="-27.018418333333337" lon="-48.65508499999999"><ele>5.800000000000001</ele></trkpt><trkpt lat="-27.018418333333337" lon="-48.65508499999999"><ele>5.800000000000001</ele></trkpt><trkpt lat="-27.018418333333337" lon="-48.65508499999999"><ele>5.800000000000001</ele></trkpt><trkpt lat="-27.018418333333337" lon="-48.65508499999999"><ele>5.800000000000001</ele></trkpt><trkpt lat="-27.018418333333337" lon="-48.65508499999999"><ele>5.800000000000001</ele></trkpt><trkpt lat="-27.018418333333337" lon="-48.65508499999999"><ele>5.800000000000001</ele></trkpt><trkpt lat="-27.018418333333337" lon="-48.65508499999999"><ele>5.800000000000001</ele></trkpt><trkpt lat="-27.018418333333337" lon="-48.65508499999999"><ele>5.800000000000001</ele></trkpt><trkpt lat="-27.018418333333337" lon="-48.65508499999999"><ele>5.800000000000001</ele></trkpt><trkpt lat="-27.018418333333337" lon="-48.65508499999999"><ele>5.800000000000001</ele></trkpt><trkpt lat="-27.018418333333337" lon="-48.65508499999999"><ele>5.800000000000001</ele></trkpt><trkpt lat="-27.018418333333337" lon="-48.65508499999999"><ele>5.800000000000001</ele></trkpt><trkpt lat="-27.018418333333337" lon="-48.65508499999999"><ele>5.800000000000001</ele></trkpt><trkpt lat="-27.018418333333337" lon="-48.65508499999999"><ele>5.800000000000001</ele></trkpt><trkpt lat="-27.018418333333337" lon="-48.65508499999999"><ele>5.800000000000001</ele></trkpt><trkpt lat="-27.018418333333337" lon="-48.65508499999999"><ele>5.800000000000001</ele></trkpt><trkpt lat="-27.018418333333337" lon="-48.65508499999999"><ele>5.800000000000001</ele></trkpt><trkpt lat="-27.018418333333337" lon="-48.65508499999999"><ele>5.800000000000001</ele></trkpt><trkpt lat="-27.018418333333337" lon="-48.65508499999999"><ele>5.800000000000001</ele></trkpt><trkpt lat="-27.018418333333337" lon="-48.65508499999999"><ele>5.800000000000001</ele></trkpt><trkpt lat="-27.018418333333337" lon="-48.65508499999999"><ele>5.800000000000001</ele></trkpt><trkpt lat="-27.018418333333337" lon="-48.65508499999999"><ele>5.800000000000001</ele></trkpt><trkpt lat="-27.018418333333337" lon="-48.65508499999999"><ele>5.800000000000001</ele></trkpt><trkpt lat="-27.018418333333337" lon="-48.65508499999999"><ele>5.800000000000001</ele></trkpt><trkpt lat="-27.018418333333337" lon="-48.65508499999999"><ele>5.800000000000001</ele></trkpt><trkpt lat="-27.018418333333337" lon="-48.65508499999999"><ele>5.800000000000001</ele></trkpt><trkpt lat="-27.018418333333337" lon="-48.65508499999999"><ele>5.800000000000001</ele></trkpt><trkpt lat="-27.018418333333337" lon="-48.65508499999999"><ele>5.800000000000001</ele></trkpt><trkpt lat="-27.018418333333337" lon="-48.65508499999999"><ele>5.800000000000001</ele></trkpt><trkpt lat="-27.018418333333337" lon="-48.65508499999999"><ele>5.800000000000001</ele></trkpt><trkpt lat="-27.018418333333337" lon="-48.65508499999999"><ele>5.800000000000001</ele></trkpt><trkpt lat="-27.018418333333337" lon="-48.65508499999999"><ele>5.800000000000001</ele></trkpt><trkpt lat="-27.018418333333337" lon="-48.65508499999999"><ele>5.800000000000001</ele></trkpt><trkpt lat="-27.018418333333337" lon="-48.65508499999999"><ele>5.800000000000001</ele></trkpt><trkpt lat="-27.018375" lon="-48.65508666666666"><ele>10.6</ele></trkpt><trkpt lat="-27.018368333333335" lon="-48.655073333333334"><ele>10.299999999999999</ele></trkpt><trkpt lat="-27.01836166666667" lon="-48.655058333333336"><ele>9.9</ele></trkpt><trkpt lat="-27.018353333333334" lon="-48.65503999999999"><ele>9.3</ele></trkpt><trkpt lat="-27.018343333333338" lon="-48.655016666666675"><ele>8.4</ele></trkpt><trkpt lat="-27.01833" lon="-48.65499"><ele>7.5</ele></trkpt><trkpt lat="-27.018311666666666" lon="-48.654961666666665"><ele>7.1</ele></trkpt><trkpt lat="-27.018291666666663" lon="-48.65493166666667"><ele>6.300000000000001</ele></trkpt><trkpt lat="-27.018273333333333" lon="-48.65490333333334"><ele>5.9</ele></trkpt><trkpt lat="-27.018258333333332" lon="-48.654878333333336"><ele>5.4</ele></trkpt><trkpt lat="-27.018238333333336" lon="-48.654844999999995"><ele>4.6</ele></trkpt><trkpt lat="-27.018215" lon="-48.65481833333333"><ele>4.1</ele></trkpt><trkpt lat="-27.018191666666667" lon="-48.65479333333333"><ele>3.7</ele></trkpt><trkpt lat="-27.018179999999997" lon="-48.654775"><ele>3.3</ele></trkpt><trkpt lat="-27.018165" lon="-48.65475"><ele>2.9000000000000004</ele></trkpt><trkpt lat="-27.018151666666668" lon="-48.65472333333334"><ele>2.5</ele></trkpt><trkpt lat="-27.018134999999997" lon="-48.654700000000005"><ele>2.4000000000000004</ele></trkpt><trkpt lat="-27.018106666666668" lon="-48.654666666666664"><ele>2.7</ele></trkpt><trkpt lat="-27.018089999999997" lon="-48.65463833333333"><ele>2.6</ele></trkpt><trkpt lat="-27.018075" lon="-48.654608333333336"><ele>2.5</ele></trkpt><trkpt lat="-27.01806" lon="-48.654576666666664"><ele>2.5</ele></trkpt><trkpt lat="-27.018048333333333" lon="-48.654543333333336"><ele>2.3</ele></trkpt><trkpt lat="-27.018038333333333" lon="-48.65450333333333"><ele>2.3</ele></trkpt><trkpt lat="-27.01803" lon="-48.65445833333333"><ele>2</ele></trkpt><trkpt lat="-27.018026666666668" lon="-48.654418333333325"><ele>1.9000000000000001</ele></trkpt><trkpt lat="-27.018021666666662" lon="-48.65438166666666"><ele>2.4000000000000004</ele></trkpt><trkpt lat="-27.018016666666668" lon="-48.65435000000001"><ele>2.6</ele></trkpt><trkpt lat="-27.018013333333336" lon="-48.65432166666666"><ele>2.9000000000000004</ele></trkpt><trkpt lat="-27.018008333333334" lon="-48.65430666666666"><ele>2.7</ele></trkpt><trkpt lat="-27.018005000000002" lon="-48.65430166666667"><ele>2.9000000000000004</ele></trkpt><trkpt lat="-27.018005000000002" lon="-48.65429833333333"><ele>3.2</ele></trkpt><trkpt lat="-27.018008333333334" lon="-48.6543"><ele>3.5</ele></trkpt><trkpt lat="-27.018006666666665" lon="-48.65430166666667"><ele>3.9</ele></trkpt><trkpt lat="-27.018005000000002" lon="-48.6543"><ele>4</ele></trkpt><trkpt lat="-27.018003333333333" lon="-48.6543"><ele>4.1</ele></trkpt><trkpt lat="-27.017999999999997" lon="-48.65429833333333"><ele>3.8000000000000003</ele></trkpt><trkpt lat="-27.017996666666665" lon="-48.65429833333333"><ele>3.9</ele></trkpt><trkpt lat="-27.017993333333333" lon="-48.65429833333333"><ele>4</ele></trkpt><trkpt lat="-27.01798833333333" lon="-48.65429833333333"><ele>3.7</ele></trkpt><trkpt lat="-27.01798666666667" lon="-48.6543"><ele>3.6</ele></trkpt><trkpt lat="-27.01798666666667" lon="-48.6543"><ele>3.6</ele></trkpt><trkpt lat="-27.01798666666667" lon="-48.6543"><ele>3.6</ele></trkpt><trkpt lat="-27.01798666666667" lon="-48.6543"><ele>3.6</ele></trkpt><trkpt lat="-27.01798666666667" lon="-48.6543"><ele>3.6</ele></trkpt><trkpt lat="-27.01798666666667" lon="-48.6543"><ele>3.6</ele></trkpt><trkpt lat="-27.01798666666667" lon="-48.6543"><ele>3.6</ele></trkpt><trkpt lat="-27.01798666666667" lon="-48.6543"><ele>3.6</ele></trkpt><trkpt lat="-27.01798666666667" lon="-48.6543"><ele>3.6</ele></trkpt><trkpt lat="-27.01798666666667" lon="-48.6543"><ele>3.6</ele></trkpt><trkpt lat="-27.01798666666667" lon="-48.6543"><ele>3.6</ele></trkpt><trkpt lat="-27.01798666666667" lon="-48.6543"><ele>3.6</ele></trkpt><trkpt lat="-27.01798666666667" lon="-48.6543"><ele>3.6</ele></trkpt><trkpt lat="-27.01798666666667" lon="-48.6543"><ele>3.6</ele></trkpt><trkpt lat="-27.01798666666667" lon="-48.6543"><ele>3.6</ele></trkpt><trkpt lat="-27.017975" lon="-48.65430833333333"><ele>4.2</ele></trkpt><trkpt lat="-27.017978333333335" lon="-48.654315"><ele>4.300000000000001</ele></trkpt><trkpt lat="-27.017979999999998" lon="-48.654320000000006"><ele>4.6</ele></trkpt><trkpt lat="-27.017981666666667" lon="-48.654328333333325"><ele>4.800000000000001</ele></trkpt><trkpt lat="-27.017983333333337" lon="-48.654340000000005"><ele>5</ele></trkpt><trkpt lat="-27.017985" lon="-48.65434833333334"><ele>4.9</ele></trkpt><trkpt lat="-27.01798833333333" lon="-48.65435833333333"><ele>4.9</ele></trkpt><trkpt lat="-27.01799" lon="-48.654365000000006"><ele>4.9</ele></trkpt><trkpt lat="-27.017991666666664" lon="-48.654365000000006"><ele>4.7</ele></trkpt><trkpt lat="-27.017994999999996" lon="-48.65436166666667"><ele>4.6</ele></trkpt><trkpt lat="-27.017994999999996" lon="-48.65436166666667"><ele>4.6</ele></trkpt><trkpt lat="-27.017993333333333" lon="-48.65436166666667"><ele>4.6</ele></trkpt><trkpt lat="-27.017991666666664" lon="-48.65436166666667"><ele>4.7</ele></trkpt><trkpt lat="-27.017991666666664" lon="-48.65436166666667"><ele>4.800000000000001</ele></trkpt><trkpt lat="-27.017991666666664" lon="-48.65436"><ele>4.9</ele></trkpt><trkpt lat="-27.017991666666664" lon="-48.65436"><ele>4.9</ele></trkpt><trkpt lat="-27.017991666666664" lon="-48.65436"><ele>4.9</ele></trkpt><trkpt lat="-27.017991666666664" lon="-48.65436"><ele>4.9</ele></trkpt><trkpt lat="-27.017991666666664" lon="-48.65436"><ele>4.9</ele></trkpt><trkpt lat="-27.017991666666664" lon="-48.65436"><ele>4.9</ele></trkpt><trkpt lat="-27.017991666666664" lon="-48.65436"><ele>4.9</ele></trkpt><trkpt lat="-27.017991666666664" lon="-48.65436"><ele>4.9</ele></trkpt><trkpt lat="-27.017991666666664" lon="-48.65436"><ele>4.9</ele></trkpt><trkpt lat="-27.017991666666664" lon="-48.65436"><ele>4.9</ele></trkpt><trkpt lat="-27.017991666666664" lon="-48.65436"><ele>4.9</ele></trkpt><trkpt lat="-27.017991666666664" lon="-48.65436"><ele>4.9</ele></trkpt><trkpt lat="-27.017991666666664" lon="-48.65436"><ele>4.9</ele></trkpt><trkpt lat="-27.017991666666664" lon="-48.65436"><ele>4.9</ele></trkpt><trkpt lat="-27.017991666666664" lon="-48.65436"><ele>4.9</ele></trkpt><trkpt lat="-27.017991666666664" lon="-48.65436"><ele>4.9</ele></trkpt><trkpt lat="-27.017991666666664" lon="-48.65436"><ele>4.9</ele></trkpt><trkpt lat="-27.017991666666664" lon="-48.65436"><ele>4.9</ele></trkpt><trkpt lat="-27.017991666666664" lon="-48.65436"><ele>4.9</ele></trkpt><trkpt lat="-27.017991666666664" lon="-48.65436"><ele>4.9</ele></trkpt><trkpt lat="-27.017991666666664" lon="-48.65436"><ele>4.9</ele></trkpt><trkpt lat="-27.017991666666664" lon="-48.65436"><ele>4.9</ele></trkpt><trkpt lat="-27.017991666666664" lon="-48.65436"><ele>4.9</ele></trkpt><trkpt lat="-27.017991666666664" lon="-48.65436"><ele>4.9</ele></trkpt><trkpt lat="-27.017991666666664" lon="-48.65436"><ele>4.9</ele></trkpt><trkpt lat="-27.017991666666664" lon="-48.65436"><ele>4.9</ele></trkpt><trkpt lat="-27.017991666666664" lon="-48.65436"><ele>4.9</ele></trkpt><trkpt lat="-27.017991666666664" lon="-48.65436"><ele>4.9</ele></trkpt><trkpt lat="-27.017991666666664" lon="-48.65436"><ele>4.9</ele></trkpt><trkpt lat="-27.017991666666664" lon="-48.65436"><ele>4.9</ele></trkpt><trkpt lat="-27.017991666666664" lon="-48.65436"><ele>4.9</ele></trkpt><trkpt lat="-27.017991666666664" lon="-48.65436"><ele>4.9</ele></trkpt><trkpt lat="-27.017991666666664" lon="-48.65436"><ele>4.9</ele></trkpt><trkpt lat="-27.017991666666664" lon="-48.65436"><ele>4.9</ele></trkpt><trkpt lat="-27.017991666666664" lon="-48.65436"><ele>4.9</ele></trkpt><trkpt lat="-27.017991666666664" lon="-48.65436"><ele>4.9</ele></trkpt><trkpt lat="-27.017991666666664" lon="-48.65436"><ele>4.9</ele></trkpt><trkpt lat="-27.017991666666664" lon="-48.65436"><ele>4.9</ele></trkpt><trkpt lat="-27.017991666666664" lon="-48.65436"><ele>4.9</ele></trkpt><trkpt lat="-27.017991666666664" lon="-48.65436"><ele>4.9</ele></trkpt><trkpt lat="-27.017991666666664" lon="-48.65436"><ele>4.9</ele></trkpt><trkpt lat="-27.017991666666664" lon="-48.65436"><ele>4.9</ele></trkpt><trkpt lat="-27.017991666666664" lon="-48.65436"><ele>4.9</ele></trkpt><trkpt lat="-27.017991666666664" lon="-48.65436"><ele>4.9</ele></trkpt><trkpt lat="-27.017991666666664" lon="-48.65436"><ele>4.9</ele></trkpt><trkpt lat="-27.017991666666664" lon="-48.65436"><ele>4.9</ele></trkpt><trkpt lat="-27.017991666666664" lon="-48.65436"><ele>4.9</ele></trkpt><trkpt lat="-27.017991666666664" lon="-48.65436"><ele>4.9</ele></trkpt><trkpt lat="-27.017991666666664" lon="-48.65436"><ele>4.9</ele></trkpt><trkpt lat="-27.017991666666664" lon="-48.65436"><ele>4.9</ele></trkpt><trkpt lat="-27.017991666666664" lon="-48.65436"><ele>4.9</ele></trkpt><trkpt lat="-27.017991666666664" lon="-48.65436"><ele>4.9</ele></trkpt><trkpt lat="-27.017991666666664" lon="-48.65436"><ele>4.9</ele></trkpt><trkpt lat="-27.017991666666664" lon="-48.65436"><ele>4.9</ele></trkpt><trkpt lat="-27.017991666666664" lon="-48.65436"><ele>4.9</ele></trkpt><trkpt lat="-27.017991666666664" lon="-48.65436"><ele>4.9</ele></trkpt><trkpt lat="-27.017991666666664" lon="-48.65436"><ele>4.9</ele></trkpt><trkpt lat="-27.017991666666664" lon="-48.65436"><ele>4.9</ele></trkpt><trkpt lat="-27.017991666666664" lon="-48.65436"><ele>4.9</ele></trkpt><trkpt lat="-27.017991666666664" lon="-48.65436"><ele>4.9</ele></trkpt><trkpt lat="-27.017991666666664" lon="-48.65436"><ele>4.9</ele></trkpt><trkpt lat="-27.017991666666664" lon="-48.65436"><ele>4.9</ele></trkpt><trkpt lat="-27.017991666666664" lon="-48.65436"><ele>4.9</ele></trkpt><trkpt lat="-27.017991666666664" lon="-48.65436"><ele>4.9</ele></trkpt><trkpt lat="-27.017991666666664" lon="-48.65436"><ele>4.9</ele></trkpt><trkpt lat="-27.017991666666664" lon="-48.65436"><ele>4.9</ele></trkpt><trkpt lat="-27.017991666666664" lon="-48.65436"><ele>4.9</ele></trkpt><trkpt lat="-27.017991666666664" lon="-48.65436"><ele>4.9</ele></trkpt><trkpt lat="-27.017991666666664" lon="-48.65436"><ele>4.9</ele></trkpt><trkpt lat="-27.017991666666664" lon="-48.65436"><ele>4.9</ele></trkpt><trkpt lat="-27.017991666666664" lon="-48.65436"><ele>4.9</ele></trkpt><trkpt lat="-27.017991666666664" lon="-48.65436"><ele>4.9</ele></trkpt><trkpt lat="-27.017991666666664" lon="-48.65436"><ele>4.9</ele></trkpt><trkpt lat="-27.017991666666664" lon="-48.65436"><ele>4.9</ele></trkpt><trkpt lat="-27.017991666666664" lon="-48.65436"><ele>4.9</ele></trkpt><trkpt lat="-27.017991666666664" lon="-48.65436"><ele>4.9</ele></trkpt><trkpt lat="-27.017991666666664" lon="-48.65436"><ele>4.9</ele></trkpt><trkpt lat="-27.017991666666664" lon="-48.65436"><ele>4.9</ele></trkpt><trkpt lat="-27.017991666666664" lon="-48.65436"><ele>4.9</ele></trkpt><trkpt lat="-27.017991666666664" lon="-48.65436"><ele>4.9</ele></trkpt><trkpt lat="-27.017991666666664" lon="-48.65436"><ele>4.9</ele></trkpt><trkpt lat="-27.017991666666664" lon="-48.65436"><ele>4.9</ele></trkpt><trkpt lat="-27.017991666666664" lon="-48.65436"><ele>4.9</ele></trkpt><trkpt lat="-27.01797333333333" lon="-48.654333333333334"><ele>5.5</ele></trkpt><trkpt lat="-27.017965000000004" lon="-48.65433666666666"><ele>5.2</ele></trkpt><trkpt lat="-27.017954999999997" lon="-48.654338333333335"><ele>5.1</ele></trkpt><trkpt lat="-27.017951666666665" lon="-48.65433500000001"><ele>4.800000000000001</ele></trkpt><trkpt lat="-27.01795666666667" lon="-48.654329999999995"><ele>4.6</ele></trkpt><trkpt lat="-27.017968333333336" lon="-48.654325"><ele>4.4</ele></trkpt><trkpt lat="-27.017978333333335" lon="-48.654320000000006"><ele>4.300000000000001</ele></trkpt><trkpt lat="-27.017978333333335" lon="-48.654320000000006"><ele>4.300000000000001</ele></trkpt><trkpt lat="-27.017978333333335" lon="-48.654320000000006"><ele>4.300000000000001</ele></trkpt><trkpt lat="-27.01798833333333" lon="-48.654318333333336"><ele>4.1</ele></trkpt><trkpt lat="-27.017994999999996" lon="-48.654316666666666"><ele>3.9</ele></trkpt><trkpt lat="-27.017996666666665" lon="-48.65431166666667"><ele>3.6</ele></trkpt><trkpt lat="-27.017994999999996" lon="-48.65430500000001"><ele>3.3</ele></trkpt><trkpt lat="-27.017996666666665" lon="-48.6543"><ele>3.3</ele></trkpt><trkpt lat="-27.017996666666665" lon="-48.65430333333334"><ele>3.4000000000000004</ele></trkpt><trkpt lat="-27.017996666666665" lon="-48.65430333333334"><ele>3.4000000000000004</ele></trkpt><trkpt lat="-27.017996666666665" lon="-48.65430333333334"><ele>3.4000000000000004</ele></trkpt><trkpt lat="-27.017996666666665" lon="-48.65430500000001"><ele>3.4000000000000004</ele></trkpt><trkpt lat="-27.017993333333333" lon="-48.65430666666666"><ele>3.3</ele></trkpt><trkpt lat="-27.017993333333333" lon="-48.65430833333333"><ele>3.2</ele></trkpt><trkpt lat="-27.017993333333333" lon="-48.65430833333333"><ele>3.2</ele></trkpt><trkpt lat="-27.017993333333333" lon="-48.65430833333333"><ele>3.2</ele></trkpt><trkpt lat="-27.017993333333333" lon="-48.65430833333333"><ele>3.2</ele></trkpt><trkpt lat="-27.017993333333333" lon="-48.65430833333333"><ele>3.2</ele></trkpt><trkpt lat="-27.017993333333333" lon="-48.65430833333333"><ele>3.2</ele></trkpt><trkpt lat="-27.017993333333333" lon="-48.65430833333333"><ele>3.2</ele></trkpt><trkpt lat="-27.017994999999996" lon="-48.65432166666666"><ele>2.3</ele></trkpt><trkpt lat="-27.017996666666665" lon="-48.65432666666667"><ele>2</ele></trkpt><trkpt lat="-27.017996666666665" lon="-48.65432666666667"><ele>2</ele></trkpt><trkpt lat="-27.017998333333335" lon="-48.654328333333325"><ele>2</ele></trkpt><trkpt lat="-27.017999999999997" lon="-48.654328333333325"><ele>1.9000000000000001</ele></trkpt><trkpt lat="-27.017999999999997" lon="-48.654328333333325"><ele>1.9000000000000001</ele></trkpt><trkpt lat="-27.017999999999997" lon="-48.654328333333325"><ele>1.9000000000000001</ele></trkpt><trkpt lat="-27.017999999999997" lon="-48.654328333333325"><ele>1.9000000000000001</ele></trkpt><trkpt lat="-27.017999999999997" lon="-48.654328333333325"><ele>1.9000000000000001</ele></trkpt><trkpt lat="-27.017999999999997" lon="-48.654328333333325"><ele>1.9000000000000001</ele></trkpt><trkpt lat="-27.017999999999997" lon="-48.654328333333325"><ele>1.9000000000000001</ele></trkpt><trkpt lat="-27.017999999999997" lon="-48.654328333333325"><ele>1.9000000000000001</ele></trkpt><trkpt lat="-27.017999999999997" lon="-48.654328333333325"><ele>1.9000000000000001</ele></trkpt><trkpt lat="-27.017999999999997" lon="-48.654328333333325"><ele>1.9000000000000001</ele></trkpt><trkpt lat="-27.017999999999997" lon="-48.654328333333325"><ele>1.9000000000000001</ele></trkpt><trkpt lat="-27.017999999999997" lon="-48.654328333333325"><ele>1.9000000000000001</ele></trkpt><trkpt lat="-27.017999999999997" lon="-48.654328333333325"><ele>1.9000000000000001</ele></trkpt><trkpt lat="-27.017999999999997" lon="-48.654328333333325"><ele>1.9000000000000001</ele></trkpt><trkpt lat="-27.017999999999997" lon="-48.654328333333325"><ele>1.9000000000000001</ele></trkpt><trkpt lat="-27.017999999999997" lon="-48.654328333333325"><ele>1.9000000000000001</ele></trkpt><trkpt lat="-27.017999999999997" lon="-48.654328333333325"><ele>1.9000000000000001</ele></trkpt><trkpt lat="-27.017999999999997" lon="-48.654328333333325"><ele>1.9000000000000001</ele></trkpt><trkpt lat="-27.017999999999997" lon="-48.654328333333325"><ele>1.9000000000000001</ele></trkpt><trkpt lat="-27.017999999999997" lon="-48.654328333333325"><ele>1.9000000000000001</ele></trkpt><trkpt lat="-27.017999999999997" lon="-48.654328333333325"><ele>1.9000000000000001</ele></trkpt><trkpt lat="-27.017999999999997" lon="-48.654328333333325"><ele>1.9000000000000001</ele></trkpt><trkpt lat="-27.017999999999997" lon="-48.654328333333325"><ele>1.9000000000000001</ele></trkpt><trkpt lat="-27.017999999999997" lon="-48.654328333333325"><ele>1.9000000000000001</ele></trkpt><trkpt lat="-27.017999999999997" lon="-48.654328333333325"><ele>1.9000000000000001</ele></trkpt></trkseg></trk></gpx>