<?xml version="1.0" encoding="UTF-8"?>
<gpx xmlns="http://www.topografix.com/GPX/1/1" version="1.1" creator="@dwayneparton/geojson-to-gpx"><wpt lat="-27.00614" lon="-48.62360333333333"><ele>-1.9</ele><name>2 faixas</name></wpt><wpt lat="-27.00725" lon="-48.619658333333334"><ele>8</ele><name>105</name></wpt><wpt lat="-27.00617333333333" lon="-48.62336833333334"><ele>9.2</ele><name>120</name></wpt><wpt lat="-27.00637" lon="-48.62254500000001"><ele>9</ele><name>150</name></wpt><wpt lat="-27.00663666666667" lon="-48.62174333333334"><ele>12.299999999999999</ele><name>155</name></wpt><wpt lat="-27.00774666666667" lon="-48.618323333333336"><ele>9.799999999999999</ele><name>A ciclo é completamente reta.</name></wpt><wpt lat="-27.0064" lon="-48.622530000000005"><ele>10.799999999999999</ele><name>altura mureta: 85 (lado barranco) e  70 (lado rodovia)</name></wpt><wpt lat="-27.00617333333333" lon="-48.62336833333334"><ele>9.2</ele><name>Área de amortecimento da ciclo (cm)</name></wpt><wpt lat="-27.00725" lon="-48.619658333333334"><ele>8</ele><name>Área de amortecimento da ciclo (cm)</name></wpt><wpt lat="-27.00617333333333" lon="-48.62336833333334"><ele>9.2</ele><name>Área transitável da ciclo (cm)</name></wpt><wpt lat="-27.00637" lon="-48.62254500000001"><ele>9</ele><name>Área transitável da ciclo (cm)</name></wpt><wpt lat="-27.00663666666667" lon="-48.62174333333334"><ele>12.299999999999999</ele><name>Área transitável da ciclo (cm)</name></wpt><wpt lat="-27.00725" lon="-48.619658333333334"><ele>8</ele><name>Área transitável da ciclo (cm)</name></wpt><wpt lat="-27.00774666666667" lon="-48.618323333333336"><ele>9.799999999999999</ele><name>Bom estado</name></wpt><wpt lat="-27.006231666666668" lon="-48.62317500000001"><ele>6.199999999999999</ele><name>Complementar</name></wpt><wpt lat="-27.00614" lon="-48.62360333333333"><ele>-1.9</ele><name>Concreto</name></wpt><wpt lat="-27.00614" lon="-48.62360333333333"><ele>-1.9</ele><name>Estacionamento proibido na via</name></wpt><wpt lat="-27.00613" lon="-48.62402333333333"><ele>8.4</ele><name>Foto</name></wpt><wpt lat="-27.006085" lon="-48.623946666666676"><ele>7.199999999999999</ele><name>Foto</name></wpt><wpt lat="-27.00613" lon="-48.623843333333326"><ele>4.4</ele><name>Foto</name></wpt><wpt lat="-27.00615" lon="-48.623631666666675"><ele>6.800000000000001</ele><name>Foto</name></wpt><wpt lat="-27.006240000000002" lon="-48.623171666666664"><ele>7.300000000000001</ele><name>Foto</name></wpt><wpt lat="-27.00631166666667" lon="-48.622866666666674"><ele>10.299999999999999</ele><name>Foto</name></wpt><wpt lat="-27.006363333333336" lon="-48.62272666666666"><ele>6.9</ele><name>Foto</name></wpt><wpt lat="-27.00644666666667" lon="-48.62240833333333"><ele>9</ele><name>Foto</name></wpt><wpt lat="-27.006626666666662" lon="-48.621851666666664"><ele>8.1</ele><name>Foto</name></wpt><wpt lat="-27.00663666666667" lon="-48.62177833333333"><ele>10</ele><name>Foto</name></wpt><wpt lat="-27.006635" lon="-48.62165666666667"><ele>12.1</ele><name>Foto</name></wpt><wpt lat="-27.006829999999997" lon="-48.62104166666666"><ele>9.4</ele><name>Foto</name></wpt><wpt lat="-27.006943333333332" lon="-48.620691666666666"><ele>9.4</ele><name>Foto</name></wpt><wpt lat="-27.007078333333332" lon="-48.620235"><ele>8</ele><name>Foto</name></wpt><wpt lat="-27.007495000000002" lon="-48.618876666666665"><ele>9.4</ele><name>Foto</name></wpt><wpt lat="-27.00766666666667" lon="-48.61846833333334"><ele>6.9</ele><name>Foto</name></wpt><wpt lat="-27.007703333333332" lon="-48.618358333333326"><ele>9.7</ele><name>Foto</name></wpt><wpt lat="-27.007691666666666" lon="-48.618311666666656"><ele>10.799999999999999</ele><name>Foto</name></wpt><wpt lat="-27.00725" lon="-48.619658333333334"><ele>8</ele><name>altura guard rail: 55</name></wpt><wpt lat="-27.0077" lon="-48.61837833333334"><ele>7.5</ele><name>Iluminação geral na via do mesmo lado da estrutura</name></wpt><wpt lat="-27.006138333333336" lon="-48.62360833333334"><ele>-2.3</ele><name>Mão Única</name></wpt><wpt lat="-27.00614" lon="-48.62360333333333"><ele>-1.9</ele><name>Segragador: mureta em ponte </name></wpt><wpt lat="-27.00663666666667" lon="-48.62174333333334"><ele>12.299999999999999</ele><name>mureta:  55 (lado rodovia) e 120 (lado rio)</name></wpt><wpt lat="-27.00774666666667" lon="-48.618323333333336"><ele>9.799999999999999</ele><name>Não há árvores nem mudas</name></wpt><wpt lat="-27.00774666666667" lon="-48.618323333333336"><ele>9.799999999999999</ele><name>Nenhum elemento de controle de velocidade na via</name></wpt><wpt lat="-27.00613166666667" lon="-48.62361166666666"><ele>-2</ele><name>No bordo direito de Via de Mão Única</name></wpt><wpt lat="-27.00614" lon="-48.62360333333333"><ele>-1.9</ele><name>SEM segregador (Calçada)</name></wpt><wpt lat="-27.00614" lon="-48.62360333333333"><ele>-1.9</ele><name>padrão de pintura: SEM PINTURA </name></wpt><wpt lat="-27.00774666666667" lon="-48.618323333333336"><ele>9.799999999999999</ele><name>Irregularidades que demandam desvio para circulação</name></wpt><wpt lat="-27.00770166666667" lon="-48.61834999999999"><ele>9.799999999999999</ele><name>R-36</name></wpt><wpt lat="-27.00617333333333" lon="-48.62336833333334"><ele>9.2</ele><name>sem área de amortecimento: calçada</name></wpt><wpt lat="-27.00774666666667" lon="-48.618323333333336"><ele>9.799999999999999</ele><name>SEM pintura no cruzamento</name></wpt><wpt lat="-27.006240000000002" lon="-48.623171666666664"><ele>7.300000000000001</ele><name>sinalização complementar passeio compartilhado pedestre ciclistas</name></wpt><wpt lat="-27.00725" lon="-48.619658333333334"><ele>8</ele><name>Total da via (incluindo a ciclo) (cm)</name></wpt><wpt lat="-27.006115" lon="-48.623495"><name>Buraco</name></wpt><wpt lat="-27.006292" lon="-48.622943"><name>Buraco</name></wpt><wpt lat="-27.006445" lon="-48.622335"><name>Buraco</name></wpt><wpt lat="-27.00657" lon="-48.621979"><name>Outro Segregador: mureta em ponte</name></wpt><wpt lat="-27.00608" lon="-48.623706"><name>Calçada compartilhada</name></wpt><wpt lat="-27.007268" lon="-48.619629"><name>30</name></wpt><wpt lat="-27.006808" lon="-48.62087"><name>Outro Segregador: Guard Rail</name></wpt><wpt lat="-27.007006" lon="-48.620456"><name>Outro Obstáculo</name></wpt><wpt lat="-27.007034" lon="-48.620344"><name>Outro Obstáculo: degrau na pista</name></wpt><wpt lat="-27.007727" lon="-48.618372"><name>Ausência de conexão entre ciclos.</name></wpt><wpt lat="-27.007410004136158" lon="-48.61970543861389"><name>Buraco</name></wpt><wpt lat="-27.007410004136158" lon="-48.61970543861389"><name>Buraco</name></wpt><wpt lat="-27.007410004136158" lon="-48.61970543861389"><name>Buraco</name></wpt><wpt lat="-27.007748" lon="-48.618254"><name>Outro obstáculo: rampa para calçada quebrada</name></wpt><wpt lat="-27.006141" lon="-48.623466"><name>Bidirecional</name></wpt><trk><name>Compart. Pte. Rio Camboriú BR 101 T2 Oeste e Av. Marg. Oeste T2 - BC</name><trkseg><trkpt lat="-27.006210000000003" lon="-48.623695"><ele>-3.9</ele></trkpt><trkpt lat="-27.006113333333328" lon="-48.62360333333333"><ele>-3.8000000000000003</ele></trkpt><trkpt lat="-27.006136666666666" lon="-48.62359"><ele>-3.4999999999999996</ele></trkpt><trkpt lat="-27.006135000000004" lon="-48.623586666666675"><ele>-2.9999999999999996</ele></trkpt><trkpt lat="-27.006135000000004" lon="-48.62359166666667"><ele>-2.6999999999999997</ele></trkpt><trkpt lat="-27.00613333333333" lon="-48.623594999999995"><ele>-2.6</ele></trkpt><trkpt lat="-27.006135000000004" lon="-48.623596666666664"><ele>-2.4999999999999996</ele></trkpt><trkpt lat="-27.00613333333333" lon="-48.6236"><ele>-2.4</ele></trkpt><trkpt lat="-27.00612833333333" lon="-48.62360166666667"><ele>-2.1999999999999997</ele></trkpt><trkpt lat="-27.006124999999997" lon="-48.62360333333333"><ele>-2.1999999999999997</ele></trkpt><trkpt lat="-27.006124999999997" lon="-48.623605"><ele>-2.3</ele></trkpt><trkpt lat="-27.006124999999997" lon="-48.623605"><ele>-2.3</ele></trkpt><trkpt lat="-27.006126666666667" lon="-48.62360666666667"><ele>-2.3</ele></trkpt><trkpt lat="-27.00613333333333" lon="-48.62360666666667"><ele>-2</ele></trkpt><trkpt lat="-27.00613333333333" lon="-48.62360833333334"><ele>-1.9</ele></trkpt><trkpt lat="-27.006135000000004" lon="-48.62360833333334"><ele>-1.7999999999999998</ele></trkpt><trkpt lat="-27.006135000000004" lon="-48.62360666666667"><ele>-1.9</ele></trkpt><trkpt lat="-27.00613333333333" lon="-48.62360666666667"><ele>-1.9</ele></trkpt><trkpt lat="-27.00613166666667" lon="-48.62360666666667"><ele>-1.7999999999999998</ele></trkpt><trkpt lat="-27.00613166666667" lon="-48.62360833333334"><ele>-1.7999999999999998</ele></trkpt><trkpt lat="-27.00613166666667" lon="-48.62360999999999"><ele>-1.9</ele></trkpt><trkpt lat="-27.00613166666667" lon="-48.62361166666666"><ele>-1.9</ele></trkpt><trkpt lat="-27.00613166666667" lon="-48.62361166666666"><ele>-2</ele></trkpt><trkpt lat="-27.00613166666667" lon="-48.62361166666666"><ele>-2</ele></trkpt><trkpt lat="-27.00613333333333" lon="-48.62361166666666"><ele>-2</ele></trkpt><trkpt lat="-27.006135000000004" lon="-48.62361166666666"><ele>-2</ele></trkpt><trkpt lat="-27.006136666666666" lon="-48.62361166666666"><ele>-2.1</ele></trkpt><trkpt lat="-27.006138333333336" lon="-48.62360999999999"><ele>-2.1999999999999997</ele></trkpt><trkpt lat="-27.006138333333336" lon="-48.62360833333334"><ele>-2.3</ele></trkpt><trkpt lat="-27.006138333333336" lon="-48.62360833333334"><ele>-2.3</ele></trkpt><trkpt lat="-27.00614" lon="-48.62360833333334"><ele>-2.4</ele></trkpt><trkpt lat="-27.00614" lon="-48.62360666666667"><ele>-2.4999999999999996</ele></trkpt><trkpt lat="-27.006141666666668" lon="-48.623605"><ele>-2.4999999999999996</ele></trkpt><trkpt lat="-27.00614" lon="-48.623605"><ele>-2.4999999999999996</ele></trkpt><trkpt lat="-27.00614" lon="-48.623605"><ele>-2.4</ele></trkpt><trkpt lat="-27.00614" lon="-48.623605"><ele>-2.1999999999999997</ele></trkpt><trkpt lat="-27.006141666666668" lon="-48.623605"><ele>-2.1999999999999997</ele></trkpt><trkpt lat="-27.006141666666668" lon="-48.623605"><ele>-2.1</ele></trkpt><trkpt lat="-27.00614" lon="-48.62360333333333"><ele>-1.9</ele></trkpt><trkpt lat="-27.00614" lon="-48.62360333333333"><ele>-1.9</ele></trkpt><trkpt lat="-27.00614" lon="-48.62360333333333"><ele>-1.9</ele></trkpt><trkpt lat="-27.00614" lon="-48.62360333333333"><ele>-1.9</ele></trkpt><trkpt lat="-27.00614" lon="-48.62360333333333"><ele>-1.9</ele></trkpt><trkpt lat="-27.00614" lon="-48.62360333333333"><ele>-1.9</ele></trkpt><trkpt lat="-27.00614" lon="-48.62360333333333"><ele>-1.9</ele></trkpt><trkpt lat="-27.00614" lon="-48.62360333333333"><ele>-1.9</ele></trkpt><trkpt lat="-27.00614" lon="-48.62360333333333"><ele>-1.9</ele></trkpt><trkpt lat="-27.00614" lon="-48.62360333333333"><ele>-1.9</ele></trkpt><trkpt lat="-27.00614" lon="-48.62360333333333"><ele>-1.9</ele></trkpt><trkpt lat="-27.00614" lon="-48.62360333333333"><ele>-1.9</ele></trkpt><trkpt lat="-27.00614" lon="-48.62360333333333"><ele>-1.9</ele></trkpt><trkpt lat="-27.00614" lon="-48.62360333333333"><ele>-1.9</ele></trkpt><trkpt lat="-27.00614" lon="-48.62360333333333"><ele>-1.9</ele></trkpt><trkpt lat="-27.00614" lon="-48.62360333333333"><ele>-1.9</ele></trkpt><trkpt lat="-27.00614" lon="-48.62360333333333"><ele>-1.9</ele></trkpt><trkpt lat="-27.00614" lon="-48.62360333333333"><ele>-1.9</ele></trkpt><trkpt lat="-27.00614" lon="-48.62360333333333"><ele>-1.9</ele></trkpt><trkpt lat="-27.00614" lon="-48.62360333333333"><ele>-1.9</ele></trkpt><trkpt lat="-27.00614" lon="-48.62360333333333"><ele>-1.9</ele></trkpt><trkpt lat="-27.00614" lon="-48.62360333333333"><ele>-1.9</ele></trkpt><trkpt lat="-27.00614" lon="-48.62360333333333"><ele>-1.9</ele></trkpt><trkpt lat="-27.00614" lon="-48.62360333333333"><ele>-1.9</ele></trkpt><trkpt lat="-27.00614" lon="-48.62360333333333"><ele>-1.9</ele></trkpt><trkpt lat="-27.00614" lon="-48.62360333333333"><ele>-1.9</ele></trkpt><trkpt lat="-27.00614" lon="-48.62360333333333"><ele>-1.9</ele></trkpt><trkpt lat="-27.00614" lon="-48.62360333333333"><ele>-1.9</ele></trkpt><trkpt lat="-27.00614" lon="-48.62360333333333"><ele>-1.9</ele></trkpt><trkpt lat="-27.00614" lon="-48.62360333333333"><ele>-1.9</ele></trkpt><trkpt lat="-27.00614" lon="-48.62360333333333"><ele>-1.9</ele></trkpt><trkpt lat="-27.00614" lon="-48.62360333333333"><ele>-1.9</ele></trkpt><trkpt lat="-27.00614" lon="-48.62360333333333"><ele>-1.9</ele></trkpt><trkpt lat="-27.00614" lon="-48.62360333333333"><ele>-1.9</ele></trkpt><trkpt lat="-27.00614" lon="-48.62360333333333"><ele>-1.9</ele></trkpt><trkpt lat="-27.00614" lon="-48.62360333333333"><ele>-1.9</ele></trkpt><trkpt lat="-27.00614" lon="-48.62360333333333"><ele>-1.9</ele></trkpt><trkpt lat="-27.00614" lon="-48.62360333333333"><ele>-1.9</ele></trkpt><trkpt lat="-27.00614" lon="-48.62360333333333"><ele>-1.9</ele></trkpt><trkpt lat="-27.00614" lon="-48.62360333333333"><ele>-1.9</ele></trkpt><trkpt lat="-27.00614" lon="-48.62360333333333"><ele>-1.9</ele></trkpt><trkpt lat="-27.00614" lon="-48.62360333333333"><ele>-1.9</ele></trkpt><trkpt lat="-27.00614" lon="-48.62360333333333"><ele>-1.9</ele></trkpt><trkpt lat="-27.00614" lon="-48.62360333333333"><ele>-1.9</ele></trkpt><trkpt lat="-27.00614" lon="-48.62360333333333"><ele>-1.9</ele></trkpt><trkpt lat="-27.00614" lon="-48.62360333333333"><ele>-1.9</ele></trkpt><trkpt lat="-27.00614" lon="-48.62360333333333"><ele>-1.9</ele></trkpt><trkpt lat="-27.00614" lon="-48.62360333333333"><ele>-1.9</ele></trkpt><trkpt lat="-27.00614" lon="-48.62360333333333"><ele>-1.9</ele></trkpt><trkpt lat="-27.00614" lon="-48.62360333333333"><ele>-1.9</ele></trkpt><trkpt lat="-27.00614" lon="-48.62360333333333"><ele>-1.9</ele></trkpt><trkpt lat="-27.00614" lon="-48.62360333333333"><ele>-1.9</ele></trkpt><trkpt lat="-27.00614" lon="-48.62360333333333"><ele>-1.9</ele></trkpt><trkpt lat="-27.00614" lon="-48.62360333333333"><ele>-1.9</ele></trkpt><trkpt lat="-27.00614" lon="-48.62360333333333"><ele>-1.9</ele></trkpt><trkpt lat="-27.00614" lon="-48.62360333333333"><ele>-1.9</ele></trkpt><trkpt lat="-27.00614" lon="-48.62360333333333"><ele>-1.9</ele></trkpt><trkpt lat="-27.00614" lon="-48.62360333333333"><ele>-1.9</ele></trkpt><trkpt lat="-27.00614" lon="-48.62360333333333"><ele>-1.9</ele></trkpt><trkpt lat="-27.00614" lon="-48.62360333333333"><ele>-1.9</ele></trkpt><trkpt lat="-27.00614" lon="-48.62360333333333"><ele>-1.9</ele></trkpt><trkpt lat="-27.00614" lon="-48.62360333333333"><ele>-1.9</ele></trkpt><trkpt lat="-27.00614" lon="-48.62360333333333"><ele>-1.9</ele></trkpt><trkpt lat="-27.00614" lon="-48.62360333333333"><ele>-1.9</ele></trkpt><trkpt lat="-27.00614" lon="-48.62360333333333"><ele>-1.9</ele></trkpt><trkpt lat="-27.00614" lon="-48.62360333333333"><ele>-1.9</ele></trkpt><trkpt lat="-27.00614" lon="-48.62360333333333"><ele>-1.9</ele></trkpt><trkpt lat="-27.00614" lon="-48.62360333333333"><ele>-1.9</ele></trkpt><trkpt lat="-27.00614" lon="-48.62360333333333"><ele>-1.9</ele></trkpt><trkpt lat="-27.00614" lon="-48.62360333333333"><ele>-1.9</ele></trkpt><trkpt lat="-27.00614" lon="-48.62360333333333"><ele>-1.9</ele></trkpt><trkpt lat="-27.00614" lon="-48.62360333333333"><ele>-1.9</ele></trkpt><trkpt lat="-27.00614" lon="-48.62360333333333"><ele>-1.9</ele></trkpt><trkpt lat="-27.00614" lon="-48.62360333333333"><ele>-1.9</ele></trkpt><trkpt lat="-27.00614" lon="-48.62360333333333"><ele>-1.9</ele></trkpt><trkpt lat="-27.00614" lon="-48.62360333333333"><ele>-1.9</ele></trkpt><trkpt lat="-27.00614" lon="-48.62360333333333"><ele>-1.9</ele></trkpt><trkpt lat="-27.00614" lon="-48.62360333333333"><ele>-1.9</ele></trkpt><trkpt lat="-27.00614" lon="-48.62360333333333"><ele>-1.9</ele></trkpt><trkpt lat="-27.00614" lon="-48.62360333333333"><ele>-1.9</ele></trkpt><trkpt lat="-27.00614" lon="-48.62360333333333"><ele>-1.9</ele></trkpt><trkpt lat="-27.006121666666665" lon="-48.623615"><ele>6.300000000000001</ele></trkpt><trkpt lat="-27.006120000000003" lon="-48.62363333333333"><ele>6.699999999999999</ele></trkpt><trkpt lat="-27.006120000000003" lon="-48.62365"><ele>7</ele></trkpt><trkpt lat="-27.006120000000003" lon="-48.623666666666665"><ele>7.300000000000001</ele></trkpt><trkpt lat="-27.006121666666665" lon="-48.62368333333334"><ele>7.699999999999999</ele></trkpt><trkpt lat="-27.006118333333333" lon="-48.62370166666666"><ele>8</ele></trkpt><trkpt lat="-27.006118333333333" lon="-48.62371666666666"><ele>8.6</ele></trkpt><trkpt lat="-27.00611666666667" lon="-48.62372833333334"><ele>8.7</ele></trkpt><trkpt lat="-27.006118333333333" lon="-48.62374"><ele>8.9</ele></trkpt><trkpt lat="-27.00611666666667" lon="-48.62375"><ele>8.8</ele></trkpt><trkpt lat="-27.006115" lon="-48.62376166666666"><ele>8.8</ele></trkpt><trkpt lat="-27.006108333333334" lon="-48.62377333333334"><ele>8.7</ele></trkpt><trkpt lat="-27.006108333333334" lon="-48.62378333333333"><ele>8.7</ele></trkpt><trkpt lat="-27.006105" lon="-48.623795"><ele>8.5</ele></trkpt><trkpt lat="-27.006105" lon="-48.623808333333336"><ele>8.5</ele></trkpt><trkpt lat="-27.006105" lon="-48.623819999999995"><ele>8.2</ele></trkpt><trkpt lat="-27.0061" lon="-48.62383166666667"><ele>8</ele></trkpt><trkpt lat="-27.006096666666668" lon="-48.623843333333326"><ele>7.699999999999999</ele></trkpt><trkpt lat="-27.006093333333336" lon="-48.62386"><ele>7.1</ele></trkpt><trkpt lat="-27.00608833333333" lon="-48.62387333333333"><ele>7</ele></trkpt><trkpt lat="-27.006090000000004" lon="-48.62388666666667"><ele>6.699999999999999</ele></trkpt><trkpt lat="-27.006095" lon="-48.62389499999999"><ele>6.6</ele></trkpt><trkpt lat="-27.006103333333332" lon="-48.62390333333333"><ele>6.300000000000001</ele></trkpt><trkpt lat="-27.006111666666666" lon="-48.623915000000004"><ele>6.300000000000001</ele></trkpt><trkpt lat="-27.006120000000003" lon="-48.62392333333334"><ele>6.4</ele></trkpt><trkpt lat="-27.006118333333333" lon="-48.62393166666667"><ele>6.4</ele></trkpt><trkpt lat="-27.00611666666667" lon="-48.62392833333333"><ele>7.300000000000001</ele></trkpt><trkpt lat="-27.006113333333328" lon="-48.623938333333335"><ele>8.7</ele></trkpt><trkpt lat="-27.006113333333328" lon="-48.62394833333333"><ele>10.4</ele></trkpt><trkpt lat="-27.006115" lon="-48.623960000000004"><ele>12.6</ele></trkpt><trkpt lat="-27.006118333333333" lon="-48.62397166666666"><ele>14.799999999999999</ele></trkpt><trkpt lat="-27.006121666666665" lon="-48.62398666666666"><ele>15.4</ele></trkpt><trkpt lat="-27.006126666666667" lon="-48.624003333333334"><ele>13.1</ele></trkpt><trkpt lat="-27.006135000000004" lon="-48.62401"><ele>11</ele></trkpt><trkpt lat="-27.006141666666668" lon="-48.62401666666666"><ele>10.1</ele></trkpt><trkpt lat="-27.00614666666667" lon="-48.62401499999999"><ele>9.6</ele></trkpt><trkpt lat="-27.006141666666668" lon="-48.62402166666667"><ele>9</ele></trkpt><trkpt lat="-27.00613" lon="-48.62402333333333"><ele>8.4</ele></trkpt><trkpt lat="-27.00613" lon="-48.62402333333333"><ele>8.4</ele></trkpt><trkpt lat="-27.006113333333328" lon="-48.62402"><ele>7.9</ele></trkpt><trkpt lat="-27.00609833333333" lon="-48.62401666666666"><ele>7.199999999999999</ele></trkpt><trkpt lat="-27.00608333333333" lon="-48.624003333333334"><ele>6.9</ele></trkpt><trkpt lat="-27.006076666666665" lon="-48.623995"><ele>7.1</ele></trkpt><trkpt lat="-27.006073333333333" lon="-48.623983333333335"><ele>6.9</ele></trkpt><trkpt lat="-27.006075000000003" lon="-48.62397166666666"><ele>7.1</ele></trkpt><trkpt lat="-27.006078333333335" lon="-48.623958333333334"><ele>7.300000000000001</ele></trkpt><trkpt lat="-27.006085" lon="-48.623946666666676"><ele>7.199999999999999</ele></trkpt><trkpt lat="-27.006085" lon="-48.623946666666676"><ele>7.199999999999999</ele></trkpt><trkpt lat="-27.006093333333336" lon="-48.623933333333326"><ele>6.800000000000001</ele></trkpt><trkpt lat="-27.00609833333333" lon="-48.62392333333334"><ele>6.199999999999999</ele></trkpt><trkpt lat="-27.00610166666667" lon="-48.623909999999995"><ele>5.6</ele></trkpt><trkpt lat="-27.006108333333334" lon="-48.62389833333334"><ele>5.2</ele></trkpt><trkpt lat="-27.006115" lon="-48.623891666666665"><ele>5</ele></trkpt><trkpt lat="-27.006120000000003" lon="-48.62387999999999"><ele>4.7</ele></trkpt><trkpt lat="-27.006124999999997" lon="-48.623870000000004"><ele>4.5</ele></trkpt><trkpt lat="-27.006124999999997" lon="-48.623864999999995"><ele>4.300000000000001</ele></trkpt><trkpt lat="-27.006126666666667" lon="-48.62386333333334"><ele>4.4</ele></trkpt><trkpt lat="-27.00612833333333" lon="-48.623856666666676"><ele>4.4</ele></trkpt><trkpt lat="-27.00613" lon="-48.623843333333326"><ele>4.4</ele></trkpt><trkpt lat="-27.00613" lon="-48.623843333333326"><ele>4.4</ele></trkpt><trkpt lat="-27.00613333333333" lon="-48.62382666666667"><ele>4.800000000000001</ele></trkpt><trkpt lat="-27.006136666666666" lon="-48.623811666666676"><ele>5.1</ele></trkpt><trkpt lat="-27.00613333333333" lon="-48.623795"><ele>5.300000000000001</ele></trkpt><trkpt lat="-27.00613166666667" lon="-48.62378666666667"><ele>5.1</ele></trkpt><trkpt lat="-27.00613" lon="-48.623776666666664"><ele>5</ele></trkpt><trkpt lat="-27.00612833333333" lon="-48.62375999999999"><ele>5</ele></trkpt><trkpt lat="-27.006126666666667" lon="-48.62374333333334"><ele>4.9</ele></trkpt><trkpt lat="-27.00613166666667" lon="-48.623729999999995"><ele>4.7</ele></trkpt><trkpt lat="-27.00613333333333" lon="-48.62371499999999"><ele>4.7</ele></trkpt><trkpt lat="-27.006138333333336" lon="-48.62369833333334"><ele>4.4</ele></trkpt><trkpt lat="-27.00614" lon="-48.62368166666667"><ele>4.6</ele></trkpt><trkpt lat="-27.006145" lon="-48.623668333333335"><ele>5.1</ele></trkpt><trkpt lat="-27.00614666666667" lon="-48.62365499999999"><ele>5.4</ele></trkpt><trkpt lat="-27.00615" lon="-48.623639999999995"><ele>5.800000000000001</ele></trkpt><trkpt lat="-27.006151666666664" lon="-48.623630000000006"><ele>6.5</ele></trkpt><trkpt lat="-27.00615" lon="-48.623630000000006"><ele>6.800000000000001</ele></trkpt><trkpt lat="-27.00615" lon="-48.623630000000006"><ele>6.9</ele></trkpt><trkpt lat="-27.00615" lon="-48.623631666666675"><ele>6.800000000000001</ele></trkpt><trkpt lat="-27.00615" lon="-48.623631666666675"><ele>6.800000000000001</ele></trkpt><trkpt lat="-27.006151666666664" lon="-48.623628333333336"><ele>6.800000000000001</ele></trkpt><trkpt lat="-27.006154999999996" lon="-48.62362499999999"><ele>6.9</ele></trkpt><trkpt lat="-27.006154999999996" lon="-48.62361333333333"><ele>7.1</ele></trkpt><trkpt lat="-27.006153333333334" lon="-48.6236"><ele>7.4</ele></trkpt><trkpt lat="-27.00615" lon="-48.623586666666675"><ele>7.800000000000001</ele></trkpt><trkpt lat="-27.00615" lon="-48.623574999999995"><ele>8.3</ele></trkpt><trkpt lat="-27.006151666666664" lon="-48.62356166666667"><ele>8.6</ele></trkpt><trkpt lat="-27.006151666666664" lon="-48.62354666666667"><ele>9.4</ele></trkpt><trkpt lat="-27.006153333333334" lon="-48.623529999999995"><ele>9.7</ele></trkpt><trkpt lat="-27.006156666666666" lon="-48.62351666666667"><ele>9.9</ele></trkpt><trkpt lat="-27.00616" lon="-48.62350166666667"><ele>10.4</ele></trkpt><trkpt lat="-27.006163333333333" lon="-48.623486666666665"><ele>10.4</ele></trkpt><trkpt lat="-27.006169999999997" lon="-48.62347"><ele>10.5</ele></trkpt><trkpt lat="-27.006171666666667" lon="-48.62345666666667"><ele>10.4</ele></trkpt><trkpt lat="-27.006171666666667" lon="-48.623438333333326"><ele>9.799999999999999</ele></trkpt><trkpt lat="-27.00617333333333" lon="-48.62342333333333"><ele>9.7</ele></trkpt><trkpt lat="-27.00617666666667" lon="-48.623406666666675"><ele>9.5</ele></trkpt><trkpt lat="-27.006180000000004" lon="-48.62338833333333"><ele>9.7</ele></trkpt><trkpt lat="-27.006181666666667" lon="-48.623375"><ele>9.6</ele></trkpt><trkpt lat="-27.006183333333336" lon="-48.623360000000005"><ele>9.6</ele></trkpt><trkpt lat="-27.00618833333333" lon="-48.623349999999995"><ele>9.5</ele></trkpt><trkpt lat="-27.00618833333333" lon="-48.62334666666667"><ele>9.3</ele></trkpt><trkpt lat="-27.006186666666668" lon="-48.62334666666667"><ele>8.9</ele></trkpt><trkpt lat="-27.006185" lon="-48.623345"><ele>8.6</ele></trkpt><trkpt lat="-27.006180000000004" lon="-48.623345"><ele>8.6</ele></trkpt><trkpt lat="-27.00617666666667" lon="-48.62334333333333"><ele>8.7</ele></trkpt><trkpt lat="-27.00617666666667" lon="-48.623345"><ele>8.8</ele></trkpt><trkpt lat="-27.00617666666667" lon="-48.62334666666667"><ele>8.7</ele></trkpt><trkpt lat="-27.006175" lon="-48.62334666666667"><ele>8.7</ele></trkpt><trkpt lat="-27.00617333333333" lon="-48.623349999999995"><ele>8.7</ele></trkpt><trkpt lat="-27.006169999999997" lon="-48.623353333333334"><ele>8.9</ele></trkpt><trkpt lat="-27.006166666666665" lon="-48.623358333333336"><ele>9.1</ele></trkpt><trkpt lat="-27.006169999999997" lon="-48.623360000000005"><ele>9.1</ele></trkpt><trkpt lat="-27.006171666666667" lon="-48.62336333333333"><ele>9.1</ele></trkpt><trkpt lat="-27.00617333333333" lon="-48.623365"><ele>9.2</ele></trkpt><trkpt lat="-27.00617333333333" lon="-48.62336666666667"><ele>9.2</ele></trkpt><trkpt lat="-27.00617333333333" lon="-48.62336833333334"><ele>9.2</ele></trkpt><trkpt lat="-27.00617333333333" lon="-48.62336833333334"><ele>9.2</ele></trkpt><trkpt lat="-27.00617333333333" lon="-48.62336833333334"><ele>9.2</ele></trkpt><trkpt lat="-27.00617333333333" lon="-48.62336833333334"><ele>9.2</ele></trkpt><trkpt lat="-27.00617333333333" lon="-48.62336833333334"><ele>9.2</ele></trkpt><trkpt lat="-27.00617333333333" lon="-48.62336833333334"><ele>9.2</ele></trkpt><trkpt lat="-27.00617333333333" lon="-48.62336833333334"><ele>9.2</ele></trkpt><trkpt lat="-27.00617333333333" lon="-48.62336833333334"><ele>9.2</ele></trkpt><trkpt lat="-27.00617333333333" lon="-48.62336833333334"><ele>9.2</ele></trkpt><trkpt lat="-27.00617333333333" lon="-48.62336833333334"><ele>9.2</ele></trkpt><trkpt lat="-27.00617333333333" lon="-48.62336833333334"><ele>9.2</ele></trkpt><trkpt lat="-27.00617333333333" lon="-48.62336833333334"><ele>9.2</ele></trkpt><trkpt lat="-27.00617333333333" lon="-48.62336833333334"><ele>9.2</ele></trkpt><trkpt lat="-27.00617333333333" lon="-48.62336833333334"><ele>9.2</ele></trkpt><trkpt lat="-27.00617333333333" lon="-48.62336833333334"><ele>9.2</ele></trkpt><trkpt lat="-27.00617333333333" lon="-48.62336833333334"><ele>9.2</ele></trkpt><trkpt lat="-27.00617333333333" lon="-48.62336833333334"><ele>9.2</ele></trkpt><trkpt lat="-27.00617333333333" lon="-48.62336833333334"><ele>9.2</ele></trkpt><trkpt lat="-27.00617333333333" lon="-48.62336833333334"><ele>9.2</ele></trkpt><trkpt lat="-27.00617333333333" lon="-48.62336833333334"><ele>9.2</ele></trkpt><trkpt lat="-27.00617333333333" lon="-48.62336833333334"><ele>9.2</ele></trkpt><trkpt lat="-27.00617333333333" lon="-48.62336833333334"><ele>9.2</ele></trkpt><trkpt lat="-27.00617333333333" lon="-48.62336833333334"><ele>9.2</ele></trkpt><trkpt lat="-27.00617333333333" lon="-48.62336833333334"><ele>9.2</ele></trkpt><trkpt lat="-27.00617333333333" lon="-48.62336833333334"><ele>9.2</ele></trkpt><trkpt lat="-27.00617333333333" lon="-48.62336833333334"><ele>9.2</ele></trkpt><trkpt lat="-27.00617333333333" lon="-48.62336833333334"><ele>9.2</ele></trkpt><trkpt lat="-27.00617333333333" lon="-48.62336833333334"><ele>9.2</ele></trkpt><trkpt lat="-27.00617333333333" lon="-48.62336833333334"><ele>9.2</ele></trkpt><trkpt lat="-27.00617333333333" lon="-48.62336833333334"><ele>9.2</ele></trkpt><trkpt lat="-27.00617333333333" lon="-48.62336833333334"><ele>9.2</ele></trkpt><trkpt lat="-27.00617333333333" lon="-48.62336833333334"><ele>9.2</ele></trkpt><trkpt lat="-27.00617333333333" lon="-48.62336833333334"><ele>9.2</ele></trkpt><trkpt lat="-27.00617333333333" lon="-48.62336833333334"><ele>9.2</ele></trkpt><trkpt lat="-27.00617333333333" lon="-48.62336833333334"><ele>9.2</ele></trkpt><trkpt lat="-27.00617333333333" lon="-48.62336833333334"><ele>9.2</ele></trkpt><trkpt lat="-27.00617333333333" lon="-48.62336833333334"><ele>9.2</ele></trkpt><trkpt lat="-27.00617333333333" lon="-48.62336833333334"><ele>9.2</ele></trkpt><trkpt lat="-27.00617666666667" lon="-48.62335500000001"><ele>9.799999999999999</ele></trkpt><trkpt lat="-27.006180000000004" lon="-48.623348333333325"><ele>9.7</ele></trkpt><trkpt lat="-27.006180000000004" lon="-48.62334166666666"><ele>9.6</ele></trkpt><trkpt lat="-27.006185" lon="-48.62333"><ele>9.5</ele></trkpt><trkpt lat="-27.00618833333333" lon="-48.623316666666675"><ele>9.2</ele></trkpt><trkpt lat="-27.00619166666667" lon="-48.62330166666667"><ele>9</ele></trkpt><trkpt lat="-27.006195" lon="-48.62329"><ele>8.6</ele></trkpt><trkpt lat="-27.006198333333334" lon="-48.62327833333334"><ele>8.2</ele></trkpt><trkpt lat="-27.006199999999996" lon="-48.623263333333334"><ele>7.9</ele></trkpt><trkpt lat="-27.006199999999996" lon="-48.623248333333336"><ele>7.699999999999999</ele></trkpt><trkpt lat="-27.006201666666666" lon="-48.62323333333334"><ele>7.6</ele></trkpt><trkpt lat="-27.006205" lon="-48.623218333333334"><ele>7.199999999999999</ele></trkpt><trkpt lat="-27.006211666666665" lon="-48.623205000000006"><ele>6.699999999999999</ele></trkpt><trkpt lat="-27.00621833333333" lon="-48.62319000000001"><ele>6.4</ele></trkpt><trkpt lat="-27.00622333333333" lon="-48.623181666666675"><ele>6.300000000000001</ele></trkpt><trkpt lat="-27.006228333333336" lon="-48.62317666666666"><ele>6.199999999999999</ele></trkpt><trkpt lat="-27.006231666666668" lon="-48.62317500000001"><ele>6.199999999999999</ele></trkpt><trkpt lat="-27.006231666666668" lon="-48.62317500000001"><ele>6.199999999999999</ele></trkpt><trkpt lat="-27.006235" lon="-48.62317500000001"><ele>6.1</ele></trkpt><trkpt lat="-27.00623666666667" lon="-48.62317666666666"><ele>6.300000000000001</ele></trkpt><trkpt lat="-27.00623666666667" lon="-48.62317500000001"><ele>6.5</ele></trkpt><trkpt lat="-27.00623666666667" lon="-48.62317500000001"><ele>6.5</ele></trkpt><trkpt lat="-27.00623666666667" lon="-48.62317500000001"><ele>6.800000000000001</ele></trkpt><trkpt lat="-27.00623666666667" lon="-48.623173333333334"><ele>6.9</ele></trkpt><trkpt lat="-27.006238333333332" lon="-48.623173333333334"><ele>7.1</ele></trkpt><trkpt lat="-27.006240000000002" lon="-48.623171666666664"><ele>7.300000000000001</ele></trkpt><trkpt lat="-27.006240000000002" lon="-48.623171666666664"><ele>7.300000000000001</ele></trkpt><trkpt lat="-27.006240000000002" lon="-48.623171666666664"><ele>7.300000000000001</ele></trkpt><trkpt lat="-27.006240000000002" lon="-48.623171666666664"><ele>7.300000000000001</ele></trkpt><trkpt lat="-27.006240000000002" lon="-48.623171666666664"><ele>7.300000000000001</ele></trkpt><trkpt lat="-27.006240000000002" lon="-48.623171666666664"><ele>7.300000000000001</ele></trkpt><trkpt lat="-27.006240000000002" lon="-48.623171666666664"><ele>7.300000000000001</ele></trkpt><trkpt lat="-27.006240000000002" lon="-48.623171666666664"><ele>7.300000000000001</ele></trkpt><trkpt lat="-27.006240000000002" lon="-48.623171666666664"><ele>7.300000000000001</ele></trkpt><trkpt lat="-27.006240000000002" lon="-48.623171666666664"><ele>7.300000000000001</ele></trkpt><trkpt lat="-27.006240000000002" lon="-48.623171666666664"><ele>7.300000000000001</ele></trkpt><trkpt lat="-27.006240000000002" lon="-48.623171666666664"><ele>7.300000000000001</ele></trkpt><trkpt lat="-27.006240000000002" lon="-48.623171666666664"><ele>7.300000000000001</ele></trkpt><trkpt lat="-27.006240000000002" lon="-48.623171666666664"><ele>7.300000000000001</ele></trkpt><trkpt lat="-27.006240000000002" lon="-48.623171666666664"><ele>7.300000000000001</ele></trkpt><trkpt lat="-27.006240000000002" lon="-48.623171666666664"><ele>7.300000000000001</ele></trkpt><trkpt lat="-27.006240000000002" lon="-48.623171666666664"><ele>7.300000000000001</ele></trkpt><trkpt lat="-27.006240000000002" lon="-48.623171666666664"><ele>7.300000000000001</ele></trkpt><trkpt lat="-27.006240000000002" lon="-48.623171666666664"><ele>7.300000000000001</ele></trkpt><trkpt lat="-27.006240000000002" lon="-48.623171666666664"><ele>7.300000000000001</ele></trkpt><trkpt lat="-27.006240000000002" lon="-48.623171666666664"><ele>7.300000000000001</ele></trkpt><trkpt lat="-27.006240000000002" lon="-48.623171666666664"><ele>7.300000000000001</ele></trkpt><trkpt lat="-27.006225000000004" lon="-48.623168333333325"><ele>8.9</ele></trkpt><trkpt lat="-27.006228333333336" lon="-48.62315666666667"><ele>8.5</ele></trkpt><trkpt lat="-27.006228333333336" lon="-48.62314"><ele>8.2</ele></trkpt><trkpt lat="-27.006231666666668" lon="-48.62312166666667"><ele>7.6</ele></trkpt><trkpt lat="-27.00623333333333" lon="-48.62310666666667"><ele>7.300000000000001</ele></trkpt><trkpt lat="-27.00623666666667" lon="-48.62309333333333"><ele>7.5</ele></trkpt><trkpt lat="-27.006241666666664" lon="-48.62307666666667"><ele>7.9</ele></trkpt><trkpt lat="-27.006246666666666" lon="-48.62306166666667"><ele>8</ele></trkpt><trkpt lat="-27.00625" lon="-48.623045000000005"><ele>8.4</ele></trkpt><trkpt lat="-27.00625166666667" lon="-48.62303"><ele>8.4</ele></trkpt><trkpt lat="-27.006255000000003" lon="-48.62301833333333"><ele>8.1</ele></trkpt><trkpt lat="-27.006259999999997" lon="-48.62300666666667"><ele>8.2</ele></trkpt><trkpt lat="-27.006270000000004" lon="-48.62299500000001"><ele>8.3</ele></trkpt><trkpt lat="-27.00628" lon="-48.622975"><ele>8.3</ele></trkpt><trkpt lat="-27.006298333333334" lon="-48.62295833333333"><ele>10.4</ele></trkpt><trkpt lat="-27.006303333333335" lon="-48.62294166666667"><ele>10.5</ele></trkpt><trkpt lat="-27.006303333333335" lon="-48.62292833333333"><ele>10.6</ele></trkpt><trkpt lat="-27.006301666666666" lon="-48.62291333333333"><ele>10.5</ele></trkpt><trkpt lat="-27.006301666666666" lon="-48.62290333333333"><ele>10.4</ele></trkpt><trkpt lat="-27.006300000000003" lon="-48.62289666666667"><ele>10.2</ele></trkpt><trkpt lat="-27.006303333333335" lon="-48.622895"><ele>10.2</ele></trkpt><trkpt lat="-27.006304999999998" lon="-48.622888333333336"><ele>10.299999999999999</ele></trkpt><trkpt lat="-27.006306666666667" lon="-48.62288"><ele>10.5</ele></trkpt><trkpt lat="-27.00631166666667" lon="-48.622866666666674"><ele>10.299999999999999</ele></trkpt><trkpt lat="-27.00631166666667" lon="-48.622866666666674"><ele>10.299999999999999</ele></trkpt><trkpt lat="-27.006318333333336" lon="-48.622853333333325"><ele>10</ele></trkpt><trkpt lat="-27.00632333333333" lon="-48.62283833333333"><ele>9.7</ele></trkpt><trkpt lat="-27.006330000000002" lon="-48.622825"><ele>9.3</ele></trkpt><trkpt lat="-27.006331666666664" lon="-48.62281500000001"><ele>9.1</ele></trkpt><trkpt lat="-27.006331666666664" lon="-48.622798333333336"><ele>8.7</ele></trkpt><trkpt lat="-27.006336666666666" lon="-48.62278333333334"><ele>8.3</ele></trkpt><trkpt lat="-27.00634166666667" lon="-48.622766666666664"><ele>7.5</ele></trkpt><trkpt lat="-27.006343333333334" lon="-48.622753333333335"><ele>7.1</ele></trkpt><trkpt lat="-27.006346666666666" lon="-48.62274166666666"><ele>6.800000000000001</ele></trkpt><trkpt lat="-27.006351666666667" lon="-48.622735"><ele>7</ele></trkpt><trkpt lat="-27.00635333333333" lon="-48.622730000000004"><ele>6.800000000000001</ele></trkpt><trkpt lat="-27.006355" lon="-48.622730000000004"><ele>6.699999999999999</ele></trkpt><trkpt lat="-27.00635833333333" lon="-48.622730000000004"><ele>6.5</ele></trkpt><trkpt lat="-27.006361666666667" lon="-48.622731666666674"><ele>6.6</ele></trkpt><trkpt lat="-27.006363333333336" lon="-48.62272666666666"><ele>6.9</ele></trkpt><trkpt lat="-27.006363333333336" lon="-48.62272666666666"><ele>6.9</ele></trkpt><trkpt lat="-27.00636833333333" lon="-48.62272166666666"><ele>6.800000000000001</ele></trkpt><trkpt lat="-27.006375000000002" lon="-48.622706666666666"><ele>7.1</ele></trkpt><trkpt lat="-27.00638333333333" lon="-48.62269"><ele>7.5</ele></trkpt><trkpt lat="-27.006390000000003" lon="-48.622674999999994"><ele>7.4</ele></trkpt><trkpt lat="-27.006391666666666" lon="-48.622659999999996"><ele>7.4</ele></trkpt><trkpt lat="-27.006396666666667" lon="-48.622645"><ele>6.800000000000001</ele></trkpt><trkpt lat="-27.0064" lon="-48.622629999999994"><ele>7.199999999999999</ele></trkpt><trkpt lat="-27.00640166666667" lon="-48.622616666666666"><ele>7.4</ele></trkpt><trkpt lat="-27.006406666666667" lon="-48.62260500000001"><ele>7.6</ele></trkpt><trkpt lat="-27.006408333333336" lon="-48.6226"><ele>7.9</ele></trkpt><trkpt lat="-27.006408333333336" lon="-48.62259833333333"><ele>8</ele></trkpt><trkpt lat="-27.006408333333336" lon="-48.622596666666674"><ele>8</ele></trkpt><trkpt lat="-27.00640333333333" lon="-48.622596666666674"><ele>8.1</ele></trkpt><trkpt lat="-27.00640166666667" lon="-48.62259833333333"><ele>8.1</ele></trkpt><trkpt lat="-27.00640166666667" lon="-48.62260166666667"><ele>7.9</ele></trkpt><trkpt lat="-27.00640333333333" lon="-48.622596666666674"><ele>7.800000000000001</ele></trkpt><trkpt lat="-27.00640333333333" lon="-48.622593333333334"><ele>7.9</ele></trkpt><trkpt lat="-27.00640333333333" lon="-48.62259166666666"><ele>7.9</ele></trkpt><trkpt lat="-27.00640333333333" lon="-48.62258833333333"><ele>8.1</ele></trkpt><trkpt lat="-27.00640333333333" lon="-48.62258833333333"><ele>8.1</ele></trkpt><trkpt lat="-27.00640333333333" lon="-48.62258833333333"><ele>8.1</ele></trkpt><trkpt lat="-27.00640333333333" lon="-48.62258833333333"><ele>8.1</ele></trkpt><trkpt lat="-27.00640333333333" lon="-48.62258833333333"><ele>8.1</ele></trkpt><trkpt lat="-27.00640333333333" lon="-48.62258833333333"><ele>8.1</ele></trkpt><trkpt lat="-27.00640333333333" lon="-48.62258833333333"><ele>8.1</ele></trkpt><trkpt lat="-27.00640333333333" lon="-48.62258833333333"><ele>8.1</ele></trkpt><trkpt lat="-27.00640333333333" lon="-48.62258833333333"><ele>8.1</ele></trkpt><trkpt lat="-27.00640333333333" lon="-48.62258833333333"><ele>8.1</ele></trkpt><trkpt lat="-27.00640333333333" lon="-48.62258833333333"><ele>8.1</ele></trkpt><trkpt lat="-27.00640333333333" lon="-48.62258833333333"><ele>8.1</ele></trkpt><trkpt lat="-27.00640333333333" lon="-48.62258833333333"><ele>8.1</ele></trkpt><trkpt lat="-27.00640333333333" lon="-48.62258833333333"><ele>8.1</ele></trkpt><trkpt lat="-27.00640333333333" lon="-48.62258833333333"><ele>8.1</ele></trkpt><trkpt lat="-27.00640333333333" lon="-48.62258833333333"><ele>8.1</ele></trkpt><trkpt lat="-27.00640333333333" lon="-48.62258833333333"><ele>8.1</ele></trkpt><trkpt lat="-27.00640333333333" lon="-48.62258833333333"><ele>8.1</ele></trkpt><trkpt lat="-27.00640333333333" lon="-48.62258833333333"><ele>8.1</ele></trkpt><trkpt lat="-27.00640333333333" lon="-48.62258833333333"><ele>8.1</ele></trkpt><trkpt lat="-27.00636833333333" lon="-48.622571666666666"><ele>8.4</ele></trkpt><trkpt lat="-27.00636833333333" lon="-48.622565"><ele>8.5</ele></trkpt><trkpt lat="-27.00636833333333" lon="-48.62255333333333"><ele>8.7</ele></trkpt><trkpt lat="-27.00637" lon="-48.62254500000001"><ele>9</ele></trkpt><trkpt lat="-27.00637" lon="-48.62254500000001"><ele>9</ele></trkpt><trkpt lat="-27.00637" lon="-48.62254500000001"><ele>9</ele></trkpt><trkpt lat="-27.006373333333332" lon="-48.62253666666667"><ele>9.3</ele></trkpt><trkpt lat="-27.006378333333334" lon="-48.622530000000005"><ele>9.5</ele></trkpt><trkpt lat="-27.006379999999996" lon="-48.62252"><ele>9.7</ele></trkpt><trkpt lat="-27.006379999999996" lon="-48.62251"><ele>10</ele></trkpt><trkpt lat="-27.006379999999996" lon="-48.622503333333334"><ele>9.9</ele></trkpt><trkpt lat="-27.006385" lon="-48.622494999999994"><ele>10</ele></trkpt><trkpt lat="-27.006388333333334" lon="-48.62249"><ele>10.299999999999999</ele></trkpt><trkpt lat="-27.006388333333334" lon="-48.62249166666667"><ele>10.7</ele></trkpt><trkpt lat="-27.006391666666666" lon="-48.622494999999994"><ele>11.1</ele></trkpt><trkpt lat="-27.006393333333335" lon="-48.62250166666666"><ele>11</ele></trkpt><trkpt lat="-27.006393333333335" lon="-48.62250833333333"><ele>11.4</ele></trkpt><trkpt lat="-27.006394999999998" lon="-48.62251166666667"><ele>11.6</ele></trkpt><trkpt lat="-27.00639833333333" lon="-48.62251500000001"><ele>11.6</ele></trkpt><trkpt lat="-27.0064" lon="-48.62252166666667"><ele>11.299999999999999</ele></trkpt><trkpt lat="-27.0064" lon="-48.622530000000005"><ele>10.799999999999999</ele></trkpt><trkpt lat="-27.0064" lon="-48.622530000000005"><ele>10.799999999999999</ele></trkpt><trkpt lat="-27.00640166666667" lon="-48.622535"><ele>10.5</ele></trkpt><trkpt lat="-27.00640333333333" lon="-48.622538333333324"><ele>10.4</ele></trkpt><trkpt lat="-27.00640333333333" lon="-48.622538333333324"><ele>10.299999999999999</ele></trkpt><trkpt lat="-27.00640333333333" lon="-48.622538333333324"><ele>10.299999999999999</ele></trkpt><trkpt lat="-27.00640333333333" lon="-48.622538333333324"><ele>10.299999999999999</ele></trkpt><trkpt lat="-27.00640333333333" lon="-48.622538333333324"><ele>10.299999999999999</ele></trkpt><trkpt lat="-27.00640333333333" lon="-48.622538333333324"><ele>10.299999999999999</ele></trkpt><trkpt lat="-27.00640333333333" lon="-48.622538333333324"><ele>10.299999999999999</ele></trkpt><trkpt lat="-27.00640333333333" lon="-48.622538333333324"><ele>10.299999999999999</ele></trkpt><trkpt lat="-27.00640333333333" lon="-48.622538333333324"><ele>10.299999999999999</ele></trkpt><trkpt lat="-27.00640333333333" lon="-48.622538333333324"><ele>10.299999999999999</ele></trkpt><trkpt lat="-27.00640333333333" lon="-48.622538333333324"><ele>10.299999999999999</ele></trkpt><trkpt lat="-27.00640333333333" lon="-48.622538333333324"><ele>10.299999999999999</ele></trkpt><trkpt lat="-27.00640333333333" lon="-48.622538333333324"><ele>10.299999999999999</ele></trkpt><trkpt lat="-27.00640333333333" lon="-48.622538333333324"><ele>10.299999999999999</ele></trkpt><trkpt lat="-27.006408333333336" lon="-48.62255166666667"><ele>8.4</ele></trkpt><trkpt lat="-27.006408333333336" lon="-48.62256166666666"><ele>8.6</ele></trkpt><trkpt lat="-27.006408333333336" lon="-48.622569999999996"><ele>8.8</ele></trkpt><trkpt lat="-27.006406666666667" lon="-48.622573333333335"><ele>8.8</ele></trkpt><trkpt lat="-27.006406666666667" lon="-48.622575000000005"><ele>9.1</ele></trkpt><trkpt lat="-27.006405000000004" lon="-48.622575000000005"><ele>9.5</ele></trkpt><trkpt lat="-27.006405000000004" lon="-48.622575000000005"><ele>9.5</ele></trkpt><trkpt lat="-27.006405000000004" lon="-48.622575000000005"><ele>9.5</ele></trkpt><trkpt lat="-27.006405000000004" lon="-48.622575000000005"><ele>9.5</ele></trkpt><trkpt lat="-27.006405000000004" lon="-48.622575000000005"><ele>9.5</ele></trkpt><trkpt lat="-27.006405000000004" lon="-48.622575000000005"><ele>9.5</ele></trkpt><trkpt lat="-27.006405000000004" lon="-48.622575000000005"><ele>9.5</ele></trkpt><trkpt lat="-27.006405000000004" lon="-48.622575000000005"><ele>9.5</ele></trkpt><trkpt lat="-27.006405000000004" lon="-48.622575000000005"><ele>9.5</ele></trkpt><trkpt lat="-27.006405000000004" lon="-48.622575000000005"><ele>9.5</ele></trkpt><trkpt lat="-27.006405000000004" lon="-48.622575000000005"><ele>9.5</ele></trkpt><trkpt lat="-27.006405000000004" lon="-48.622575000000005"><ele>9.5</ele></trkpt><trkpt lat="-27.006405000000004" lon="-48.622575000000005"><ele>9.5</ele></trkpt><trkpt lat="-27.006405000000004" lon="-48.622575000000005"><ele>9.5</ele></trkpt><trkpt lat="-27.006405000000004" lon="-48.622575000000005"><ele>9.5</ele></trkpt><trkpt lat="-27.006405000000004" lon="-48.622575000000005"><ele>9.5</ele></trkpt><trkpt lat="-27.006405000000004" lon="-48.622575000000005"><ele>9.5</ele></trkpt><trkpt lat="-27.006405000000004" lon="-48.622575000000005"><ele>9.5</ele></trkpt><trkpt lat="-27.006405000000004" lon="-48.622575000000005"><ele>9.5</ele></trkpt><trkpt lat="-27.006405000000004" lon="-48.622575000000005"><ele>9.5</ele></trkpt><trkpt lat="-27.006405000000004" lon="-48.622575000000005"><ele>9.5</ele></trkpt><trkpt lat="-27.006405000000004" lon="-48.622575000000005"><ele>9.5</ele></trkpt><trkpt lat="-27.006405000000004" lon="-48.622575000000005"><ele>9.5</ele></trkpt><trkpt lat="-27.006405000000004" lon="-48.622575000000005"><ele>9.5</ele></trkpt><trkpt lat="-27.006405000000004" lon="-48.622575000000005"><ele>9.5</ele></trkpt><trkpt lat="-27.006405000000004" lon="-48.622575000000005"><ele>9.5</ele></trkpt><trkpt lat="-27.006405000000004" lon="-48.622575000000005"><ele>9.5</ele></trkpt><trkpt lat="-27.006405000000004" lon="-48.622575000000005"><ele>9.5</ele></trkpt><trkpt lat="-27.006405000000004" lon="-48.622575000000005"><ele>9.5</ele></trkpt><trkpt lat="-27.006405000000004" lon="-48.622575000000005"><ele>9.5</ele></trkpt><trkpt lat="-27.006405000000004" lon="-48.622575000000005"><ele>9.5</ele></trkpt><trkpt lat="-27.006405000000004" lon="-48.622575000000005"><ele>9.5</ele></trkpt><trkpt lat="-27.006405000000004" lon="-48.622575000000005"><ele>9.5</ele></trkpt><trkpt lat="-27.006405000000004" lon="-48.622575000000005"><ele>9.5</ele></trkpt><trkpt lat="-27.006405000000004" lon="-48.622575000000005"><ele>9.5</ele></trkpt><trkpt lat="-27.006405000000004" lon="-48.622575000000005"><ele>9.5</ele></trkpt><trkpt lat="-27.006405000000004" lon="-48.622575000000005"><ele>9.5</ele></trkpt><trkpt lat="-27.006405000000004" lon="-48.622575000000005"><ele>9.5</ele></trkpt><trkpt lat="-27.006405000000004" lon="-48.622575000000005"><ele>9.5</ele></trkpt><trkpt lat="-27.006405000000004" lon="-48.622575000000005"><ele>9.5</ele></trkpt><trkpt lat="-27.006405000000004" lon="-48.622575000000005"><ele>9.5</ele></trkpt><trkpt lat="-27.006373333333332" lon="-48.622573333333335"><ele>9.6</ele></trkpt><trkpt lat="-27.00637166666667" lon="-48.62258166666667"><ele>9.799999999999999</ele></trkpt><trkpt lat="-27.00636833333333" lon="-48.62259000000001"><ele>9.799999999999999</ele></trkpt><trkpt lat="-27.00636666666667" lon="-48.622593333333334"><ele>10</ele></trkpt><trkpt lat="-27.00636666666667" lon="-48.622595000000004"><ele>10.2</ele></trkpt><trkpt lat="-27.00636666666667" lon="-48.622595000000004"><ele>10.299999999999999</ele></trkpt><trkpt lat="-27.00636666666667" lon="-48.622595000000004"><ele>10.299999999999999</ele></trkpt><trkpt lat="-27.006365" lon="-48.622595000000004"><ele>10.2</ele></trkpt><trkpt lat="-27.006365" lon="-48.62259166666666"><ele>10.2</ele></trkpt><trkpt lat="-27.00636833333333" lon="-48.622584999999994"><ele>10.2</ele></trkpt><trkpt lat="-27.006373333333332" lon="-48.622571666666666"><ele>10.1</ele></trkpt><trkpt lat="-27.00638666666667" lon="-48.62255333333333"><ele>9.799999999999999</ele></trkpt><trkpt lat="-27.006396666666667" lon="-48.622535"><ele>10</ele></trkpt><trkpt lat="-27.006396666666667" lon="-48.62252166666667"><ele>9.2</ele></trkpt><trkpt lat="-27.0064" lon="-48.62250833333333"><ele>9.2</ele></trkpt><trkpt lat="-27.006405000000004" lon="-48.62249666666666"><ele>9.4</ele></trkpt><trkpt lat="-27.00641166666667" lon="-48.622483333333335"><ele>9.4</ele></trkpt><trkpt lat="-27.006415" lon="-48.62246833333334"><ele>9.3</ele></trkpt><trkpt lat="-27.006421666666665" lon="-48.62245333333333"><ele>9.2</ele></trkpt><trkpt lat="-27.00643166666667" lon="-48.62244166666666"><ele>9.2</ele></trkpt><trkpt lat="-27.006438333333335" lon="-48.62243166666667"><ele>9</ele></trkpt><trkpt lat="-27.00644333333333" lon="-48.62241833333333"><ele>9</ele></trkpt><trkpt lat="-27.00644666666667" lon="-48.62240833333333"><ele>9</ele></trkpt><trkpt lat="-27.00644666666667" lon="-48.62240833333333"><ele>9</ele></trkpt><trkpt lat="-27.006455" lon="-48.62239666666666"><ele>9.1</ele></trkpt><trkpt lat="-27.00645833333333" lon="-48.622389999999996"><ele>9.2</ele></trkpt><trkpt lat="-27.00645666666667" lon="-48.62238166666666"><ele>8.8</ele></trkpt><trkpt lat="-27.00646" lon="-48.622368333333334"><ele>8.3</ele></trkpt><trkpt lat="-27.006463333333333" lon="-48.62235666666667"><ele>8.1</ele></trkpt><trkpt lat="-27.006465000000002" lon="-48.622344999999996"><ele>7.9</ele></trkpt><trkpt lat="-27.006465000000002" lon="-48.62233333333334"><ele>8.2</ele></trkpt><trkpt lat="-27.006471666666666" lon="-48.622325000000004"><ele>8.1</ele></trkpt><trkpt lat="-27.006469999999997" lon="-48.62231499999999"><ele>8</ele></trkpt><trkpt lat="-27.00647333333333" lon="-48.622305000000004"><ele>8.2</ele></trkpt><trkpt lat="-27.00647666666667" lon="-48.62229666666667"><ele>8.4</ele></trkpt><trkpt lat="-27.006480000000003" lon="-48.622285"><ele>8.4</ele></trkpt><trkpt lat="-27.006483333333335" lon="-48.62227166666666"><ele>8.1</ele></trkpt><trkpt lat="-27.006486666666667" lon="-48.622258333333335"><ele>7.800000000000001</ele></trkpt><trkpt lat="-27.00649" lon="-48.62224166666667"><ele>7.5</ele></trkpt><trkpt lat="-27.00649166666667" lon="-48.62222833333333"><ele>7.199999999999999</ele></trkpt><trkpt lat="-27.006498333333337" lon="-48.622213333333335"><ele>7</ele></trkpt><trkpt lat="-27.00650333333333" lon="-48.622195"><ele>6.800000000000001</ele></trkpt><trkpt lat="-27.006508333333333" lon="-48.62217833333334"><ele>7</ele></trkpt><trkpt lat="-27.006511666666665" lon="-48.622164999999995"><ele>7.199999999999999</ele></trkpt><trkpt lat="-27.006514999999997" lon="-48.62215333333334"><ele>6.9</ele></trkpt><trkpt lat="-27.00651833333333" lon="-48.62214166666666"><ele>7</ele></trkpt><trkpt lat="-27.006523333333334" lon="-48.62212666666666"><ele>7.4</ele></trkpt><trkpt lat="-27.006528333333335" lon="-48.62211166666666"><ele>8.1</ele></trkpt><trkpt lat="-27.006535" lon="-48.62209666666666"><ele>8.4</ele></trkpt><trkpt lat="-27.00655" lon="-48.62207333333334"><ele>7.699999999999999</ele></trkpt><trkpt lat="-27.006553333333333" lon="-48.62205833333334"><ele>7.4</ele></trkpt><trkpt lat="-27.006556666666665" lon="-48.62204666666666"><ele>6.9</ele></trkpt><trkpt lat="-27.006559999999997" lon="-48.622033333333334"><ele>6.5</ele></trkpt><trkpt lat="-27.00656333333333" lon="-48.622020000000006"><ele>6.199999999999999</ele></trkpt><trkpt lat="-27.006566666666664" lon="-48.62200500000001"><ele>6.199999999999999</ele></trkpt><trkpt lat="-27.006566666666664" lon="-48.621990000000004"><ele>6.199999999999999</ele></trkpt><trkpt lat="-27.006570000000004" lon="-48.62197333333334"><ele>6.1</ele></trkpt><trkpt lat="-27.006576666666668" lon="-48.62195833333333"><ele>6.4</ele></trkpt><trkpt lat="-27.00658333333333" lon="-48.621943333333334"><ele>5.800000000000001</ele></trkpt><trkpt lat="-27.00659" lon="-48.62192833333334"><ele>5.9</ele></trkpt><trkpt lat="-27.006595" lon="-48.62191333333333"><ele>6.1</ele></trkpt><trkpt lat="-27.006601666666665" lon="-48.621896666666665"><ele>6.699999999999999</ele></trkpt><trkpt lat="-27.00660833333333" lon="-48.62188"><ele>7</ele></trkpt><trkpt lat="-27.006613333333334" lon="-48.62186499999999"><ele>7.1</ele></trkpt><trkpt lat="-27.006618333333336" lon="-48.621855000000004"><ele>7.5</ele></trkpt><trkpt lat="-27.006619999999998" lon="-48.621851666666664"><ele>7.699999999999999</ele></trkpt><trkpt lat="-27.006621666666668" lon="-48.621849999999995"><ele>7.9</ele></trkpt><trkpt lat="-27.00662333333333" lon="-48.621849999999995"><ele>8</ele></trkpt><trkpt lat="-27.006625" lon="-48.621849999999995"><ele>8</ele></trkpt><trkpt lat="-27.006626666666662" lon="-48.621851666666664"><ele>8.1</ele></trkpt><trkpt lat="-27.006626666666662" lon="-48.621851666666664"><ele>8.1</ele></trkpt><trkpt lat="-27.006626666666662" lon="-48.621853333333334"><ele>8.1</ele></trkpt><trkpt lat="-27.006625" lon="-48.62185666666666"><ele>8.3</ele></trkpt><trkpt lat="-27.006625" lon="-48.621855000000004"><ele>8.5</ele></trkpt><trkpt lat="-27.006625" lon="-48.62184666666667"><ele>8.6</ele></trkpt><trkpt lat="-27.00662833333333" lon="-48.62183166666667"><ele>8.8</ele></trkpt><trkpt lat="-27.00662833333333" lon="-48.62181666666667"><ele>8.9</ele></trkpt><trkpt lat="-27.006630000000005" lon="-48.62180166666667"><ele>8.8</ele></trkpt><trkpt lat="-27.006633333333337" lon="-48.62178666666667"><ele>8.9</ele></trkpt><trkpt lat="-27.00663666666667" lon="-48.62177333333334"><ele>8.7</ele></trkpt><trkpt lat="-27.00664" lon="-48.621761666666664"><ele>8.9</ele></trkpt><trkpt lat="-27.006645000000002" lon="-48.62175166666666"><ele>9</ele></trkpt><trkpt lat="-27.006645000000002" lon="-48.62174666666667"><ele>8.7</ele></trkpt><trkpt lat="-27.006645000000002" lon="-48.621745"><ele>8.7</ele></trkpt><trkpt lat="-27.006645000000002" lon="-48.621745"><ele>8.4</ele></trkpt><trkpt lat="-27.006643333333333" lon="-48.621748333333336"><ele>8.2</ele></trkpt><trkpt lat="-27.006643333333333" lon="-48.621750000000006"><ele>8.1</ele></trkpt><trkpt lat="-27.006646666666665" lon="-48.621748333333336"><ele>8</ele></trkpt><trkpt lat="-27.006646666666665" lon="-48.621745"><ele>7.800000000000001</ele></trkpt><trkpt lat="-27.006645000000002" lon="-48.62174333333334"><ele>7.9</ele></trkpt><trkpt lat="-27.006643333333333" lon="-48.62174166666667"><ele>7.9</ele></trkpt><trkpt lat="-27.006643333333333" lon="-48.62173833333333"><ele>8</ele></trkpt><trkpt lat="-27.006643333333333" lon="-48.62173833333333"><ele>8</ele></trkpt><trkpt lat="-27.006643333333333" lon="-48.62173833333333"><ele>8</ele></trkpt><trkpt lat="-27.006643333333333" lon="-48.62173833333333"><ele>8</ele></trkpt><trkpt lat="-27.006643333333333" lon="-48.62173833333333"><ele>8</ele></trkpt><trkpt lat="-27.006643333333333" lon="-48.62173833333333"><ele>8</ele></trkpt><trkpt lat="-27.006643333333333" lon="-48.62173833333333"><ele>8</ele></trkpt><trkpt lat="-27.006646666666665" lon="-48.621745"><ele>7.699999999999999</ele></trkpt><trkpt lat="-27.006645000000002" lon="-48.621755"><ele>7.9</ele></trkpt><trkpt lat="-27.00664" lon="-48.621765"><ele>8</ele></trkpt><trkpt lat="-27.00663833333333" lon="-48.62177499999999"><ele>8.4</ele></trkpt><trkpt lat="-27.00663833333333" lon="-48.62177833333333"><ele>8.9</ele></trkpt><trkpt lat="-27.00664" lon="-48.62178000000001"><ele>9.4</ele></trkpt><trkpt lat="-27.00663833333333" lon="-48.62177833333333"><ele>9.7</ele></trkpt><trkpt lat="-27.00663666666667" lon="-48.62177833333333"><ele>10</ele></trkpt><trkpt lat="-27.00663666666667" lon="-48.62177833333333"><ele>10</ele></trkpt><trkpt lat="-27.00664" lon="-48.62177333333334"><ele>10.2</ele></trkpt><trkpt lat="-27.006641666666663" lon="-48.621761666666664"><ele>10.1</ele></trkpt><trkpt lat="-27.006643333333333" lon="-48.621750000000006"><ele>9.799999999999999</ele></trkpt><trkpt lat="-27.006643333333333" lon="-48.62174333333334"><ele>9.7</ele></trkpt><trkpt lat="-27.006643333333333" lon="-48.62174333333334"><ele>9.7</ele></trkpt><trkpt lat="-27.006646666666665" lon="-48.62173500000001"><ele>9.799999999999999</ele></trkpt><trkpt lat="-27.006646666666665" lon="-48.62172833333334"><ele>9.799999999999999</ele></trkpt><trkpt lat="-27.006643333333333" lon="-48.62172333333333"><ele>9.9</ele></trkpt><trkpt lat="-27.00663833333333" lon="-48.62172"><ele>9.7</ele></trkpt><trkpt lat="-27.00663833333333" lon="-48.621718333333334"><ele>9.799999999999999</ele></trkpt><trkpt lat="-27.006633333333337" lon="-48.62172"><ele>9.799999999999999</ele></trkpt><trkpt lat="-27.006633333333337" lon="-48.621718333333334"><ele>10</ele></trkpt><trkpt lat="-27.006633333333337" lon="-48.62171333333334"><ele>10.1</ele></trkpt><trkpt lat="-27.006635" lon="-48.621705000000006"><ele>10.2</ele></trkpt><trkpt lat="-27.00663666666667" lon="-48.62169666666667"><ele>10.2</ele></trkpt><trkpt lat="-27.006635" lon="-48.62168833333333"><ele>10.1</ele></trkpt><trkpt lat="-27.00663666666667" lon="-48.62168"><ele>10.1</ele></trkpt><trkpt lat="-27.00663833333333" lon="-48.621673333333334"><ele>10.2</ele></trkpt><trkpt lat="-27.00664" lon="-48.621671666666664"><ele>10.4</ele></trkpt><trkpt lat="-27.006643333333333" lon="-48.62166666666667"><ele>10.7</ele></trkpt><trkpt lat="-27.006641666666663" lon="-48.62166666666667"><ele>10.7</ele></trkpt><trkpt lat="-27.00663833333333" lon="-48.621665"><ele>10.7</ele></trkpt><trkpt lat="-27.00663833333333" lon="-48.62166333333333"><ele>11.1</ele></trkpt><trkpt lat="-27.00663833333333" lon="-48.62166333333333"><ele>11.7</ele></trkpt><trkpt lat="-27.00663666666667" lon="-48.621660000000006"><ele>11.9</ele></trkpt><trkpt lat="-27.00663666666667" lon="-48.621660000000006"><ele>12</ele></trkpt><trkpt lat="-27.006635" lon="-48.62165666666667"><ele>12.1</ele></trkpt><trkpt lat="-27.006635" lon="-48.62165666666667"><ele>12.1</ele></trkpt><trkpt lat="-27.006635" lon="-48.62165666666667"><ele>12.1</ele></trkpt><trkpt lat="-27.006635" lon="-48.62165666666667"><ele>12.1</ele></trkpt><trkpt lat="-27.006625" lon="-48.62166333333333"><ele>12.299999999999999</ele></trkpt><trkpt lat="-27.00662333333333" lon="-48.621669999999995"><ele>12.5</ele></trkpt><trkpt lat="-27.006621666666668" lon="-48.62167666666666"><ele>12.799999999999999</ele></trkpt><trkpt lat="-27.006618333333336" lon="-48.62168499999999"><ele>13</ele></trkpt><trkpt lat="-27.006616666666666" lon="-48.62169333333333"><ele>13.2</ele></trkpt><trkpt lat="-27.006613333333334" lon="-48.62170166666667"><ele>13.299999999999999</ele></trkpt><trkpt lat="-27.006613333333334" lon="-48.62171"><ele>13.299999999999999</ele></trkpt><trkpt lat="-27.006610000000002" lon="-48.62172166666666"><ele>13.799999999999999</ele></trkpt><trkpt lat="-27.006611666666664" lon="-48.62172666666667"><ele>14.4</ele></trkpt><trkpt lat="-27.006611666666664" lon="-48.62173500000001"><ele>14.799999999999999</ele></trkpt><trkpt lat="-27.006613333333334" lon="-48.62174166666667"><ele>15</ele></trkpt><trkpt lat="-27.006615000000004" lon="-48.621745"><ele>15</ele></trkpt><trkpt lat="-27.006613333333334" lon="-48.621748333333336"><ele>14.9</ele></trkpt><trkpt lat="-27.006613333333334" lon="-48.62174666666667"><ele>14.799999999999999</ele></trkpt><trkpt lat="-27.006611666666664" lon="-48.62174666666667"><ele>14.4</ele></trkpt><trkpt lat="-27.006610000000002" lon="-48.62174666666667"><ele>14.1</ele></trkpt><trkpt lat="-27.006604999999997" lon="-48.62174666666667"><ele>13.799999999999999</ele></trkpt><trkpt lat="-27.006603333333334" lon="-48.62174333333334"><ele>13.7</ele></trkpt><trkpt lat="-27.006603333333334" lon="-48.621745"><ele>13.7</ele></trkpt><trkpt lat="-27.006603333333334" lon="-48.62174666666667"><ele>13.9</ele></trkpt><trkpt lat="-27.006606666666666" lon="-48.621748333333336"><ele>14</ele></trkpt><trkpt lat="-27.006606666666666" lon="-48.621748333333336"><ele>14.1</ele></trkpt><trkpt lat="-27.006610000000002" lon="-48.62174666666667"><ele>14.1</ele></trkpt><trkpt lat="-27.006610000000002" lon="-48.62174666666667"><ele>14.1</ele></trkpt><trkpt lat="-27.006610000000002" lon="-48.62174666666667"><ele>14.1</ele></trkpt><trkpt lat="-27.006625" lon="-48.621745"><ele>13.4</ele></trkpt><trkpt lat="-27.00662833333333" lon="-48.621745"><ele>12.7</ele></trkpt><trkpt lat="-27.006633333333337" lon="-48.62174333333334"><ele>12.4</ele></trkpt><trkpt lat="-27.00663666666667" lon="-48.62174333333334"><ele>12.299999999999999</ele></trkpt><trkpt lat="-27.00663666666667" lon="-48.62174333333334"><ele>12.299999999999999</ele></trkpt><trkpt lat="-27.00663666666667" lon="-48.62174333333334"><ele>12.299999999999999</ele></trkpt><trkpt lat="-27.00663666666667" lon="-48.62174333333334"><ele>12.299999999999999</ele></trkpt><trkpt lat="-27.00663666666667" lon="-48.62174333333334"><ele>12.299999999999999</ele></trkpt><trkpt lat="-27.00663666666667" lon="-48.62174333333334"><ele>12.299999999999999</ele></trkpt><trkpt lat="-27.00663666666667" lon="-48.62174333333334"><ele>12.299999999999999</ele></trkpt><trkpt lat="-27.00663666666667" lon="-48.62174333333334"><ele>12.299999999999999</ele></trkpt><trkpt lat="-27.00663666666667" lon="-48.62174333333334"><ele>12.299999999999999</ele></trkpt><trkpt lat="-27.00663666666667" lon="-48.62174333333334"><ele>12.299999999999999</ele></trkpt><trkpt lat="-27.00663666666667" lon="-48.62174333333334"><ele>12.299999999999999</ele></trkpt><trkpt lat="-27.00663666666667" lon="-48.62174333333334"><ele>12.299999999999999</ele></trkpt><trkpt lat="-27.00663666666667" lon="-48.62174333333334"><ele>12.299999999999999</ele></trkpt><trkpt lat="-27.00663666666667" lon="-48.62174333333334"><ele>12.299999999999999</ele></trkpt><trkpt lat="-27.00663666666667" lon="-48.62174333333334"><ele>12.299999999999999</ele></trkpt><trkpt lat="-27.00663666666667" lon="-48.62174333333334"><ele>12.299999999999999</ele></trkpt><trkpt lat="-27.00663666666667" lon="-48.62174333333334"><ele>12.299999999999999</ele></trkpt><trkpt lat="-27.00663666666667" lon="-48.62174333333334"><ele>12.299999999999999</ele></trkpt><trkpt lat="-27.00663666666667" lon="-48.62174333333334"><ele>12.299999999999999</ele></trkpt><trkpt lat="-27.00663666666667" lon="-48.62174333333334"><ele>12.299999999999999</ele></trkpt><trkpt lat="-27.00663666666667" lon="-48.62174333333334"><ele>12.299999999999999</ele></trkpt><trkpt lat="-27.00663666666667" lon="-48.62174333333334"><ele>12.299999999999999</ele></trkpt><trkpt lat="-27.00663666666667" lon="-48.62174333333334"><ele>12.299999999999999</ele></trkpt><trkpt lat="-27.00663666666667" lon="-48.62174333333334"><ele>12.299999999999999</ele></trkpt><trkpt lat="-27.00663666666667" lon="-48.62174333333334"><ele>12.299999999999999</ele></trkpt><trkpt lat="-27.00663666666667" lon="-48.62174333333334"><ele>12.299999999999999</ele></trkpt><trkpt lat="-27.00663666666667" lon="-48.62174333333334"><ele>12.299999999999999</ele></trkpt><trkpt lat="-27.00663666666667" lon="-48.62174333333334"><ele>12.299999999999999</ele></trkpt><trkpt lat="-27.00663666666667" lon="-48.62174333333334"><ele>12.299999999999999</ele></trkpt><trkpt lat="-27.00663666666667" lon="-48.62174333333334"><ele>12.299999999999999</ele></trkpt><trkpt lat="-27.00663666666667" lon="-48.62174333333334"><ele>12.299999999999999</ele></trkpt><trkpt lat="-27.00663666666667" lon="-48.62174333333334"><ele>12.299999999999999</ele></trkpt><trkpt lat="-27.00663666666667" lon="-48.62174333333334"><ele>12.299999999999999</ele></trkpt><trkpt lat="-27.00663666666667" lon="-48.62174333333334"><ele>12.299999999999999</ele></trkpt><trkpt lat="-27.00663666666667" lon="-48.62174333333334"><ele>12.299999999999999</ele></trkpt><trkpt lat="-27.00663666666667" lon="-48.62174333333334"><ele>12.299999999999999</ele></trkpt><trkpt lat="-27.006633333333337" lon="-48.621725"><ele>10.7</ele></trkpt><trkpt lat="-27.006635" lon="-48.62171"><ele>10.5</ele></trkpt><trkpt lat="-27.006635" lon="-48.62169666666667"><ele>10.299999999999999</ele></trkpt><trkpt lat="-27.00663833333333" lon="-48.62168499999999"><ele>10.4</ele></trkpt><trkpt lat="-27.006641666666663" lon="-48.621669999999995"><ele>10.9</ele></trkpt><trkpt lat="-27.006645000000002" lon="-48.621655"><ele>11.2</ele></trkpt><trkpt lat="-27.006648333333334" lon="-48.62163999999999"><ele>11.7</ele></trkpt><trkpt lat="-27.006651666666667" lon="-48.62162333333334"><ele>12</ele></trkpt><trkpt lat="-27.006655000000002" lon="-48.62160666666667"><ele>12.1</ele></trkpt><trkpt lat="-27.006661666666666" lon="-48.62159"><ele>12</ele></trkpt><trkpt lat="-27.006666666666668" lon="-48.62157666666667"><ele>12</ele></trkpt><trkpt lat="-27.006671666666662" lon="-48.62156333333334"><ele>11.9</ele></trkpt><trkpt lat="-27.00667333333333" lon="-48.621556666666656"><ele>11.5</ele></trkpt><trkpt lat="-27.00667333333333" lon="-48.621556666666656"><ele>11.5</ele></trkpt><trkpt lat="-27.006675000000005" lon="-48.62154999999999"><ele>11.5</ele></trkpt><trkpt lat="-27.006675000000005" lon="-48.62154333333333"><ele>11.4</ele></trkpt><trkpt lat="-27.006676666666667" lon="-48.621536666666664"><ele>11.7</ele></trkpt><trkpt lat="-27.00668" lon="-48.621536666666664"><ele>12.2</ele></trkpt><trkpt lat="-27.00668333333333" lon="-48.62152833333333"><ele>12.299999999999999</ele></trkpt><trkpt lat="-27.006686666666663" lon="-48.62151833333334"><ele>12.4</ele></trkpt><trkpt lat="-27.006688333333333" lon="-48.6215"><ele>12.1</ele></trkpt><trkpt lat="-27.006693333333335" lon="-48.621478333333336"><ele>11.799999999999999</ele></trkpt><trkpt lat="-27.006703333333334" lon="-48.62145"><ele>12.4</ele></trkpt><trkpt lat="-27.006711666666668" lon="-48.621425"><ele>13</ele></trkpt><trkpt lat="-27.006720000000005" lon="-48.62139666666667"><ele>13.4</ele></trkpt><trkpt lat="-27.006733333333333" lon="-48.62134833333333"><ele>13.299999999999999</ele></trkpt><trkpt lat="-27.006745000000002" lon="-48.621311666666664"><ele>13.1</ele></trkpt><trkpt lat="-27.006751666666666" lon="-48.62127666666667"><ele>13.1</ele></trkpt><trkpt lat="-27.00676" lon="-48.62124333333333"><ele>12.7</ele></trkpt><trkpt lat="-27.00677" lon="-48.621208333333335"><ele>12.7</ele></trkpt><trkpt lat="-27.006776666666664" lon="-48.62117833333333"><ele>12.4</ele></trkpt><trkpt lat="-27.006784999999997" lon="-48.62115000000001"><ele>11.6</ele></trkpt><trkpt lat="-27.006795000000004" lon="-48.621120000000005"><ele>11.4</ele></trkpt><trkpt lat="-27.006808333333332" lon="-48.621095"><ele>9.799999999999999</ele></trkpt><trkpt lat="-27.006821666666664" lon="-48.62106833333334"><ele>9.2</ele></trkpt><trkpt lat="-27.006829999999997" lon="-48.62104166666666"><ele>9.4</ele></trkpt><trkpt lat="-27.006829999999997" lon="-48.62104166666666"><ele>9.4</ele></trkpt><trkpt lat="-27.006843333333336" lon="-48.62101333333333"><ele>9.799999999999999</ele></trkpt><trkpt lat="-27.006856666666668" lon="-48.620985000000005"><ele>10</ele></trkpt><trkpt lat="-27.006865" lon="-48.62095333333333"><ele>9.9</ele></trkpt><trkpt lat="-27.006876666666667" lon="-48.62091999999999"><ele>9.9</ele></trkpt><trkpt lat="-27.006885000000004" lon="-48.620893333333335"><ele>9.6</ele></trkpt><trkpt lat="-27.006895" lon="-48.62086333333333"><ele>9.3</ele></trkpt><trkpt lat="-27.006905" lon="-48.62083333333333"><ele>9.4</ele></trkpt><trkpt lat="-27.006915000000003" lon="-48.620806666666674"><ele>9.1</ele></trkpt><trkpt lat="-27.006925000000003" lon="-48.620775"><ele>9.1</ele></trkpt><trkpt lat="-27.006930000000004" lon="-48.62074500000001"><ele>9.2</ele></trkpt><trkpt lat="-27.00693833333333" lon="-48.620716666666674"><ele>9.4</ele></trkpt><trkpt lat="-27.006943333333332" lon="-48.620691666666666"><ele>9.4</ele></trkpt><trkpt lat="-27.006943333333332" lon="-48.620691666666666"><ele>9.4</ele></trkpt><trkpt lat="-27.006955" lon="-48.620666666666665"><ele>8.7</ele></trkpt><trkpt lat="-27.006960000000003" lon="-48.62064333333333"><ele>8.5</ele></trkpt><trkpt lat="-27.006970000000003" lon="-48.62061666666667"><ele>9.2</ele></trkpt><trkpt lat="-27.00698" lon="-48.620585"><ele>9.3</ele></trkpt><trkpt lat="-27.006985" lon="-48.620554999999996"><ele>9.4</ele></trkpt><trkpt lat="-27.006991666666668" lon="-48.620521666666676"><ele>9.799999999999999</ele></trkpt><trkpt lat="-27.007" lon="-48.62049166666667"><ele>9.7</ele></trkpt><trkpt lat="-27.007006666666665" lon="-48.62046166666667"><ele>9</ele></trkpt><trkpt lat="-27.007018333333335" lon="-48.620430000000006"><ele>8.4</ele></trkpt><trkpt lat="-27.00702666666667" lon="-48.620398333333334"><ele>7.9</ele></trkpt><trkpt lat="-27.007038333333337" lon="-48.62036666666666"><ele>7.4</ele></trkpt><trkpt lat="-27.007045" lon="-48.620341666666675"><ele>7.4</ele></trkpt><trkpt lat="-27.007053333333335" lon="-48.620315"><ele>7.9</ele></trkpt><trkpt lat="-27.007063333333335" lon="-48.620286666666665"><ele>8.2</ele></trkpt><trkpt lat="-27.007068333333336" lon="-48.620261666666664"><ele>8.2</ele></trkpt><trkpt lat="-27.007078333333332" lon="-48.620235"><ele>8</ele></trkpt><trkpt lat="-27.007078333333332" lon="-48.620235"><ele>8</ele></trkpt><trkpt lat="-27.00708666666667" lon="-48.620205000000006"><ele>7.9</ele></trkpt><trkpt lat="-27.007096666666666" lon="-48.620175"><ele>7.800000000000001</ele></trkpt><trkpt lat="-27.007109999999997" lon="-48.620145"><ele>8</ele></trkpt><trkpt lat="-27.00711833333333" lon="-48.62011333333333"><ele>7.9</ele></trkpt><trkpt lat="-27.007123333333332" lon="-48.620081666666664"><ele>8.2</ele></trkpt><trkpt lat="-27.007135" lon="-48.620050000000006"><ele>8.6</ele></trkpt><trkpt lat="-27.007146666666667" lon="-48.620014999999995"><ele>8.2</ele></trkpt><trkpt lat="-27.007156666666667" lon="-48.619985"><ele>7.9</ele></trkpt><trkpt lat="-27.00716166666667" lon="-48.61995333333333"><ele>7.4</ele></trkpt><trkpt lat="-27.007171666666668" lon="-48.61992"><ele>7</ele></trkpt><trkpt lat="-27.007181666666664" lon="-48.61988666666666"><ele>6.699999999999999</ele></trkpt><trkpt lat="-27.007191666666667" lon="-48.61985166666667"><ele>6.6</ele></trkpt><trkpt lat="-27.007201666666667" lon="-48.61981666666667"><ele>6.5</ele></trkpt><trkpt lat="-27.007213333333333" lon="-48.61978333333333"><ele>6.5</ele></trkpt><trkpt lat="-27.007225000000002" lon="-48.619755000000005"><ele>6.699999999999999</ele></trkpt><trkpt lat="-27.007236666666667" lon="-48.61973166666667"><ele>6.699999999999999</ele></trkpt><trkpt lat="-27.007244999999998" lon="-48.61971833333334"><ele>7.1</ele></trkpt><trkpt lat="-27.00725166666667" lon="-48.619711666666674"><ele>7.1</ele></trkpt><trkpt lat="-27.00725333333333" lon="-48.619701666666664"><ele>6.9</ele></trkpt><trkpt lat="-27.007255" lon="-48.61969666666667"><ele>6.800000000000001</ele></trkpt><trkpt lat="-27.007256666666663" lon="-48.619688333333336"><ele>6.699999999999999</ele></trkpt><trkpt lat="-27.007256666666663" lon="-48.61968666666667"><ele>7</ele></trkpt><trkpt lat="-27.007255" lon="-48.619688333333336"><ele>7.4</ele></trkpt><trkpt lat="-27.007255" lon="-48.619688333333336"><ele>7.800000000000001</ele></trkpt><trkpt lat="-27.00725333333333" lon="-48.619685"><ele>7.9</ele></trkpt><trkpt lat="-27.007256666666663" lon="-48.61967833333333"><ele>8.1</ele></trkpt><trkpt lat="-27.007259999999995" lon="-48.61967333333334"><ele>7.800000000000001</ele></trkpt><trkpt lat="-27.007263333333338" lon="-48.61966833333333"><ele>7.699999999999999</ele></trkpt><trkpt lat="-27.007265" lon="-48.619666666666674"><ele>7.4</ele></trkpt><trkpt lat="-27.007263333333338" lon="-48.619666666666674"><ele>7.5</ele></trkpt><trkpt lat="-27.00726166666667" lon="-48.61966333333333"><ele>7.6</ele></trkpt><trkpt lat="-27.007259999999995" lon="-48.61966"><ele>7.6</ele></trkpt><trkpt lat="-27.007256666666663" lon="-48.619654999999995"><ele>7.6</ele></trkpt><trkpt lat="-27.00725333333333" lon="-48.61965166666667"><ele>7.6</ele></trkpt><trkpt lat="-27.00725166666667" lon="-48.619653333333325"><ele>7.699999999999999</ele></trkpt><trkpt lat="-27.00725166666667" lon="-48.619658333333334"><ele>7.800000000000001</ele></trkpt><trkpt lat="-27.00725166666667" lon="-48.61966"><ele>8.1</ele></trkpt><trkpt lat="-27.007248333333337" lon="-48.619656666666664"><ele>7.800000000000001</ele></trkpt><trkpt lat="-27.00725" lon="-48.61966"><ele>7.800000000000001</ele></trkpt><trkpt lat="-27.00725" lon="-48.619658333333334"><ele>8</ele></trkpt><trkpt lat="-27.00725" lon="-48.619658333333334"><ele>8</ele></trkpt><trkpt lat="-27.00725" lon="-48.619658333333334"><ele>8</ele></trkpt><trkpt lat="-27.00725" lon="-48.619658333333334"><ele>8</ele></trkpt><trkpt lat="-27.00725" lon="-48.619658333333334"><ele>8</ele></trkpt><trkpt lat="-27.00725" lon="-48.619658333333334"><ele>8</ele></trkpt><trkpt lat="-27.00725" lon="-48.619658333333334"><ele>8</ele></trkpt><trkpt lat="-27.00725" lon="-48.619658333333334"><ele>8</ele></trkpt><trkpt lat="-27.00725" lon="-48.619658333333334"><ele>8</ele></trkpt><trkpt lat="-27.00725" lon="-48.619658333333334"><ele>8</ele></trkpt><trkpt lat="-27.00725" lon="-48.619658333333334"><ele>8</ele></trkpt><trkpt lat="-27.00725" lon="-48.619658333333334"><ele>8</ele></trkpt><trkpt lat="-27.00725" lon="-48.619658333333334"><ele>8</ele></trkpt><trkpt lat="-27.00725" lon="-48.619658333333334"><ele>8</ele></trkpt><trkpt lat="-27.00725" lon="-48.619658333333334"><ele>8</ele></trkpt><trkpt lat="-27.00725" lon="-48.619658333333334"><ele>8</ele></trkpt><trkpt lat="-27.00725" lon="-48.619658333333334"><ele>8</ele></trkpt><trkpt lat="-27.00725" lon="-48.619658333333334"><ele>8</ele></trkpt><trkpt lat="-27.00725" lon="-48.619658333333334"><ele>8</ele></trkpt><trkpt lat="-27.00725" lon="-48.619658333333334"><ele>8</ele></trkpt><trkpt lat="-27.00725" lon="-48.619658333333334"><ele>8</ele></trkpt><trkpt lat="-27.00725" lon="-48.619658333333334"><ele>8</ele></trkpt><trkpt lat="-27.00725" lon="-48.619658333333334"><ele>8</ele></trkpt><trkpt lat="-27.00725" lon="-48.619658333333334"><ele>8</ele></trkpt><trkpt lat="-27.00725" lon="-48.619658333333334"><ele>8</ele></trkpt><trkpt lat="-27.00725" lon="-48.619658333333334"><ele>8</ele></trkpt><trkpt lat="-27.00725" lon="-48.619658333333334"><ele>8</ele></trkpt><trkpt lat="-27.00725" lon="-48.619658333333334"><ele>8</ele></trkpt><trkpt lat="-27.00725" lon="-48.619658333333334"><ele>8</ele></trkpt><trkpt lat="-27.00725" lon="-48.619658333333334"><ele>8</ele></trkpt><trkpt lat="-27.00725" lon="-48.619658333333334"><ele>8</ele></trkpt><trkpt lat="-27.00725" lon="-48.619658333333334"><ele>8</ele></trkpt><trkpt lat="-27.00725" lon="-48.619658333333334"><ele>8</ele></trkpt><trkpt lat="-27.00725" lon="-48.619658333333334"><ele>8</ele></trkpt><trkpt lat="-27.00725" lon="-48.619658333333334"><ele>8</ele></trkpt><trkpt lat="-27.00725" lon="-48.619658333333334"><ele>8</ele></trkpt><trkpt lat="-27.00725" lon="-48.619658333333334"><ele>8</ele></trkpt><trkpt lat="-27.00725" lon="-48.619658333333334"><ele>8</ele></trkpt><trkpt lat="-27.00725" lon="-48.619658333333334"><ele>8</ele></trkpt><trkpt lat="-27.00725" lon="-48.619658333333334"><ele>8</ele></trkpt><trkpt lat="-27.00725" lon="-48.619658333333334"><ele>8</ele></trkpt><trkpt lat="-27.00725" lon="-48.619658333333334"><ele>8</ele></trkpt><trkpt lat="-27.00725" lon="-48.619658333333334"><ele>8</ele></trkpt><trkpt lat="-27.00725" lon="-48.619658333333334"><ele>8</ele></trkpt><trkpt lat="-27.00725" lon="-48.619658333333334"><ele>8</ele></trkpt><trkpt lat="-27.00725" lon="-48.619658333333334"><ele>8</ele></trkpt><trkpt lat="-27.00725" lon="-48.619658333333334"><ele>8</ele></trkpt><trkpt lat="-27.00725" lon="-48.619658333333334"><ele>8</ele></trkpt><trkpt lat="-27.00725" lon="-48.619658333333334"><ele>8</ele></trkpt><trkpt lat="-27.00725" lon="-48.619658333333334"><ele>8</ele></trkpt><trkpt lat="-27.00725" lon="-48.619658333333334"><ele>8</ele></trkpt><trkpt lat="-27.00725" lon="-48.619658333333334"><ele>8</ele></trkpt><trkpt lat="-27.007246666666667" lon="-48.61965166666667"><ele>8.6</ele></trkpt><trkpt lat="-27.00725166666667" lon="-48.61962666666667"><ele>8</ele></trkpt><trkpt lat="-27.007256666666663" lon="-48.61960166666666"><ele>7.300000000000001</ele></trkpt><trkpt lat="-27.007265" lon="-48.619576666666674"><ele>7.199999999999999</ele></trkpt><trkpt lat="-27.007268333333332" lon="-48.619553333333336"><ele>7.199999999999999</ele></trkpt><trkpt lat="-27.007276666666666" lon="-48.61952666666666"><ele>7.1</ele></trkpt><trkpt lat="-27.007286666666666" lon="-48.619505"><ele>7.4</ele></trkpt><trkpt lat="-27.00729833333333" lon="-48.619476666666664"><ele>7.9</ele></trkpt><trkpt lat="-27.00731" lon="-48.61945000000001"><ele>8.6</ele></trkpt><trkpt lat="-27.007319999999996" lon="-48.619418333333336"><ele>10.2</ele></trkpt><trkpt lat="-27.007330000000003" lon="-48.619383333333325"><ele>11.299999999999999</ele></trkpt><trkpt lat="-27.00734333333333" lon="-48.61934666666666"><ele>11.4</ele></trkpt><trkpt lat="-27.007355" lon="-48.61931833333333"><ele>11.6</ele></trkpt><trkpt lat="-27.007368333333336" lon="-48.61928666666666"><ele>12.2</ele></trkpt><trkpt lat="-27.007378333333335" lon="-48.61925666666666"><ele>12.4</ele></trkpt><trkpt lat="-27.007391666666663" lon="-48.61922500000001"><ele>12.9</ele></trkpt><trkpt lat="-27.0074" lon="-48.619189999999996"><ele>14</ele></trkpt><trkpt lat="-27.007408333333334" lon="-48.61914166666667"><ele>13</ele></trkpt><trkpt lat="-27.007423333333335" lon="-48.61909166666666"><ele>12.2</ele></trkpt><trkpt lat="-27.007438333333333" lon="-48.61903833333334"><ele>12</ele></trkpt><trkpt lat="-27.007450000000002" lon="-48.61900333333333"><ele>11.299999999999999</ele></trkpt><trkpt lat="-27.007448333333333" lon="-48.618990000000004"><ele>10.799999999999999</ele></trkpt><trkpt lat="-27.007443333333338" lon="-48.61898833333333"><ele>10.1</ele></trkpt><trkpt lat="-27.007443333333338" lon="-48.618985"><ele>9.799999999999999</ele></trkpt><trkpt lat="-27.007443333333338" lon="-48.61898333333333"><ele>9.7</ele></trkpt><trkpt lat="-27.007445" lon="-48.61897666666667"><ele>9.799999999999999</ele></trkpt><trkpt lat="-27.007453333333334" lon="-48.618964999999996"><ele>9.4</ele></trkpt><trkpt lat="-27.00746" lon="-48.61895166666667"><ele>9.3</ele></trkpt><trkpt lat="-27.007469999999998" lon="-48.61893666666666"><ele>9.3</ele></trkpt><trkpt lat="-27.00747833333333" lon="-48.618919999999996"><ele>9.3</ele></trkpt><trkpt lat="-27.007488333333338" lon="-48.618900000000004"><ele>9.4</ele></trkpt><trkpt lat="-27.007495000000002" lon="-48.618876666666665"><ele>9.4</ele></trkpt><trkpt lat="-27.007495000000002" lon="-48.618876666666665"><ele>9.4</ele></trkpt><trkpt lat="-27.007501666666666" lon="-48.61885333333333"><ele>9.2</ele></trkpt><trkpt lat="-27.007513333333335" lon="-48.618835000000004"><ele>8.8</ele></trkpt><trkpt lat="-27.00752333333333" lon="-48.61881166666667"><ele>8.6</ele></trkpt><trkpt lat="-27.00753166666667" lon="-48.61877833333333"><ele>7.5</ele></trkpt><trkpt lat="-27.007544999999997" lon="-48.618741666666665"><ele>7.1</ele></trkpt><trkpt lat="-27.007556666666666" lon="-48.61870999999999"><ele>6.800000000000001</ele></trkpt><trkpt lat="-27.00757" lon="-48.61867666666667"><ele>6.699999999999999</ele></trkpt><trkpt lat="-27.007583333333333" lon="-48.61864333333333"><ele>6.9</ele></trkpt><trkpt lat="-27.007595" lon="-48.618610000000004"><ele>7</ele></trkpt><trkpt lat="-27.00760833333333" lon="-48.61857833333333"><ele>7</ele></trkpt><trkpt lat="-27.007625" lon="-48.61854666666667"><ele>7.199999999999999</ele></trkpt><trkpt lat="-27.007636666666667" lon="-48.618520000000004"><ele>7.1</ele></trkpt><trkpt lat="-27.007649999999998" lon="-48.618493333333326"><ele>7.1</ele></trkpt><trkpt lat="-27.00766666666667" lon="-48.61846833333334"><ele>6.9</ele></trkpt><trkpt lat="-27.00766666666667" lon="-48.61846833333334"><ele>6.9</ele></trkpt><trkpt lat="-27.007675000000003" lon="-48.618448333333326"><ele>6.5</ele></trkpt><trkpt lat="-27.007690000000004" lon="-48.618424999999995"><ele>7.4</ele></trkpt><trkpt lat="-27.007705" lon="-48.6184"><ele>8.3</ele></trkpt><trkpt lat="-27.007715" lon="-48.618379999999995"><ele>8.7</ele></trkpt><trkpt lat="-27.007721666666665" lon="-48.618370000000006"><ele>8.9</ele></trkpt><trkpt lat="-27.007718333333333" lon="-48.618365"><ele>8.9</ele></trkpt><trkpt lat="-27.00771333333333" lon="-48.618365"><ele>8.8</ele></trkpt><trkpt lat="-27.007715" lon="-48.61836333333334"><ele>8.9</ele></trkpt><trkpt lat="-27.007718333333333" lon="-48.61836"><ele>9</ele></trkpt><trkpt lat="-27.007721666666665" lon="-48.61835666666666"><ele>9.3</ele></trkpt><trkpt lat="-27.007721666666665" lon="-48.618355"><ele>9.4</ele></trkpt><trkpt lat="-27.007721666666665" lon="-48.61835166666666"><ele>9.6</ele></trkpt><trkpt lat="-27.007718333333333" lon="-48.61834999999999"><ele>9.799999999999999</ele></trkpt><trkpt lat="-27.007715" lon="-48.61835333333333"><ele>9.799999999999999</ele></trkpt><trkpt lat="-27.007709999999996" lon="-48.61835666666666"><ele>10</ele></trkpt><trkpt lat="-27.007705" lon="-48.61836166666667"><ele>9.9</ele></trkpt><trkpt lat="-27.00770166666667" lon="-48.61836166666667"><ele>9.7</ele></trkpt><trkpt lat="-27.0077" lon="-48.618358333333326"><ele>9.7</ele></trkpt><trkpt lat="-27.007705" lon="-48.618358333333326"><ele>9.7</ele></trkpt><trkpt lat="-27.007703333333332" lon="-48.618358333333326"><ele>9.7</ele></trkpt><trkpt lat="-27.007703333333332" lon="-48.618358333333326"><ele>9.7</ele></trkpt><trkpt lat="-27.007703333333332" lon="-48.618358333333326"><ele>9.7</ele></trkpt><trkpt lat="-27.007703333333332" lon="-48.61834333333333"><ele>9.5</ele></trkpt><trkpt lat="-27.007703333333332" lon="-48.61833166666667"><ele>9.7</ele></trkpt><trkpt lat="-27.007703333333332" lon="-48.61832666666666"><ele>9.7</ele></trkpt><trkpt lat="-27.00770166666667" lon="-48.61832166666667"><ele>9.799999999999999</ele></trkpt><trkpt lat="-27.007696666666668" lon="-48.61831666666667"><ele>10</ele></trkpt><trkpt lat="-27.007691666666666" lon="-48.618315"><ele>10.2</ele></trkpt><trkpt lat="-27.007691666666666" lon="-48.618313333333326"><ele>10.6</ele></trkpt><trkpt lat="-27.007691666666666" lon="-48.618311666666656"><ele>10.799999999999999</ele></trkpt><trkpt lat="-27.007691666666666" lon="-48.618311666666656"><ele>10.799999999999999</ele></trkpt><trkpt lat="-27.007690000000004" lon="-48.61831"><ele>10.7</ele></trkpt><trkpt lat="-27.007693333333336" lon="-48.61831666666667"><ele>10.4</ele></trkpt><trkpt lat="-27.007695" lon="-48.61832666666666"><ele>10.1</ele></trkpt><trkpt lat="-27.00770166666667" lon="-48.618338333333334"><ele>10</ele></trkpt><trkpt lat="-27.00770166666667" lon="-48.61834999999999"><ele>9.799999999999999</ele></trkpt><trkpt lat="-27.00770166666667" lon="-48.61834999999999"><ele>9.799999999999999</ele></trkpt><trkpt lat="-27.00770166666667" lon="-48.618358333333326"><ele>9.9</ele></trkpt><trkpt lat="-27.007705" lon="-48.61836666666667"><ele>10</ele></trkpt><trkpt lat="-27.007706666666664" lon="-48.618370000000006"><ele>9.9</ele></trkpt><trkpt lat="-27.007709999999996" lon="-48.618370000000006"><ele>9.9</ele></trkpt><trkpt lat="-27.007715" lon="-48.61836166666667"><ele>9.799999999999999</ele></trkpt><trkpt lat="-27.007723333333335" lon="-48.618355"><ele>10</ele></trkpt><trkpt lat="-27.00773166666667" lon="-48.61834666666667"><ele>10.5</ele></trkpt><trkpt lat="-27.007736666666666" lon="-48.618334999999995"><ele>10.799999999999999</ele></trkpt><trkpt lat="-27.007738333333336" lon="-48.61833166666667"><ele>10.4</ele></trkpt><trkpt lat="-27.007738333333336" lon="-48.61833333333334"><ele>10.299999999999999</ele></trkpt><trkpt lat="-27.007738333333336" lon="-48.61833166666667"><ele>9.9</ele></trkpt><trkpt lat="-27.007735000000004" lon="-48.61833333333334"><ele>9.799999999999999</ele></trkpt><trkpt lat="-27.007735000000004" lon="-48.618334999999995"><ele>9.7</ele></trkpt><trkpt lat="-27.007736666666666" lon="-48.61833333333334"><ele>9.6</ele></trkpt><trkpt lat="-27.00774333333333" lon="-48.61833333333334"><ele>9.7</ele></trkpt><trkpt lat="-27.007748333333332" lon="-48.61833166666667"><ele>9.799999999999999</ele></trkpt><trkpt lat="-27.007751666666664" lon="-48.61832833333333"><ele>9.5</ele></trkpt><trkpt lat="-27.00775" lon="-48.618325000000006"><ele>9.7</ele></trkpt><trkpt lat="-27.00774666666667" lon="-48.618323333333336"><ele>9.799999999999999</ele></trkpt><trkpt lat="-27.00774666666667" lon="-48.618323333333336"><ele>9.799999999999999</ele></trkpt><trkpt lat="-27.00774666666667" lon="-48.618323333333336"><ele>9.799999999999999</ele></trkpt><trkpt lat="-27.00774666666667" lon="-48.618323333333336"><ele>9.799999999999999</ele></trkpt><trkpt lat="-27.00774666666667" lon="-48.618323333333336"><ele>9.799999999999999</ele></trkpt><trkpt lat="-27.00774666666667" lon="-48.618323333333336"><ele>9.799999999999999</ele></trkpt><trkpt lat="-27.00774666666667" lon="-48.618323333333336"><ele>9.799999999999999</ele></trkpt><trkpt lat="-27.00774666666667" lon="-48.618323333333336"><ele>9.799999999999999</ele></trkpt><trkpt lat="-27.00774666666667" lon="-48.618323333333336"><ele>9.799999999999999</ele></trkpt><trkpt lat="-27.00774666666667" lon="-48.618323333333336"><ele>9.799999999999999</ele></trkpt><trkpt lat="-27.00774666666667" lon="-48.618323333333336"><ele>9.799999999999999</ele></trkpt><trkpt lat="-27.00774666666667" lon="-48.618323333333336"><ele>9.799999999999999</ele></trkpt><trkpt lat="-27.00774666666667" lon="-48.618323333333336"><ele>9.799999999999999</ele></trkpt><trkpt lat="-27.00774666666667" lon="-48.618323333333336"><ele>9.799999999999999</ele></trkpt><trkpt lat="-27.00774666666667" lon="-48.618323333333336"><ele>9.799999999999999</ele></trkpt><trkpt lat="-27.00774666666667" lon="-48.618323333333336"><ele>9.799999999999999</ele></trkpt><trkpt lat="-27.00774666666667" lon="-48.618323333333336"><ele>9.799999999999999</ele></trkpt><trkpt lat="-27.00774666666667" lon="-48.618323333333336"><ele>9.799999999999999</ele></trkpt><trkpt lat="-27.00774666666667" lon="-48.618323333333336"><ele>9.799999999999999</ele></trkpt><trkpt lat="-27.00774666666667" lon="-48.618323333333336"><ele>9.799999999999999</ele></trkpt><trkpt lat="-27.00774666666667" lon="-48.618323333333336"><ele>9.799999999999999</ele></trkpt><trkpt lat="-27.00774666666667" lon="-48.618323333333336"><ele>9.799999999999999</ele></trkpt><trkpt lat="-27.00774666666667" lon="-48.618323333333336"><ele>9.799999999999999</ele></trkpt><trkpt lat="-27.00774666666667" lon="-48.618323333333336"><ele>9.799999999999999</ele></trkpt><trkpt lat="-27.00774666666667" lon="-48.618323333333336"><ele>9.799999999999999</ele></trkpt><trkpt lat="-27.00774666666667" lon="-48.618323333333336"><ele>9.799999999999999</ele></trkpt><trkpt lat="-27.00774666666667" lon="-48.618323333333336"><ele>9.799999999999999</ele></trkpt><trkpt lat="-27.00774666666667" lon="-48.618323333333336"><ele>9.799999999999999</ele></trkpt><trkpt lat="-27.00774666666667" lon="-48.618323333333336"><ele>9.799999999999999</ele></trkpt><trkpt lat="-27.00774666666667" lon="-48.618323333333336"><ele>9.799999999999999</ele></trkpt><trkpt lat="-27.00774666666667" lon="-48.618323333333336"><ele>9.799999999999999</ele></trkpt><trkpt lat="-27.00774666666667" lon="-48.618323333333336"><ele>9.799999999999999</ele></trkpt><trkpt lat="-27.00774666666667" lon="-48.618323333333336"><ele>9.799999999999999</ele></trkpt><trkpt lat="-27.00774666666667" lon="-48.618323333333336"><ele>9.799999999999999</ele></trkpt><trkpt lat="-27.00774666666667" lon="-48.618323333333336"><ele>9.799999999999999</ele></trkpt><trkpt lat="-27.00774666666667" lon="-48.618323333333336"><ele>9.799999999999999</ele></trkpt><trkpt lat="-27.00774666666667" lon="-48.618323333333336"><ele>9.799999999999999</ele></trkpt><trkpt lat="-27.00774666666667" lon="-48.618323333333336"><ele>9.799999999999999</ele></trkpt><trkpt lat="-27.00774666666667" lon="-48.618323333333336"><ele>9.799999999999999</ele></trkpt><trkpt lat="-27.00774666666667" lon="-48.618323333333336"><ele>9.799999999999999</ele></trkpt><trkpt lat="-27.00774666666667" lon="-48.618323333333336"><ele>9.799999999999999</ele></trkpt><trkpt lat="-27.00774666666667" lon="-48.618323333333336"><ele>9.799999999999999</ele></trkpt><trkpt lat="-27.00774666666667" lon="-48.618323333333336"><ele>9.799999999999999</ele></trkpt><trkpt lat="-27.00774666666667" lon="-48.618323333333336"><ele>9.799999999999999</ele></trkpt><trkpt lat="-27.00774666666667" lon="-48.618323333333336"><ele>9.799999999999999</ele></trkpt><trkpt lat="-27.00774666666667" lon="-48.618323333333336"><ele>9.799999999999999</ele></trkpt><trkpt lat="-27.00774666666667" lon="-48.618323333333336"><ele>9.799999999999999</ele></trkpt><trkpt lat="-27.00774666666667" lon="-48.618323333333336"><ele>9.799999999999999</ele></trkpt><trkpt lat="-27.00774666666667" lon="-48.618323333333336"><ele>9.799999999999999</ele></trkpt><trkpt lat="-27.00774666666667" lon="-48.618323333333336"><ele>9.799999999999999</ele></trkpt><trkpt lat="-27.00774666666667" lon="-48.618323333333336"><ele>9.799999999999999</ele></trkpt><trkpt lat="-27.00774666666667" lon="-48.618323333333336"><ele>9.799999999999999</ele></trkpt><trkpt lat="-27.00774666666667" lon="-48.618323333333336"><ele>9.799999999999999</ele></trkpt><trkpt lat="-27.00774666666667" lon="-48.618323333333336"><ele>9.799999999999999</ele></trkpt><trkpt lat="-27.00774666666667" lon="-48.618323333333336"><ele>9.799999999999999</ele></trkpt><trkpt lat="-27.00774666666667" lon="-48.618323333333336"><ele>9.799999999999999</ele></trkpt><trkpt lat="-27.00774666666667" lon="-48.618323333333336"><ele>9.799999999999999</ele></trkpt><trkpt lat="-27.00774666666667" lon="-48.618323333333336"><ele>9.799999999999999</ele></trkpt><trkpt lat="-27.00774666666667" lon="-48.618323333333336"><ele>9.799999999999999</ele></trkpt><trkpt lat="-27.00774666666667" lon="-48.618323333333336"><ele>9.799999999999999</ele></trkpt><trkpt lat="-27.00774666666667" lon="-48.618323333333336"><ele>9.799999999999999</ele></trkpt><trkpt lat="-27.00774666666667" lon="-48.618323333333336"><ele>9.799999999999999</ele></trkpt><trkpt lat="-27.00774666666667" lon="-48.618323333333336"><ele>9.799999999999999</ele></trkpt><trkpt lat="-27.00774666666667" lon="-48.618323333333336"><ele>9.799999999999999</ele></trkpt><trkpt lat="-27.00774666666667" lon="-48.618323333333336"><ele>9.799999999999999</ele></trkpt><trkpt lat="-27.00774666666667" lon="-48.618323333333336"><ele>9.799999999999999</ele></trkpt><trkpt lat="-27.00774666666667" lon="-48.618323333333336"><ele>9.799999999999999</ele></trkpt><trkpt lat="-27.00774666666667" lon="-48.618323333333336"><ele>9.799999999999999</ele></trkpt><trkpt lat="-27.00774666666667" lon="-48.618323333333336"><ele>9.799999999999999</ele></trkpt><trkpt lat="-27.00774666666667" lon="-48.618323333333336"><ele>9.799999999999999</ele></trkpt><trkpt lat="-27.00774666666667" lon="-48.618323333333336"><ele>9.799999999999999</ele></trkpt><trkpt lat="-27.00774666666667" lon="-48.618323333333336"><ele>9.799999999999999</ele></trkpt><trkpt lat="-27.00774666666667" lon="-48.618323333333336"><ele>9.799999999999999</ele></trkpt><trkpt lat="-27.00774666666667" lon="-48.618323333333336"><ele>9.799999999999999</ele></trkpt><trkpt lat="-27.00774666666667" lon="-48.618323333333336"><ele>9.799999999999999</ele></trkpt><trkpt lat="-27.00774666666667" lon="-48.618323333333336"><ele>9.799999999999999</ele></trkpt><trkpt lat="-27.00774666666667" lon="-48.618323333333336"><ele>9.799999999999999</ele></trkpt><trkpt lat="-27.00774666666667" lon="-48.618323333333336"><ele>9.799999999999999</ele></trkpt><trkpt lat="-27.00774666666667" lon="-48.618323333333336"><ele>9.799999999999999</ele></trkpt><trkpt lat="-27.00774666666667" lon="-48.618323333333336"><ele>9.799999999999999</ele></trkpt><trkpt lat="-27.00774666666667" lon="-48.618323333333336"><ele>9.799999999999999</ele></trkpt><trkpt lat="-27.00774666666667" lon="-48.618323333333336"><ele>9.799999999999999</ele></trkpt><trkpt lat="-27.00774666666667" lon="-48.618323333333336"><ele>9.799999999999999</ele></trkpt><trkpt lat="-27.00774666666667" lon="-48.618323333333336"><ele>9.799999999999999</ele></trkpt><trkpt lat="-27.00774666666667" lon="-48.618323333333336"><ele>9.799999999999999</ele></trkpt><trkpt lat="-27.00774666666667" lon="-48.618323333333336"><ele>9.799999999999999</ele></trkpt><trkpt lat="-27.00774666666667" lon="-48.618323333333336"><ele>9.799999999999999</ele></trkpt><trkpt lat="-27.00774666666667" lon="-48.618323333333336"><ele>9.799999999999999</ele></trkpt><trkpt lat="-27.00774666666667" lon="-48.618323333333336"><ele>9.799999999999999</ele></trkpt><trkpt lat="-27.00774666666667" lon="-48.618323333333336"><ele>9.799999999999999</ele></trkpt><trkpt lat="-27.00774666666667" lon="-48.618323333333336"><ele>9.799999999999999</ele></trkpt><trkpt lat="-27.00774666666667" lon="-48.618323333333336"><ele>9.799999999999999</ele></trkpt><trkpt lat="-27.00774666666667" lon="-48.618323333333336"><ele>9.799999999999999</ele></trkpt><trkpt lat="-27.00774666666667" lon="-48.618323333333336"><ele>9.799999999999999</ele></trkpt><trkpt lat="-27.00774666666667" lon="-48.618323333333336"><ele>9.799999999999999</ele></trkpt><trkpt lat="-27.00774666666667" lon="-48.618323333333336"><ele>9.799999999999999</ele></trkpt><trkpt lat="-27.00774666666667" lon="-48.618323333333336"><ele>9.799999999999999</ele></trkpt><trkpt lat="-27.00774666666667" lon="-48.618323333333336"><ele>9.799999999999999</ele></trkpt><trkpt lat="-27.00774666666667" lon="-48.618323333333336"><ele>9.799999999999999</ele></trkpt><trkpt lat="-27.00774666666667" lon="-48.618323333333336"><ele>9.799999999999999</ele></trkpt><trkpt lat="-27.007738333333336" lon="-48.61834999999999"><ele>9.6</ele></trkpt><trkpt lat="-27.00773" lon="-48.61834999999999"><ele>9.4</ele></trkpt><trkpt lat="-27.007721666666665" lon="-48.61835333333333"><ele>9.1</ele></trkpt><trkpt lat="-27.007720000000003" lon="-48.618355"><ele>8.9</ele></trkpt><trkpt lat="-27.007720000000003" lon="-48.618355"><ele>8.7</ele></trkpt><trkpt lat="-27.00771666666667" lon="-48.618358333333326"><ele>8.3</ele></trkpt><trkpt lat="-27.007708333333333" lon="-48.61836166666667"><ele>8</ele></trkpt><trkpt lat="-27.007703333333332" lon="-48.618368333333336"><ele>7.9</ele></trkpt><trkpt lat="-27.0077" lon="-48.618375"><ele>7.800000000000001</ele></trkpt><trkpt lat="-27.0077" lon="-48.61837833333334"><ele>7.5</ele></trkpt><trkpt lat="-27.0077" lon="-48.61837833333334"><ele>7.5</ele></trkpt><trkpt lat="-27.00770166666667" lon="-48.61837666666667"><ele>7.300000000000001</ele></trkpt><trkpt lat="-27.007709999999996" lon="-48.618375"><ele>7.300000000000001</ele></trkpt><trkpt lat="-27.007715" lon="-48.618370000000006"><ele>7.4</ele></trkpt><trkpt lat="-27.007721666666665" lon="-48.61836166666667"><ele>7.1</ele></trkpt><trkpt lat="-27.007726666666667" lon="-48.61835333333333"><ele>7.300000000000001</ele></trkpt><trkpt lat="-27.00772833333333" lon="-48.61834999999999"><ele>7.4</ele></trkpt><trkpt lat="-27.007726666666667" lon="-48.61834999999999"><ele>7.300000000000001</ele></trkpt><trkpt lat="-27.007726666666667" lon="-48.61835166666666"><ele>7.4</ele></trkpt><trkpt lat="-27.007724999999997" lon="-48.61835166666666"><ele>7.6</ele></trkpt></trkseg></trk></gpx>