<?xml version="1.0" encoding="UTF-8"?>
<gpx xmlns="http://www.topografix.com/GPX/1/1" version="1.1" creator="@dwayneparton/geojson-to-gpx"><wpt lat="-27.008867" lon="-48.634745"><ele>13.3</ele><name>1 faixa</name></wpt><wpt lat="-27.009888" lon="-48.62897"><ele>3.3</ele><name>2</name></wpt><wpt lat="-27.008863" lon="-48.63464"><ele>5.8</ele><name>27</name></wpt><wpt lat="-27.008865" lon="-48.634632"><ele>2.8</ele><name>175</name></wpt><wpt lat="-27.008858" lon="-48.634672"><ele>5</ele><name>410</name></wpt><wpt lat="-27.008857" lon="-48.634682"><ele>4</ele><name>831</name></wpt><wpt lat="-27.010348" lon="-48.626362"><ele>4.8</ele><name>A ciclo é completamente reta.</name></wpt><wpt lat="-27.010357" lon="-48.626348"><ele>4.9</ele><name>A pintura está boa, COMPLETA e visível</name></wpt><wpt lat="-27.008868" lon="-48.634747"><ele>13.2</ele><name>Apenas faixas vermelhas nas bordas, com travessias pintadas nos cruzamentos</name></wpt><wpt lat="-27.008863" lon="-48.63464"><ele>5.8</ele><name>Área de amortecimento da ciclo (cm)</name></wpt><wpt lat="-27.008865" lon="-48.634632"><ele>2.8</ele><name>Área transitável da ciclo (cm)</name></wpt><wpt lat="-27.008867" lon="-48.634745"><ele>13.3</ele><name>Asfalto</name></wpt><wpt lat="-27.009255" lon="-48.632282"><ele>2.5</ele><name>Ausência de conexão entre ciclos.</name></wpt><wpt lat="-27.009412" lon="-48.631717"><ele>-3.1</ele><name>Ausência de conexão entre ciclos.</name></wpt><wpt lat="-27.008845" lon="-48.634753"><ele>22.6</ele><name>Bidirecional</name></wpt><wpt lat="-27.010357" lon="-48.626348"><ele>4.9</ele><name>Bom estado</name></wpt><wpt lat="-27.00892" lon="-48.634248"><ele>2.2</ele><name>Bueiro</name></wpt><wpt lat="-27.00905" lon="-48.633568"><ele>4.9</ele><name>Bueiro</name></wpt><wpt lat="-27.009118" lon="-48.633033"><ele>3</ele><name>Bueiro</name></wpt><wpt lat="-27.01006" lon="-48.62791"><ele>1.8</ele><name>Bueiro</name></wpt><wpt lat="-27.010047" lon="-48.628015"><ele>0.9</ele><name>Bueiro</name></wpt><wpt lat="-27.010058" lon="-48.627847"><ele>-0.1</ele><name>Bueiro</name></wpt><wpt lat="-27.010318" lon="-48.626652"><ele>3.8</ele><name>Bueiro</name></wpt><wpt lat="-27.009052" lon="-48.633698"><ele>4</ele><name>Buraco</name></wpt><wpt lat="-27.009127" lon="-48.633193"><ele>3.2</ele><name>Buraco</name></wpt><wpt lat="-27.008847" lon="-48.634758"><ele>23.3</ele><name>Ciclofaixa</name></wpt><wpt lat="-27.009552" lon="-48.63076"><ele>0</ele><name>Complementar</name></wpt><wpt lat="-27.010102" lon="-48.627643"><ele>3.3</ele><name>Complementar</name></wpt><wpt lat="-27.00989" lon="-48.628967"><ele>2.9</ele><name>É privado</name></wpt><wpt lat="-27.00989" lon="-48.628968"><ele>2.3</ele><name>Entorta roda</name></wpt><wpt lat="-27.008882" lon="-48.63473"><ele>9.8</ele><name>Estacionamento dedicado de um lado, segregado da circulação</name></wpt><wpt lat="-27.008858" lon="-48.634672"><ele>5</ele><name>Faixa de carros logo ao lado da ciclo (cm)</name></wpt><wpt lat="-27.008838" lon="-48.634903"><ele>9.4</ele><name>Foto</name></wpt><wpt lat="-27.008863" lon="-48.634773"><ele>27.2</ele><name>Foto</name></wpt><wpt lat="-27.008915" lon="-48.634442"><ele>1.2</ele><name>Foto</name></wpt><wpt lat="-27.008938" lon="-48.634183"><ele>2.5</ele><name>Foto</name></wpt><wpt lat="-27.008947" lon="-48.634195"><ele>11.1</ele><name>Foto</name></wpt><wpt lat="-27.009062" lon="-48.633703"><ele>4.2</ele><name>Foto</name></wpt><wpt lat="-27.009052" lon="-48.633698"><ele>4</ele><name>Foto</name></wpt><wpt lat="-27.009052" lon="-48.633532"><ele>7.1</ele><name>Foto</name></wpt><wpt lat="-27.009127" lon="-48.633197"><ele>2.6</ele><name>Foto</name></wpt><wpt lat="-27.009127" lon="-48.633193"><ele>3.2</ele><name>Foto</name></wpt><wpt lat="-27.009123" lon="-48.633042"><ele>2</ele><name>Foto</name></wpt><wpt lat="-27.009215" lon="-48.632712"><ele>2.1</ele><name>Foto</name></wpt><wpt lat="-27.009253" lon="-48.63228"><ele>2.6</ele><name>Foto</name></wpt><wpt lat="-27.009288" lon="-48.632055"><ele>5.2</ele><name>Foto</name></wpt><wpt lat="-27.00936" lon="-48.631955"><ele>1.4</ele><name>Foto</name></wpt><wpt lat="-27.009412" lon="-48.631717"><ele>-3.1</ele><name>Foto</name></wpt><wpt lat="-27.00947" lon="-48.631132"><ele>6.1</ele><name>Foto</name></wpt><wpt lat="-27.00955" lon="-48.630767"><ele>1.3</ele><name>Foto</name></wpt><wpt lat="-27.0096" lon="-48.630538"><ele>5.6</ele><name>Foto</name></wpt><wpt lat="-27.009605" lon="-48.630375"><ele>1.2</ele><name>Foto</name></wpt><wpt lat="-27.009682" lon="-48.629943"><ele>-0.7</ele><name>Foto</name></wpt><wpt lat="-27.009672" lon="-48.629835"><ele>2.2</ele><name>Foto</name></wpt><wpt lat="-27.009787" lon="-48.629375"><ele>4.1</ele><name>Foto</name></wpt><wpt lat="-27.009897" lon="-48.628742"><ele>3.9</ele><name>Foto</name></wpt><wpt lat="-27.00995" lon="-48.628542"><ele>2</ele><name>Foto</name></wpt><wpt lat="-27.01005" lon="-48.628193"><ele>2.5</ele><name>Foto</name></wpt><wpt lat="-27.01003" lon="-48.62802"><ele>1.5</ele><name>Foto</name></wpt><wpt lat="-27.010017" lon="-48.627998"><ele>2.8</ele><name>Foto</name></wpt><wpt lat="-27.010067" lon="-48.627805"><ele>3.7</ele><name>Foto</name></wpt><wpt lat="-27.010105" lon="-48.627625"><ele>3.6</ele><name>Foto</name></wpt><wpt lat="-27.010105" lon="-48.62763"><ele>3.7</ele><name>Foto</name></wpt><wpt lat="-27.010147" lon="-48.62745"><ele>5.5</ele><name>Foto</name></wpt><wpt lat="-27.010165" lon="-48.627292"><ele>1.3</ele><name>Foto</name></wpt><wpt lat="-27.010288" lon="-48.626987"><ele>5.2</ele><name>Foto</name></wpt><wpt lat="-27.010327" lon="-48.626598"><ele>4.2</ele><name>Foto</name></wpt><wpt lat="-27.010352" lon="-48.626393"><ele>4.4</ele><name>Foto</name></wpt><wpt lat="-27.010357" lon="-48.626348"><ele>4.9</ele><name>Iluminação geral na via do outro lado da infraestrutura</name></wpt><wpt lat="-27.008868" lon="-48.634737"><ele>17.6</ele><name>Mão Única</name></wpt><wpt lat="-27.008857" lon="-48.634737"><ele>19.3</ele><name>No bordo esquerdo de Via de Mão Única</name></wpt><wpt lat="-27.010017" lon="-48.628002"><ele>2.4</ele><name>Pictograma MÁ condição</name></wpt><wpt lat="-27.008948" lon="-48.634197"><ele>12.9</ele><name>Em cruzamento BOA condição</name></wpt><wpt lat="-27.009022" lon="-48.633765"><ele>4.5</ele><name>Em cruzamento BOA condição</name></wpt><wpt lat="-27.0091" lon="-48.633287"><ele>5.4</ele><name>Em cruzamento BOA condição</name></wpt><wpt lat="-27.009183" lon="-48.632787"><ele>1.3</ele><name>Em cruzamento BOA condição</name></wpt><wpt lat="-27.009253" lon="-48.63228"><ele>2.6</ele><name>Em cruzamento BOA condição</name></wpt><wpt lat="-27.009418" lon="-48.631717"><ele>-1.8</ele><name>Em cruzamento BOA condição</name></wpt><wpt lat="-27.009465" lon="-48.631135"><ele>5.7</ele><name>Em cruzamento BOA condição</name></wpt><wpt lat="-27.009575" lon="-48.630535"><ele>4.9</ele><name>Em cruzamento BOA condição</name></wpt><wpt lat="-27.009663" lon="-48.630015"><ele>-0.8</ele><name>Em cruzamento BOA condição</name></wpt><wpt lat="-27.00977" lon="-48.629368"><ele>4.5</ele><name>Em cruzamento BOA condição</name></wpt><wpt lat="-27.009895" lon="-48.628738"><ele>3.7</ele><name>Em cruzamento BOA condição</name></wpt><wpt lat="-27.010023" lon="-48.628188"><ele>0.5</ele><name>Em cruzamento BOA condição</name></wpt><wpt lat="-27.010105" lon="-48.627625"><ele>3.6</ele><name>Em cruzamento BOA condição</name></wpt><wpt lat="-27.010227" lon="-48.626955"><ele>7.8</ele><name>Em cruzamento BOA condição</name></wpt><wpt lat="-27.009887" lon="-48.628968"><ele>3.2</ele><name>Quantidade de vagas</name></wpt><wpt lat="-27.008905" lon="-48.634547"><ele>2</ele><name>R-34</name></wpt><wpt lat="-27.009123" lon="-48.633027"><ele>3.9</ele><name>R-34</name></wpt><wpt lat="-27.009315" lon="-48.631995"><ele>1.5</ele><name>R-34</name></wpt><wpt lat="-27.009672" lon="-48.629845"><ele>0.4</ele><name>R-34</name></wpt><wpt lat="-27.009925" lon="-48.628542"><ele>1.5</ele><name>R-34</name></wpt><wpt lat="-27.010157" lon="-48.627342"><ele>2.4</ele><name>R-34</name></wpt><wpt lat="-27.009253" lon="-48.63228"><ele>2.6</ele><name>R3m0v3r ausência conectar </name></wpt><wpt lat="-27.010338" lon="-48.626345"><ele>5.2</ele><name>SE CICLOFAIXA: para invadir a ciclo parte do automóvel passa obrigatoriamente por cima de segregadores</name></wpt><wpt lat="-27.009412" lon="-48.631717"><ele>-3.1</ele><name>SEM Semáforo exclusivo</name></wpt><wpt lat="-27.009412" lon="-48.631717"><ele>-3.1</ele><name>Semáforo para motorizado</name></wpt><wpt lat="-27.010358" lon="-48.626352"><ele>4.9</ele><name>Sombras em alguns trechos, SEM mudas novas</name></wpt><wpt lat="-27.008867" lon="-48.634745"><ele>13.3</ele><name>Tachões</name></wpt><wpt lat="-27.008857" lon="-48.634682"><ele>4</ele><name>Total da via (incluindo a ciclo) (cm)</name></wpt><wpt lat="-27.008857" lon="-48.634682"><ele>4</ele><name>Total da via (incluindo a ciclo) (cm)</name></wpt><wpt lat="-27.00925" lon="-48.632243"><ele>3.6</ele><name>Travessia de pedestre em nível (lombofaixa)</name></wpt><wpt lat="-27.009293" lon="-48.632053"><ele>4.9</ele><name>Travessia de pedestre em nível (lombofaixa)</name></wpt><wpt lat="-27.009593" lon="-48.63048"><ele>3.2</ele><name>Travessia de pedestre em nível (lombofaixa)</name></wpt><wpt lat="-27.01016" lon="-48.627487"><ele>3.1</ele><name>Travessia de pedestre em nível (lombofaixa)</name></wpt><trk><name>Ciclofaixa R. Dom Daniel - BC</name><trkseg><trkpt lat="-27.011058" lon="-48.634487"><ele>9.9</ele></trkpt><trkpt lat="-27.00904" lon="-48.634783"><ele>9.7</ele></trkpt><trkpt lat="-27.008863" lon="-48.634843"><ele>9.7</ele></trkpt><trkpt lat="-27.00884" lon="-48.634833"><ele>9.4</ele></trkpt><trkpt lat="-27.008813" lon="-48.634817"><ele>9</ele></trkpt><trkpt lat="-27.008813" lon="-48.634817"><ele>9</ele></trkpt><trkpt lat="-27.008813" lon="-48.634815"><ele>9</ele></trkpt><trkpt lat="-27.008812" lon="-48.634815"><ele>8.9</ele></trkpt><trkpt lat="-27.008795" lon="-48.634823"><ele>8.9</ele></trkpt><trkpt lat="-27.008773" lon="-48.634825"><ele>8.7</ele></trkpt><trkpt lat="-27.008768" lon="-48.634828"><ele>8.3</ele></trkpt><trkpt lat="-27.008767" lon="-48.634835"><ele>8.4</ele></trkpt><trkpt lat="-27.008758" lon="-48.634855"><ele>9.1</ele></trkpt><trkpt lat="-27.008767" lon="-48.634868"><ele>9</ele></trkpt><trkpt lat="-27.008775" lon="-48.63488"><ele>9.1</ele></trkpt><trkpt lat="-27.008782" lon="-48.634895"><ele>9</ele></trkpt><trkpt lat="-27.00879" lon="-48.634893"><ele>8.7</ele></trkpt><trkpt lat="-27.008807" lon="-48.634902"><ele>8.4</ele></trkpt><trkpt lat="-27.008812" lon="-48.6349"><ele>8.3</ele></trkpt><trkpt lat="-27.00881" lon="-48.634897"><ele>8.1</ele></trkpt><trkpt lat="-27.00881" lon="-48.634895"><ele>8.1</ele></trkpt><trkpt lat="-27.00882" lon="-48.634892"><ele>8.4</ele></trkpt><trkpt lat="-27.00883" lon="-48.634892"><ele>8.7</ele></trkpt><trkpt lat="-27.008835" lon="-48.634892"><ele>8.8</ele></trkpt><trkpt lat="-27.00884" lon="-48.63489"><ele>9</ele></trkpt><trkpt lat="-27.00884" lon="-48.634895"><ele>9.4</ele></trkpt><trkpt lat="-27.008838" lon="-48.634903"><ele>9.4</ele></trkpt><trkpt lat="-27.008838" lon="-48.634903"><ele>9.4</ele></trkpt><trkpt lat="-27.008837" lon="-48.63491"><ele>9.4</ele></trkpt><trkpt lat="-27.008787" lon="-48.634825"><ele>46.3</ele></trkpt><trkpt lat="-27.00879" lon="-48.634815"><ele>46.6</ele></trkpt><trkpt lat="-27.00879" lon="-48.634813"><ele>47.5</ele></trkpt><trkpt lat="-27.008793" lon="-48.634813"><ele>47.8</ele></trkpt><trkpt lat="-27.008798" lon="-48.634813"><ele>45.3</ele></trkpt><trkpt lat="-27.008803" lon="-48.634808"><ele>42.9</ele></trkpt><trkpt lat="-27.00881" lon="-48.634797"><ele>39.7</ele></trkpt><trkpt lat="-27.008822" lon="-48.634788"><ele>36.6</ele></trkpt><trkpt lat="-27.008838" lon="-48.63478"><ele>33.9</ele></trkpt><trkpt lat="-27.008853" lon="-48.634775"><ele>31.2</ele></trkpt><trkpt lat="-27.008862" lon="-48.634775"><ele>29.1</ele></trkpt><trkpt lat="-27.008863" lon="-48.634773"><ele>27.2</ele></trkpt><trkpt lat="-27.008863" lon="-48.634773"><ele>27.2</ele></trkpt><trkpt lat="-27.008858" lon="-48.634772"><ele>25.3</ele></trkpt><trkpt lat="-27.008855" lon="-48.634773"><ele>24.6</ele></trkpt><trkpt lat="-27.00885" lon="-48.634768"><ele>24</ele></trkpt><trkpt lat="-27.008847" lon="-48.634758"><ele>23.3</ele></trkpt><trkpt lat="-27.008847" lon="-48.634758"><ele>23.3</ele></trkpt><trkpt lat="-27.008845" lon="-48.634753"><ele>22.6</ele></trkpt><trkpt lat="-27.008845" lon="-48.634753"><ele>22.6</ele></trkpt><trkpt lat="-27.008845" lon="-48.634747"><ele>22</ele></trkpt><trkpt lat="-27.008845" lon="-48.634742"><ele>21.4</ele></trkpt><trkpt lat="-27.008852" lon="-48.634737"><ele>20.7</ele></trkpt><trkpt lat="-27.008855" lon="-48.634735"><ele>20</ele></trkpt><trkpt lat="-27.008857" lon="-48.634737"><ele>19.3</ele></trkpt><trkpt lat="-27.008857" lon="-48.634737"><ele>19.3</ele></trkpt><trkpt lat="-27.00886" lon="-48.634738"><ele>18.8</ele></trkpt><trkpt lat="-27.008863" lon="-48.634738"><ele>18.3</ele></trkpt><trkpt lat="-27.008868" lon="-48.634737"><ele>17.6</ele></trkpt><trkpt lat="-27.008868" lon="-48.634737"><ele>17.6</ele></trkpt><trkpt lat="-27.008867" lon="-48.634733"><ele>16.9</ele></trkpt><trkpt lat="-27.00887" lon="-48.634732"><ele>16.6</ele></trkpt><trkpt lat="-27.008868" lon="-48.63473"><ele>16</ele></trkpt><trkpt lat="-27.008868" lon="-48.634727"><ele>15.5</ele></trkpt><trkpt lat="-27.00887" lon="-48.634732"><ele>15.1</ele></trkpt><trkpt lat="-27.008868" lon="-48.634738"><ele>14.3</ele></trkpt><trkpt lat="-27.00887" lon="-48.634742"><ele>13.8</ele></trkpt><trkpt lat="-27.008873" lon="-48.634745"><ele>13.5</ele></trkpt><trkpt lat="-27.00887" lon="-48.634745"><ele>13.4</ele></trkpt><trkpt lat="-27.008868" lon="-48.634747"><ele>13.3</ele></trkpt><trkpt lat="-27.008868" lon="-48.634747"><ele>13.2</ele></trkpt><trkpt lat="-27.008868" lon="-48.634747"><ele>13.2</ele></trkpt><trkpt lat="-27.008867" lon="-48.634745"><ele>13.3</ele></trkpt><trkpt lat="-27.008867" lon="-48.634745"><ele>13.3</ele></trkpt><trkpt lat="-27.008867" lon="-48.634745"><ele>13.3</ele></trkpt><trkpt lat="-27.008867" lon="-48.634745"><ele>13.3</ele></trkpt><trkpt lat="-27.008867" lon="-48.634745"><ele>13.3</ele></trkpt><trkpt lat="-27.008867" lon="-48.634745"><ele>13.3</ele></trkpt><trkpt lat="-27.008867" lon="-48.634745"><ele>13.3</ele></trkpt><trkpt lat="-27.008867" lon="-48.634745"><ele>13.3</ele></trkpt><trkpt lat="-27.008867" lon="-48.634745"><ele>13.3</ele></trkpt><trkpt lat="-27.008867" lon="-48.634745"><ele>13.3</ele></trkpt><trkpt lat="-27.008867" lon="-48.634745"><ele>13.3</ele></trkpt><trkpt lat="-27.008867" lon="-48.634745"><ele>13.3</ele></trkpt><trkpt lat="-27.008867" lon="-48.634745"><ele>13.3</ele></trkpt><trkpt lat="-27.008867" lon="-48.634745"><ele>13.3</ele></trkpt><trkpt lat="-27.008867" lon="-48.634745"><ele>13.3</ele></trkpt><trkpt lat="-27.008867" lon="-48.634745"><ele>13.3</ele></trkpt><trkpt lat="-27.008867" lon="-48.634745"><ele>13.3</ele></trkpt><trkpt lat="-27.008867" lon="-48.634745"><ele>13.3</ele></trkpt><trkpt lat="-27.008867" lon="-48.634745"><ele>13.3</ele></trkpt><trkpt lat="-27.008882" lon="-48.63473"><ele>9.8</ele></trkpt><trkpt lat="-27.008882" lon="-48.63473"><ele>9.8</ele></trkpt><trkpt lat="-27.008883" lon="-48.63473"><ele>9.7</ele></trkpt><trkpt lat="-27.008887" lon="-48.634728"><ele>9.5</ele></trkpt><trkpt lat="-27.00889" lon="-48.634732"><ele>9.4</ele></trkpt><trkpt lat="-27.00889" lon="-48.634732"><ele>9.4</ele></trkpt><trkpt lat="-27.00889" lon="-48.634732"><ele>9.4</ele></trkpt><trkpt lat="-27.00889" lon="-48.634732"><ele>9.4</ele></trkpt><trkpt lat="-27.00889" lon="-48.634732"><ele>9.4</ele></trkpt><trkpt lat="-27.00889" lon="-48.634732"><ele>9.4</ele></trkpt><trkpt lat="-27.00889" lon="-48.634732"><ele>9.4</ele></trkpt><trkpt lat="-27.00889" lon="-48.634732"><ele>9.4</ele></trkpt><trkpt lat="-27.00889" lon="-48.634732"><ele>9.4</ele></trkpt><trkpt lat="-27.008888" lon="-48.634752"><ele>8.5</ele></trkpt><trkpt lat="-27.00889" lon="-48.634757"><ele>8.5</ele></trkpt><trkpt lat="-27.008883" lon="-48.634762"><ele>8.6</ele></trkpt><trkpt lat="-27.008873" lon="-48.634763"><ele>8.4</ele></trkpt><trkpt lat="-27.008852" lon="-48.634763"><ele>8.2</ele></trkpt><trkpt lat="-27.008837" lon="-48.634765"><ele>8.1</ele></trkpt><trkpt lat="-27.008835" lon="-48.634767"><ele>8.1</ele></trkpt><trkpt lat="-27.008843" lon="-48.634773"><ele>7.8</ele></trkpt><trkpt lat="-27.00885" lon="-48.63478"><ele>7.6</ele></trkpt><trkpt lat="-27.00885" lon="-48.634787"><ele>7.7</ele></trkpt><trkpt lat="-27.008852" lon="-48.634792"><ele>7.8</ele></trkpt><trkpt lat="-27.008853" lon="-48.634803"><ele>7.8</ele></trkpt><trkpt lat="-27.008853" lon="-48.634813"><ele>7.8</ele></trkpt><trkpt lat="-27.008855" lon="-48.634827"><ele>8.4</ele></trkpt><trkpt lat="-27.008858" lon="-48.634838"><ele>8.9</ele></trkpt><trkpt lat="-27.008858" lon="-48.634847"><ele>9.1</ele></trkpt><trkpt lat="-27.008863" lon="-48.634847"><ele>9.3</ele></trkpt><trkpt lat="-27.008872" lon="-48.63484"><ele>9.6</ele></trkpt><trkpt lat="-27.00888" lon="-48.634832"><ele>10.1</ele></trkpt><trkpt lat="-27.008887" lon="-48.634822"><ele>10.6</ele></trkpt><trkpt lat="-27.008897" lon="-48.63481"><ele>11.9</ele></trkpt><trkpt lat="-27.0089" lon="-48.634798"><ele>13</ele></trkpt><trkpt lat="-27.008908" lon="-48.634795"><ele>14.3</ele></trkpt><trkpt lat="-27.008913" lon="-48.634775"><ele>15.2</ele></trkpt><trkpt lat="-27.008918" lon="-48.634748"><ele>16</ele></trkpt><trkpt lat="-27.00892" lon="-48.634723"><ele>16.1</ele></trkpt><trkpt lat="-27.008928" lon="-48.63471"><ele>16.9</ele></trkpt><trkpt lat="-27.008937" lon="-48.634687"><ele>16.5</ele></trkpt><trkpt lat="-27.008947" lon="-48.634668"><ele>16.3</ele></trkpt><trkpt lat="-27.008957" lon="-48.634647"><ele>16.1</ele></trkpt><trkpt lat="-27.008963" lon="-48.634622"><ele>15</ele></trkpt><trkpt lat="-27.00897" lon="-48.634605"><ele>14.2</ele></trkpt><trkpt lat="-27.00897" lon="-48.634595"><ele>13.7</ele></trkpt><trkpt lat="-27.008973" lon="-48.634587"><ele>12.6</ele></trkpt><trkpt lat="-27.008975" lon="-48.634582"><ele>11.9</ele></trkpt><trkpt lat="-27.008977" lon="-48.634577"><ele>11.3</ele></trkpt><trkpt lat="-27.008977" lon="-48.63457"><ele>10.9</ele></trkpt><trkpt lat="-27.008975" lon="-48.634563"><ele>10.7</ele></trkpt><trkpt lat="-27.008975" lon="-48.634558"><ele>10.5</ele></trkpt><trkpt lat="-27.008977" lon="-48.634555"><ele>10.1</ele></trkpt><trkpt lat="-27.008977" lon="-48.634552"><ele>9.7</ele></trkpt><trkpt lat="-27.008977" lon="-48.634547"><ele>9.4</ele></trkpt><trkpt lat="-27.008977" lon="-48.634547"><ele>9.4</ele></trkpt><trkpt lat="-27.008977" lon="-48.634547"><ele>9.4</ele></trkpt><trkpt lat="-27.008977" lon="-48.634547"><ele>9.4</ele></trkpt><trkpt lat="-27.008977" lon="-48.634547"><ele>9.4</ele></trkpt><trkpt lat="-27.008977" lon="-48.634547"><ele>9.4</ele></trkpt><trkpt lat="-27.008977" lon="-48.634547"><ele>9.4</ele></trkpt><trkpt lat="-27.008977" lon="-48.634547"><ele>9.4</ele></trkpt><trkpt lat="-27.008977" lon="-48.634547"><ele>9.4</ele></trkpt><trkpt lat="-27.008977" lon="-48.634547"><ele>9.4</ele></trkpt><trkpt lat="-27.008977" lon="-48.634547"><ele>9.4</ele></trkpt><trkpt lat="-27.008977" lon="-48.634547"><ele>9.4</ele></trkpt><trkpt lat="-27.008977" lon="-48.634547"><ele>9.4</ele></trkpt><trkpt lat="-27.008977" lon="-48.634547"><ele>9.4</ele></trkpt><trkpt lat="-27.008977" lon="-48.634547"><ele>9.4</ele></trkpt><trkpt lat="-27.008977" lon="-48.634547"><ele>9.4</ele></trkpt><trkpt lat="-27.008977" lon="-48.634547"><ele>9.4</ele></trkpt><trkpt lat="-27.008977" lon="-48.634547"><ele>9.4</ele></trkpt><trkpt lat="-27.008977" lon="-48.634547"><ele>9.4</ele></trkpt><trkpt lat="-27.008977" lon="-48.634547"><ele>9.4</ele></trkpt><trkpt lat="-27.008977" lon="-48.634547"><ele>9.4</ele></trkpt><trkpt lat="-27.008977" lon="-48.634547"><ele>9.4</ele></trkpt><trkpt lat="-27.008977" lon="-48.634547"><ele>9.4</ele></trkpt><trkpt lat="-27.008977" lon="-48.634547"><ele>9.4</ele></trkpt><trkpt lat="-27.008977" lon="-48.634547"><ele>9.4</ele></trkpt><trkpt lat="-27.008977" lon="-48.634547"><ele>9.4</ele></trkpt><trkpt lat="-27.008977" lon="-48.634547"><ele>9.4</ele></trkpt><trkpt lat="-27.008977" lon="-48.634547"><ele>9.4</ele></trkpt><trkpt lat="-27.008977" lon="-48.634547"><ele>9.4</ele></trkpt><trkpt lat="-27.008977" lon="-48.634547"><ele>9.4</ele></trkpt><trkpt lat="-27.008977" lon="-48.634547"><ele>9.4</ele></trkpt><trkpt lat="-27.008977" lon="-48.634547"><ele>9.4</ele></trkpt><trkpt lat="-27.008977" lon="-48.634547"><ele>9.4</ele></trkpt><trkpt lat="-27.008977" lon="-48.634547"><ele>9.4</ele></trkpt><trkpt lat="-27.008977" lon="-48.634547"><ele>9.4</ele></trkpt><trkpt lat="-27.008977" lon="-48.634547"><ele>9.4</ele></trkpt><trkpt lat="-27.008977" lon="-48.634547"><ele>9.4</ele></trkpt><trkpt lat="-27.008977" lon="-48.634547"><ele>9.4</ele></trkpt><trkpt lat="-27.008977" lon="-48.634547"><ele>9.4</ele></trkpt><trkpt lat="-27.008977" lon="-48.634547"><ele>9.4</ele></trkpt><trkpt lat="-27.008977" lon="-48.634547"><ele>9.4</ele></trkpt><trkpt lat="-27.008977" lon="-48.634547"><ele>9.4</ele></trkpt><trkpt lat="-27.008977" lon="-48.634547"><ele>9.4</ele></trkpt><trkpt lat="-27.008977" lon="-48.634547"><ele>9.4</ele></trkpt><trkpt lat="-27.008977" lon="-48.634547"><ele>9.4</ele></trkpt><trkpt lat="-27.008977" lon="-48.634547"><ele>9.4</ele></trkpt><trkpt lat="-27.008977" lon="-48.634547"><ele>9.4</ele></trkpt><trkpt lat="-27.008977" lon="-48.634547"><ele>9.4</ele></trkpt><trkpt lat="-27.008977" lon="-48.634547"><ele>9.4</ele></trkpt><trkpt lat="-27.008977" lon="-48.634547"><ele>9.4</ele></trkpt><trkpt lat="-27.008977" lon="-48.634547"><ele>9.4</ele></trkpt><trkpt lat="-27.008977" lon="-48.634547"><ele>9.4</ele></trkpt><trkpt lat="-27.008977" lon="-48.634547"><ele>9.4</ele></trkpt><trkpt lat="-27.008977" lon="-48.634547"><ele>9.4</ele></trkpt><trkpt lat="-27.008977" lon="-48.634547"><ele>9.4</ele></trkpt><trkpt lat="-27.008977" lon="-48.634547"><ele>9.4</ele></trkpt><trkpt lat="-27.008977" lon="-48.634547"><ele>9.4</ele></trkpt><trkpt lat="-27.008977" lon="-48.634547"><ele>9.4</ele></trkpt><trkpt lat="-27.008977" lon="-48.634547"><ele>9.4</ele></trkpt><trkpt lat="-27.008977" lon="-48.634547"><ele>9.4</ele></trkpt><trkpt lat="-27.008977" lon="-48.634547"><ele>9.4</ele></trkpt><trkpt lat="-27.008977" lon="-48.634547"><ele>9.4</ele></trkpt><trkpt lat="-27.008977" lon="-48.634547"><ele>9.4</ele></trkpt><trkpt lat="-27.008977" lon="-48.634547"><ele>9.4</ele></trkpt><trkpt lat="-27.008977" lon="-48.634547"><ele>9.4</ele></trkpt><trkpt lat="-27.008977" lon="-48.634547"><ele>9.4</ele></trkpt><trkpt lat="-27.008977" lon="-48.634547"><ele>9.4</ele></trkpt><trkpt lat="-27.008977" lon="-48.634547"><ele>9.4</ele></trkpt><trkpt lat="-27.008977" lon="-48.634547"><ele>9.4</ele></trkpt><trkpt lat="-27.008977" lon="-48.634547"><ele>9.4</ele></trkpt><trkpt lat="-27.008977" lon="-48.634547"><ele>9.4</ele></trkpt><trkpt lat="-27.008977" lon="-48.634547"><ele>9.4</ele></trkpt><trkpt lat="-27.008977" lon="-48.634547"><ele>9.4</ele></trkpt><trkpt lat="-27.008977" lon="-48.634547"><ele>9.4</ele></trkpt><trkpt lat="-27.008987" lon="-48.634538"><ele>6.2</ele></trkpt><trkpt lat="-27.00898" lon="-48.634537"><ele>6.2</ele></trkpt><trkpt lat="-27.008972" lon="-48.634538"><ele>6.2</ele></trkpt><trkpt lat="-27.008963" lon="-48.63454"><ele>6.2</ele></trkpt><trkpt lat="-27.008958" lon="-48.63454"><ele>6.3</ele></trkpt><trkpt lat="-27.008953" lon="-48.634542"><ele>6.4</ele></trkpt><trkpt lat="-27.008948" lon="-48.634543"><ele>6.4</ele></trkpt><trkpt lat="-27.008942" lon="-48.634547"><ele>6.3</ele></trkpt><trkpt lat="-27.008935" lon="-48.634553"><ele>6.2</ele></trkpt><trkpt lat="-27.008928" lon="-48.634562"><ele>6.1</ele></trkpt><trkpt lat="-27.008923" lon="-48.634573"><ele>6</ele></trkpt><trkpt lat="-27.008915" lon="-48.634583"><ele>6.1</ele></trkpt><trkpt lat="-27.008905" lon="-48.634597"><ele>6.1</ele></trkpt><trkpt lat="-27.0089" lon="-48.634612"><ele>6.2</ele></trkpt><trkpt lat="-27.008898" lon="-48.634625"><ele>6.4</ele></trkpt><trkpt lat="-27.008898" lon="-48.634625"><ele>6.4</ele></trkpt><trkpt lat="-27.008893" lon="-48.634635"><ele>6.2</ele></trkpt><trkpt lat="-27.008893" lon="-48.634635"><ele>6.2</ele></trkpt><trkpt lat="-27.008887" lon="-48.634645"><ele>6.1</ele></trkpt><trkpt lat="-27.008882" lon="-48.63465"><ele>5.9</ele></trkpt><trkpt lat="-27.008873" lon="-48.634652"><ele>5.6</ele></trkpt><trkpt lat="-27.00887" lon="-48.634655"><ele>5.5</ele></trkpt><trkpt lat="-27.008865" lon="-48.634662"><ele>5.4</ele></trkpt><trkpt lat="-27.00886" lon="-48.634668"><ele>5.3</ele></trkpt><trkpt lat="-27.008858" lon="-48.634672"><ele>5</ele></trkpt><trkpt lat="-27.008858" lon="-48.634672"><ele>5</ele></trkpt><trkpt lat="-27.008858" lon="-48.634672"><ele>5</ele></trkpt><trkpt lat="-27.008855" lon="-48.634678"><ele>4.9</ele></trkpt><trkpt lat="-27.008857" lon="-48.63468"><ele>5</ele></trkpt><trkpt lat="-27.008858" lon="-48.634683"><ele>4.7</ele></trkpt><trkpt lat="-27.008858" lon="-48.634683"><ele>4.4</ele></trkpt><trkpt lat="-27.008858" lon="-48.634682"><ele>4.3</ele></trkpt><trkpt lat="-27.00886" lon="-48.634682"><ele>4.1</ele></trkpt><trkpt lat="-27.008865" lon="-48.634682"><ele>4.2</ele></trkpt><trkpt lat="-27.008865" lon="-48.634682"><ele>4.2</ele></trkpt><trkpt lat="-27.00886" lon="-48.634682"><ele>4.2</ele></trkpt><trkpt lat="-27.008857" lon="-48.634682"><ele>4</ele></trkpt><trkpt lat="-27.008857" lon="-48.634682"><ele>4</ele></trkpt><trkpt lat="-27.008857" lon="-48.634682"><ele>4</ele></trkpt><trkpt lat="-27.008857" lon="-48.634682"><ele>4</ele></trkpt><trkpt lat="-27.008857" lon="-48.634682"><ele>4</ele></trkpt><trkpt lat="-27.008857" lon="-48.634682"><ele>4</ele></trkpt><trkpt lat="-27.008857" lon="-48.634682"><ele>4</ele></trkpt><trkpt lat="-27.008857" lon="-48.634682"><ele>4</ele></trkpt><trkpt lat="-27.008857" lon="-48.634682"><ele>4</ele></trkpt><trkpt lat="-27.008857" lon="-48.634682"><ele>4</ele></trkpt><trkpt lat="-27.008857" lon="-48.634682"><ele>4</ele></trkpt><trkpt lat="-27.008857" lon="-48.634682"><ele>4</ele></trkpt><trkpt lat="-27.008857" lon="-48.634682"><ele>4</ele></trkpt><trkpt lat="-27.008857" lon="-48.634682"><ele>4</ele></trkpt><trkpt lat="-27.008857" lon="-48.634682"><ele>4</ele></trkpt><trkpt lat="-27.008857" lon="-48.634682"><ele>4</ele></trkpt><trkpt lat="-27.008857" lon="-48.634682"><ele>4</ele></trkpt><trkpt lat="-27.008857" lon="-48.634682"><ele>4</ele></trkpt><trkpt lat="-27.008857" lon="-48.634682"><ele>4</ele></trkpt><trkpt lat="-27.008857" lon="-48.634682"><ele>4</ele></trkpt><trkpt lat="-27.008857" lon="-48.634682"><ele>4</ele></trkpt><trkpt lat="-27.008857" lon="-48.634682"><ele>4</ele></trkpt><trkpt lat="-27.008857" lon="-48.634682"><ele>4</ele></trkpt><trkpt lat="-27.008857" lon="-48.634682"><ele>4</ele></trkpt><trkpt lat="-27.008857" lon="-48.634682"><ele>4</ele></trkpt><trkpt lat="-27.008857" lon="-48.634682"><ele>4</ele></trkpt><trkpt lat="-27.008857" lon="-48.634682"><ele>4</ele></trkpt><trkpt lat="-27.008857" lon="-48.634682"><ele>4</ele></trkpt><trkpt lat="-27.008857" lon="-48.634682"><ele>4</ele></trkpt><trkpt lat="-27.008857" lon="-48.634682"><ele>4</ele></trkpt><trkpt lat="-27.008857" lon="-48.634682"><ele>4</ele></trkpt><trkpt lat="-27.008857" lon="-48.634682"><ele>4</ele></trkpt><trkpt lat="-27.008857" lon="-48.634682"><ele>4</ele></trkpt><trkpt lat="-27.008857" lon="-48.634682"><ele>4</ele></trkpt><trkpt lat="-27.008857" lon="-48.634682"><ele>4</ele></trkpt><trkpt lat="-27.008857" lon="-48.634682"><ele>4</ele></trkpt><trkpt lat="-27.008857" lon="-48.634682"><ele>4</ele></trkpt><trkpt lat="-27.008857" lon="-48.634682"><ele>4</ele></trkpt><trkpt lat="-27.008857" lon="-48.634682"><ele>4</ele></trkpt><trkpt lat="-27.008857" lon="-48.634682"><ele>4</ele></trkpt><trkpt lat="-27.008857" lon="-48.634682"><ele>4</ele></trkpt><trkpt lat="-27.008902" lon="-48.634682"><ele>5.7</ele></trkpt><trkpt lat="-27.008908" lon="-48.634678"><ele>5.8</ele></trkpt><trkpt lat="-27.008913" lon="-48.63467"><ele>5.8</ele></trkpt><trkpt lat="-27.008918" lon="-48.634667"><ele>5.9</ele></trkpt><trkpt lat="-27.008927" lon="-48.634668"><ele>5.9</ele></trkpt><trkpt lat="-27.008928" lon="-48.634667"><ele>6</ele></trkpt><trkpt lat="-27.008932" lon="-48.634667"><ele>6.1</ele></trkpt><trkpt lat="-27.008938" lon="-48.634675"><ele>6.2</ele></trkpt><trkpt lat="-27.008943" lon="-48.634692"><ele>6</ele></trkpt><trkpt lat="-27.008938" lon="-48.6347"><ele>6.2</ele></trkpt><trkpt lat="-27.00894" lon="-48.634705"><ele>6.2</ele></trkpt><trkpt lat="-27.008938" lon="-48.634708"><ele>6.2</ele></trkpt><trkpt lat="-27.00894" lon="-48.63471"><ele>6.2</ele></trkpt><trkpt lat="-27.008938" lon="-48.63471"><ele>6.2</ele></trkpt><trkpt lat="-27.008938" lon="-48.634713"><ele>6.2</ele></trkpt><trkpt lat="-27.008937" lon="-48.634717"><ele>6.3</ele></trkpt><trkpt lat="-27.008937" lon="-48.634717"><ele>6.3</ele></trkpt><trkpt lat="-27.008937" lon="-48.634718"><ele>6.4</ele></trkpt><trkpt lat="-27.008937" lon="-48.634722"><ele>6.5</ele></trkpt><trkpt lat="-27.008937" lon="-48.634727"><ele>6.5</ele></trkpt><trkpt lat="-27.008935" lon="-48.63473"><ele>6.5</ele></trkpt><trkpt lat="-27.008935" lon="-48.63473"><ele>6.5</ele></trkpt><trkpt lat="-27.008935" lon="-48.63473"><ele>6.5</ele></trkpt><trkpt lat="-27.008935" lon="-48.63473"><ele>6.5</ele></trkpt><trkpt lat="-27.008935" lon="-48.63473"><ele>6.5</ele></trkpt><trkpt lat="-27.008935" lon="-48.63473"><ele>6.5</ele></trkpt><trkpt lat="-27.008935" lon="-48.63473"><ele>6.5</ele></trkpt><trkpt lat="-27.008935" lon="-48.63473"><ele>6.5</ele></trkpt><trkpt lat="-27.008935" lon="-48.63473"><ele>6.5</ele></trkpt><trkpt lat="-27.008935" lon="-48.63473"><ele>6.5</ele></trkpt><trkpt lat="-27.008935" lon="-48.63473"><ele>6.5</ele></trkpt><trkpt lat="-27.008935" lon="-48.63473"><ele>6.5</ele></trkpt><trkpt lat="-27.008935" lon="-48.63473"><ele>6.5</ele></trkpt><trkpt lat="-27.008935" lon="-48.63473"><ele>6.5</ele></trkpt><trkpt lat="-27.008935" lon="-48.63473"><ele>6.5</ele></trkpt><trkpt lat="-27.008935" lon="-48.634767"><ele>7.2</ele></trkpt><trkpt lat="-27.00894" lon="-48.634763"><ele>7.3</ele></trkpt><trkpt lat="-27.00894" lon="-48.634765"><ele>7.3</ele></trkpt><trkpt lat="-27.008928" lon="-48.63475"><ele>6.9</ele></trkpt><trkpt lat="-27.00889" lon="-48.63472"><ele>5.5</ele></trkpt><trkpt lat="-27.008885" lon="-48.634707"><ele>5.2</ele></trkpt><trkpt lat="-27.008885" lon="-48.634692"><ele>4.6</ele></trkpt><trkpt lat="-27.008877" lon="-48.634673"><ele>3.9</ele></trkpt><trkpt lat="-27.008872" lon="-48.634662"><ele>3.3</ele></trkpt><trkpt lat="-27.00887" lon="-48.63465"><ele>2.9</ele></trkpt><trkpt lat="-27.008863" lon="-48.63464"><ele>2.7</ele></trkpt><trkpt lat="-27.008865" lon="-48.634637"><ele>2.7</ele></trkpt><trkpt lat="-27.00887" lon="-48.634635"><ele>2.6</ele></trkpt><trkpt lat="-27.008872" lon="-48.634635"><ele>2.4</ele></trkpt><trkpt lat="-27.00887" lon="-48.634633"><ele>2.3</ele></trkpt><trkpt lat="-27.008868" lon="-48.634633"><ele>2.4</ele></trkpt><trkpt lat="-27.008868" lon="-48.634633"><ele>2.4</ele></trkpt><trkpt lat="-27.008868" lon="-48.63463"><ele>2.7</ele></trkpt><trkpt lat="-27.008867" lon="-48.634632"><ele>2.6</ele></trkpt><trkpt lat="-27.008865" lon="-48.634632"><ele>2.8</ele></trkpt><trkpt lat="-27.008865" lon="-48.634632"><ele>2.8</ele></trkpt><trkpt lat="-27.008865" lon="-48.634632"><ele>2.8</ele></trkpt><trkpt lat="-27.008865" lon="-48.634632"><ele>2.8</ele></trkpt><trkpt lat="-27.008865" lon="-48.634632"><ele>2.8</ele></trkpt><trkpt lat="-27.008865" lon="-48.634632"><ele>2.8</ele></trkpt><trkpt lat="-27.008865" lon="-48.634632"><ele>2.8</ele></trkpt><trkpt lat="-27.008865" lon="-48.634632"><ele>2.8</ele></trkpt><trkpt lat="-27.008865" lon="-48.634632"><ele>2.8</ele></trkpt><trkpt lat="-27.008865" lon="-48.634632"><ele>2.8</ele></trkpt><trkpt lat="-27.008865" lon="-48.634632"><ele>2.8</ele></trkpt><trkpt lat="-27.008865" lon="-48.634632"><ele>2.8</ele></trkpt><trkpt lat="-27.008865" lon="-48.634632"><ele>2.8</ele></trkpt><trkpt lat="-27.008865" lon="-48.634632"><ele>2.8</ele></trkpt><trkpt lat="-27.008865" lon="-48.634632"><ele>2.8</ele></trkpt><trkpt lat="-27.008865" lon="-48.634632"><ele>2.8</ele></trkpt><trkpt lat="-27.008865" lon="-48.634632"><ele>2.8</ele></trkpt><trkpt lat="-27.008865" lon="-48.634632"><ele>2.8</ele></trkpt><trkpt lat="-27.008865" lon="-48.634632"><ele>2.8</ele></trkpt><trkpt lat="-27.008865" lon="-48.634632"><ele>2.8</ele></trkpt><trkpt lat="-27.008865" lon="-48.634632"><ele>2.8</ele></trkpt><trkpt lat="-27.008865" lon="-48.634632"><ele>2.8</ele></trkpt><trkpt lat="-27.008865" lon="-48.634632"><ele>2.8</ele></trkpt><trkpt lat="-27.008865" lon="-48.634632"><ele>2.8</ele></trkpt><trkpt lat="-27.008865" lon="-48.634632"><ele>2.8</ele></trkpt><trkpt lat="-27.008865" lon="-48.634632"><ele>2.8</ele></trkpt><trkpt lat="-27.008863" lon="-48.63464"><ele>5.8</ele></trkpt><trkpt lat="-27.008863" lon="-48.63464"><ele>5.8</ele></trkpt><trkpt lat="-27.008863" lon="-48.63464"><ele>5.8</ele></trkpt><trkpt lat="-27.008853" lon="-48.634647"><ele>5.7</ele></trkpt><trkpt lat="-27.008848" lon="-48.634653"><ele>5.7</ele></trkpt><trkpt lat="-27.00884" lon="-48.634662"><ele>5.6</ele></trkpt><trkpt lat="-27.008838" lon="-48.63467"><ele>5.6</ele></trkpt><trkpt lat="-27.008833" lon="-48.634682"><ele>5.4</ele></trkpt><trkpt lat="-27.00883" lon="-48.634692"><ele>4.9</ele></trkpt><trkpt lat="-27.008827" lon="-48.634703"><ele>4.5</ele></trkpt><trkpt lat="-27.008832" lon="-48.634718"><ele>4</ele></trkpt><trkpt lat="-27.008827" lon="-48.634732"><ele>3.6</ele></trkpt><trkpt lat="-27.00883" lon="-48.634748"><ele>2.8</ele></trkpt><trkpt lat="-27.00883" lon="-48.634765"><ele>2.3</ele></trkpt><trkpt lat="-27.008832" lon="-48.634773"><ele>1.7</ele></trkpt><trkpt lat="-27.008823" lon="-48.634778"><ele>1.4</ele></trkpt><trkpt lat="-27.008813" lon="-48.634783"><ele>1.2</ele></trkpt><trkpt lat="-27.008817" lon="-48.634785"><ele>1</ele></trkpt><trkpt lat="-27.008822" lon="-48.634778"><ele>1.3</ele></trkpt><trkpt lat="-27.008837" lon="-48.634763"><ele>1.4</ele></trkpt><trkpt lat="-27.008852" lon="-48.634742"><ele>1.5</ele></trkpt><trkpt lat="-27.008862" lon="-48.634713"><ele>1.6</ele></trkpt><trkpt lat="-27.008873" lon="-48.634685"><ele>2.1</ele></trkpt><trkpt lat="-27.008878" lon="-48.634658"><ele>2</ele></trkpt><trkpt lat="-27.008887" lon="-48.634628"><ele>2</ele></trkpt><trkpt lat="-27.008893" lon="-48.6346"><ele>1.7</ele></trkpt><trkpt lat="-27.008902" lon="-48.634575"><ele>1.6</ele></trkpt><trkpt lat="-27.008905" lon="-48.634547"><ele>2</ele></trkpt><trkpt lat="-27.008905" lon="-48.634547"><ele>2</ele></trkpt><trkpt lat="-27.008908" lon="-48.634523"><ele>2.2</ele></trkpt><trkpt lat="-27.008912" lon="-48.63451"><ele>1.8</ele></trkpt><trkpt lat="-27.008917" lon="-48.634493"><ele>1.6</ele></trkpt><trkpt lat="-27.008922" lon="-48.634478"><ele>1.7</ele></trkpt><trkpt lat="-27.008927" lon="-48.634462"><ele>1.4</ele></trkpt><trkpt lat="-27.008915" lon="-48.634442"><ele>1.2</ele></trkpt><trkpt lat="-27.008915" lon="-48.634442"><ele>1.2</ele></trkpt><trkpt lat="-27.008915" lon="-48.634423"><ele>1.6</ele></trkpt><trkpt lat="-27.00891" lon="-48.6344"><ele>2.3</ele></trkpt><trkpt lat="-27.008912" lon="-48.634372"><ele>3.2</ele></trkpt><trkpt lat="-27.008913" lon="-48.634343"><ele>3</ele></trkpt><trkpt lat="-27.008915" lon="-48.634312"><ele>2.7</ele></trkpt><trkpt lat="-27.008918" lon="-48.634278"><ele>2.8</ele></trkpt><trkpt lat="-27.00892" lon="-48.634248"><ele>2.2</ele></trkpt><trkpt lat="-27.00892" lon="-48.634248"><ele>2.2</ele></trkpt><trkpt lat="-27.008925" lon="-48.634218"><ele>1.4</ele></trkpt><trkpt lat="-27.008928" lon="-48.634198"><ele>1.9</ele></trkpt><trkpt lat="-27.008932" lon="-48.634185"><ele>2.7</ele></trkpt><trkpt lat="-27.008933" lon="-48.634185"><ele>2.5</ele></trkpt><trkpt lat="-27.008938" lon="-48.634183"><ele>2.5</ele></trkpt><trkpt lat="-27.008938" lon="-48.634183"><ele>2.5</ele></trkpt><trkpt lat="-27.008937" lon="-48.634187"><ele>2.7</ele></trkpt><trkpt lat="-27.008942" lon="-48.634192"><ele>2.8</ele></trkpt><trkpt lat="-27.008943" lon="-48.634193"><ele>2.5</ele></trkpt><trkpt lat="-27.008955" lon="-48.6342"><ele>36.1</ele></trkpt><trkpt lat="-27.008948" lon="-48.634197"><ele>12.9</ele></trkpt><trkpt lat="-27.008948" lon="-48.634197"><ele>12.9</ele></trkpt><trkpt lat="-27.008947" lon="-48.634197"><ele>12.8</ele></trkpt><trkpt lat="-27.008945" lon="-48.63419"><ele>12.4</ele></trkpt><trkpt lat="-27.008947" lon="-48.634192"><ele>11.8</ele></trkpt><trkpt lat="-27.008947" lon="-48.634195"><ele>11.1</ele></trkpt><trkpt lat="-27.008947" lon="-48.634195"><ele>11.1</ele></trkpt><trkpt lat="-27.008947" lon="-48.634195"><ele>11.1</ele></trkpt><trkpt lat="-27.008947" lon="-48.634195"><ele>11.1</ele></trkpt><trkpt lat="-27.008947" lon="-48.634195"><ele>11.1</ele></trkpt><trkpt lat="-27.008947" lon="-48.634195"><ele>11.1</ele></trkpt><trkpt lat="-27.008943" lon="-48.634205"><ele>9.5</ele></trkpt><trkpt lat="-27.008942" lon="-48.6342"><ele>9.5</ele></trkpt><trkpt lat="-27.008942" lon="-48.634185"><ele>9.5</ele></trkpt><trkpt lat="-27.008943" lon="-48.634167"><ele>9.6</ele></trkpt><trkpt lat="-27.008953" lon="-48.634132"><ele>9.6</ele></trkpt><trkpt lat="-27.008963" lon="-48.634098"><ele>8.8</ele></trkpt><trkpt lat="-27.008973" lon="-48.634062"><ele>8.6</ele></trkpt><trkpt lat="-27.008978" lon="-48.634015"><ele>7.4</ele></trkpt><trkpt lat="-27.008982" lon="-48.63397"><ele>6.5</ele></trkpt><trkpt lat="-27.008988" lon="-48.633927"><ele>5.1</ele></trkpt><trkpt lat="-27.008995" lon="-48.633883"><ele>4.5</ele></trkpt><trkpt lat="-27.009003" lon="-48.633843"><ele>4.2</ele></trkpt><trkpt lat="-27.009015" lon="-48.633803"><ele>4.7</ele></trkpt><trkpt lat="-27.009022" lon="-48.633765"><ele>4.5</ele></trkpt><trkpt lat="-27.009022" lon="-48.633765"><ele>4.5</ele></trkpt><trkpt lat="-27.009023" lon="-48.633732"><ele>4.1</ele></trkpt><trkpt lat="-27.00903" lon="-48.63371"><ele>3.5</ele></trkpt><trkpt lat="-27.009035" lon="-48.633697"><ele>3</ele></trkpt><trkpt lat="-27.00904" lon="-48.633695"><ele>2.9</ele></trkpt><trkpt lat="-27.009043" lon="-48.633697"><ele>3.1</ele></trkpt><trkpt lat="-27.009045" lon="-48.633695"><ele>3.3</ele></trkpt><trkpt lat="-27.009043" lon="-48.633695"><ele>3.2</ele></trkpt><trkpt lat="-27.00904" lon="-48.633695"><ele>3.1</ele></trkpt><trkpt lat="-27.009045" lon="-48.633695"><ele>3.5</ele></trkpt><trkpt lat="-27.009052" lon="-48.633698"><ele>3.8</ele></trkpt><trkpt lat="-27.009062" lon="-48.633703"><ele>4.2</ele></trkpt><trkpt lat="-27.009062" lon="-48.633703"><ele>4.2</ele></trkpt><trkpt lat="-27.009055" lon="-48.633698"><ele>4.2</ele></trkpt><trkpt lat="-27.009052" lon="-48.633698"><ele>4</ele></trkpt><trkpt lat="-27.009052" lon="-48.633698"><ele>4</ele></trkpt><trkpt lat="-27.009052" lon="-48.633698"><ele>4</ele></trkpt><trkpt lat="-27.009052" lon="-48.633698"><ele>4</ele></trkpt><trkpt lat="-27.009052" lon="-48.633698"><ele>4</ele></trkpt><trkpt lat="-27.009052" lon="-48.633698"><ele>4</ele></trkpt><trkpt lat="-27.009052" lon="-48.633698"><ele>4</ele></trkpt><trkpt lat="-27.009052" lon="-48.633698"><ele>4</ele></trkpt><trkpt lat="-27.009052" lon="-48.633698"><ele>4</ele></trkpt><trkpt lat="-27.009052" lon="-48.633698"><ele>4</ele></trkpt><trkpt lat="-27.009052" lon="-48.633698"><ele>4</ele></trkpt><trkpt lat="-27.009052" lon="-48.633698"><ele>4</ele></trkpt><trkpt lat="-27.009052" lon="-48.633698"><ele>4</ele></trkpt><trkpt lat="-27.009043" lon="-48.63367"><ele>1.4</ele></trkpt><trkpt lat="-27.00905" lon="-48.633645"><ele>1.3</ele></trkpt><trkpt lat="-27.00905" lon="-48.63362"><ele>2.6</ele></trkpt><trkpt lat="-27.009052" lon="-48.633595"><ele>3.4</ele></trkpt><trkpt lat="-27.009052" lon="-48.633582"><ele>3.7</ele></trkpt><trkpt lat="-27.00905" lon="-48.633568"><ele>4.9</ele></trkpt><trkpt lat="-27.00905" lon="-48.633568"><ele>4.9</ele></trkpt><trkpt lat="-27.009045" lon="-48.633558"><ele>5.5</ele></trkpt><trkpt lat="-27.009043" lon="-48.633557"><ele>6.1</ele></trkpt><trkpt lat="-27.009045" lon="-48.633557"><ele>6.5</ele></trkpt><trkpt lat="-27.009047" lon="-48.633555"><ele>7</ele></trkpt><trkpt lat="-27.009047" lon="-48.633552"><ele>7.1</ele></trkpt><trkpt lat="-27.009048" lon="-48.633542"><ele>7</ele></trkpt><trkpt lat="-27.009052" lon="-48.633532"><ele>7.1</ele></trkpt><trkpt lat="-27.009052" lon="-48.633532"><ele>7.1</ele></trkpt><trkpt lat="-27.009053" lon="-48.63352"><ele>7</ele></trkpt><trkpt lat="-27.009055" lon="-48.633503"><ele>7</ele></trkpt><trkpt lat="-27.009058" lon="-48.633477"><ele>6.6</ele></trkpt><trkpt lat="-27.009063" lon="-48.633453"><ele>6.1</ele></trkpt><trkpt lat="-27.009068" lon="-48.633427"><ele>6</ele></trkpt><trkpt lat="-27.009078" lon="-48.63339"><ele>6.3</ele></trkpt><trkpt lat="-27.009083" lon="-48.633353"><ele>6.3</ele></trkpt><trkpt lat="-27.009092" lon="-48.633315"><ele>5.7</ele></trkpt><trkpt lat="-27.0091" lon="-48.633287"><ele>5.4</ele></trkpt><trkpt lat="-27.0091" lon="-48.633287"><ele>5.4</ele></trkpt><trkpt lat="-27.009103" lon="-48.633257"><ele>4.1</ele></trkpt><trkpt lat="-27.009105" lon="-48.633222"><ele>3.6</ele></trkpt><trkpt lat="-27.00911" lon="-48.633207"><ele>2</ele></trkpt><trkpt lat="-27.009113" lon="-48.633198"><ele>3</ele></trkpt><trkpt lat="-27.009115" lon="-48.633198"><ele>3</ele></trkpt><trkpt lat="-27.009113" lon="-48.633198"><ele>3.4</ele></trkpt><trkpt lat="-27.009117" lon="-48.633198"><ele>3.1</ele></trkpt><trkpt lat="-27.009123" lon="-48.633198"><ele>2.9</ele></trkpt><trkpt lat="-27.009127" lon="-48.633197"><ele>2.6</ele></trkpt><trkpt lat="-27.009127" lon="-48.633197"><ele>2.6</ele></trkpt><trkpt lat="-27.009128" lon="-48.633197"><ele>2.9</ele></trkpt><trkpt lat="-27.009127" lon="-48.633193"><ele>3.1</ele></trkpt><trkpt lat="-27.009125" lon="-48.633192"><ele>3.2</ele></trkpt><trkpt lat="-27.009123" lon="-48.633193"><ele>3.3</ele></trkpt><trkpt lat="-27.009127" lon="-48.633193"><ele>3.2</ele></trkpt><trkpt lat="-27.009127" lon="-48.633193"><ele>3.2</ele></trkpt><trkpt lat="-27.009127" lon="-48.633193"><ele>3.2</ele></trkpt><trkpt lat="-27.009127" lon="-48.633193"><ele>3.2</ele></trkpt><trkpt lat="-27.009127" lon="-48.633193"><ele>3.2</ele></trkpt><trkpt lat="-27.009127" lon="-48.633193"><ele>3.2</ele></trkpt><trkpt lat="-27.009127" lon="-48.633193"><ele>3.2</ele></trkpt><trkpt lat="-27.009127" lon="-48.633193"><ele>3.2</ele></trkpt><trkpt lat="-27.009127" lon="-48.633193"><ele>3.2</ele></trkpt><trkpt lat="-27.009127" lon="-48.633193"><ele>3.2</ele></trkpt><trkpt lat="-27.009127" lon="-48.633193"><ele>3.2</ele></trkpt><trkpt lat="-27.009118" lon="-48.633145"><ele>4.4</ele></trkpt><trkpt lat="-27.009117" lon="-48.63312"><ele>4.9</ele></trkpt><trkpt lat="-27.009118" lon="-48.633097"><ele>5.1</ele></trkpt><trkpt lat="-27.009118" lon="-48.633077"><ele>4.9</ele></trkpt><trkpt lat="-27.009122" lon="-48.633058"><ele>4.5</ele></trkpt><trkpt lat="-27.009125" lon="-48.633042"><ele>4.2</ele></trkpt><trkpt lat="-27.009125" lon="-48.633037"><ele>4.5</ele></trkpt><trkpt lat="-27.009125" lon="-48.633033"><ele>4.8</ele></trkpt><trkpt lat="-27.009123" lon="-48.633028"><ele>4.6</ele></trkpt><trkpt lat="-27.009123" lon="-48.633027"><ele>3.9</ele></trkpt><trkpt lat="-27.009123" lon="-48.633027"><ele>3.9</ele></trkpt><trkpt lat="-27.009122" lon="-48.633028"><ele>3.5</ele></trkpt><trkpt lat="-27.00912" lon="-48.63303"><ele>3.2</ele></trkpt><trkpt lat="-27.009118" lon="-48.633033"><ele>3</ele></trkpt><trkpt lat="-27.009118" lon="-48.633033"><ele>3</ele></trkpt><trkpt lat="-27.009118" lon="-48.633035"><ele>2.9</ele></trkpt><trkpt lat="-27.009118" lon="-48.633037"><ele>2.5</ele></trkpt><trkpt lat="-27.00912" lon="-48.63304"><ele>2.1</ele></trkpt><trkpt lat="-27.009123" lon="-48.633042"><ele>2</ele></trkpt><trkpt lat="-27.009123" lon="-48.633042"><ele>2</ele></trkpt><trkpt lat="-27.009123" lon="-48.633042"><ele>2</ele></trkpt><trkpt lat="-27.009123" lon="-48.633042"><ele>2</ele></trkpt><trkpt lat="-27.009123" lon="-48.633042"><ele>2</ele></trkpt><trkpt lat="-27.009137" lon="-48.633037"><ele>2.1</ele></trkpt><trkpt lat="-27.009143" lon="-48.633032"><ele>2.4</ele></trkpt><trkpt lat="-27.009145" lon="-48.63303"><ele>2.3</ele></trkpt><trkpt lat="-27.00915" lon="-48.633023"><ele>2.3</ele></trkpt><trkpt lat="-27.009157" lon="-48.633015"><ele>2.3</ele></trkpt><trkpt lat="-27.00916" lon="-48.632995"><ele>2.4</ele></trkpt><trkpt lat="-27.009165" lon="-48.632967"><ele>2.4</ele></trkpt><trkpt lat="-27.00917" lon="-48.632938"><ele>2.4</ele></trkpt><trkpt lat="-27.009173" lon="-48.63291"><ele>2.2</ele></trkpt><trkpt lat="-27.009175" lon="-48.632885"><ele>1.9</ele></trkpt><trkpt lat="-27.009175" lon="-48.632857"><ele>1.6</ele></trkpt><trkpt lat="-27.00918" lon="-48.632825"><ele>1.2</ele></trkpt><trkpt lat="-27.009183" lon="-48.632787"><ele>1.3</ele></trkpt><trkpt lat="-27.009183" lon="-48.632787"><ele>1.3</ele></trkpt><trkpt lat="-27.009187" lon="-48.632757"><ele>1.6</ele></trkpt><trkpt lat="-27.00919" lon="-48.632735"><ele>1.7</ele></trkpt><trkpt lat="-27.009197" lon="-48.632723"><ele>1.6</ele></trkpt><trkpt lat="-27.009198" lon="-48.632717"><ele>1.4</ele></trkpt><trkpt lat="-27.009203" lon="-48.632717"><ele>1.7</ele></trkpt><trkpt lat="-27.009207" lon="-48.632713"><ele>2</ele></trkpt><trkpt lat="-27.00921" lon="-48.632713"><ele>2</ele></trkpt><trkpt lat="-27.009213" lon="-48.632713"><ele>1.9</ele></trkpt><trkpt lat="-27.009215" lon="-48.632712"><ele>2.1</ele></trkpt><trkpt lat="-27.009215" lon="-48.632712"><ele>2.1</ele></trkpt><trkpt lat="-27.009213" lon="-48.632705"><ele>2.1</ele></trkpt><trkpt lat="-27.009217" lon="-48.632697"><ele>2.2</ele></trkpt><trkpt lat="-27.009215" lon="-48.63268"><ele>2.3</ele></trkpt><trkpt lat="-27.009217" lon="-48.63266"><ele>2.6</ele></trkpt><trkpt lat="-27.009218" lon="-48.632635"><ele>2.1</ele></trkpt><trkpt lat="-27.009225" lon="-48.632608"><ele>1.7</ele></trkpt><trkpt lat="-27.009232" lon="-48.632582"><ele>1.3</ele></trkpt><trkpt lat="-27.009237" lon="-48.632543"><ele>0.8</ele></trkpt><trkpt lat="-27.009243" lon="-48.632508"><ele>0.5</ele></trkpt><trkpt lat="-27.00925" lon="-48.632472"><ele>0.2</ele></trkpt><trkpt lat="-27.009257" lon="-48.632435"><ele>0.1</ele></trkpt><trkpt lat="-27.009272" lon="-48.632402"><ele>1.3</ele></trkpt><trkpt lat="-27.009278" lon="-48.63237"><ele>1.4</ele></trkpt><trkpt lat="-27.009288" lon="-48.632342"><ele>1.5</ele></trkpt><trkpt lat="-27.009297" lon="-48.632317"><ele>1.5</ele></trkpt><trkpt lat="-27.009293" lon="-48.632295"><ele>1.5</ele></trkpt><trkpt lat="-27.009283" lon="-48.632285"><ele>1.6</ele></trkpt><trkpt lat="-27.00928" lon="-48.632287"><ele>2.4</ele></trkpt><trkpt lat="-27.009277" lon="-48.632283"><ele>2.5</ele></trkpt><trkpt lat="-27.009272" lon="-48.632282"><ele>2.5</ele></trkpt><trkpt lat="-27.009267" lon="-48.632282"><ele>2.3</ele></trkpt><trkpt lat="-27.009265" lon="-48.632282"><ele>2.2</ele></trkpt><trkpt lat="-27.009263" lon="-48.632282"><ele>2.2</ele></trkpt><trkpt lat="-27.00926" lon="-48.632282"><ele>2.3</ele></trkpt><trkpt lat="-27.009258" lon="-48.632282"><ele>2.4</ele></trkpt><trkpt lat="-27.009255" lon="-48.632282"><ele>2.5</ele></trkpt><trkpt lat="-27.009255" lon="-48.632282"><ele>2.5</ele></trkpt><trkpt lat="-27.009253" lon="-48.63228"><ele>2.6</ele></trkpt><trkpt lat="-27.009253" lon="-48.63228"><ele>2.6</ele></trkpt><trkpt lat="-27.009253" lon="-48.63228"><ele>2.6</ele></trkpt><trkpt lat="-27.009253" lon="-48.63228"><ele>2.6</ele></trkpt><trkpt lat="-27.009253" lon="-48.63228"><ele>2.6</ele></trkpt><trkpt lat="-27.009253" lon="-48.63228"><ele>2.6</ele></trkpt><trkpt lat="-27.009253" lon="-48.63228"><ele>2.6</ele></trkpt><trkpt lat="-27.009253" lon="-48.63228"><ele>2.6</ele></trkpt><trkpt lat="-27.009253" lon="-48.63228"><ele>2.6</ele></trkpt><trkpt lat="-27.009253" lon="-48.63228"><ele>2.6</ele></trkpt><trkpt lat="-27.009253" lon="-48.63228"><ele>2.6</ele></trkpt><trkpt lat="-27.009253" lon="-48.63228"><ele>2.6</ele></trkpt><trkpt lat="-27.009253" lon="-48.63228"><ele>2.6</ele></trkpt><trkpt lat="-27.009253" lon="-48.63228"><ele>2.6</ele></trkpt><trkpt lat="-27.009253" lon="-48.63228"><ele>2.6</ele></trkpt><trkpt lat="-27.009253" lon="-48.63228"><ele>2.6</ele></trkpt><trkpt lat="-27.009253" lon="-48.63228"><ele>2.6</ele></trkpt><trkpt lat="-27.009253" lon="-48.63228"><ele>2.6</ele></trkpt><trkpt lat="-27.009253" lon="-48.63228"><ele>2.6</ele></trkpt><trkpt lat="-27.009253" lon="-48.63228"><ele>2.6</ele></trkpt><trkpt lat="-27.009253" lon="-48.63228"><ele>2.6</ele></trkpt><trkpt lat="-27.009253" lon="-48.63228"><ele>2.6</ele></trkpt><trkpt lat="-27.009253" lon="-48.63228"><ele>2.6</ele></trkpt><trkpt lat="-27.009253" lon="-48.63228"><ele>2.6</ele></trkpt><trkpt lat="-27.009253" lon="-48.63228"><ele>2.6</ele></trkpt><trkpt lat="-27.009253" lon="-48.63228"><ele>2.6</ele></trkpt><trkpt lat="-27.009253" lon="-48.63228"><ele>2.6</ele></trkpt><trkpt lat="-27.009253" lon="-48.63228"><ele>2.6</ele></trkpt><trkpt lat="-27.009253" lon="-48.63228"><ele>2.6</ele></trkpt><trkpt lat="-27.009253" lon="-48.63228"><ele>2.6</ele></trkpt><trkpt lat="-27.009253" lon="-48.63228"><ele>2.6</ele></trkpt><trkpt lat="-27.009253" lon="-48.63228"><ele>2.6</ele></trkpt><trkpt lat="-27.009253" lon="-48.63228"><ele>2.6</ele></trkpt><trkpt lat="-27.009253" lon="-48.63228"><ele>2.6</ele></trkpt><trkpt lat="-27.009253" lon="-48.63228"><ele>2.6</ele></trkpt><trkpt lat="-27.009253" lon="-48.63228"><ele>2.6</ele></trkpt><trkpt lat="-27.009253" lon="-48.63228"><ele>2.6</ele></trkpt><trkpt lat="-27.009253" lon="-48.63228"><ele>2.6</ele></trkpt><trkpt lat="-27.009253" lon="-48.63228"><ele>2.6</ele></trkpt><trkpt lat="-27.00925" lon="-48.632243"><ele>3.8</ele></trkpt><trkpt lat="-27.00925" lon="-48.632238"><ele>3.6</ele></trkpt><trkpt lat="-27.00925" lon="-48.632242"><ele>3.5</ele></trkpt><trkpt lat="-27.00925" lon="-48.632243"><ele>3.6</ele></trkpt><trkpt lat="-27.00925" lon="-48.632243"><ele>3.6</ele></trkpt><trkpt lat="-27.00925" lon="-48.632243"><ele>3.6</ele></trkpt><trkpt lat="-27.00925" lon="-48.632243"><ele>3.6</ele></trkpt><trkpt lat="-27.00925" lon="-48.632243"><ele>3.6</ele></trkpt><trkpt lat="-27.00925" lon="-48.632243"><ele>3.6</ele></trkpt><trkpt lat="-27.009243" lon="-48.632245"><ele>3.8</ele></trkpt><trkpt lat="-27.00924" lon="-48.632243"><ele>4</ele></trkpt><trkpt lat="-27.009238" lon="-48.63224"><ele>4</ele></trkpt><trkpt lat="-27.009235" lon="-48.632243"><ele>4</ele></trkpt><trkpt lat="-27.009238" lon="-48.632247"><ele>4.4</ele></trkpt><trkpt lat="-27.009242" lon="-48.632245"><ele>4.4</ele></trkpt><trkpt lat="-27.00925" lon="-48.632233"><ele>4.4</ele></trkpt><trkpt lat="-27.009255" lon="-48.632218"><ele>4.4</ele></trkpt><trkpt lat="-27.00927" lon="-48.6322"><ele>4.5</ele></trkpt><trkpt lat="-27.009272" lon="-48.632187"><ele>4.3</ele></trkpt><trkpt lat="-27.009272" lon="-48.63218"><ele>4.1</ele></trkpt><trkpt lat="-27.009277" lon="-48.632175"><ele>3.7</ele></trkpt><trkpt lat="-27.009278" lon="-48.632173"><ele>3.4</ele></trkpt><trkpt lat="-27.00928" lon="-48.63217"><ele>3</ele></trkpt><trkpt lat="-27.009283" lon="-48.63217"><ele>2.4</ele></trkpt><trkpt lat="-27.009287" lon="-48.632172"><ele>2.4</ele></trkpt><trkpt lat="-27.00929" lon="-48.632172"><ele>2.3</ele></trkpt><trkpt lat="-27.009295" lon="-48.632163"><ele>2.3</ele></trkpt><trkpt lat="-27.0093" lon="-48.632152"><ele>2.2</ele></trkpt><trkpt lat="-27.009307" lon="-48.632133"><ele>2.3</ele></trkpt><trkpt lat="-27.009312" lon="-48.632112"><ele>2.5</ele></trkpt><trkpt lat="-27.00931" lon="-48.632092"><ele>2.1</ele></trkpt><trkpt lat="-27.009308" lon="-48.632068"><ele>1.9</ele></trkpt><trkpt lat="-27.009308" lon="-48.632057"><ele>1.7</ele></trkpt><trkpt lat="-27.009303" lon="-48.63205"><ele>2</ele></trkpt><trkpt lat="-27.009303" lon="-48.63205"><ele>2</ele></trkpt><trkpt lat="-27.009302" lon="-48.63205"><ele>2.8</ele></trkpt><trkpt lat="-27.0093" lon="-48.632052"><ele>3.7</ele></trkpt><trkpt lat="-27.009297" lon="-48.632053"><ele>4.3</ele></trkpt><trkpt lat="-27.009293" lon="-48.632053"><ele>4.9</ele></trkpt><trkpt lat="-27.009293" lon="-48.632053"><ele>4.9</ele></trkpt><trkpt lat="-27.00929" lon="-48.632053"><ele>5.2</ele></trkpt><trkpt lat="-27.00929" lon="-48.632053"><ele>5.5</ele></trkpt><trkpt lat="-27.009288" lon="-48.632053"><ele>5.6</ele></trkpt><trkpt lat="-27.009288" lon="-48.632055"><ele>5.2</ele></trkpt><trkpt lat="-27.009288" lon="-48.632055"><ele>5.2</ele></trkpt><trkpt lat="-27.009288" lon="-48.632055"><ele>5.2</ele></trkpt><trkpt lat="-27.009288" lon="-48.632055"><ele>5.2</ele></trkpt><trkpt lat="-27.009288" lon="-48.632055"><ele>5.2</ele></trkpt><trkpt lat="-27.009288" lon="-48.632055"><ele>5.2</ele></trkpt><trkpt lat="-27.009288" lon="-48.632055"><ele>5.2</ele></trkpt><trkpt lat="-27.009288" lon="-48.632055"><ele>5.2</ele></trkpt><trkpt lat="-27.0093" lon="-48.632043"><ele>2.3</ele></trkpt><trkpt lat="-27.009303" lon="-48.63203"><ele>2</ele></trkpt><trkpt lat="-27.00931" lon="-48.632013"><ele>1.8</ele></trkpt><trkpt lat="-27.009315" lon="-48.631995"><ele>1.5</ele></trkpt><trkpt lat="-27.009315" lon="-48.631995"><ele>1.5</ele></trkpt><trkpt lat="-27.00932" lon="-48.631973"><ele>0.9</ele></trkpt><trkpt lat="-27.009328" lon="-48.631962"><ele>0.6</ele></trkpt><trkpt lat="-27.009333" lon="-48.631957"><ele>0.4</ele></trkpt><trkpt lat="-27.00934" lon="-48.631955"><ele>0.4</ele></trkpt><trkpt lat="-27.009347" lon="-48.631955"><ele>0.7</ele></trkpt><trkpt lat="-27.009353" lon="-48.631955"><ele>1</ele></trkpt><trkpt lat="-27.00936" lon="-48.631955"><ele>1.4</ele></trkpt><trkpt lat="-27.00936" lon="-48.631955"><ele>1.4</ele></trkpt><trkpt lat="-27.009368" lon="-48.631958"><ele>1.4</ele></trkpt><trkpt lat="-27.009383" lon="-48.631963"><ele>1.4</ele></trkpt><trkpt lat="-27.009392" lon="-48.631963"><ele>1.6</ele></trkpt><trkpt lat="-27.009395" lon="-48.63196"><ele>1.5</ele></trkpt><trkpt lat="-27.009397" lon="-48.631948"><ele>1.4</ele></trkpt><trkpt lat="-27.009397" lon="-48.631935"><ele>1.3</ele></trkpt><trkpt lat="-27.0094" lon="-48.63192"><ele>1.3</ele></trkpt><trkpt lat="-27.009405" lon="-48.631907"><ele>1.4</ele></trkpt><trkpt lat="-27.009407" lon="-48.631888"><ele>1.7</ele></trkpt><trkpt lat="-27.009407" lon="-48.63187"><ele>1.5</ele></trkpt><trkpt lat="-27.009408" lon="-48.631848"><ele>1.2</ele></trkpt><trkpt lat="-27.009412" lon="-48.631828"><ele>1.4</ele></trkpt><trkpt lat="-27.009418" lon="-48.631798"><ele>1.3</ele></trkpt><trkpt lat="-27.009422" lon="-48.63177"><ele>1</ele></trkpt><trkpt lat="-27.00943" lon="-48.631748"><ele>0.6</ele></trkpt><trkpt lat="-27.009433" lon="-48.631735"><ele>0</ele></trkpt><trkpt lat="-27.009433" lon="-48.631732"><ele>-0.6</ele></trkpt><trkpt lat="-27.00943" lon="-48.631725"><ele>-0.8</ele></trkpt><trkpt lat="-27.009427" lon="-48.63172"><ele>-1.2</ele></trkpt><trkpt lat="-27.009422" lon="-48.631717"><ele>-1.5</ele></trkpt><trkpt lat="-27.009418" lon="-48.631717"><ele>-1.8</ele></trkpt><trkpt lat="-27.009418" lon="-48.631717"><ele>-1.8</ele></trkpt><trkpt lat="-27.009417" lon="-48.631717"><ele>-2.1</ele></trkpt><trkpt lat="-27.009415" lon="-48.631715"><ele>-2.4</ele></trkpt><trkpt lat="-27.009415" lon="-48.631715"><ele>-2.5</ele></trkpt><trkpt lat="-27.009413" lon="-48.631715"><ele>-2.7</ele></trkpt><trkpt lat="-27.009412" lon="-48.631717"><ele>-3.1</ele></trkpt><trkpt lat="-27.009412" lon="-48.631717"><ele>-3.1</ele></trkpt><trkpt lat="-27.009412" lon="-48.631717"><ele>-3.1</ele></trkpt><trkpt lat="-27.009412" lon="-48.631717"><ele>-3.1</ele></trkpt><trkpt lat="-27.009412" lon="-48.631717"><ele>-3.1</ele></trkpt><trkpt lat="-27.009412" lon="-48.631717"><ele>-3.1</ele></trkpt><trkpt lat="-27.009412" lon="-48.631717"><ele>-3.1</ele></trkpt><trkpt lat="-27.009412" lon="-48.631717"><ele>-3.1</ele></trkpt><trkpt lat="-27.009412" lon="-48.631717"><ele>-3.1</ele></trkpt><trkpt lat="-27.009412" lon="-48.631717"><ele>-3.1</ele></trkpt><trkpt lat="-27.009412" lon="-48.631717"><ele>-3.1</ele></trkpt><trkpt lat="-27.009412" lon="-48.631717"><ele>-3.1</ele></trkpt><trkpt lat="-27.009412" lon="-48.631717"><ele>-3.1</ele></trkpt><trkpt lat="-27.009412" lon="-48.631717"><ele>-3.1</ele></trkpt><trkpt lat="-27.009412" lon="-48.631717"><ele>-3.1</ele></trkpt><trkpt lat="-27.009412" lon="-48.631717"><ele>-3.1</ele></trkpt><trkpt lat="-27.009412" lon="-48.631717"><ele>-3.1</ele></trkpt><trkpt lat="-27.009412" lon="-48.631717"><ele>-3.1</ele></trkpt><trkpt lat="-27.009412" lon="-48.631717"><ele>-3.1</ele></trkpt><trkpt lat="-27.009412" lon="-48.631717"><ele>-3.1</ele></trkpt><trkpt lat="-27.009412" lon="-48.631717"><ele>-3.1</ele></trkpt><trkpt lat="-27.009383" lon="-48.631717"><ele>-2.8</ele></trkpt><trkpt lat="-27.009382" lon="-48.631707"><ele>-2.6</ele></trkpt><trkpt lat="-27.00938" lon="-48.631695"><ele>-2.4</ele></trkpt><trkpt lat="-27.009378" lon="-48.631687"><ele>-2.3</ele></trkpt><trkpt lat="-27.009372" lon="-48.63168"><ele>-2.3</ele></trkpt><trkpt lat="-27.009365" lon="-48.631668"><ele>-2.2</ele></trkpt><trkpt lat="-27.009363" lon="-48.631655"><ele>-2.4</ele></trkpt><trkpt lat="-27.009363" lon="-48.631642"><ele>-2.4</ele></trkpt><trkpt lat="-27.00937" lon="-48.631617"><ele>-2.5</ele></trkpt><trkpt lat="-27.009383" lon="-48.631587"><ele>-2.7</ele></trkpt><trkpt lat="-27.009393" lon="-48.631552"><ele>-2.5</ele></trkpt><trkpt lat="-27.009403" lon="-48.631515"><ele>-2.5</ele></trkpt><trkpt lat="-27.009413" lon="-48.63148"><ele>-2.2</ele></trkpt><trkpt lat="-27.009422" lon="-48.631447"><ele>-1.8</ele></trkpt><trkpt lat="-27.009428" lon="-48.631405"><ele>-1.8</ele></trkpt><trkpt lat="-27.009428" lon="-48.631362"><ele>-0.5</ele></trkpt><trkpt lat="-27.009435" lon="-48.63132"><ele>1.2</ele></trkpt><trkpt lat="-27.009438" lon="-48.631283"><ele>2.5</ele></trkpt><trkpt lat="-27.009447" lon="-48.631243"><ele>4</ele></trkpt><trkpt lat="-27.009455" lon="-48.631202"><ele>5.1</ele></trkpt><trkpt lat="-27.00946" lon="-48.631167"><ele>5.5</ele></trkpt><trkpt lat="-27.009465" lon="-48.631147"><ele>5.8</ele></trkpt><trkpt lat="-27.009465" lon="-48.631135"><ele>5.7</ele></trkpt><trkpt lat="-27.009465" lon="-48.631135"><ele>5.7</ele></trkpt><trkpt lat="-27.009462" lon="-48.631127"><ele>6.2</ele></trkpt><trkpt lat="-27.009465" lon="-48.631127"><ele>6.2</ele></trkpt><trkpt lat="-27.009468" lon="-48.63113"><ele>6.1</ele></trkpt><trkpt lat="-27.009468" lon="-48.631132"><ele>6.1</ele></trkpt><trkpt lat="-27.00947" lon="-48.631132"><ele>6.1</ele></trkpt><trkpt lat="-27.00947" lon="-48.631132"><ele>6.1</ele></trkpt><trkpt lat="-27.009468" lon="-48.631135"><ele>6.2</ele></trkpt><trkpt lat="-27.00947" lon="-48.631135"><ele>6.3</ele></trkpt><trkpt lat="-27.00947" lon="-48.631128"><ele>6.4</ele></trkpt><trkpt lat="-27.009468" lon="-48.631123"><ele>6.3</ele></trkpt><trkpt lat="-27.009465" lon="-48.63111"><ele>6.1</ele></trkpt><trkpt lat="-27.009465" lon="-48.631093"><ele>5.8</ele></trkpt><trkpt lat="-27.009467" lon="-48.631078"><ele>5.5</ele></trkpt><trkpt lat="-27.009472" lon="-48.63106"><ele>5.1</ele></trkpt><trkpt lat="-27.00948" lon="-48.63104"><ele>4.8</ele></trkpt><trkpt lat="-27.009493" lon="-48.631007"><ele>4.1</ele></trkpt><trkpt lat="-27.009505" lon="-48.630972"><ele>3</ele></trkpt><trkpt lat="-27.009508" lon="-48.630933"><ele>2</ele></trkpt><trkpt lat="-27.009513" lon="-48.6309"><ele>1.4</ele></trkpt><trkpt lat="-27.009518" lon="-48.630867"><ele>1.3</ele></trkpt><trkpt lat="-27.009523" lon="-48.63083"><ele>0.7</ele></trkpt><trkpt lat="-27.009528" lon="-48.630797"><ele>0.5</ele></trkpt><trkpt lat="-27.009537" lon="-48.630772"><ele>0.1</ele></trkpt><trkpt lat="-27.009547" lon="-48.630762"><ele>0.2</ele></trkpt><trkpt lat="-27.009552" lon="-48.630758"><ele>0.1</ele></trkpt><trkpt lat="-27.009552" lon="-48.63076"><ele>0</ele></trkpt><trkpt lat="-27.009552" lon="-48.63076"><ele>0</ele></trkpt><trkpt lat="-27.009552" lon="-48.630762"><ele>0.1</ele></trkpt><trkpt lat="-27.009548" lon="-48.63076"><ele>0.7</ele></trkpt><trkpt lat="-27.009548" lon="-48.63076"><ele>0.9</ele></trkpt><trkpt lat="-27.009545" lon="-48.630763"><ele>1</ele></trkpt><trkpt lat="-27.009547" lon="-48.630767"><ele>1.3</ele></trkpt><trkpt lat="-27.00955" lon="-48.630768"><ele>1.4</ele></trkpt><trkpt lat="-27.00955" lon="-48.630767"><ele>1.3</ele></trkpt><trkpt lat="-27.00955" lon="-48.630767"><ele>1.3</ele></trkpt><trkpt lat="-27.009548" lon="-48.630765"><ele>1.4</ele></trkpt><trkpt lat="-27.009548" lon="-48.630763"><ele>1.6</ele></trkpt><trkpt lat="-27.00955" lon="-48.630753"><ele>1.3</ele></trkpt><trkpt lat="-27.009557" lon="-48.630738"><ele>1.3</ele></trkpt><trkpt lat="-27.009555" lon="-48.630717"><ele>1</ele></trkpt><trkpt lat="-27.009558" lon="-48.630695"><ele>0.8</ele></trkpt><trkpt lat="-27.009562" lon="-48.630665"><ele>1.4</ele></trkpt><trkpt lat="-27.009563" lon="-48.63063"><ele>2.1</ele></trkpt><trkpt lat="-27.009565" lon="-48.630602"><ele>2.9</ele></trkpt><trkpt lat="-27.00957" lon="-48.630573"><ele>3.5</ele></trkpt><trkpt lat="-27.009572" lon="-48.630552"><ele>4.1</ele></trkpt><trkpt lat="-27.009577" lon="-48.630538"><ele>4.8</ele></trkpt><trkpt lat="-27.009575" lon="-48.630535"><ele>4.9</ele></trkpt><trkpt lat="-27.009575" lon="-48.630535"><ele>4.9</ele></trkpt><trkpt lat="-27.009577" lon="-48.630535"><ele>5.2</ele></trkpt><trkpt lat="-27.00958" lon="-48.630537"><ele>5.3</ele></trkpt><trkpt lat="-27.009583" lon="-48.630538"><ele>5.9</ele></trkpt><trkpt lat="-27.009588" lon="-48.63054"><ele>6.1</ele></trkpt><trkpt lat="-27.00959" lon="-48.63054"><ele>5.9</ele></trkpt><trkpt lat="-27.009595" lon="-48.630538"><ele>5.8</ele></trkpt><trkpt lat="-27.0096" lon="-48.630538"><ele>5.6</ele></trkpt><trkpt lat="-27.0096" lon="-48.630538"><ele>5.6</ele></trkpt><trkpt lat="-27.009603" lon="-48.630538"><ele>5.5</ele></trkpt><trkpt lat="-27.009605" lon="-48.63053"><ele>5.1</ele></trkpt><trkpt lat="-27.009603" lon="-48.63052"><ele>4.5</ele></trkpt><trkpt lat="-27.009602" lon="-48.630505"><ele>4.1</ele></trkpt><trkpt lat="-27.009593" lon="-48.63048"><ele>3.2</ele></trkpt><trkpt lat="-27.009593" lon="-48.63048"><ele>3.2</ele></trkpt><trkpt lat="-27.009587" lon="-48.630462"><ele>2.9</ele></trkpt><trkpt lat="-27.009587" lon="-48.630445"><ele>2.5</ele></trkpt><trkpt lat="-27.009585" lon="-48.63043"><ele>2.2</ele></trkpt><trkpt lat="-27.00958" lon="-48.630417"><ele>1.8</ele></trkpt><trkpt lat="-27.009588" lon="-48.630405"><ele>1.5</ele></trkpt><trkpt lat="-27.009597" lon="-48.63039"><ele>1.2</ele></trkpt><trkpt lat="-27.009605" lon="-48.630375"><ele>1.2</ele></trkpt><trkpt lat="-27.009605" lon="-48.630375"><ele>1.2</ele></trkpt><trkpt lat="-27.009615" lon="-48.63036"><ele>1.1</ele></trkpt><trkpt lat="-27.009623" lon="-48.63034"><ele>1.2</ele></trkpt><trkpt lat="-27.009628" lon="-48.630317"><ele>1.1</ele></trkpt><trkpt lat="-27.009628" lon="-48.630298"><ele>-0.1</ele></trkpt><trkpt lat="-27.009632" lon="-48.63027"><ele>-0.8</ele></trkpt><trkpt lat="-27.009635" lon="-48.630243"><ele>-1.5</ele></trkpt><trkpt lat="-27.009638" lon="-48.630217"><ele>-1.7</ele></trkpt><trkpt lat="-27.009642" lon="-48.630188"><ele>-2.7</ele></trkpt><trkpt lat="-27.009645" lon="-48.630162"><ele>-2.7</ele></trkpt><trkpt lat="-27.009648" lon="-48.630133"><ele>-3.3</ele></trkpt><trkpt lat="-27.009653" lon="-48.630102"><ele>-2.8</ele></trkpt><trkpt lat="-27.009657" lon="-48.630073"><ele>-2.2</ele></trkpt><trkpt lat="-27.009663" lon="-48.630043"><ele>-1.1</ele></trkpt><trkpt lat="-27.009663" lon="-48.630015"><ele>-0.8</ele></trkpt><trkpt lat="-27.009663" lon="-48.630015"><ele>-0.8</ele></trkpt><trkpt lat="-27.009665" lon="-48.629997"><ele>-1.1</ele></trkpt><trkpt lat="-27.009663" lon="-48.629975"><ele>-1.1</ele></trkpt><trkpt lat="-27.009668" lon="-48.629962"><ele>-0.9</ele></trkpt><trkpt lat="-27.009673" lon="-48.629953"><ele>-0.2</ele></trkpt><trkpt lat="-27.009675" lon="-48.62995"><ele>-0.6</ele></trkpt><trkpt lat="-27.009675" lon="-48.629947"><ele>-0.6</ele></trkpt><trkpt lat="-27.009682" lon="-48.629943"><ele>-0.7</ele></trkpt><trkpt lat="-27.009682" lon="-48.629943"><ele>-0.7</ele></trkpt><trkpt lat="-27.009685" lon="-48.629942"><ele>-0.6</ele></trkpt><trkpt lat="-27.00969" lon="-48.629935"><ele>-0.4</ele></trkpt><trkpt lat="-27.0097" lon="-48.629922"><ele>0</ele></trkpt><trkpt lat="-27.009698" lon="-48.629903"><ele>0</ele></trkpt><trkpt lat="-27.00969" lon="-48.629883"><ele>-0.1</ele></trkpt><trkpt lat="-27.009677" lon="-48.629867"><ele>0.3</ele></trkpt><trkpt lat="-27.00967" lon="-48.629855"><ele>0.3</ele></trkpt><trkpt lat="-27.009672" lon="-48.629845"><ele>0.4</ele></trkpt><trkpt lat="-27.009672" lon="-48.629845"><ele>0.4</ele></trkpt><trkpt lat="-27.009672" lon="-48.629837"><ele>0.6</ele></trkpt><trkpt lat="-27.009672" lon="-48.629835"><ele>1.1</ele></trkpt><trkpt lat="-27.009672" lon="-48.629833"><ele>1.5</ele></trkpt><trkpt lat="-27.009672" lon="-48.629835"><ele>1.5</ele></trkpt><trkpt lat="-27.009672" lon="-48.629833"><ele>1.9</ele></trkpt><trkpt lat="-27.009672" lon="-48.629835"><ele>2.2</ele></trkpt><trkpt lat="-27.009672" lon="-48.629835"><ele>2.2</ele></trkpt><trkpt lat="-27.009673" lon="-48.629835"><ele>2.4</ele></trkpt><trkpt lat="-27.00968" lon="-48.629832"><ele>2.4</ele></trkpt><trkpt lat="-27.009693" lon="-48.629823"><ele>2.4</ele></trkpt><trkpt lat="-27.009703" lon="-48.629802"><ele>2.6</ele></trkpt><trkpt lat="-27.00971" lon="-48.62977"><ele>2.3</ele></trkpt><trkpt lat="-27.009713" lon="-48.629735"><ele>2</ele></trkpt><trkpt lat="-27.009717" lon="-48.6297"><ele>1.9</ele></trkpt><trkpt lat="-27.009718" lon="-48.629665"><ele>1.6</ele></trkpt><trkpt lat="-27.009723" lon="-48.62963"><ele>1.2</ele></trkpt><trkpt lat="-27.009728" lon="-48.629595"><ele>0.8</ele></trkpt><trkpt lat="-27.009735" lon="-48.62956"><ele>0.8</ele></trkpt><trkpt lat="-27.009743" lon="-48.629527"><ele>1</ele></trkpt><trkpt lat="-27.009752" lon="-48.629495"><ele>1.5</ele></trkpt><trkpt lat="-27.009758" lon="-48.629463"><ele>2.3</ele></trkpt><trkpt lat="-27.009763" lon="-48.629427"><ele>2.9</ele></trkpt><trkpt lat="-27.009768" lon="-48.6294"><ele>3.3</ele></trkpt><trkpt lat="-27.009773" lon="-48.629378"><ele>4</ele></trkpt><trkpt lat="-27.00977" lon="-48.629368"><ele>4.5</ele></trkpt><trkpt lat="-27.00977" lon="-48.629368"><ele>4.5</ele></trkpt><trkpt lat="-27.009773" lon="-48.629367"><ele>4.9</ele></trkpt><trkpt lat="-27.00977" lon="-48.629367"><ele>4.9</ele></trkpt><trkpt lat="-27.009772" lon="-48.629368"><ele>4.9</ele></trkpt><trkpt lat="-27.009775" lon="-48.629372"><ele>4.6</ele></trkpt><trkpt lat="-27.009782" lon="-48.629373"><ele>4.4</ele></trkpt><trkpt lat="-27.009787" lon="-48.629375"><ele>4.1</ele></trkpt><trkpt lat="-27.009787" lon="-48.629375"><ele>4.1</ele></trkpt><trkpt lat="-27.00979" lon="-48.629377"><ele>3.8</ele></trkpt><trkpt lat="-27.00979" lon="-48.629378"><ele>3.8</ele></trkpt><trkpt lat="-27.009795" lon="-48.629373"><ele>3.7</ele></trkpt><trkpt lat="-27.009798" lon="-48.629357"><ele>3.8</ele></trkpt><trkpt lat="-27.009802" lon="-48.629338"><ele>3.8</ele></trkpt><trkpt lat="-27.009807" lon="-48.629318"><ele>3.4</ele></trkpt><trkpt lat="-27.009812" lon="-48.629297"><ele>3.4</ele></trkpt><trkpt lat="-27.009817" lon="-48.62927"><ele>3</ele></trkpt><trkpt lat="-27.00982" lon="-48.629238"><ele>2</ele></trkpt><trkpt lat="-27.009822" lon="-48.629202"><ele>1.5</ele></trkpt><trkpt lat="-27.009827" lon="-48.629167"><ele>0.8</ele></trkpt><trkpt lat="-27.009832" lon="-48.629128"><ele>0.8</ele></trkpt><trkpt lat="-27.009837" lon="-48.629092"><ele>0.4</ele></trkpt><trkpt lat="-27.009847" lon="-48.629052"><ele>0.8</ele></trkpt><trkpt lat="-27.009857" lon="-48.629015"><ele>0.9</ele></trkpt><trkpt lat="-27.00987" lon="-48.628985"><ele>0.9</ele></trkpt><trkpt lat="-27.009875" lon="-48.628968"><ele>2.1</ele></trkpt><trkpt lat="-27.009885" lon="-48.628968"><ele>2.1</ele></trkpt><trkpt lat="-27.00989" lon="-48.628968"><ele>2</ele></trkpt><trkpt lat="-27.00989" lon="-48.628968"><ele>2.3</ele></trkpt><trkpt lat="-27.00989" lon="-48.628968"><ele>2.3</ele></trkpt><trkpt lat="-27.00989" lon="-48.628967"><ele>2.9</ele></trkpt><trkpt lat="-27.00989" lon="-48.628967"><ele>2.9</ele></trkpt><trkpt lat="-27.009887" lon="-48.628968"><ele>3.2</ele></trkpt><trkpt lat="-27.009887" lon="-48.628968"><ele>3.2</ele></trkpt><trkpt lat="-27.009887" lon="-48.62897"><ele>3.3</ele></trkpt><trkpt lat="-27.009888" lon="-48.62897"><ele>3.3</ele></trkpt><trkpt lat="-27.009888" lon="-48.62897"><ele>3.3</ele></trkpt><trkpt lat="-27.009887" lon="-48.62897"><ele>3.4</ele></trkpt><trkpt lat="-27.009887" lon="-48.62897"><ele>3.5</ele></trkpt><trkpt lat="-27.009887" lon="-48.628968"><ele>3.6</ele></trkpt><trkpt lat="-27.009885" lon="-48.628967"><ele>3.7</ele></trkpt><trkpt lat="-27.009885" lon="-48.628967"><ele>3.7</ele></trkpt><trkpt lat="-27.009885" lon="-48.628967"><ele>3.7</ele></trkpt><trkpt lat="-27.009885" lon="-48.628967"><ele>3.7</ele></trkpt><trkpt lat="-27.009885" lon="-48.628967"><ele>3.7</ele></trkpt><trkpt lat="-27.009885" lon="-48.628967"><ele>3.7</ele></trkpt><trkpt lat="-27.00988" lon="-48.628933"><ele>2.5</ele></trkpt><trkpt lat="-27.00988" lon="-48.628908"><ele>2.5</ele></trkpt><trkpt lat="-27.00988" lon="-48.62888"><ele>3.1</ele></trkpt><trkpt lat="-27.009882" lon="-48.628852"><ele>3.4</ele></trkpt><trkpt lat="-27.009887" lon="-48.628823"><ele>3.3</ele></trkpt><trkpt lat="-27.009892" lon="-48.628798"><ele>3.5</ele></trkpt><trkpt lat="-27.009893" lon="-48.628772"><ele>4</ele></trkpt><trkpt lat="-27.009897" lon="-48.628755"><ele>3.9</ele></trkpt><trkpt lat="-27.009895" lon="-48.628743"><ele>3.6</ele></trkpt><trkpt lat="-27.009895" lon="-48.62874"><ele>3</ele></trkpt><trkpt lat="-27.009895" lon="-48.628738"><ele>3</ele></trkpt><trkpt lat="-27.009893" lon="-48.628737"><ele>2.9</ele></trkpt><trkpt lat="-27.009895" lon="-48.628738"><ele>3.3</ele></trkpt><trkpt lat="-27.009895" lon="-48.628738"><ele>3.5</ele></trkpt><trkpt lat="-27.009895" lon="-48.628738"><ele>3.7</ele></trkpt><trkpt lat="-27.009895" lon="-48.628738"><ele>3.7</ele></trkpt><trkpt lat="-27.009897" lon="-48.628737"><ele>3.9</ele></trkpt><trkpt lat="-27.009897" lon="-48.62874"><ele>4</ele></trkpt><trkpt lat="-27.009895" lon="-48.62874"><ele>3.9</ele></trkpt><trkpt lat="-27.009897" lon="-48.628742"><ele>3.9</ele></trkpt><trkpt lat="-27.009897" lon="-48.628742"><ele>3.9</ele></trkpt><trkpt lat="-27.009897" lon="-48.628742"><ele>3.9</ele></trkpt><trkpt lat="-27.009897" lon="-48.628742"><ele>3.9</ele></trkpt><trkpt lat="-27.009897" lon="-48.628742"><ele>3.9</ele></trkpt><trkpt lat="-27.009897" lon="-48.628742"><ele>3.9</ele></trkpt><trkpt lat="-27.009897" lon="-48.628742"><ele>3.9</ele></trkpt><trkpt lat="-27.009897" lon="-48.628738"><ele>3.7</ele></trkpt><trkpt lat="-27.009907" lon="-48.628725"><ele>3.2</ele></trkpt><trkpt lat="-27.009912" lon="-48.628705"><ele>2.6</ele></trkpt><trkpt lat="-27.009917" lon="-48.628683"><ele>2.1</ele></trkpt><trkpt lat="-27.009922" lon="-48.628657"><ele>1.5</ele></trkpt><trkpt lat="-27.009923" lon="-48.628628"><ele>0.9</ele></trkpt><trkpt lat="-27.00992" lon="-48.628597"><ele>0.4</ele></trkpt><trkpt lat="-27.00992" lon="-48.628572"><ele>0.8</ele></trkpt><trkpt lat="-27.009922" lon="-48.628552"><ele>1.5</ele></trkpt><trkpt lat="-27.009925" lon="-48.628542"><ele>1.5</ele></trkpt><trkpt lat="-27.009925" lon="-48.628542"><ele>1.5</ele></trkpt><trkpt lat="-27.009928" lon="-48.628537"><ele>2</ele></trkpt><trkpt lat="-27.00993" lon="-48.628538"><ele>2.3</ele></trkpt><trkpt lat="-27.00993" lon="-48.62854"><ele>2.3</ele></trkpt><trkpt lat="-27.009935" lon="-48.628538"><ele>2.1</ele></trkpt><trkpt lat="-27.00994" lon="-48.628538"><ele>2</ele></trkpt><trkpt lat="-27.009947" lon="-48.62854"><ele>1.9</ele></trkpt><trkpt lat="-27.00995" lon="-48.628542"><ele>2</ele></trkpt><trkpt lat="-27.00995" lon="-48.628542"><ele>2</ele></trkpt><trkpt lat="-27.009957" lon="-48.628547"><ele>2</ele></trkpt><trkpt lat="-27.009955" lon="-48.62855"><ele>1.9</ele></trkpt><trkpt lat="-27.009957" lon="-48.62855"><ele>2</ele></trkpt><trkpt lat="-27.009962" lon="-48.628538"><ele>1.8</ele></trkpt><trkpt lat="-27.009967" lon="-48.628525"><ele>1.7</ele></trkpt><trkpt lat="-27.009972" lon="-48.628508"><ele>2</ele></trkpt><trkpt lat="-27.009977" lon="-48.628485"><ele>2.1</ele></trkpt><trkpt lat="-27.009975" lon="-48.628457"><ele>2.2</ele></trkpt><trkpt lat="-27.009978" lon="-48.628425"><ele>2</ele></trkpt><trkpt lat="-27.009983" lon="-48.628397"><ele>1.8</ele></trkpt><trkpt lat="-27.009985" lon="-48.628367"><ele>1.2</ele></trkpt><trkpt lat="-27.00999" lon="-48.628332"><ele>0.6</ele></trkpt><trkpt lat="-27.009998" lon="-48.6283"><ele>0.5</ele></trkpt><trkpt lat="-27.010005" lon="-48.628275"><ele>0.3</ele></trkpt><trkpt lat="-27.010012" lon="-48.62825"><ele>0.3</ele></trkpt><trkpt lat="-27.010018" lon="-48.628228"><ele>0.2</ele></trkpt><trkpt lat="-27.01002" lon="-48.628207"><ele>0</ele></trkpt><trkpt lat="-27.010023" lon="-48.628188"><ele>0.5</ele></trkpt><trkpt lat="-27.010023" lon="-48.628188"><ele>0.5</ele></trkpt><trkpt lat="-27.010028" lon="-48.628183"><ele>1.4</ele></trkpt><trkpt lat="-27.01003" lon="-48.628183"><ele>2</ele></trkpt><trkpt lat="-27.010038" lon="-48.628183"><ele>2</ele></trkpt><trkpt lat="-27.010045" lon="-48.628185"><ele>2.2</ele></trkpt><trkpt lat="-27.010048" lon="-48.62819"><ele>2.3</ele></trkpt><trkpt lat="-27.010052" lon="-48.62819"><ele>2.4</ele></trkpt><trkpt lat="-27.01005" lon="-48.628193"><ele>2.5</ele></trkpt><trkpt lat="-27.01005" lon="-48.628193"><ele>2.5</ele></trkpt><trkpt lat="-27.010042" lon="-48.628195"><ele>2.4</ele></trkpt><trkpt lat="-27.010032" lon="-48.628193"><ele>2.4</ele></trkpt><trkpt lat="-27.010023" lon="-48.628188"><ele>2.5</ele></trkpt><trkpt lat="-27.01002" lon="-48.628175"><ele>2.9</ele></trkpt><trkpt lat="-27.010013" lon="-48.62816"><ele>2.9</ele></trkpt><trkpt lat="-27.010003" lon="-48.62814"><ele>2.5</ele></trkpt><trkpt lat="-27.010005" lon="-48.628122"><ele>2.3</ele></trkpt><trkpt lat="-27.010008" lon="-48.628097"><ele>2.3</ele></trkpt><trkpt lat="-27.01001" lon="-48.628068"><ele>2.9</ele></trkpt><trkpt lat="-27.01001" lon="-48.628033"><ele>3.3</ele></trkpt><trkpt lat="-27.010017" lon="-48.628"><ele>2.1</ele></trkpt><trkpt lat="-27.010028" lon="-48.62797"><ele>1.8</ele></trkpt><trkpt lat="-27.010038" lon="-48.627942"><ele>1.3</ele></trkpt><trkpt lat="-27.010043" lon="-48.627917"><ele>1.7</ele></trkpt><trkpt lat="-27.01005" lon="-48.627897"><ele>2.2</ele></trkpt><trkpt lat="-27.010055" lon="-48.627892"><ele>2.9</ele></trkpt><trkpt lat="-27.010062" lon="-48.627897"><ele>3.5</ele></trkpt><trkpt lat="-27.010062" lon="-48.627898"><ele>3.8</ele></trkpt><trkpt lat="-27.010058" lon="-48.6279"><ele>3.9</ele></trkpt><trkpt lat="-27.010062" lon="-48.6279"><ele>4.1</ele></trkpt><trkpt lat="-27.010068" lon="-48.627898"><ele>4.2</ele></trkpt><trkpt lat="-27.010068" lon="-48.627897"><ele>4.1</ele></trkpt><trkpt lat="-27.010065" lon="-48.627897"><ele>3.8</ele></trkpt><trkpt lat="-27.010065" lon="-48.627895"><ele>3.4</ele></trkpt><trkpt lat="-27.010063" lon="-48.627893"><ele>3.1</ele></trkpt><trkpt lat="-27.010065" lon="-48.627892"><ele>2.7</ele></trkpt><trkpt lat="-27.010065" lon="-48.627892"><ele>2.7</ele></trkpt><trkpt lat="-27.01006" lon="-48.62791"><ele>1.8</ele></trkpt><trkpt lat="-27.01006" lon="-48.62791"><ele>1.8</ele></trkpt><trkpt lat="-27.010058" lon="-48.627925"><ele>1.5</ele></trkpt><trkpt lat="-27.010053" lon="-48.627937"><ele>1</ele></trkpt><trkpt lat="-27.010048" lon="-48.627948"><ele>0.6</ele></trkpt><trkpt lat="-27.010048" lon="-48.627962"><ele>0.4</ele></trkpt><trkpt lat="-27.010048" lon="-48.627973"><ele>0.1</ele></trkpt><trkpt lat="-27.010053" lon="-48.627983"><ele>0.1</ele></trkpt><trkpt lat="-27.010052" lon="-48.627993"><ele>0.2</ele></trkpt><trkpt lat="-27.01005" lon="-48.628005"><ele>0.5</ele></trkpt><trkpt lat="-27.010047" lon="-48.628015"><ele>0.9</ele></trkpt><trkpt lat="-27.010047" lon="-48.628015"><ele>0.9</ele></trkpt><trkpt lat="-27.010042" lon="-48.628015"><ele>1.1</ele></trkpt><trkpt lat="-27.010038" lon="-48.628018"><ele>1.1</ele></trkpt><trkpt lat="-27.010037" lon="-48.62802"><ele>1.3</ele></trkpt><trkpt lat="-27.010033" lon="-48.62802"><ele>1.4</ele></trkpt><trkpt lat="-27.01003" lon="-48.62802"><ele>1.5</ele></trkpt><trkpt lat="-27.01003" lon="-48.62802"><ele>1.5</ele></trkpt><trkpt lat="-27.010027" lon="-48.62802"><ele>1.5</ele></trkpt><trkpt lat="-27.010023" lon="-48.628012"><ele>1.6</ele></trkpt><trkpt lat="-27.010018" lon="-48.628008"><ele>2.1</ele></trkpt><trkpt lat="-27.010017" lon="-48.628002"><ele>2.4</ele></trkpt><trkpt lat="-27.010017" lon="-48.628002"><ele>2.4</ele></trkpt><trkpt lat="-27.010015" lon="-48.627998"><ele>2.5</ele></trkpt><trkpt lat="-27.010017" lon="-48.627998"><ele>2.8</ele></trkpt><trkpt lat="-27.010017" lon="-48.627998"><ele>2.8</ele></trkpt><trkpt lat="-27.010017" lon="-48.627998"><ele>2.8</ele></trkpt><trkpt lat="-27.010017" lon="-48.627998"><ele>2.8</ele></trkpt><trkpt lat="-27.010017" lon="-48.627998"><ele>2.8</ele></trkpt><trkpt lat="-27.010017" lon="-48.627998"><ele>2.8</ele></trkpt><trkpt lat="-27.010017" lon="-48.627998"><ele>2.8</ele></trkpt><trkpt lat="-27.010028" lon="-48.627993"><ele>1</ele></trkpt><trkpt lat="-27.010035" lon="-48.627982"><ele>0.4</ele></trkpt><trkpt lat="-27.01004" lon="-48.62797"><ele>0.1</ele></trkpt><trkpt lat="-27.010042" lon="-48.62796"><ele>-0.2</ele></trkpt><trkpt lat="-27.010045" lon="-48.62795"><ele>-1</ele></trkpt><trkpt lat="-27.010048" lon="-48.627937"><ele>-1.4</ele></trkpt><trkpt lat="-27.010047" lon="-48.627922"><ele>-1.4</ele></trkpt><trkpt lat="-27.010048" lon="-48.627908"><ele>-2</ele></trkpt><trkpt lat="-27.01005" lon="-48.627897"><ele>-1.6</ele></trkpt><trkpt lat="-27.010052" lon="-48.627887"><ele>-1.6</ele></trkpt><trkpt lat="-27.010052" lon="-48.627878"><ele>-1.5</ele></trkpt><trkpt lat="-27.010055" lon="-48.627865"><ele>-1.2</ele></trkpt><trkpt lat="-27.010058" lon="-48.627847"><ele>-0.1</ele></trkpt><trkpt lat="-27.010058" lon="-48.627847"><ele>-0.1</ele></trkpt><trkpt lat="-27.010058" lon="-48.627835"><ele>0.5</ele></trkpt><trkpt lat="-27.010062" lon="-48.62783"><ele>1.2</ele></trkpt><trkpt lat="-27.010063" lon="-48.627818"><ele>1.6</ele></trkpt><trkpt lat="-27.010063" lon="-48.627812"><ele>2.2</ele></trkpt><trkpt lat="-27.010065" lon="-48.627808"><ele>2.8</ele></trkpt><trkpt lat="-27.010067" lon="-48.627805"><ele>3.7</ele></trkpt><trkpt lat="-27.010067" lon="-48.627805"><ele>3.7</ele></trkpt><trkpt lat="-27.010068" lon="-48.627805"><ele>3.8</ele></trkpt><trkpt lat="-27.010073" lon="-48.627805"><ele>4.4</ele></trkpt><trkpt lat="-27.010075" lon="-48.627802"><ele>4.5</ele></trkpt><trkpt lat="-27.010078" lon="-48.627788"><ele>5</ele></trkpt><trkpt lat="-27.01008" lon="-48.627773"><ele>4.9</ele></trkpt><trkpt lat="-27.010082" lon="-48.627752"><ele>4.4</ele></trkpt><trkpt lat="-27.010087" lon="-48.627728"><ele>4.1</ele></trkpt><trkpt lat="-27.010088" lon="-48.6277"><ele>4.4</ele></trkpt><trkpt lat="-27.010095" lon="-48.627675"><ele>4.2</ele></trkpt><trkpt lat="-27.0101" lon="-48.627655"><ele>4.1</ele></trkpt><trkpt lat="-27.010107" lon="-48.627648"><ele>3.9</ele></trkpt><trkpt lat="-27.010108" lon="-48.627648"><ele>3.9</ele></trkpt><trkpt lat="-27.010112" lon="-48.627647"><ele>3.8</ele></trkpt><trkpt lat="-27.010112" lon="-48.627647"><ele>3.8</ele></trkpt><trkpt lat="-27.010112" lon="-48.627645"><ele>4</ele></trkpt><trkpt lat="-27.010108" lon="-48.627643"><ele>3.6</ele></trkpt><trkpt lat="-27.010107" lon="-48.627645"><ele>3.4</ele></trkpt><trkpt lat="-27.010107" lon="-48.627643"><ele>3.2</ele></trkpt><trkpt lat="-27.010103" lon="-48.627643"><ele>3.2</ele></trkpt><trkpt lat="-27.010103" lon="-48.627643"><ele>3.3</ele></trkpt><trkpt lat="-27.010102" lon="-48.627643"><ele>3.3</ele></trkpt><trkpt lat="-27.010102" lon="-48.627643"><ele>3.3</ele></trkpt><trkpt lat="-27.010102" lon="-48.627643"><ele>3.3</ele></trkpt><trkpt lat="-27.010102" lon="-48.627643"><ele>3.3</ele></trkpt><trkpt lat="-27.010102" lon="-48.627643"><ele>3.3</ele></trkpt><trkpt lat="-27.010107" lon="-48.627628"><ele>3.9</ele></trkpt><trkpt lat="-27.010105" lon="-48.627627"><ele>3.9</ele></trkpt><trkpt lat="-27.010107" lon="-48.627627"><ele>3.8</ele></trkpt><trkpt lat="-27.010105" lon="-48.627625"><ele>3.6</ele></trkpt><trkpt lat="-27.010105" lon="-48.627625"><ele>3.6</ele></trkpt><trkpt lat="-27.010105" lon="-48.627625"><ele>3.6</ele></trkpt><trkpt lat="-27.010105" lon="-48.627625"><ele>3.6</ele></trkpt><trkpt lat="-27.010105" lon="-48.627625"><ele>3.6</ele></trkpt><trkpt lat="-27.010105" lon="-48.627625"><ele>3.6</ele></trkpt><trkpt lat="-27.010105" lon="-48.627625"><ele>3.6</ele></trkpt><trkpt lat="-27.010105" lon="-48.627625"><ele>3.6</ele></trkpt><trkpt lat="-27.010105" lon="-48.627625"><ele>3.6</ele></trkpt><trkpt lat="-27.010105" lon="-48.627625"><ele>3.6</ele></trkpt><trkpt lat="-27.010105" lon="-48.627625"><ele>3.6</ele></trkpt><trkpt lat="-27.010105" lon="-48.627625"><ele>3.6</ele></trkpt><trkpt lat="-27.010108" lon="-48.627633"><ele>3.6</ele></trkpt><trkpt lat="-27.010103" lon="-48.627632"><ele>3.9</ele></trkpt><trkpt lat="-27.010103" lon="-48.627632"><ele>3.9</ele></trkpt><trkpt lat="-27.010105" lon="-48.62763"><ele>3.7</ele></trkpt><trkpt lat="-27.010105" lon="-48.62763"><ele>3.7</ele></trkpt><trkpt lat="-27.010105" lon="-48.62763"><ele>3.7</ele></trkpt><trkpt lat="-27.010105" lon="-48.62763"><ele>3.7</ele></trkpt><trkpt lat="-27.010105" lon="-48.62763"><ele>3.7</ele></trkpt><trkpt lat="-27.010105" lon="-48.62763"><ele>3.7</ele></trkpt><trkpt lat="-27.010105" lon="-48.62763"><ele>3.7</ele></trkpt><trkpt lat="-27.010105" lon="-48.62763"><ele>3.7</ele></trkpt><trkpt lat="-27.010105" lon="-48.62763"><ele>3.7</ele></trkpt><trkpt lat="-27.010105" lon="-48.62763"><ele>3.7</ele></trkpt><trkpt lat="-27.010105" lon="-48.62763"><ele>3.7</ele></trkpt><trkpt lat="-27.010112" lon="-48.627645"><ele>3.1</ele></trkpt><trkpt lat="-27.010112" lon="-48.627657"><ele>2.8</ele></trkpt><trkpt lat="-27.010118" lon="-48.62765"><ele>2.6</ele></trkpt><trkpt lat="-27.010128" lon="-48.627647"><ele>2.3</ele></trkpt><trkpt lat="-27.01013" lon="-48.627642"><ele>1.8</ele></trkpt><trkpt lat="-27.010135" lon="-48.62764"><ele>1.4</ele></trkpt><trkpt lat="-27.010133" lon="-48.62764"><ele>1.1</ele></trkpt><trkpt lat="-27.010133" lon="-48.627638"><ele>1.1</ele></trkpt><trkpt lat="-27.010135" lon="-48.627632"><ele>1.2</ele></trkpt><trkpt lat="-27.010138" lon="-48.62762"><ele>1.3</ele></trkpt><trkpt lat="-27.010145" lon="-48.627602"><ele>1.6</ele></trkpt><trkpt lat="-27.010157" lon="-48.627575"><ele>1.9</ele></trkpt><trkpt lat="-27.010165" lon="-48.627548"><ele>2.2</ele></trkpt><trkpt lat="-27.010165" lon="-48.627518"><ele>3.1</ele></trkpt><trkpt lat="-27.01016" lon="-48.627487"><ele>3.1</ele></trkpt><trkpt lat="-27.01016" lon="-48.627487"><ele>3.1</ele></trkpt><trkpt lat="-27.010158" lon="-48.627462"><ele>3.6</ele></trkpt><trkpt lat="-27.010162" lon="-48.627443"><ele>3.7</ele></trkpt><trkpt lat="-27.010163" lon="-48.627432"><ele>3.6</ele></trkpt><trkpt lat="-27.01017" lon="-48.62742"><ele>3.2</ele></trkpt><trkpt lat="-27.010177" lon="-48.627407"><ele>3.1</ele></trkpt><trkpt lat="-27.01018" lon="-48.627392"><ele>3.2</ele></trkpt><trkpt lat="-27.010178" lon="-48.627372"><ele>3.2</ele></trkpt><trkpt lat="-27.010168" lon="-48.62736"><ele>3.7</ele></trkpt><trkpt lat="-27.010163" lon="-48.627363"><ele>4.1</ele></trkpt><trkpt lat="-27.010158" lon="-48.62738"><ele>4.3</ele></trkpt><trkpt lat="-27.010153" lon="-48.627398"><ele>5</ele></trkpt><trkpt lat="-27.010153" lon="-48.627418"><ele>6.1</ele></trkpt><trkpt lat="-27.010138" lon="-48.627435"><ele>6.5</ele></trkpt><trkpt lat="-27.010125" lon="-48.627445"><ele>7</ele></trkpt><trkpt lat="-27.010113" lon="-48.627453"><ele>7.1</ele></trkpt><trkpt lat="-27.010105" lon="-48.627473"><ele>7.5</ele></trkpt><trkpt lat="-27.010108" lon="-48.627488"><ele>8.1</ele></trkpt><trkpt lat="-27.010117" lon="-48.627488"><ele>7.9</ele></trkpt><trkpt lat="-27.010125" lon="-48.627473"><ele>7.6</ele></trkpt><trkpt lat="-27.010133" lon="-48.627467"><ele>7.1</ele></trkpt><trkpt lat="-27.010142" lon="-48.627462"><ele>6.3</ele></trkpt><trkpt lat="-27.010147" lon="-48.62745"><ele>5.5</ele></trkpt><trkpt lat="-27.010147" lon="-48.62745"><ele>5.5</ele></trkpt><trkpt lat="-27.010152" lon="-48.627435"><ele>4.8</ele></trkpt><trkpt lat="-27.010163" lon="-48.627413"><ele>3.7</ele></trkpt><trkpt lat="-27.010165" lon="-48.627387"><ele>3.1</ele></trkpt><trkpt lat="-27.01016" lon="-48.627365"><ele>2.6</ele></trkpt><trkpt lat="-27.010157" lon="-48.627342"><ele>2.4</ele></trkpt><trkpt lat="-27.010157" lon="-48.627342"><ele>2.4</ele></trkpt><trkpt lat="-27.01015" lon="-48.62732"><ele>2</ele></trkpt><trkpt lat="-27.010148" lon="-48.627303"><ele>2</ele></trkpt><trkpt lat="-27.010152" lon="-48.627292"><ele>1.7</ele></trkpt><trkpt lat="-27.010153" lon="-48.627285"><ele>1</ele></trkpt><trkpt lat="-27.010153" lon="-48.627285"><ele>0.1</ele></trkpt><trkpt lat="-27.010157" lon="-48.627287"><ele>0.4</ele></trkpt><trkpt lat="-27.010162" lon="-48.627288"><ele>0.9</ele></trkpt><trkpt lat="-27.010165" lon="-48.627292"><ele>1.3</ele></trkpt><trkpt lat="-27.010165" lon="-48.627292"><ele>1.3</ele></trkpt><trkpt lat="-27.010168" lon="-48.627292"><ele>1.4</ele></trkpt><trkpt lat="-27.01017" lon="-48.627293"><ele>1.6</ele></trkpt><trkpt lat="-27.010175" lon="-48.627282"><ele>1.6</ele></trkpt><trkpt lat="-27.01018" lon="-48.627267"><ele>1.6</ele></trkpt><trkpt lat="-27.010183" lon="-48.627248"><ele>1.4</ele></trkpt><trkpt lat="-27.010187" lon="-48.627225"><ele>1.7</ele></trkpt><trkpt lat="-27.010192" lon="-48.627198"><ele>1.6</ele></trkpt><trkpt lat="-27.010195" lon="-48.62717"><ele>1.6</ele></trkpt><trkpt lat="-27.010203" lon="-48.627138"><ele>2</ele></trkpt><trkpt lat="-27.010215" lon="-48.627103"><ele>2.5</ele></trkpt><trkpt lat="-27.010217" lon="-48.627073"><ele>2.4</ele></trkpt><trkpt lat="-27.010223" lon="-48.627042"><ele>2.7</ele></trkpt><trkpt lat="-27.010225" lon="-48.62701"><ele>3.6</ele></trkpt><trkpt lat="-27.01023" lon="-48.626983"><ele>5</ele></trkpt><trkpt lat="-27.01023" lon="-48.626963"><ele>6.5</ele></trkpt><trkpt lat="-27.01023" lon="-48.626955"><ele>7.3</ele></trkpt><trkpt lat="-27.010227" lon="-48.626955"><ele>7.8</ele></trkpt><trkpt lat="-27.010227" lon="-48.626955"><ele>7.8</ele></trkpt><trkpt lat="-27.010228" lon="-48.626957"><ele>8.1</ele></trkpt><trkpt lat="-27.010233" lon="-48.626958"><ele>8.1</ele></trkpt><trkpt lat="-27.010237" lon="-48.626962"><ele>7.9</ele></trkpt><trkpt lat="-27.010242" lon="-48.626965"><ele>7.6</ele></trkpt><trkpt lat="-27.010247" lon="-48.626967"><ele>7.1</ele></trkpt><trkpt lat="-27.010253" lon="-48.626972"><ele>6.9</ele></trkpt><trkpt lat="-27.010263" lon="-48.626977"><ele>6.6</ele></trkpt><trkpt lat="-27.010273" lon="-48.626985"><ele>6.2</ele></trkpt><trkpt lat="-27.010283" lon="-48.626988"><ele>5.8</ele></trkpt><trkpt lat="-27.010288" lon="-48.62699"><ele>5.4</ele></trkpt><trkpt lat="-27.010288" lon="-48.626987"><ele>5.2</ele></trkpt><trkpt lat="-27.010288" lon="-48.626987"><ele>5.2</ele></trkpt><trkpt lat="-27.010288" lon="-48.626987"><ele>5.2</ele></trkpt><trkpt lat="-27.010288" lon="-48.626987"><ele>5.2</ele></trkpt><trkpt lat="-27.010288" lon="-48.626987"><ele>5.2</ele></trkpt><trkpt lat="-27.010288" lon="-48.626987"><ele>5.2</ele></trkpt><trkpt lat="-27.010288" lon="-48.626987"><ele>5.2</ele></trkpt><trkpt lat="-27.010283" lon="-48.62696"><ele>4.8</ele></trkpt><trkpt lat="-27.010285" lon="-48.62694"><ele>5</ele></trkpt><trkpt lat="-27.010287" lon="-48.62692"><ele>5.2</ele></trkpt><trkpt lat="-27.010285" lon="-48.626895"><ele>5.3</ele></trkpt><trkpt lat="-27.010285" lon="-48.626865"><ele>5.1</ele></trkpt><trkpt lat="-27.010283" lon="-48.626827"><ele>4.8</ele></trkpt><trkpt lat="-27.010283" lon="-48.62678"><ele>5.6</ele></trkpt><trkpt lat="-27.010288" lon="-48.626745"><ele>5.3</ele></trkpt><trkpt lat="-27.010298" lon="-48.626713"><ele>5.3</ele></trkpt><trkpt lat="-27.010308" lon="-48.62668"><ele>4.6</ele></trkpt><trkpt lat="-27.010318" lon="-48.626652"><ele>3.8</ele></trkpt><trkpt lat="-27.010318" lon="-48.626652"><ele>3.8</ele></trkpt><trkpt lat="-27.01032" lon="-48.626622"><ele>4.5</ele></trkpt><trkpt lat="-27.010327" lon="-48.626605"><ele>4.2</ele></trkpt><trkpt lat="-27.010332" lon="-48.626595"><ele>4</ele></trkpt><trkpt lat="-27.010328" lon="-48.626593"><ele>4.2</ele></trkpt><trkpt lat="-27.010323" lon="-48.626598"><ele>4.4</ele></trkpt><trkpt lat="-27.010327" lon="-48.626598"><ele>4.2</ele></trkpt><trkpt lat="-27.010327" lon="-48.626598"><ele>4.2</ele></trkpt><trkpt lat="-27.010332" lon="-48.626595"><ele>4.4</ele></trkpt><trkpt lat="-27.010338" lon="-48.62659"><ele>4.9</ele></trkpt><trkpt lat="-27.01034" lon="-48.626575"><ele>5.4</ele></trkpt><trkpt lat="-27.010342" lon="-48.626548"><ele>5.9</ele></trkpt><trkpt lat="-27.010345" lon="-48.626515"><ele>6.3</ele></trkpt><trkpt lat="-27.010348" lon="-48.626482"><ele>6.5</ele></trkpt><trkpt lat="-27.01035" lon="-48.626452"><ele>6.4</ele></trkpt><trkpt lat="-27.010352" lon="-48.626428"><ele>6.1</ele></trkpt><trkpt lat="-27.010357" lon="-48.626412"><ele>6.1</ele></trkpt><trkpt lat="-27.01036" lon="-48.6264"><ele>5.4</ele></trkpt><trkpt lat="-27.010357" lon="-48.626395"><ele>5</ele></trkpt><trkpt lat="-27.010352" lon="-48.626393"><ele>4.4</ele></trkpt><trkpt lat="-27.010352" lon="-48.626393"><ele>4.4</ele></trkpt><trkpt lat="-27.01035" lon="-48.626393"><ele>4</ele></trkpt><trkpt lat="-27.010352" lon="-48.626392"><ele>3.5</ele></trkpt><trkpt lat="-27.010353" lon="-48.626383"><ele>2.9</ele></trkpt><trkpt lat="-27.010353" lon="-48.626372"><ele>2.4</ele></trkpt><trkpt lat="-27.010357" lon="-48.626363"><ele>2.2</ele></trkpt><trkpt lat="-27.010358" lon="-48.62636"><ele>2.3</ele></trkpt><trkpt lat="-27.010358" lon="-48.626352"><ele>2.1</ele></trkpt><trkpt lat="-27.010358" lon="-48.626343"><ele>1.7</ele></trkpt><trkpt lat="-27.010357" lon="-48.626333"><ele>1.5</ele></trkpt><trkpt lat="-27.010355" lon="-48.62633"><ele>1.7</ele></trkpt><trkpt lat="-27.010358" lon="-48.626325"><ele>1.8</ele></trkpt><trkpt lat="-27.010362" lon="-48.626318"><ele>2</ele></trkpt><trkpt lat="-27.010363" lon="-48.62631"><ele>1.9</ele></trkpt><trkpt lat="-27.010362" lon="-48.626298"><ele>1.8</ele></trkpt><trkpt lat="-27.010355" lon="-48.626283"><ele>1.5</ele></trkpt><trkpt lat="-27.01035" lon="-48.626263"><ele>1.2</ele></trkpt><trkpt lat="-27.01035" lon="-48.626252"><ele>1.4</ele></trkpt><trkpt lat="-27.010348" lon="-48.626248"><ele>1.8</ele></trkpt><trkpt lat="-27.010353" lon="-48.626255"><ele>2.4</ele></trkpt><trkpt lat="-27.010353" lon="-48.626265"><ele>2.8</ele></trkpt><trkpt lat="-27.010353" lon="-48.62628"><ele>3.4</ele></trkpt><trkpt lat="-27.010352" lon="-48.626295"><ele>3.9</ele></trkpt><trkpt lat="-27.010348" lon="-48.626307"><ele>4.2</ele></trkpt><trkpt lat="-27.010345" lon="-48.626318"><ele>4.7</ele></trkpt><trkpt lat="-27.010342" lon="-48.626332"><ele>5.1</ele></trkpt><trkpt lat="-27.010338" lon="-48.626345"><ele>5.2</ele></trkpt><trkpt lat="-27.010338" lon="-48.626345"><ele>5.2</ele></trkpt><trkpt lat="-27.01034" lon="-48.626352"><ele>5.4</ele></trkpt><trkpt lat="-27.010342" lon="-48.626358"><ele>5.4</ele></trkpt><trkpt lat="-27.010345" lon="-48.626362"><ele>5.2</ele></trkpt><trkpt lat="-27.010348" lon="-48.626362"><ele>4.8</ele></trkpt><trkpt lat="-27.010348" lon="-48.626362"><ele>4.8</ele></trkpt><trkpt lat="-27.010348" lon="-48.626358"><ele>5</ele></trkpt><trkpt lat="-27.01035" lon="-48.626355"><ele>5</ele></trkpt><trkpt lat="-27.010353" lon="-48.626353"><ele>4.7</ele></trkpt><trkpt lat="-27.010355" lon="-48.626352"><ele>4.8</ele></trkpt><trkpt lat="-27.010355" lon="-48.626352"><ele>4.9</ele></trkpt><trkpt lat="-27.010358" lon="-48.626352"><ele>4.9</ele></trkpt><trkpt lat="-27.010358" lon="-48.626352"><ele>4.9</ele></trkpt><trkpt lat="-27.010358" lon="-48.626352"><ele>4.8</ele></trkpt><trkpt lat="-27.010357" lon="-48.626348"><ele>4.9</ele></trkpt><trkpt lat="-27.010357" lon="-48.626348"><ele>4.9</ele></trkpt><trkpt lat="-27.010357" lon="-48.626348"><ele>4.9</ele></trkpt><trkpt lat="-27.010357" lon="-48.626348"><ele>4.9</ele></trkpt><trkpt lat="-27.010357" lon="-48.626348"><ele>4.9</ele></trkpt><trkpt lat="-27.010357" lon="-48.626348"><ele>4.9</ele></trkpt><trkpt lat="-27.010357" lon="-48.626348"><ele>4.9</ele></trkpt><trkpt lat="-27.010357" lon="-48.626348"><ele>4.9</ele></trkpt><trkpt lat="-27.010357" lon="-48.626348"><ele>4.9</ele></trkpt><trkpt lat="-27.010357" lon="-48.626348"><ele>4.9</ele></trkpt><trkpt lat="-27.010357" lon="-48.626348"><ele>4.9</ele></trkpt><trkpt lat="-27.010357" lon="-48.626348"><ele>4.9</ele></trkpt><trkpt lat="-27.010357" lon="-48.626348"><ele>4.9</ele></trkpt><trkpt lat="-27.010357" lon="-48.626348"><ele>4.9</ele></trkpt><trkpt lat="-27.010357" lon="-48.626348"><ele>4.9</ele></trkpt><trkpt lat="-27.010357" lon="-48.626348"><ele>4.9</ele></trkpt><trkpt lat="-27.010357" lon="-48.626348"><ele>4.9</ele></trkpt><trkpt lat="-27.010357" lon="-48.626348"><ele>4.9</ele></trkpt><trkpt lat="-27.010357" lon="-48.626348"><ele>4.9</ele></trkpt><trkpt lat="-27.010357" lon="-48.626348"><ele>4.9</ele></trkpt><trkpt lat="-27.010357" lon="-48.626348"><ele>4.9</ele></trkpt><trkpt lat="-27.010357" lon="-48.626348"><ele>4.9</ele></trkpt><trkpt lat="-27.010357" lon="-48.626348"><ele>4.9</ele></trkpt><trkpt lat="-27.010357" lon="-48.626348"><ele>4.9</ele></trkpt><trkpt lat="-27.010357" lon="-48.626348"><ele>4.9</ele></trkpt><trkpt lat="-27.010357" lon="-48.626348"><ele>4.9</ele></trkpt><trkpt lat="-27.010357" lon="-48.626348"><ele>4.9</ele></trkpt><trkpt lat="-27.010357" lon="-48.626348"><ele>4.9</ele></trkpt><trkpt lat="-27.010357" lon="-48.626348"><ele>4.9</ele></trkpt><trkpt lat="-27.010357" lon="-48.626348"><ele>4.9</ele></trkpt><trkpt lat="-27.010342" lon="-48.626328"><ele>4.4</ele></trkpt><trkpt lat="-27.010338" lon="-48.62632"><ele>4.4</ele></trkpt><trkpt lat="-27.010338" lon="-48.626315"><ele>4.6</ele></trkpt><trkpt lat="-27.010338" lon="-48.626312"><ele>4.3</ele></trkpt><trkpt lat="-27.010337" lon="-48.62631"><ele>4.3</ele></trkpt><trkpt lat="-27.010335" lon="-48.626312"><ele>4.2</ele></trkpt><trkpt lat="-27.010335" lon="-48.626312"><ele>4.2</ele></trkpt><trkpt lat="-27.010335" lon="-48.626312"><ele>4.2</ele></trkpt><trkpt lat="-27.010335" lon="-48.626312"><ele>4.2</ele></trkpt><trkpt lat="-27.010335" lon="-48.626312"><ele>4.2</ele></trkpt><trkpt lat="-27.010335" lon="-48.626312"><ele>4.2</ele></trkpt><trkpt lat="-27.010335" lon="-48.626312"><ele>4.2</ele></trkpt><trkpt lat="-27.010335" lon="-48.626312"><ele>4.2</ele></trkpt><trkpt lat="-27.010335" lon="-48.626312"><ele>4.2</ele></trkpt><trkpt lat="-27.010335" lon="-48.626312"><ele>4.2</ele></trkpt><trkpt lat="-27.010335" lon="-48.626312"><ele>4.2</ele></trkpt><trkpt lat="-27.010335" lon="-48.626312"><ele>4.2</ele></trkpt><trkpt lat="-27.010335" lon="-48.626312"><ele>4.2</ele></trkpt><trkpt lat="-27.010335" lon="-48.626312"><ele>4.2</ele></trkpt><trkpt lat="-27.010335" lon="-48.626312"><ele>4.2</ele></trkpt><trkpt lat="-27.010335" lon="-48.626312"><ele>4.2</ele></trkpt><trkpt lat="-27.010335" lon="-48.626312"><ele>4.2</ele></trkpt><trkpt lat="-27.010335" lon="-48.626312"><ele>4.2</ele></trkpt><trkpt lat="-27.01034" lon="-48.626323"><ele>3.8</ele></trkpt><trkpt lat="-27.010333" lon="-48.62633"><ele>3.7</ele></trkpt><trkpt lat="-27.010332" lon="-48.62634"><ele>3.2</ele></trkpt><trkpt lat="-27.010327" lon="-48.626358"><ele>2.7</ele></trkpt><trkpt lat="-27.010325" lon="-48.626373"><ele>2.6</ele></trkpt><trkpt lat="-27.010322" lon="-48.626388"><ele>2.7</ele></trkpt><trkpt lat="-27.010322" lon="-48.626402"><ele>2.9</ele></trkpt><trkpt lat="-27.010318" lon="-48.626412"><ele>3.3</ele></trkpt><trkpt lat="-27.010315" lon="-48.62642"><ele>3.2</ele></trkpt><trkpt lat="-27.010315" lon="-48.626427"><ele>2.9</ele></trkpt><trkpt lat="-27.010315" lon="-48.62644"><ele>2.9</ele></trkpt><trkpt lat="-27.010312" lon="-48.626452"><ele>3.1</ele></trkpt><trkpt lat="-27.01031" lon="-48.626465"><ele>2.8</ele></trkpt><trkpt lat="-27.010307" lon="-48.626478"><ele>2.8</ele></trkpt><trkpt lat="-27.010307" lon="-48.626488"><ele>2.5</ele></trkpt><trkpt lat="-27.010307" lon="-48.626495"><ele>2.3</ele></trkpt><trkpt lat="-27.010305" lon="-48.626503"><ele>2</ele></trkpt><trkpt lat="-27.010305" lon="-48.626507"><ele>1.9</ele></trkpt><trkpt lat="-27.010308" lon="-48.626515"><ele>1.6</ele></trkpt><trkpt lat="-27.010308" lon="-48.626523"><ele>1.6</ele></trkpt><trkpt lat="-27.010307" lon="-48.62653"><ele>1.4</ele></trkpt><trkpt lat="-27.010305" lon="-48.626535"><ele>1.5</ele></trkpt><trkpt lat="-27.01031" lon="-48.626542"><ele>1.4</ele></trkpt><trkpt lat="-27.010312" lon="-48.626542"><ele>1.2</ele></trkpt><trkpt lat="-27.010315" lon="-48.626545"><ele>1.3</ele></trkpt><trkpt lat="-27.010318" lon="-48.626545"><ele>1.3</ele></trkpt><trkpt lat="-27.010325" lon="-48.626545"><ele>1.3</ele></trkpt></trkseg></trk></gpx>