<?xml version="1.0" encoding="UTF-8"?>
<gpx xmlns="http://www.topografix.com/GPX/1/1" version="1.1" creator="@dwayneparton/geojson-to-gpx"><wpt lat="-27.001051" lon="-48.651163"><ele>10.754761</ele><name>2 faixas</name></wpt><wpt lat="-27.001078" lon="-48.651084"><ele>14.391357</ele><name>140</name></wpt><wpt lat="-27.001068" lon="-48.651071"><ele>14.243774</ele><name>280</name></wpt><wpt lat="-27.001068" lon="-48.651071"><ele>14.134888</ele><name>807</name></wpt><wpt lat="-27.002476" lon="-48.650449"><ele>16.111938</ele><name>A ciclo é completamente reta.</name></wpt><wpt lat="-27.002506" lon="-48.650489"><ele>11.137817</ele><name>A pintura está boa, mas FALHA em ALGUNS pontos</name></wpt><wpt lat="-27.001051" lon="-48.651163"><ele>11.033783</ele><name>Apenas faixas vermelhas nas bordas, com travessias pintadas nos cruzamentos</name></wpt><wpt lat="-27.001112" lon="-48.651047"><ele>17.348022</ele><name>Área transitável da ciclo (cm)</name></wpt><wpt lat="-27.001051" lon="-48.651163"><ele>10.577332</ele><name>Asfalto</name></wpt><wpt lat="-27.001048" lon="-48.651163"><ele>11.524475</ele><name>Bidirecional</name></wpt><wpt lat="-27.002507" lon="-48.65049"><ele>10.337463</ele><name>Bom estado</name></wpt><wpt lat="-27.001048" lon="-48.651163"><ele>11.434509</ele><name>Ciclofaixa</name></wpt><wpt lat="-27.001046" lon="-48.651164"><ele>11.175476</ele><name>Em bordo de Via de Mão Dupla</name></wpt><wpt lat="-27.001049" lon="-48.651163"><ele>10.710358</ele><name>Estacionamento proibido na via</name></wpt><wpt lat="-27.001067" lon="-48.651068"><ele>14.634888</ele><name>Faixa de carros logo ao lado da ciclo (cm)</name></wpt><wpt lat="-27.002489" lon="-48.650443"><ele>17.658081</ele><name>Foto</name></wpt><wpt lat="-27.002499" lon="-48.650495"><ele>9.945007</ele><name>Iluminação geral na via do outro lado da infraestrutura</name></wpt><wpt lat="-27.001051" lon="-48.651163"><ele>11.47168</ele><name>Mão Dupla</name></wpt><wpt lat="-27.00247" lon="-48.650456"><ele>15.651245</ele><name>Não há árvores nem mudas</name></wpt><wpt lat="-27.001051" lon="-48.651163"><ele>11.569061</ele><name>Pintada de vermelho com interrupções</name></wpt><wpt lat="-27.002462" lon="-48.650427"><ele>15.119751</ele><name>Em cruzamento BOA condição</name></wpt><wpt lat="-27.001051" lon="-48.651163"><ele>11.963226</ele><name>R3m0v3r Padrão de Pintura 🗑️</name></wpt><wpt lat="-27.002482" lon="-48.650442"><ele>17.006104</ele><name>SE CICLOFAIXA: para invadir a ciclo parte do automóvel passa obrigatoriamente por cima de segregadores</name></wpt><wpt lat="-27.002478" lon="-48.650448"><ele>16.521484</ele><name>Segregadores NÃO DIFICULTAM o acesso de ciclistas</name></wpt><wpt lat="-27.001051" lon="-48.651163"><ele>10.611389</ele><name>Tachões</name></wpt><wpt lat="-27.001068" lon="-48.651071"><ele>14.134888</ele><name>Total da via (incluindo a ciclo) (cm)</name></wpt><wpt lat="-27.001074" lon="-48.651132"><ele>11.224091</ele><name>Travessia de pedestre em nível (lombofaixa)</name></wpt><wpt lat="-27.000984" lon="-48.651156"><name>Área de amortecimento da ciclo (cm)</name></wpt><wpt lat="-27.000984" lon="-48.651148"><name>22</name></wpt><wpt lat="-27.001455" lon="-48.650934"><name>Em cruzamento BOA condição</name></wpt><wpt lat="-27.001966" lon="-48.650688"><name>Em cruzamento BOA condição</name></wpt><trk><name>Ciclofaixa R. Guaraparim - Cb</name><trkseg><trkpt lat="-27.000947" lon="-48.651251"><ele>-1.004242</ele></trkpt><trkpt lat="-27.000956" lon="-48.651248"><ele>0.534821</ele></trkpt><trkpt lat="-27.000977" lon="-48.651249"><ele>12.484009</ele></trkpt><trkpt lat="-27.000975" lon="-48.651245"><ele>11.534454</ele></trkpt><trkpt lat="-27.000984" lon="-48.651227"><ele>10.496063</ele></trkpt><trkpt lat="-27.000985" lon="-48.651207"><ele>10.302185</ele></trkpt><trkpt lat="-27.000992" lon="-48.651195"><ele>10.017578</ele></trkpt><trkpt lat="-27.001003" lon="-48.651185"><ele>10.087006</ele></trkpt><trkpt lat="-27.001014" lon="-48.651177"><ele>9.421722</ele></trkpt><trkpt lat="-27.001024" lon="-48.651173"><ele>9.555084</ele></trkpt><trkpt lat="-27.001035" lon="-48.651171"><ele>10.519867</ele></trkpt><trkpt lat="-27.001044" lon="-48.651169"><ele>10.391174</ele></trkpt><trkpt lat="-27.001045" lon="-48.651169"><ele>10.969482</ele></trkpt><trkpt lat="-27.001046" lon="-48.651168"><ele>11.224274</ele></trkpt><trkpt lat="-27.001048" lon="-48.651166"><ele>11.292236</ele></trkpt><trkpt lat="-27.001048" lon="-48.651165"><ele>11.153839</ele></trkpt><trkpt lat="-27.001048" lon="-48.651165"><ele>11.182159</ele></trkpt><trkpt lat="-27.001048" lon="-48.651164"><ele>11.047394</ele></trkpt><trkpt lat="-27.001048" lon="-48.651163"><ele>11.434509</ele></trkpt><trkpt lat="-27.001048" lon="-48.651163"><ele>11.434509</ele></trkpt><trkpt lat="-27.001048" lon="-48.651163"><ele>11.524475</ele></trkpt><trkpt lat="-27.001048" lon="-48.651163"><ele>11.524475</ele></trkpt><trkpt lat="-27.001047" lon="-48.651163"><ele>11.532379</ele></trkpt><trkpt lat="-27.001047" lon="-48.651163"><ele>11.360046</ele></trkpt><trkpt lat="-27.001046" lon="-48.651164"><ele>11.175476</ele></trkpt><trkpt lat="-27.001046" lon="-48.651164"><ele>11.175476</ele></trkpt><trkpt lat="-27.001046" lon="-48.651165"><ele>11.154083</ele></trkpt><trkpt lat="-27.001046" lon="-48.651165"><ele>11.130219</ele></trkpt><trkpt lat="-27.001046" lon="-48.651165"><ele>11.027344</ele></trkpt><trkpt lat="-27.001048" lon="-48.651164"><ele>11.52771</ele></trkpt><trkpt lat="-27.00105" lon="-48.651164"><ele>11.532227</ele></trkpt><trkpt lat="-27.001051" lon="-48.651163"><ele>11.47168</ele></trkpt><trkpt lat="-27.001051" lon="-48.651163"><ele>11.47168</ele></trkpt><trkpt lat="-27.001051" lon="-48.651163"><ele>11.463531</ele></trkpt><trkpt lat="-27.001051" lon="-48.651163"><ele>11.629547</ele></trkpt><trkpt lat="-27.001051" lon="-48.651163"><ele>11.496948</ele></trkpt><trkpt lat="-27.001051" lon="-48.651163"><ele>11.404144</ele></trkpt><trkpt lat="-27.001051" lon="-48.651163"><ele>11.569061</ele></trkpt><trkpt lat="-27.001051" lon="-48.651163"><ele>11.569061</ele></trkpt><trkpt lat="-27.001051" lon="-48.651163"><ele>11.694031</ele></trkpt><trkpt lat="-27.001051" lon="-48.651163"><ele>11.963226</ele></trkpt><trkpt lat="-27.001051" lon="-48.651163"><ele>11.963226</ele></trkpt><trkpt lat="-27.001051" lon="-48.651163"><ele>10.648193</ele></trkpt><trkpt lat="-27.001051" lon="-48.651163"><ele>11.033783</ele></trkpt><trkpt lat="-27.001051" lon="-48.651163"><ele>11.033783</ele></trkpt><trkpt lat="-27.001051" lon="-48.651163"><ele>11.020081</ele></trkpt><trkpt lat="-27.001051" lon="-48.651163"><ele>10.908386</ele></trkpt><trkpt lat="-27.001051" lon="-48.651163"><ele>10.77597</ele></trkpt><trkpt lat="-27.001051" lon="-48.651163"><ele>10.697876</ele></trkpt><trkpt lat="-27.001051" lon="-48.651163"><ele>10.611389</ele></trkpt><trkpt lat="-27.001051" lon="-48.651163"><ele>10.611389</ele></trkpt><trkpt lat="-27.001051" lon="-48.651163"><ele>10.60675</ele></trkpt><trkpt lat="-27.001051" lon="-48.651163"><ele>10.622528</ele></trkpt><trkpt lat="-27.001051" lon="-48.651163"><ele>10.535919</ele></trkpt><trkpt lat="-27.001051" lon="-48.651163"><ele>10.501465</ele></trkpt><trkpt lat="-27.001051" lon="-48.651163"><ele>10.577332</ele></trkpt><trkpt lat="-27.001051" lon="-48.651163"><ele>10.577332</ele></trkpt><trkpt lat="-27.001051" lon="-48.651163"><ele>10.684326</ele></trkpt><trkpt lat="-27.001051" lon="-48.651163"><ele>10.730896</ele></trkpt><trkpt lat="-27.001051" lon="-48.651163"><ele>10.754761</ele></trkpt><trkpt lat="-27.001051" lon="-48.651163"><ele>10.754761</ele></trkpt><trkpt lat="-27.001051" lon="-48.651163"><ele>10.745911</ele></trkpt><trkpt lat="-27.001049" lon="-48.651163"><ele>10.497681</ele></trkpt><trkpt lat="-27.001049" lon="-48.651163"><ele>10.742645</ele></trkpt><trkpt lat="-27.001049" lon="-48.651163"><ele>10.790833</ele></trkpt><trkpt lat="-27.001049" lon="-48.651163"><ele>10.757446</ele></trkpt><trkpt lat="-27.001049" lon="-48.651163"><ele>10.770264</ele></trkpt><trkpt lat="-27.001049" lon="-48.651163"><ele>10.710358</ele></trkpt><trkpt lat="-27.001049" lon="-48.651163"><ele>10.710358</ele></trkpt><trkpt lat="-27.001049" lon="-48.651163"><ele>10.488007</ele></trkpt><trkpt lat="-27.001049" lon="-48.651163"><ele>10.432739</ele></trkpt><trkpt lat="-27.001049" lon="-48.651163"><ele>10.39386</ele></trkpt><trkpt lat="-27.001049" lon="-48.651163"><ele>10.351288</ele></trkpt><trkpt lat="-27.00105" lon="-48.651162"><ele>11.284607</ele></trkpt><trkpt lat="-27.001049" lon="-48.651163"><ele>11.07019</ele></trkpt><trkpt lat="-27.00105" lon="-48.651158"><ele>10.430969</ele></trkpt><trkpt lat="-27.001055" lon="-48.651155"><ele>10.233856</ele></trkpt><trkpt lat="-27.001061" lon="-48.651153"><ele>10.082642</ele></trkpt><trkpt lat="-27.001067" lon="-48.651149"><ele>10.067841</ele></trkpt><trkpt lat="-27.001071" lon="-48.651141"><ele>10.567596</ele></trkpt><trkpt lat="-27.001076" lon="-48.651137"><ele>10.581116</ele></trkpt><trkpt lat="-27.001079" lon="-48.651135"><ele>11.357178</ele></trkpt><trkpt lat="-27.001076" lon="-48.651133"><ele>11.220703</ele></trkpt><trkpt lat="-27.001075" lon="-48.651132"><ele>11.228424</ele></trkpt><trkpt lat="-27.001074" lon="-48.651132"><ele>11.226501</ele></trkpt><trkpt lat="-27.001074" lon="-48.651132"><ele>11.226593</ele></trkpt><trkpt lat="-27.001074" lon="-48.651132"><ele>11.225586</ele></trkpt><trkpt lat="-27.001074" lon="-48.651132"><ele>11.224091</ele></trkpt><trkpt lat="-27.001074" lon="-48.651132"><ele>11.224091</ele></trkpt><trkpt lat="-27.001074" lon="-48.651132"><ele>10.374756</ele></trkpt><trkpt lat="-27.001074" lon="-48.651132"><ele>10.397003</ele></trkpt><trkpt lat="-27.001074" lon="-48.651132"><ele>10.400513</ele></trkpt><trkpt lat="-27.001078" lon="-48.65113"><ele>10.552429</ele></trkpt><trkpt lat="-27.001081" lon="-48.651127"><ele>10.188965</ele></trkpt><trkpt lat="-27.00109" lon="-48.651122"><ele>10.139557</ele></trkpt><trkpt lat="-27.001099" lon="-48.65112"><ele>10.662384</ele></trkpt><trkpt lat="-27.001104" lon="-48.65112"><ele>10.624481</ele></trkpt><trkpt lat="-27.001109" lon="-48.65112"><ele>10.325806</ele></trkpt><trkpt lat="-27.001112" lon="-48.65112"><ele>10.205658</ele></trkpt><trkpt lat="-27.001112" lon="-48.651113"><ele>11.817719</ele></trkpt><trkpt lat="-27.001118" lon="-48.651101"><ele>12.033081</ele></trkpt><trkpt lat="-27.00112" lon="-48.651098"><ele>12.539429</ele></trkpt><trkpt lat="-27.00112" lon="-48.651097"><ele>12.540527</ele></trkpt><trkpt lat="-27.00112" lon="-48.651097"><ele>12.609375</ele></trkpt><trkpt lat="-27.00112" lon="-48.651098"><ele>12.612793</ele></trkpt><trkpt lat="-27.00112" lon="-48.651098"><ele>12.615723</ele></trkpt><trkpt lat="-27.00112" lon="-48.651098"><ele>12.618958</ele></trkpt><trkpt lat="-27.00112" lon="-48.651098"><ele>12.100708</ele></trkpt><trkpt lat="-27.00112" lon="-48.6511"><ele>11.935303</ele></trkpt><trkpt lat="-27.00112" lon="-48.651101"><ele>11.925507</ele></trkpt><trkpt lat="-27.00112" lon="-48.651101"><ele>11.926941</ele></trkpt><trkpt lat="-27.00112" lon="-48.651101"><ele>11.923981</ele></trkpt><trkpt lat="-27.001121" lon="-48.651101"><ele>11.758606</ele></trkpt><trkpt lat="-27.001121" lon="-48.651101"><ele>11.783234</ele></trkpt><trkpt lat="-27.001123" lon="-48.651099"><ele>11.786987</ele></trkpt><trkpt lat="-27.001122" lon="-48.651098"><ele>12.603088</ele></trkpt><trkpt lat="-27.001126" lon="-48.651103"><ele>12.75061</ele></trkpt><trkpt lat="-27.001128" lon="-48.651108"><ele>12.753418</ele></trkpt><trkpt lat="-27.001127" lon="-48.651113"><ele>12.641724</ele></trkpt><trkpt lat="-27.001125" lon="-48.651115"><ele>12.28125</ele></trkpt><trkpt lat="-27.001124" lon="-48.651119"><ele>12.247864</ele></trkpt><trkpt lat="-27.00112" lon="-48.651121"><ele>12.484863</ele></trkpt><trkpt lat="-27.001116" lon="-48.651118"><ele>12.334656</ele></trkpt><trkpt lat="-27.001115" lon="-48.651116"><ele>12.342896</ele></trkpt><trkpt lat="-27.001116" lon="-48.651114"><ele>12.245667</ele></trkpt><trkpt lat="-27.001117" lon="-48.651113"><ele>12.074768</ele></trkpt><trkpt lat="-27.001119" lon="-48.651112"><ele>12.170837</ele></trkpt><trkpt lat="-27.001116" lon="-48.651113"><ele>12.423706</ele></trkpt><trkpt lat="-27.001111" lon="-48.651119"><ele>12.942627</ele></trkpt><trkpt lat="-27.001109" lon="-48.651122"><ele>13.239868</ele></trkpt><trkpt lat="-27.001108" lon="-48.651118"><ele>13.297424</ele></trkpt><trkpt lat="-27.001108" lon="-48.651119"><ele>13.257385</ele></trkpt><trkpt lat="-27.001106" lon="-48.651119"><ele>13.596985</ele></trkpt><trkpt lat="-27.001099" lon="-48.651119"><ele>13.789673</ele></trkpt><trkpt lat="-27.001097" lon="-48.651119"><ele>13.822937</ele></trkpt><trkpt lat="-27.001097" lon="-48.651119"><ele>13.824158</ele></trkpt><trkpt lat="-27.001095" lon="-48.651116"><ele>13.667297</ele></trkpt><trkpt lat="-27.001095" lon="-48.651109"><ele>13.263672</ele></trkpt><trkpt lat="-27.001094" lon="-48.651105"><ele>13.493164</ele></trkpt><trkpt lat="-27.001094" lon="-48.651105"><ele>13.523254</ele></trkpt><trkpt lat="-27.001094" lon="-48.651104"><ele>13.524414</ele></trkpt><trkpt lat="-27.001094" lon="-48.651103"><ele>13.532043</ele></trkpt><trkpt lat="-27.001096" lon="-48.651101"><ele>13.464478</ele></trkpt><trkpt lat="-27.001096" lon="-48.651102"><ele>13.449585</ele></trkpt><trkpt lat="-27.001096" lon="-48.651102"><ele>13.704224</ele></trkpt><trkpt lat="-27.001096" lon="-48.651102"><ele>13.705994</ele></trkpt><trkpt lat="-27.001096" lon="-48.651102"><ele>13.713745</ele></trkpt><trkpt lat="-27.001096" lon="-48.651102"><ele>13.745605</ele></trkpt><trkpt lat="-27.001096" lon="-48.651102"><ele>13.762085</ele></trkpt><trkpt lat="-27.001096" lon="-48.651102"><ele>13.760986</ele></trkpt><trkpt lat="-27.001096" lon="-48.651102"><ele>13.787781</ele></trkpt><trkpt lat="-27.001096" lon="-48.6511"><ele>13.783142</ele></trkpt><trkpt lat="-27.001096" lon="-48.651099"><ele>13.822998</ele></trkpt><trkpt lat="-27.001096" lon="-48.651099"><ele>13.847717</ele></trkpt><trkpt lat="-27.001096" lon="-48.651099"><ele>13.918396</ele></trkpt><trkpt lat="-27.001096" lon="-48.651099"><ele>13.932983</ele></trkpt><trkpt lat="-27.001096" lon="-48.651099"><ele>13.916565</ele></trkpt><trkpt lat="-27.001094" lon="-48.651097"><ele>13.904297</ele></trkpt><trkpt lat="-27.001092" lon="-48.651098"><ele>13.633606</ele></trkpt><trkpt lat="-27.001093" lon="-48.651099"><ele>13.634705</ele></trkpt><trkpt lat="-27.001093" lon="-48.6511"><ele>13.36792</ele></trkpt><trkpt lat="-27.001094" lon="-48.651099"><ele>13.256714</ele></trkpt><trkpt lat="-27.001095" lon="-48.651093"><ele>12.966431</ele></trkpt><trkpt lat="-27.001095" lon="-48.651089"><ele>12.801819</ele></trkpt><trkpt lat="-27.001093" lon="-48.65109"><ele>12.933594</ele></trkpt><trkpt lat="-27.001092" lon="-48.651095"><ele>12.937378</ele></trkpt><trkpt lat="-27.001093" lon="-48.651096"><ele>12.934509</ele></trkpt><trkpt lat="-27.001093" lon="-48.651095"><ele>12.669495</ele></trkpt><trkpt lat="-27.001097" lon="-48.651088"><ele>12.674927</ele></trkpt><trkpt lat="-27.001099" lon="-48.651077"><ele>12.780396</ele></trkpt><trkpt lat="-27.001108" lon="-48.651047"><ele>17.527344</ele></trkpt><trkpt lat="-27.001112" lon="-48.651047"><ele>17.348022</ele></trkpt><trkpt lat="-27.001112" lon="-48.651047"><ele>17.348022</ele></trkpt><trkpt lat="-27.001078" lon="-48.651084"><ele>14.391357</ele></trkpt><trkpt lat="-27.001078" lon="-48.651084"><ele>14.391357</ele></trkpt><trkpt lat="-27.001076" lon="-48.651114"><ele>13.406311</ele></trkpt><trkpt lat="-27.001068" lon="-48.651101"><ele>13.559509</ele></trkpt><trkpt lat="-27.001066" lon="-48.651092"><ele>13.686218</ele></trkpt><trkpt lat="-27.001063" lon="-48.651093"><ele>13.688416</ele></trkpt><trkpt lat="-27.001064" lon="-48.651095"><ele>13.393066</ele></trkpt><trkpt lat="-27.001065" lon="-48.65109"><ele>13.352539</ele></trkpt><trkpt lat="-27.001064" lon="-48.651083"><ele>13.562622</ele></trkpt><trkpt lat="-27.001067" lon="-48.651068"><ele>14.634888</ele></trkpt><trkpt lat="-27.001067" lon="-48.651068"><ele>14.634888</ele></trkpt><trkpt lat="-27.001068" lon="-48.651071"><ele>14.243774</ele></trkpt><trkpt lat="-27.001068" lon="-48.651071"><ele>14.243774</ele></trkpt><trkpt lat="-27.001068" lon="-48.651071"><ele>14.234619</ele></trkpt><trkpt lat="-27.001068" lon="-48.651071"><ele>14.153259</ele></trkpt><trkpt lat="-27.001068" lon="-48.651071"><ele>14.047729</ele></trkpt><trkpt lat="-27.001068" lon="-48.651071"><ele>14.119812</ele></trkpt><trkpt lat="-27.001068" lon="-48.651071"><ele>14.134888</ele></trkpt><trkpt lat="-27.001068" lon="-48.651071"><ele>14.134888</ele></trkpt><trkpt lat="-27.001068" lon="-48.651071"><ele>14.134888</ele></trkpt><trkpt lat="-27.001068" lon="-48.651071"><ele>14.163086</ele></trkpt><trkpt lat="-27.001068" lon="-48.651071"><ele>14.163391</ele></trkpt><trkpt lat="-27.001068" lon="-48.651071"><ele>14.151489</ele></trkpt><trkpt lat="-27.001068" lon="-48.651071"><ele>14.13385</ele></trkpt><trkpt lat="-27.001067" lon="-48.651075"><ele>13.76001</ele></trkpt><trkpt lat="-27.001063" lon="-48.651071"><ele>14.086914</ele></trkpt><trkpt lat="-27.001063" lon="-48.651068"><ele>14.180908</ele></trkpt><trkpt lat="-27.001063" lon="-48.651077"><ele>13.637146</ele></trkpt><trkpt lat="-27.001065" lon="-48.651072"><ele>13.756042</ele></trkpt><trkpt lat="-27.001054" lon="-48.651063"><ele>13.985718</ele></trkpt><trkpt lat="-27.001054" lon="-48.651065"><ele>13.9729</ele></trkpt><trkpt lat="-27.001056" lon="-48.651065"><ele>13.865723</ele></trkpt><trkpt lat="-27.001057" lon="-48.651066"><ele>13.954834</ele></trkpt><trkpt lat="-27.001053" lon="-48.651065"><ele>14.212341</ele></trkpt><trkpt lat="-27.001057" lon="-48.651062"><ele>13.457947</ele></trkpt><trkpt lat="-27.001067" lon="-48.651062"><ele>13.408508</ele></trkpt><trkpt lat="-27.001082" lon="-48.651059"><ele>13.804382</ele></trkpt><trkpt lat="-27.00109" lon="-48.651058"><ele>13.59729</ele></trkpt><trkpt lat="-27.001102" lon="-48.651056"><ele>13.69397</ele></trkpt><trkpt lat="-27.001118" lon="-48.651051"><ele>13.914551</ele></trkpt><trkpt lat="-27.001139" lon="-48.651047"><ele>13.65387</ele></trkpt><trkpt lat="-27.00116" lon="-48.651042"><ele>13.78418</ele></trkpt><trkpt lat="-27.001183" lon="-48.651037"><ele>13.782471</ele></trkpt><trkpt lat="-27.001207" lon="-48.651031"><ele>13.857178</ele></trkpt><trkpt lat="-27.001233" lon="-48.651025"><ele>13.684875</ele></trkpt><trkpt lat="-27.001256" lon="-48.651017"><ele>13.970459</ele></trkpt><trkpt lat="-27.001279" lon="-48.651007"><ele>14.122742</ele></trkpt><trkpt lat="-27.001304" lon="-48.650999"><ele>13.736145</ele></trkpt><trkpt lat="-27.001329" lon="-48.650991"><ele>13.354492</ele></trkpt><trkpt lat="-27.001356" lon="-48.650981"><ele>13.361694</ele></trkpt><trkpt lat="-27.001381" lon="-48.650969"><ele>13.226135</ele></trkpt><trkpt lat="-27.001405" lon="-48.650958"><ele>12.846741</ele></trkpt><trkpt lat="-27.001433" lon="-48.650956"><ele>12.37677</ele></trkpt><trkpt lat="-27.001459" lon="-48.650947"><ele>12.781982</ele></trkpt><trkpt lat="-27.001482" lon="-48.650937"><ele>12.397766</ele></trkpt><trkpt lat="-27.001505" lon="-48.65093"><ele>11.951233</ele></trkpt><trkpt lat="-27.001526" lon="-48.650919"><ele>11.670868</ele></trkpt><trkpt lat="-27.001545" lon="-48.650907"><ele>11.576324</ele></trkpt><trkpt lat="-27.001569" lon="-48.650895"><ele>11.624542</ele></trkpt><trkpt lat="-27.001593" lon="-48.650884"><ele>12.033325</ele></trkpt><trkpt lat="-27.001615" lon="-48.650876"><ele>12.405212</ele></trkpt><trkpt lat="-27.001638" lon="-48.65086"><ele>12.649475</ele></trkpt><trkpt lat="-27.001667" lon="-48.650834"><ele>12.763977</ele></trkpt><trkpt lat="-27.001699" lon="-48.650818"><ele>12.716797</ele></trkpt><trkpt lat="-27.00173" lon="-48.650809"><ele>12.803284</ele></trkpt><trkpt lat="-27.00176" lon="-48.650798"><ele>13.004822</ele></trkpt><trkpt lat="-27.001785" lon="-48.650785"><ele>13.663025</ele></trkpt><trkpt lat="-27.0018" lon="-48.650777"><ele>13.627747</ele></trkpt><trkpt lat="-27.00183" lon="-48.650762"><ele>13.561035</ele></trkpt><trkpt lat="-27.001862" lon="-48.650747"><ele>13.36676</ele></trkpt><trkpt lat="-27.001895" lon="-48.650737"><ele>13.128357</ele></trkpt><trkpt lat="-27.001924" lon="-48.650725"><ele>12.935791</ele></trkpt><trkpt lat="-27.001955" lon="-48.650712"><ele>12.284302</ele></trkpt><trkpt lat="-27.001985" lon="-48.650703"><ele>12.110779</ele></trkpt><trkpt lat="-27.002015" lon="-48.650695"><ele>11.796753</ele></trkpt><trkpt lat="-27.002044" lon="-48.650682"><ele>11.751495</ele></trkpt><trkpt lat="-27.002072" lon="-48.650667"><ele>11.910339</ele></trkpt><trkpt lat="-27.002098" lon="-48.650653"><ele>12.024292</ele></trkpt><trkpt lat="-27.002124" lon="-48.650641"><ele>11.965668</ele></trkpt><trkpt lat="-27.002149" lon="-48.650628"><ele>11.977936</ele></trkpt><trkpt lat="-27.002176" lon="-48.650618"><ele>12.102905</ele></trkpt><trkpt lat="-27.002201" lon="-48.650602"><ele>12.536011</ele></trkpt><trkpt lat="-27.002223" lon="-48.650588"><ele>12.523376</ele></trkpt><trkpt lat="-27.002249" lon="-48.650576"><ele>12.666443</ele></trkpt><trkpt lat="-27.002275" lon="-48.650565"><ele>12.766357</ele></trkpt><trkpt lat="-27.002485" lon="-48.65046"><ele>10.743835</ele></trkpt><trkpt lat="-27.002465" lon="-48.65044"><ele>12.521851</ele></trkpt><trkpt lat="-27.002463" lon="-48.650433"><ele>14.806519</ele></trkpt><trkpt lat="-27.002462" lon="-48.650425"><ele>15.693604</ele></trkpt><trkpt lat="-27.002458" lon="-48.650425"><ele>15.636536</ele></trkpt><trkpt lat="-27.002459" lon="-48.650434"><ele>13.5578</ele></trkpt><trkpt lat="-27.002459" lon="-48.650434"><ele>13.631104</ele></trkpt><trkpt lat="-27.002461" lon="-48.650431"><ele>14.925049</ele></trkpt><trkpt lat="-27.002461" lon="-48.650431"><ele>14.945801</ele></trkpt><trkpt lat="-27.002461" lon="-48.650429"><ele>14.943237</ele></trkpt><trkpt lat="-27.002462" lon="-48.650427"><ele>14.955505</ele></trkpt><trkpt lat="-27.002462" lon="-48.650426"><ele>15.079529</ele></trkpt><trkpt lat="-27.002462" lon="-48.650427"><ele>15.119751</ele></trkpt><trkpt lat="-27.002462" lon="-48.650427"><ele>15.119751</ele></trkpt><trkpt lat="-27.002462" lon="-48.650424"><ele>10.922852</ele></trkpt><trkpt lat="-27.002462" lon="-48.650423"><ele>10.944458</ele></trkpt><trkpt lat="-27.002462" lon="-48.650423"><ele>10.944458</ele></trkpt><trkpt lat="-27.002464" lon="-48.650424"><ele>11.099518</ele></trkpt><trkpt lat="-27.002462" lon="-48.650422"><ele>11.268158</ele></trkpt><trkpt lat="-27.002462" lon="-48.650425"><ele>13.235779</ele></trkpt><trkpt lat="-27.002462" lon="-48.650426"><ele>12.642883</ele></trkpt><trkpt lat="-27.002463" lon="-48.650423"><ele>13.221191</ele></trkpt><trkpt lat="-27.002472" lon="-48.650436"><ele>13.133911</ele></trkpt><trkpt lat="-27.002476" lon="-48.650443"><ele>13.35498</ele></trkpt><trkpt lat="-27.00248" lon="-48.650446"><ele>14.020996</ele></trkpt><trkpt lat="-27.002489" lon="-48.650454"><ele>13.914185</ele></trkpt><trkpt lat="-27.00249" lon="-48.650452"><ele>14.371155</ele></trkpt><trkpt lat="-27.00249" lon="-48.650452"><ele>17.426819</ele></trkpt><trkpt lat="-27.002489" lon="-48.650453"><ele>17.633728</ele></trkpt><trkpt lat="-27.00249" lon="-48.650452"><ele>17.85199</ele></trkpt><trkpt lat="-27.002489" lon="-48.650449"><ele>18.288879</ele></trkpt><trkpt lat="-27.00249" lon="-48.650451"><ele>17.726135</ele></trkpt><trkpt lat="-27.002489" lon="-48.65045"><ele>17.569946</ele></trkpt><trkpt lat="-27.002489" lon="-48.650447"><ele>17.544312</ele></trkpt><trkpt lat="-27.002489" lon="-48.650443"><ele>17.658081</ele></trkpt><trkpt lat="-27.002489" lon="-48.650443"><ele>17.658081</ele></trkpt><trkpt lat="-27.002488" lon="-48.650442"><ele>17.492676</ele></trkpt><trkpt lat="-27.002487" lon="-48.650439"><ele>17.618103</ele></trkpt><trkpt lat="-27.002487" lon="-48.650439"><ele>17.464966</ele></trkpt><trkpt lat="-27.002485" lon="-48.650439"><ele>17.308899</ele></trkpt><trkpt lat="-27.002484" lon="-48.65044"><ele>17.127625</ele></trkpt><trkpt lat="-27.002482" lon="-48.650442"><ele>17.006104</ele></trkpt><trkpt lat="-27.002482" lon="-48.650442"><ele>17.006104</ele></trkpt><trkpt lat="-27.002481" lon="-48.650443"><ele>16.812744</ele></trkpt><trkpt lat="-27.00248" lon="-48.650443"><ele>16.637146</ele></trkpt><trkpt lat="-27.002479" lon="-48.650446"><ele>16.595764</ele></trkpt><trkpt lat="-27.002478" lon="-48.650448"><ele>16.521484</ele></trkpt><trkpt lat="-27.002478" lon="-48.650448"><ele>16.521484</ele></trkpt><trkpt lat="-27.002478" lon="-48.650448"><ele>16.333435</ele></trkpt><trkpt lat="-27.002477" lon="-48.650449"><ele>16.415894</ele></trkpt><trkpt lat="-27.002476" lon="-48.650449"><ele>16.111938</ele></trkpt><trkpt lat="-27.002476" lon="-48.650449"><ele>16.111938</ele></trkpt><trkpt lat="-27.002477" lon="-48.650447"><ele>16.075256</ele></trkpt><trkpt lat="-27.002476" lon="-48.650448"><ele>16.082947</ele></trkpt><trkpt lat="-27.002476" lon="-48.650448"><ele>15.907593</ele></trkpt><trkpt lat="-27.002474" lon="-48.65045"><ele>15.850403</ele></trkpt><trkpt lat="-27.002472" lon="-48.650455"><ele>15.762817</ele></trkpt><trkpt lat="-27.00247" lon="-48.650456"><ele>15.651245</ele></trkpt><trkpt lat="-27.00247" lon="-48.650456"><ele>15.651245</ele></trkpt><trkpt lat="-27.002468" lon="-48.650457"><ele>15.526978</ele></trkpt><trkpt lat="-27.002469" lon="-48.650458"><ele>14.452393</ele></trkpt><trkpt lat="-27.002469" lon="-48.650458"><ele>14.317993</ele></trkpt><trkpt lat="-27.002469" lon="-48.650459"><ele>14.211731</ele></trkpt><trkpt lat="-27.002471" lon="-48.650466"><ele>13.784241</ele></trkpt><trkpt lat="-27.002471" lon="-48.650468"><ele>13.672546</ele></trkpt><trkpt lat="-27.002471" lon="-48.650468"><ele>13.553467</ele></trkpt><trkpt lat="-27.002475" lon="-48.650472"><ele>13.221436</ele></trkpt><trkpt lat="-27.002483" lon="-48.650473"><ele>12.713562</ele></trkpt><trkpt lat="-27.002487" lon="-48.650475"><ele>12.354675</ele></trkpt><trkpt lat="-27.002493" lon="-48.650473"><ele>12.026306</ele></trkpt><trkpt lat="-27.002497" lon="-48.650472"><ele>11.835999</ele></trkpt><trkpt lat="-27.002499" lon="-48.650474"><ele>12.192749</ele></trkpt><trkpt lat="-27.002496" lon="-48.650475"><ele>12.319824</ele></trkpt><trkpt lat="-27.002496" lon="-48.650476"><ele>12.343872</ele></trkpt><trkpt lat="-27.002501" lon="-48.650481"><ele>12.103149</ele></trkpt><trkpt lat="-27.002506" lon="-48.650485"><ele>11.919189</ele></trkpt><trkpt lat="-27.002509" lon="-48.650487"><ele>11.781799</ele></trkpt><trkpt lat="-27.002512" lon="-48.650489"><ele>11.696655</ele></trkpt><trkpt lat="-27.002512" lon="-48.650489"><ele>11.616577</ele></trkpt><trkpt lat="-27.002512" lon="-48.650486"><ele>11.649017</ele></trkpt><trkpt lat="-27.00251" lon="-48.650486"><ele>11.533539</ele></trkpt><trkpt lat="-27.002509" lon="-48.650486"><ele>11.428894</ele></trkpt><trkpt lat="-27.002509" lon="-48.650487"><ele>11.239258</ele></trkpt><trkpt lat="-27.002508" lon="-48.650489"><ele>11.206207</ele></trkpt><trkpt lat="-27.002506" lon="-48.650489"><ele>11.137817</ele></trkpt><trkpt lat="-27.002506" lon="-48.650489"><ele>11.137817</ele></trkpt><trkpt lat="-27.002505" lon="-48.65049"><ele>10.976929</ele></trkpt><trkpt lat="-27.002505" lon="-48.650489"><ele>11.108917</ele></trkpt><trkpt lat="-27.002505" lon="-48.65049"><ele>10.62384</ele></trkpt><trkpt lat="-27.002505" lon="-48.65049"><ele>10.415283</ele></trkpt><trkpt lat="-27.002507" lon="-48.65049"><ele>10.337463</ele></trkpt><trkpt lat="-27.002507" lon="-48.65049"><ele>10.337463</ele></trkpt><trkpt lat="-27.002505" lon="-48.650491"><ele>10.354828</ele></trkpt><trkpt lat="-27.002503" lon="-48.650491"><ele>10.323608</ele></trkpt><trkpt lat="-27.002501" lon="-48.650492"><ele>10.256439</ele></trkpt><trkpt lat="-27.002501" lon="-48.650495"><ele>9.77951</ele></trkpt><trkpt lat="-27.002499" lon="-48.650495"><ele>9.976929</ele></trkpt><trkpt lat="-27.002498" lon="-48.650494"><ele>9.93045</ele></trkpt><trkpt lat="-27.002499" lon="-48.650493"><ele>10.230042</ele></trkpt><trkpt lat="-27.002499" lon="-48.650495"><ele>9.945007</ele></trkpt><trkpt lat="-27.002499" lon="-48.650495"><ele>9.945007</ele></trkpt><trkpt lat="-27.002499" lon="-48.650495"><ele>9.873352</ele></trkpt><trkpt lat="-27.002497" lon="-48.650493"><ele>8.839386</ele></trkpt><trkpt lat="-27.002496" lon="-48.650493"><ele>9.807526</ele></trkpt><trkpt lat="-27.002496" lon="-48.650492"><ele>9.857697</ele></trkpt></trkseg></trk></gpx>