<?xml version="1.0" encoding="UTF-8"?>
<gpx xmlns="http://www.topografix.com/GPX/1/1" version="1.1" creator="@dwayneparton/geojson-to-gpx"><wpt lat="-27.003717" lon="-48.627852"><ele>3.8</ele><name>1 faixa</name></wpt><wpt lat="-27.003733" lon="-48.627792"><ele>-0.4</ele><name>23</name></wpt><wpt lat="-27.003733" lon="-48.627792"><ele>-0.4</ele><name>188</name></wpt><wpt lat="-27.003733" lon="-48.627792"><ele>-0.4</ele><name>380</name></wpt><wpt lat="-27.003723" lon="-48.627767"><ele>-0.4</ele><name>808</name></wpt><wpt lat="-27.004399" lon="-48.624175"><name>A pintura está boa, COMPLETA e visível</name></wpt><wpt lat="-27.003717" lon="-48.627852"><ele>3.8</ele><name>Apenas faixas vermelhas nas bordas, com travessias pintadas nos cruzamentos</name></wpt><wpt lat="-27.003733" lon="-48.627792"><ele>-0.4</ele><name>Área de amortecimento da ciclo (cm)</name></wpt><wpt lat="-27.003733" lon="-48.627792"><ele>-0.4</ele><name>Área transitável da ciclo (cm)</name></wpt><wpt lat="-27.003717" lon="-48.627852"><ele>3.8</ele><name>Asfalto</name></wpt><wpt lat="-27.003705" lon="-48.627842"><ele>4.2</ele><name>Bidirecional</name></wpt><wpt lat="-27.003703" lon="-48.62784"><ele>4.6</ele><name>Ciclofaixa</name></wpt><wpt lat="-27.003717" lon="-48.627852"><ele>3.8</ele><name>Estacionamento dedicado de um lado, segregado da circulação</name></wpt><wpt lat="-27.003733" lon="-48.627792"><ele>-0.4</ele><name>Faixa de carros logo ao lado da ciclo (cm)</name></wpt><wpt lat="-27.003763" lon="-48.627897"><ele>21.4</ele><name>Foto</name></wpt><wpt lat="-27.003717" lon="-48.627972"><ele>2.5</ele><name>Foto</name></wpt><wpt lat="-27.003737" lon="-48.62783"><ele>0.6</ele><name>Foto</name></wpt><wpt lat="-27.003928" lon="-48.626935"><ele>5.3</ele><name>Foto</name></wpt><wpt lat="-27.003922" lon="-48.626857"><ele>6.9</ele><name>Foto</name></wpt><wpt lat="-27.004032" lon="-48.626187"><ele>5.4</ele><name>Foto</name></wpt><wpt lat="-27.004137" lon="-48.625675"><ele>7</ele><name>Foto</name></wpt><wpt lat="-27.004228" lon="-48.625098"><ele>6.3</ele><name>Foto</name></wpt><wpt lat="-27.004333" lon="-48.624688"><ele>5.2</ele><name>Foto</name></wpt><wpt lat="-27.004388" lon="-48.624262"><ele>8.4</ele><name>Foto</name></wpt><wpt lat="-27.004355" lon="-48.624243"><ele>9.5</ele><name>Foto</name></wpt><wpt lat="-27.003717" lon="-48.627852"><ele>3.8</ele><name>Iluminação geral na via do outro lado da infraestrutura</name></wpt><wpt lat="-27.003717" lon="-48.627852"><ele>3.8</ele><name>Mão Única</name></wpt><wpt lat="-27.004437" lon="-48.624147"><name>Nenhum elemento de controle de velocidade na via</name></wpt><wpt lat="-27.003717" lon="-48.627852"><ele>3.8</ele><name>No bordo direito de Via de Mão Única</name></wpt><wpt lat="-27.003816" lon="-48.627382"><name>Em cruzamento BOA condição</name></wpt><wpt lat="-27.003919" lon="-48.626766"><name>Em cruzamento BOA condição</name></wpt><wpt lat="-27.004038" lon="-48.626164"><name>Em cruzamento BOA condição</name></wpt><wpt lat="-27.004135" lon="-48.625582"><name>Em cruzamento BOA condição</name></wpt><wpt lat="-27.004235" lon="-48.624992"><name>Em cruzamento BOA condição</name></wpt><wpt lat="-27.004314" lon="-48.624555"><name>Em cruzamento BOA condição</name></wpt><wpt lat="-27.004432" lon="-48.624098"><name>Em cruzamento BOA condição</name></wpt><wpt lat="-27.004355" lon="-48.624243"><ele>9.5</ele><name>R-34</name></wpt><wpt lat="-27.004084" lon="-48.62585"><name>SE CICLOFAIXA: para invadir a ciclo parte do automóvel passa obrigatoriamente por cima de segregadores</name></wpt><wpt lat="-27.003717" lon="-48.627852"><ele>3.8</ele><name>Sombras em alguns trechos, SEM mudas novas</name></wpt><wpt lat="-27.003717" lon="-48.627852"><ele>3.8</ele><name>Tachões</name></wpt><wpt lat="-27.003748" lon="-48.62785"><name>Total da via (incluindo a ciclo) (cm)</name></wpt><wpt lat="-27.004253" lon="-48.624044"><name>xxxxxxx</name></wpt><wpt lat="-27.004665" lon="-48.624102"><name>xxxxxxxxxxxxxx</name></wpt><wpt lat="-27.004352" lon="-48.624355"><name>A ciclo é completamente reta.</name></wpt><wpt lat="-27.004407" lon="-48.624197"><name>Bom estado</name></wpt><trk><name>Ciclofaixa R. 3208 - BC</name><trkseg><trkpt lat="-27.003706" lon="-48.627909"/><trkpt lat="-27.00376" lon="-48.627732"/><trkpt lat="-27.003889" lon="-48.627048"/><trkpt lat="-27.003974" lon="-48.626486"/><trkpt lat="-27.004084" lon="-48.625885"/><trkpt lat="-27.004211" lon="-48.625228"/><trkpt lat="-27.004318" lon="-48.6246"/><trkpt lat="-27.004379" lon="-48.624225"/><trkpt lat="-27.004454" lon="-48.624037"/><trkpt lat="-27.004505" lon="-48.624043"/><trkpt lat="-27.004508" lon="-48.624122"/><trkpt lat="-27.004449" lon="-48.624104"/></trkseg></trk></gpx>