<?xml version="1.0" encoding="UTF-8"?>
<gpx xmlns="http://www.topografix.com/GPX/1/1" version="1.1" creator="@dwayneparton/geojson-to-gpx"><wpt lat="-27.002342" lon="-48.664142"><ele>14.025208</ele><name>2 faixas</name></wpt><wpt lat="-26.998308" lon="-48.65574"><name>22</name></wpt><wpt lat="-26.998809" lon="-48.656202"><ele>7.26825</ele><name>172</name></wpt><wpt lat="-26.998689" lon="-48.656187"><ele>8.722748</ele><name>214</name></wpt><wpt lat="-26.998747" lon="-48.656197"><ele>10.63028</ele><name>796</name></wpt><wpt lat="-27.002346" lon="-48.664141"><ele>13.686096</ele><name>A ciclo é completamente reta.</name></wpt><wpt lat="-26.99833" lon="-48.655778"><name>Área de amortecimento da ciclo (cm)</name></wpt><wpt lat="-26.998809" lon="-48.656202"><ele>7.26825</ele><name>Área transitável da ciclo (cm)</name></wpt><wpt lat="-27.002342" lon="-48.664142"><ele>13.94812</ele><name>Asfalto</name></wpt><wpt lat="-27.002331" lon="-48.664136"><ele>14.401062</ele><name>Bidirecional</name></wpt><wpt lat="-26.998372" lon="-48.655831"><ele>9.204651</ele><name>Bueiro</name></wpt><wpt lat="-26.998479" lon="-48.656041"><ele>8.348694</ele><name>Bueiro</name></wpt><wpt lat="-26.999492" lon="-48.657594"><ele>3.30307</ele><name>Bueiro</name></wpt><wpt lat="-27.000469" lon="-48.658986"><ele>6.05365</ele><name>Bueiro</name></wpt><wpt lat="-27.001674" lon="-48.661581"><ele>14.25238</ele><name>Bueiro</name></wpt><wpt lat="-27.001789" lon="-48.662088"><ele>11.052216</ele><name>Bueiro</name></wpt><wpt lat="-27.002163" lon="-48.663554"><ele>12.660522</ele><name>Bueiro</name></wpt><wpt lat="-27.002279" lon="-48.663947"><ele>12.773743</ele><name>Bueiro</name></wpt><wpt lat="-26.999263" lon="-48.657327"><ele>-0.207001</ele><name>Buraco</name></wpt><wpt lat="-26.999514" lon="-48.65762"><ele>3.238617</ele><name>Buraco</name></wpt><wpt lat="-27.000408" lon="-48.658901"><ele>6.455139</ele><name>Buraco</name></wpt><wpt lat="-27.001547" lon="-48.661271"><ele>15.143921</ele><name>Buraco</name></wpt><wpt lat="-27.002331" lon="-48.664136"><ele>14.401733</ele><name>Ciclofaixa</name></wpt><wpt lat="-27.001497" lon="-48.661131"><ele>14.801086</ele><name>cruzamento em final de ladeira </name></wpt><wpt lat="-27.001496" lon="-48.66113"><ele>14.37915</ele><name>Cruzamento perigoso. EXPLIQUE.</name></wpt><wpt lat="-27.000509" lon="-48.659043"><ele>6.269592</ele><name>Desnível</name></wpt><wpt lat="-27.002344" lon="-48.664142"><ele>13.693665</ele><name>Estacionamento de um lado, incluso na circulação</name></wpt><wpt lat="-26.998689" lon="-48.656187"><ele>8.722748</ele><name>Faixa de carros logo ao lado da ciclo (cm)</name></wpt><wpt lat="-26.9983" lon="-48.655736"><ele>7.849091</ele><name>Foto</name></wpt><wpt lat="-27.001323" lon="-48.6605"><ele>22.270447</ele><name>Foto</name></wpt><wpt lat="-27.001509" lon="-48.661131"><ele>17.093079</ele><name>Foto</name></wpt><wpt lat="-27.001581" lon="-48.661338"><ele>14.600281</ele><name>Foto</name></wpt><wpt lat="-27.002314" lon="-48.664057"><ele>13.586731</ele><name>Foto</name></wpt><wpt lat="-27.002347" lon="-48.664138"><ele>13.755798</ele><name>Iluminação geral na via do mesmo lado da estrutura</name></wpt><wpt lat="-27.002334" lon="-48.664138"><ele>13.946045</ele><name>Mão Única</name></wpt><wpt lat="-27.002332" lon="-48.664135"><ele>14.096497</ele><name>No bordo esquerdo de Via de Mão Única</name></wpt><wpt lat="-26.998435" lon="-48.655945"><ele>9.810242</ele><name>Outro obstáculo</name></wpt><wpt lat="-26.998466" lon="-48.656006"><ele>8.755096</ele><name>Outro obstáculo</name></wpt><wpt lat="-26.998881" lon="-48.656609"><ele>9.772766</ele><name>Outro obstáculo</name></wpt><wpt lat="-27.002304" lon="-48.664038"><ele>12.902039</ele><name>Outro obstáculo</name></wpt><wpt lat="-27.002346" lon="-48.664141"><ele>13.675903</ele><name>Pequenas imperfeições, como fissuras</name></wpt><wpt lat="-27.001496" lon="-48.661127"><ele>13.960815</ele><name>Em cruzamento BOA condição</name></wpt><wpt lat="-27.002107" lon="-48.663349"><name>Em cruzamento BOA condição</name></wpt><wpt lat="-27.001702" lon="-48.661844"><name>Em cruzamento BOA condição</name></wpt><wpt lat="-27.001822" lon="-48.662349"><name>Em cruzamento BOA condição</name></wpt><wpt lat="-27.001972" lon="-48.662854"><name>Em cruzamento BOA condição</name></wpt><wpt lat="-27.001411" lon="-48.660696"><name>Em cruzamento BOA condição</name></wpt><wpt lat="-27.001254" lon="-48.660152"><name>Em cruzamento BOA condição</name></wpt><wpt lat="-27.000973" lon="-48.659717"><name>Em cruzamento BOA condição</name></wpt><wpt lat="-27.000657" lon="-48.659283"><name>Em cruzamento BOA condição</name></wpt><wpt lat="-27.000365" lon="-48.658854"><name>Em cruzamento BOA condição</name></wpt><wpt lat="-27.000078" lon="-48.65841"><name>Em cruzamento BOA condição</name></wpt><wpt lat="-26.99979" lon="-48.65801"><name>Em cruzamento BOA condição</name></wpt><wpt lat="-26.999507" lon="-48.657566"><name>Em cruzamento BOA condição</name></wpt><wpt lat="-26.999219" lon="-48.657142"><name>Em cruzamento BOA condição</name></wpt><wpt lat="-26.998937" lon="-48.656728"><name>Em cruzamento BOA condição</name></wpt><wpt lat="-26.99865" lon="-48.65631"><name>Em cruzamento BOA condição</name></wpt><wpt lat="-27.001327" lon="-48.660462"><ele>20.099243</ele><name>Piso diferenciado</name></wpt><wpt lat="-27.001327" lon="-48.660479"><ele>19.948486</ele><name>Piso diferenciado</name></wpt><wpt lat="-27.001327" lon="-48.660479"><ele>19.948486</ele><name>Piso diferenciado</name></wpt><wpt lat="-26.998881" lon="-48.656609"><ele>9.772766</ele><name>rampa</name></wpt><wpt lat="-27.002302" lon="-48.664036"><ele>12.889526</ele><name>rampa</name></wpt><wpt lat="-26.998434" lon="-48.655944"><ele>9.642944</ele><name>rampa </name></wpt><wpt lat="-26.998466" lon="-48.656016"><ele>8.73233</ele><name>rampa </name></wpt><wpt lat="-27.000484" lon="-48.659008"><ele>6.653229</ele><name>R3m0v3r Obstáculo 🗑️</name></wpt><wpt lat="-27.002345" lon="-48.664141"><ele>13.682983</ele><name>SE CICLOFAIXA: para invadir a ciclo parte do automóvel passa obrigatoriamente por cima de segregadores</name></wpt><wpt lat="-27.002345" lon="-48.664141"><ele>13.669556</ele><name>Segregadores NÃO DIFICULTAM o acesso de ciclistas</name></wpt><wpt lat="-27.001499" lon="-48.661123"><ele>14.025757</ele><name>SEM Semáforo</name></wpt><wpt lat="-26.99836" lon="-48.655879"><name>Sombras em alguns trechos, SEM mudas novas</name></wpt><wpt lat="-27.002342" lon="-48.664142"><ele>14.025635</ele><name>Tachões</name></wpt><wpt lat="-27.002342" lon="-48.664142"><ele>14.03418</ele><name>Toda área de circulação pintada de vermelho</name></wpt><wpt lat="-26.998747" lon="-48.656197"><ele>10.63028</ele><name>Total da via (incluindo a ciclo) (cm)</name></wpt><wpt lat="-26.99901" lon="-48.656838"><ele>8.567322</ele><name>Travessia de pedestre em nível (lombofaixa)</name></wpt><wpt lat="-26.999171" lon="-48.657198"><ele>2.900513</ele><name>Travessia de pedestre em nível (lombofaixa)</name></wpt><wpt lat="-26.999884" lon="-48.658107"><ele>7.373322</ele><name>Travessia de pedestre em nível (lombofaixa)</name></wpt><wpt lat="-27.000597" lon="-48.65917"><ele>3.698669</ele><name>Travessia de pedestre em nível (lombofaixa)</name></wpt><wpt lat="-27.001267" lon="-48.660273"><ele>20.228027</ele><name>Travessia de pedestre em nível (lombofaixa)</name></wpt><wpt lat="-27.001749" lon="-48.661925"><ele>12.066101</ele><name>Travessia de pedestre em nível (lombofaixa)</name></wpt><wpt lat="-27.002013" lon="-48.662952"><ele>10.705627</ele><name>Travessia de pedestre em nível (lombofaixa)</name></wpt><trk><name>Ciclofaixa R. Monte Acaraí - Cb</name><trkseg><trkpt lat="-26.99827" lon="-48.655688"><ele>0.231201</ele></trkpt><trkpt lat="-26.998245" lon="-48.65573"><ele>8.468445</ele></trkpt><trkpt lat="-26.998221" lon="-48.655746"><ele>5.50293</ele></trkpt><trkpt lat="-26.998243" lon="-48.655739"><ele>5.258484</ele></trkpt><trkpt lat="-26.998242" lon="-48.655735"><ele>3.917389</ele></trkpt><trkpt lat="-26.99825" lon="-48.655735"><ele>3.692383</ele></trkpt><trkpt lat="-26.998265" lon="-48.655732"><ele>3.287048</ele></trkpt><trkpt lat="-26.998321" lon="-48.655732"><ele>6.338348</ele></trkpt><trkpt lat="-26.998321" lon="-48.655736"><ele>6.112915</ele></trkpt><trkpt lat="-26.998317" lon="-48.655738"><ele>6.485779</ele></trkpt><trkpt lat="-26.99832" lon="-48.655738"><ele>6.487366</ele></trkpt><trkpt lat="-26.998316" lon="-48.65574"><ele>6.514984</ele></trkpt><trkpt lat="-26.998321" lon="-48.655737"><ele>6.55481</ele></trkpt><trkpt lat="-26.998327" lon="-48.655741"><ele>7.22876</ele></trkpt><trkpt lat="-26.998317" lon="-48.655744"><ele>6.472534</ele></trkpt><trkpt lat="-26.998322" lon="-48.655745"><ele>6.433014</ele></trkpt><trkpt lat="-26.998314" lon="-48.655747"><ele>6.630768</ele></trkpt><trkpt lat="-26.998309" lon="-48.655751"><ele>6.427582</ele></trkpt><trkpt lat="-26.998288" lon="-48.655746"><ele>6.476196</ele></trkpt><trkpt lat="-26.998301" lon="-48.655738"><ele>7.329407</ele></trkpt><trkpt lat="-26.998297" lon="-48.655736"><ele>7.238708</ele></trkpt><trkpt lat="-26.998298" lon="-48.65574"><ele>7.501892</ele></trkpt><trkpt lat="-26.998295" lon="-48.65574"><ele>7.643585</ele></trkpt><trkpt lat="-26.998294" lon="-48.655738"><ele>8.082733</ele></trkpt><trkpt lat="-26.998296" lon="-48.655741"><ele>7.684906</ele></trkpt><trkpt lat="-26.998298" lon="-48.655742"><ele>7.796692</ele></trkpt><trkpt lat="-26.998301" lon="-48.655743"><ele>7.628387</ele></trkpt><trkpt lat="-26.998301" lon="-48.655743"><ele>7.60733</ele></trkpt><trkpt lat="-26.9983" lon="-48.655736"><ele>7.849091</ele></trkpt><trkpt lat="-26.9983" lon="-48.655736"><ele>7.849091</ele></trkpt><trkpt lat="-26.998301" lon="-48.655733"><ele>8.181396</ele></trkpt><trkpt lat="-26.998302" lon="-48.655733"><ele>8.778625</ele></trkpt><trkpt lat="-26.998306" lon="-48.655735"><ele>9.085114</ele></trkpt><trkpt lat="-26.998316" lon="-48.655736"><ele>9.244415</ele></trkpt><trkpt lat="-26.998319" lon="-48.655736"><ele>9.064911</ele></trkpt><trkpt lat="-26.998317" lon="-48.655738"><ele>9.023529</ele></trkpt><trkpt lat="-26.998315" lon="-48.655742"><ele>9.072571</ele></trkpt><trkpt lat="-26.998315" lon="-48.655742"><ele>9.068481</ele></trkpt><trkpt lat="-26.998314" lon="-48.655745"><ele>8.827911</ele></trkpt><trkpt lat="-26.998321" lon="-48.655752"><ele>8.665649</ele></trkpt><trkpt lat="-26.998328" lon="-48.655764"><ele>8.442505</ele></trkpt><trkpt lat="-26.998336" lon="-48.655782"><ele>8.569214</ele></trkpt><trkpt lat="-26.998348" lon="-48.6558"><ele>9.367554</ele></trkpt><trkpt lat="-26.998366" lon="-48.65582"><ele>9.3573</ele></trkpt><trkpt lat="-26.998372" lon="-48.655831"><ele>9.204651</ele></trkpt><trkpt lat="-26.998372" lon="-48.655831"><ele>9.204651</ele></trkpt><trkpt lat="-26.998368" lon="-48.655842"><ele>8.942871</ele></trkpt><trkpt lat="-26.998377" lon="-48.655864"><ele>9.305847</ele></trkpt><trkpt lat="-26.998391" lon="-48.655887"><ele>9.539246</ele></trkpt><trkpt lat="-26.998405" lon="-48.655907"><ele>9.66394</ele></trkpt><trkpt lat="-26.998423" lon="-48.655923"><ele>9.921021</ele></trkpt><trkpt lat="-26.998436" lon="-48.655938"><ele>9.921478</ele></trkpt><trkpt lat="-26.99844" lon="-48.655945"><ele>9.930939</ele></trkpt><trkpt lat="-26.998435" lon="-48.655945"><ele>9.810242</ele></trkpt><trkpt lat="-26.998435" lon="-48.655945"><ele>9.810242</ele></trkpt><trkpt lat="-26.998434" lon="-48.655944"><ele>9.642944</ele></trkpt><trkpt lat="-26.998434" lon="-48.655944"><ele>9.642944</ele></trkpt><trkpt lat="-26.998433" lon="-48.655945"><ele>9.327332</ele></trkpt><trkpt lat="-26.99843" lon="-48.655945"><ele>9.339294</ele></trkpt><trkpt lat="-26.998427" lon="-48.655948"><ele>9.292755</ele></trkpt><trkpt lat="-26.998432" lon="-48.655951"><ele>9.278931</ele></trkpt><trkpt lat="-26.998433" lon="-48.655952"><ele>9.603241</ele></trkpt><trkpt lat="-26.998435" lon="-48.655952"><ele>9.760925</ele></trkpt><trkpt lat="-26.998433" lon="-48.655952"><ele>9.667084</ele></trkpt><trkpt lat="-26.998436" lon="-48.655961"><ele>9.127716</ele></trkpt><trkpt lat="-26.998443" lon="-48.655969"><ele>9.445526</ele></trkpt><trkpt lat="-26.998448" lon="-48.655978"><ele>9.118988</ele></trkpt><trkpt lat="-26.998458" lon="-48.655992"><ele>9.249237</ele></trkpt><trkpt lat="-26.998466" lon="-48.656006"><ele>8.755096</ele></trkpt><trkpt lat="-26.998466" lon="-48.656006"><ele>8.755096</ele></trkpt><trkpt lat="-26.998469" lon="-48.656015"><ele>8.737549</ele></trkpt><trkpt lat="-26.998466" lon="-48.656016"><ele>8.73233</ele></trkpt><trkpt lat="-26.998466" lon="-48.656016"><ele>8.73233</ele></trkpt><trkpt lat="-26.998465" lon="-48.656015"><ele>8.728333</ele></trkpt><trkpt lat="-26.998464" lon="-48.656015"><ele>8.727936</ele></trkpt><trkpt lat="-26.998464" lon="-48.656015"><ele>8.728424</ele></trkpt><trkpt lat="-26.998464" lon="-48.656015"><ele>8.69104</ele></trkpt><trkpt lat="-26.998465" lon="-48.656015"><ele>8.690979</ele></trkpt><trkpt lat="-26.998465" lon="-48.656015"><ele>8.688904</ele></trkpt><trkpt lat="-26.998468" lon="-48.65602"><ele>8.468781</ele></trkpt><trkpt lat="-26.998474" lon="-48.656029"><ele>8.28476</ele></trkpt><trkpt lat="-26.998479" lon="-48.656041"><ele>8.348694</ele></trkpt><trkpt lat="-26.998479" lon="-48.656041"><ele>8.348694</ele></trkpt><trkpt lat="-26.998486" lon="-48.656055"><ele>8.209839</ele></trkpt><trkpt lat="-26.998497" lon="-48.656072"><ele>8.16156</ele></trkpt><trkpt lat="-26.998509" lon="-48.656091"><ele>8.282654</ele></trkpt><trkpt lat="-26.998522" lon="-48.65611"><ele>8.760101</ele></trkpt><trkpt lat="-26.998538" lon="-48.656127"><ele>9.162598</ele></trkpt><trkpt lat="-26.998552" lon="-48.656142"><ele>9.370422</ele></trkpt><trkpt lat="-26.998556" lon="-48.656161"><ele>9.217957</ele></trkpt><trkpt lat="-26.998558" lon="-48.656178"><ele>9.135651</ele></trkpt><trkpt lat="-26.998565" lon="-48.656193"><ele>9.007446</ele></trkpt><trkpt lat="-26.998574" lon="-48.656204"><ele>8.974304</ele></trkpt><trkpt lat="-26.998577" lon="-48.65621"><ele>8.962128</ele></trkpt><trkpt lat="-26.998578" lon="-48.656214"><ele>8.901886</ele></trkpt><trkpt lat="-26.998575" lon="-48.656212"><ele>8.877289</ele></trkpt><trkpt lat="-26.998575" lon="-48.656211"><ele>8.876892</ele></trkpt><trkpt lat="-26.998581" lon="-48.656211"><ele>8.473114</ele></trkpt><trkpt lat="-26.998582" lon="-48.656211"><ele>8.411041</ele></trkpt><trkpt lat="-26.998584" lon="-48.656209"><ele>8.424255</ele></trkpt><trkpt lat="-26.998582" lon="-48.656202"><ele>8.7146</ele></trkpt><trkpt lat="-26.998576" lon="-48.6562"><ele>8.145752</ele></trkpt><trkpt lat="-26.998568" lon="-48.656199"><ele>8.159607</ele></trkpt><trkpt lat="-26.998567" lon="-48.656199"><ele>8.159698</ele></trkpt><trkpt lat="-26.998566" lon="-48.656199"><ele>7.974426</ele></trkpt><trkpt lat="-26.998564" lon="-48.656198"><ele>8.081604</ele></trkpt><trkpt lat="-26.998561" lon="-48.656194"><ele>8.408051</ele></trkpt><trkpt lat="-26.998562" lon="-48.656192"><ele>8.242798</ele></trkpt><trkpt lat="-26.998562" lon="-48.656193"><ele>8.21347</ele></trkpt><trkpt lat="-26.998562" lon="-48.656193"><ele>8.183716</ele></trkpt><trkpt lat="-26.998562" lon="-48.656193"><ele>8.184875</ele></trkpt><trkpt lat="-26.998563" lon="-48.656191"><ele>8.143982</ele></trkpt><trkpt lat="-26.998563" lon="-48.656189"><ele>8.281647</ele></trkpt><trkpt lat="-26.998561" lon="-48.656189"><ele>7.943146</ele></trkpt><trkpt lat="-26.998567" lon="-48.656187"><ele>5.179352</ele></trkpt><trkpt lat="-26.998574" lon="-48.656185"><ele>5.353607</ele></trkpt><trkpt lat="-26.998575" lon="-48.656185"><ele>5.355072</ele></trkpt><trkpt lat="-26.998576" lon="-48.656184"><ele>5.356964</ele></trkpt><trkpt lat="-26.998576" lon="-48.656187"><ele>5.49527</ele></trkpt><trkpt lat="-26.998576" lon="-48.656187"><ele>5.494354</ele></trkpt><trkpt lat="-26.998576" lon="-48.656187"><ele>5.496155</ele></trkpt><trkpt lat="-26.998576" lon="-48.656187"><ele>5.489594</ele></trkpt><trkpt lat="-26.998575" lon="-48.656195"><ele>5.352173</ele></trkpt><trkpt lat="-26.998574" lon="-48.656201"><ele>5.393066</ele></trkpt><trkpt lat="-26.998573" lon="-48.656201"><ele>5.60437</ele></trkpt><trkpt lat="-26.998572" lon="-48.6562"><ele>5.614746</ele></trkpt><trkpt lat="-26.998572" lon="-48.656199"><ele>5.526733</ele></trkpt><trkpt lat="-26.998573" lon="-48.656202"><ele>5.355072</ele></trkpt><trkpt lat="-26.998572" lon="-48.656202"><ele>5.603485</ele></trkpt><trkpt lat="-26.998564" lon="-48.656199"><ele>5.325226</ele></trkpt><trkpt lat="-26.998556" lon="-48.656195"><ele>5.310059</ele></trkpt><trkpt lat="-26.998555" lon="-48.656187"><ele>6.35376</ele></trkpt><trkpt lat="-26.998557" lon="-48.656169"><ele>7.0755</ele></trkpt><trkpt lat="-26.998562" lon="-48.656163"><ele>7.551727</ele></trkpt><trkpt lat="-26.998569" lon="-48.65616"><ele>7.868408</ele></trkpt><trkpt lat="-26.998571" lon="-48.656162"><ele>7.808868</ele></trkpt><trkpt lat="-26.998573" lon="-48.656163"><ele>7.841858</ele></trkpt><trkpt lat="-26.998573" lon="-48.656165"><ele>7.846039</ele></trkpt><trkpt lat="-26.998562" lon="-48.656174"><ele>7.948975</ele></trkpt><trkpt lat="-26.998562" lon="-48.656179"><ele>7.534424</ele></trkpt><trkpt lat="-26.998567" lon="-48.656182"><ele>7.592072</ele></trkpt><trkpt lat="-26.998569" lon="-48.656182"><ele>7.594208</ele></trkpt><trkpt lat="-26.998568" lon="-48.656194"><ele>6.610016</ele></trkpt><trkpt lat="-26.998564" lon="-48.6562"><ele>6.38092</ele></trkpt><trkpt lat="-26.998559" lon="-48.656197"><ele>6.356964</ele></trkpt><trkpt lat="-26.998558" lon="-48.656197"><ele>6.379791</ele></trkpt><trkpt lat="-26.998559" lon="-48.656192"><ele>6.998596</ele></trkpt><trkpt lat="-26.998565" lon="-48.656191"><ele>7.202728</ele></trkpt><trkpt lat="-26.998577" lon="-48.656188"><ele>7.467926</ele></trkpt><trkpt lat="-26.998578" lon="-48.656185"><ele>7.507996</ele></trkpt><trkpt lat="-26.998577" lon="-48.656186"><ele>7.753448</ele></trkpt><trkpt lat="-26.998569" lon="-48.656184"><ele>8.276062</ele></trkpt><trkpt lat="-26.998569" lon="-48.656179"><ele>8.178711</ele></trkpt><trkpt lat="-26.998572" lon="-48.656177"><ele>8.169434</ele></trkpt><trkpt lat="-26.998582" lon="-48.656171"><ele>8.88678</ele></trkpt><trkpt lat="-26.998591" lon="-48.656165"><ele>8.74118</ele></trkpt><trkpt lat="-26.998594" lon="-48.656165"><ele>8.35202</ele></trkpt><trkpt lat="-26.998596" lon="-48.656163"><ele>7.794189</ele></trkpt><trkpt lat="-26.998595" lon="-48.656163"><ele>7.279053</ele></trkpt><trkpt lat="-26.998599" lon="-48.65616"><ele>7.222382</ele></trkpt><trkpt lat="-26.998602" lon="-48.656157"><ele>7.186432</ele></trkpt><trkpt lat="-26.998604" lon="-48.656156"><ele>7.769409</ele></trkpt><trkpt lat="-26.998605" lon="-48.656156"><ele>7.078156</ele></trkpt><trkpt lat="-26.998783" lon="-48.656254"><ele>1.835693</ele></trkpt><trkpt lat="-26.99892" lon="-48.656196"><ele>3.861786</ele></trkpt><trkpt lat="-26.998823" lon="-48.656199"><ele>6.938232</ele></trkpt><trkpt lat="-26.998809" lon="-48.656202"><ele>7.26825</ele></trkpt><trkpt lat="-26.998809" lon="-48.656202"><ele>7.26825</ele></trkpt><trkpt lat="-26.998809" lon="-48.656202"><ele>7.26825</ele></trkpt><trkpt lat="-26.998785" lon="-48.656207"><ele>7.690765</ele></trkpt><trkpt lat="-26.998757" lon="-48.656202"><ele>7.99054</ele></trkpt><trkpt lat="-26.998719" lon="-48.656197"><ele>8.19516</ele></trkpt><trkpt lat="-26.998698" lon="-48.656189"><ele>8.286743</ele></trkpt><trkpt lat="-26.998689" lon="-48.656187"><ele>8.722748</ele></trkpt><trkpt lat="-26.998689" lon="-48.656187"><ele>8.722748</ele></trkpt><trkpt lat="-26.998689" lon="-48.656187"><ele>8.722748</ele></trkpt><trkpt lat="-26.998665" lon="-48.656193"><ele>9.508362</ele></trkpt><trkpt lat="-26.99866" lon="-48.656193"><ele>9.343414</ele></trkpt><trkpt lat="-26.998652" lon="-48.656195"><ele>9.631866</ele></trkpt><trkpt lat="-26.998655" lon="-48.656195"><ele>9.652679</ele></trkpt><trkpt lat="-26.998699" lon="-48.656196"><ele>10.015625</ele></trkpt><trkpt lat="-26.998697" lon="-48.656198"><ele>9.623657</ele></trkpt><trkpt lat="-26.998701" lon="-48.6562"><ele>10.144012</ele></trkpt><trkpt lat="-26.998703" lon="-48.6562"><ele>10.514252</ele></trkpt><trkpt lat="-26.998726" lon="-48.656198"><ele>10.630249</ele></trkpt><trkpt lat="-26.998747" lon="-48.656197"><ele>10.63028</ele></trkpt><trkpt lat="-26.998747" lon="-48.656197"><ele>10.63028</ele></trkpt><trkpt lat="-26.998747" lon="-48.656197"><ele>10.63028</ele></trkpt><trkpt lat="-26.998751" lon="-48.6562"><ele>10.502655</ele></trkpt><trkpt lat="-26.998752" lon="-48.656201"><ele>10.690338</ele></trkpt><trkpt lat="-26.998756" lon="-48.656199"><ele>11.085419</ele></trkpt><trkpt lat="-26.998774" lon="-48.656197"><ele>11.003815</ele></trkpt><trkpt lat="-26.998773" lon="-48.656194"><ele>11.173126</ele></trkpt><trkpt lat="-26.998771" lon="-48.656193"><ele>11.677246</ele></trkpt><trkpt lat="-26.998768" lon="-48.656192"><ele>11.688446</ele></trkpt><trkpt lat="-26.998751" lon="-48.656197"><ele>11.687164</ele></trkpt><trkpt lat="-26.998726" lon="-48.656204"><ele>11.527222</ele></trkpt><trkpt lat="-26.998704" lon="-48.656209"><ele>12.288147</ele></trkpt><trkpt lat="-26.998713" lon="-48.656214"><ele>12.293579</ele></trkpt><trkpt lat="-26.998675" lon="-48.656224"><ele>10.670349</ele></trkpt><trkpt lat="-26.998691" lon="-48.656233"><ele>11.101074</ele></trkpt><trkpt lat="-26.998696" lon="-48.656247"><ele>10.584259</ele></trkpt><trkpt lat="-26.9987" lon="-48.656262"><ele>11.171509</ele></trkpt><trkpt lat="-26.9987" lon="-48.656278"><ele>11.152344</ele></trkpt><trkpt lat="-26.998702" lon="-48.656296"><ele>11.382385</ele></trkpt><trkpt lat="-26.998707" lon="-48.656315"><ele>11.434113</ele></trkpt><trkpt lat="-26.998717" lon="-48.656336"><ele>10.859589</ele></trkpt><trkpt lat="-26.998726" lon="-48.656358"><ele>11.063629</ele></trkpt><trkpt lat="-26.998736" lon="-48.656379"><ele>11.062866</ele></trkpt><trkpt lat="-26.998747" lon="-48.656396"><ele>10.381683</ele></trkpt><trkpt lat="-26.998754" lon="-48.656423"><ele>11.366882</ele></trkpt><trkpt lat="-26.998768" lon="-48.656449"><ele>11.070129</ele></trkpt><trkpt lat="-26.998786" lon="-48.65647"><ele>10.828979</ele></trkpt><trkpt lat="-26.998801" lon="-48.656494"><ele>10.593262</ele></trkpt><trkpt lat="-26.998817" lon="-48.65652"><ele>10.49707</ele></trkpt><trkpt lat="-26.998834" lon="-48.656544"><ele>10.29303</ele></trkpt><trkpt lat="-26.998848" lon="-48.656565"><ele>10.053986</ele></trkpt><trkpt lat="-26.99886" lon="-48.656582"><ele>9.888794</ele></trkpt><trkpt lat="-26.998871" lon="-48.656598"><ele>9.914368</ele></trkpt><trkpt lat="-26.998879" lon="-48.656606"><ele>9.91394</ele></trkpt><trkpt lat="-26.998881" lon="-48.656609"><ele>9.772766</ele></trkpt><trkpt lat="-26.998881" lon="-48.656609"><ele>9.772766</ele></trkpt><trkpt lat="-26.998881" lon="-48.656609"><ele>9.772766</ele></trkpt><trkpt lat="-26.998881" lon="-48.656612"><ele>9.78894</ele></trkpt><trkpt lat="-26.99888" lon="-48.656613"><ele>9.956512</ele></trkpt><trkpt lat="-26.99888" lon="-48.656615"><ele>9.983276</ele></trkpt><trkpt lat="-26.998879" lon="-48.656615"><ele>9.887634</ele></trkpt><trkpt lat="-26.99888" lon="-48.656615"><ele>9.832947</ele></trkpt><trkpt lat="-26.998881" lon="-48.656618"><ele>9.64856</ele></trkpt><trkpt lat="-26.998884" lon="-48.656623"><ele>9.758789</ele></trkpt><trkpt lat="-26.998893" lon="-48.656638"><ele>9.514038</ele></trkpt><trkpt lat="-26.998902" lon="-48.656656"><ele>9.189758</ele></trkpt><trkpt lat="-26.998907" lon="-48.656676"><ele>8.805908</ele></trkpt><trkpt lat="-26.998913" lon="-48.656696"><ele>8.653168</ele></trkpt><trkpt lat="-26.998926" lon="-48.656719"><ele>8.386841</ele></trkpt><trkpt lat="-26.998944" lon="-48.656744"><ele>8.911896</ele></trkpt><trkpt lat="-26.998963" lon="-48.656768"><ele>8.812195</ele></trkpt><trkpt lat="-26.998981" lon="-48.65679"><ele>8.560211</ele></trkpt><trkpt lat="-26.998997" lon="-48.656814"><ele>8.575775</ele></trkpt><trkpt lat="-26.99901" lon="-48.656838"><ele>8.567322</ele></trkpt><trkpt lat="-26.99901" lon="-48.656838"><ele>8.567322</ele></trkpt><trkpt lat="-26.999024" lon="-48.656861"><ele>8.20047</ele></trkpt><trkpt lat="-26.999037" lon="-48.65688"><ele>8.128723</ele></trkpt><trkpt lat="-26.999051" lon="-48.656899"><ele>8.390289</ele></trkpt><trkpt lat="-26.999062" lon="-48.65692"><ele>7.835571</ele></trkpt><trkpt lat="-26.999068" lon="-48.656941"><ele>7.458954</ele></trkpt><trkpt lat="-26.999071" lon="-48.656963"><ele>7.342346</ele></trkpt><trkpt lat="-26.999077" lon="-48.656985"><ele>7.202515</ele></trkpt><trkpt lat="-26.999087" lon="-48.657004"><ele>6.984985</ele></trkpt><trkpt lat="-26.999087" lon="-48.657031"><ele>6.253815</ele></trkpt><trkpt lat="-26.999094" lon="-48.657055"><ele>5.877045</ele></trkpt><trkpt lat="-26.999102" lon="-48.657076"><ele>4.318512</ele></trkpt><trkpt lat="-26.99911" lon="-48.657095"><ele>3.525574</ele></trkpt><trkpt lat="-26.999114" lon="-48.657117"><ele>3.003784</ele></trkpt><trkpt lat="-26.999123" lon="-48.657138"><ele>2.96875</ele></trkpt><trkpt lat="-26.999137" lon="-48.657159"><ele>2.849457</ele></trkpt><trkpt lat="-26.999154" lon="-48.657179"><ele>3.177673</ele></trkpt><trkpt lat="-26.999171" lon="-48.657198"><ele>2.900513</ele></trkpt><trkpt lat="-26.999171" lon="-48.657198"><ele>2.900513</ele></trkpt><trkpt lat="-26.999183" lon="-48.657216"><ele>2.701996</ele></trkpt><trkpt lat="-26.999193" lon="-48.657231"><ele>1.512848</ele></trkpt><trkpt lat="-26.999206" lon="-48.657247"><ele>0.581604</ele></trkpt><trkpt lat="-26.99922" lon="-48.657271"><ele>0.438538</ele></trkpt><trkpt lat="-26.999236" lon="-48.657297"><ele>0.295868</ele></trkpt><trkpt lat="-26.999251" lon="-48.657313"><ele>-0.376465</ele></trkpt><trkpt lat="-26.999263" lon="-48.657327"><ele>-0.207001</ele></trkpt><trkpt lat="-26.999263" lon="-48.657327"><ele>-0.207001</ele></trkpt><trkpt lat="-26.99928" lon="-48.657344"><ele>-0.008026</ele></trkpt><trkpt lat="-26.999299" lon="-48.657359"><ele>0.380188</ele></trkpt><trkpt lat="-26.999315" lon="-48.657381"><ele>3.224335</ele></trkpt><trkpt lat="-26.999336" lon="-48.657408"><ele>3.319885</ele></trkpt><trkpt lat="-26.999359" lon="-48.657434"><ele>3.423431</ele></trkpt><trkpt lat="-26.999383" lon="-48.657463"><ele>3.778564</ele></trkpt><trkpt lat="-26.999404" lon="-48.65749"><ele>0.66156</ele></trkpt><trkpt lat="-26.999425" lon="-48.657516"><ele>1.070984</ele></trkpt><trkpt lat="-26.999447" lon="-48.657541"><ele>1.260498</ele></trkpt><trkpt lat="-26.999469" lon="-48.657569"><ele>2.496338</ele></trkpt><trkpt lat="-26.999492" lon="-48.657594"><ele>3.30307</ele></trkpt><trkpt lat="-26.999492" lon="-48.657594"><ele>3.30307</ele></trkpt><trkpt lat="-26.999514" lon="-48.65762"><ele>3.238617</ele></trkpt><trkpt lat="-26.999514" lon="-48.65762"><ele>3.238617</ele></trkpt><trkpt lat="-26.999533" lon="-48.657643"><ele>3.240601</ele></trkpt><trkpt lat="-26.999549" lon="-48.657669"><ele>3.475006</ele></trkpt><trkpt lat="-26.99957" lon="-48.657698"><ele>3.489624</ele></trkpt><trkpt lat="-26.999593" lon="-48.657727"><ele>3.590759</ele></trkpt><trkpt lat="-26.999612" lon="-48.657754"><ele>3.814484</ele></trkpt><trkpt lat="-26.999631" lon="-48.657784"><ele>3.939178</ele></trkpt><trkpt lat="-26.999654" lon="-48.657815"><ele>4.450928</ele></trkpt><trkpt lat="-26.999706" lon="-48.657862"><ele>8.387756</ele></trkpt><trkpt lat="-26.999729" lon="-48.657889"><ele>8.051727</ele></trkpt><trkpt lat="-26.999749" lon="-48.657916"><ele>6.976746</ele></trkpt><trkpt lat="-26.999769" lon="-48.65794"><ele>6.642456</ele></trkpt><trkpt lat="-26.999781" lon="-48.657966"><ele>6.566589</ele></trkpt><trkpt lat="-26.999797" lon="-48.657987"><ele>6.482086</ele></trkpt><trkpt lat="-26.999817" lon="-48.657999"><ele>6.578339</ele></trkpt><trkpt lat="-26.999836" lon="-48.658021"><ele>6.417877</ele></trkpt><trkpt lat="-26.999849" lon="-48.658047"><ele>6.936371</ele></trkpt><trkpt lat="-26.999862" lon="-48.658069"><ele>6.946014</ele></trkpt><trkpt lat="-26.999873" lon="-48.658089"><ele>7.470032</ele></trkpt><trkpt lat="-26.999884" lon="-48.658107"><ele>7.373322</ele></trkpt><trkpt lat="-26.999884" lon="-48.658107"><ele>7.373322</ele></trkpt><trkpt lat="-26.999892" lon="-48.658123"><ele>7.38028</ele></trkpt><trkpt lat="-26.999899" lon="-48.658139"><ele>6.96521</ele></trkpt><trkpt lat="-26.999911" lon="-48.658161"><ele>7.29657</ele></trkpt><trkpt lat="-26.999928" lon="-48.658183"><ele>7.036407</ele></trkpt><trkpt lat="-26.999945" lon="-48.658204"><ele>7.034668</ele></trkpt><trkpt lat="-26.999961" lon="-48.658224"><ele>7.057251</ele></trkpt><trkpt lat="-26.999978" lon="-48.658248"><ele>6.996185</ele></trkpt><trkpt lat="-27.000021" lon="-48.658266"><ele>7.148743</ele></trkpt><trkpt lat="-27.000038" lon="-48.658289"><ele>7.248657</ele></trkpt><trkpt lat="-27.000043" lon="-48.658298"><ele>6.014282</ele></trkpt><trkpt lat="-27.000034" lon="-48.658299"><ele>5.651367</ele></trkpt><trkpt lat="-27.000049" lon="-48.658326"><ele>5.382813</ele></trkpt><trkpt lat="-27.000061" lon="-48.658345"><ele>5.06778</ele></trkpt><trkpt lat="-27.000079" lon="-48.658369"><ele>5.423645</ele></trkpt><trkpt lat="-27.000095" lon="-48.658393"><ele>5.7966</ele></trkpt><trkpt lat="-27.000109" lon="-48.658424"><ele>5.862793</ele></trkpt><trkpt lat="-27.000124" lon="-48.658451"><ele>6.990753</ele></trkpt><trkpt lat="-27.000133" lon="-48.658475"><ele>6.791077</ele></trkpt><trkpt lat="-27.000136" lon="-48.658492"><ele>6.041565</ele></trkpt><trkpt lat="-27.000147" lon="-48.658525"><ele>6.918304</ele></trkpt><trkpt lat="-27.000168" lon="-48.658555"><ele>6.613281</ele></trkpt><trkpt lat="-27.000188" lon="-48.658587"><ele>6.86911</ele></trkpt><trkpt lat="-27.000207" lon="-48.658617"><ele>6.928741</ele></trkpt><trkpt lat="-27.000224" lon="-48.658648"><ele>7.111115</ele></trkpt><trkpt lat="-27.000242" lon="-48.65868"><ele>7.151764</ele></trkpt><trkpt lat="-27.000264" lon="-48.658709"><ele>6.785522</ele></trkpt><trkpt lat="-27.000285" lon="-48.658737"><ele>6.760254</ele></trkpt><trkpt lat="-27.000305" lon="-48.658764"><ele>6.511658</ele></trkpt><trkpt lat="-27.000326" lon="-48.65879"><ele>6.208191</ele></trkpt><trkpt lat="-27.000348" lon="-48.658818"><ele>6.262207</ele></trkpt><trkpt lat="-27.00037" lon="-48.658848"><ele>6.418457</ele></trkpt><trkpt lat="-27.000387" lon="-48.658876"><ele>6.522156</ele></trkpt><trkpt lat="-27.000408" lon="-48.658901"><ele>6.455139</ele></trkpt><trkpt lat="-27.000408" lon="-48.658901"><ele>6.455139</ele></trkpt><trkpt lat="-27.000424" lon="-48.658919"><ele>6.140198</ele></trkpt><trkpt lat="-27.000436" lon="-48.658939"><ele>6.269989</ele></trkpt><trkpt lat="-27.000454" lon="-48.658963"><ele>6.388702</ele></trkpt><trkpt lat="-27.000469" lon="-48.658986"><ele>6.05365</ele></trkpt><trkpt lat="-27.000469" lon="-48.658986"><ele>6.05365</ele></trkpt><trkpt lat="-27.000484" lon="-48.659008"><ele>6.653229</ele></trkpt><trkpt lat="-27.000484" lon="-48.659008"><ele>6.653229</ele></trkpt><trkpt lat="-27.000497" lon="-48.659027"><ele>6.167633</ele></trkpt><trkpt lat="-27.000509" lon="-48.659043"><ele>6.269592</ele></trkpt><trkpt lat="-27.000509" lon="-48.659043"><ele>6.269592</ele></trkpt><trkpt lat="-27.000517" lon="-48.659053"><ele>5.947876</ele></trkpt><trkpt lat="-27.000524" lon="-48.65906"><ele>5.057068</ele></trkpt><trkpt lat="-27.000531" lon="-48.65907"><ele>5.050629</ele></trkpt><trkpt lat="-27.000538" lon="-48.659082"><ele>4.360992</ele></trkpt><trkpt lat="-27.000547" lon="-48.6591"><ele>4.287598</ele></trkpt><trkpt lat="-27.000557" lon="-48.659118"><ele>4.65921</ele></trkpt><trkpt lat="-27.000567" lon="-48.659136"><ele>4.250061</ele></trkpt><trkpt lat="-27.000577" lon="-48.659152"><ele>4.25</ele></trkpt><trkpt lat="-27.000591" lon="-48.659164"><ele>4.036865</ele></trkpt><trkpt lat="-27.000597" lon="-48.65917"><ele>3.698669</ele></trkpt><trkpt lat="-27.000597" lon="-48.65917"><ele>3.698669</ele></trkpt><trkpt lat="-27.000602" lon="-48.659174"><ele>4.13028</ele></trkpt><trkpt lat="-27.000608" lon="-48.659175"><ele>4.14624</ele></trkpt><trkpt lat="-27.000612" lon="-48.659172"><ele>3.699371</ele></trkpt><trkpt lat="-27.000613" lon="-48.65917"><ele>3.987762</ele></trkpt><trkpt lat="-27.00061" lon="-48.65918"><ele>3.315674</ele></trkpt><trkpt lat="-27.000603" lon="-48.659195"><ele>3.087769</ele></trkpt><trkpt lat="-27.000605" lon="-48.659196"><ele>3.531067</ele></trkpt><trkpt lat="-27.000608" lon="-48.659196"><ele>3.30835</ele></trkpt><trkpt lat="-27.000611" lon="-48.659195"><ele>3.307281</ele></trkpt><trkpt lat="-27.000617" lon="-48.6592"><ele>3.56662</ele></trkpt><trkpt lat="-27.000623" lon="-48.659209"><ele>4.132599</ele></trkpt><trkpt lat="-27.000629" lon="-48.659222"><ele>4.239014</ele></trkpt><trkpt lat="-27.000635" lon="-48.659238"><ele>4.937469</ele></trkpt><trkpt lat="-27.000641" lon="-48.659256"><ele>5.161774</ele></trkpt><trkpt lat="-27.000649" lon="-48.659274"><ele>5.601715</ele></trkpt><trkpt lat="-27.000663" lon="-48.659294"><ele>5.905823</ele></trkpt><trkpt lat="-27.00068" lon="-48.659318"><ele>6.263153</ele></trkpt><trkpt lat="-27.000699" lon="-48.659342"><ele>6.872345</ele></trkpt><trkpt lat="-27.000717" lon="-48.659367"><ele>7.011932</ele></trkpt><trkpt lat="-27.000736" lon="-48.659391"><ele>7.307587</ele></trkpt><trkpt lat="-27.000756" lon="-48.659419"><ele>7.601013</ele></trkpt><trkpt lat="-27.000775" lon="-48.659446"><ele>7.642426</ele></trkpt><trkpt lat="-27.000798" lon="-48.659471"><ele>7.013794</ele></trkpt><trkpt lat="-27.000815" lon="-48.659493"><ele>7.086609</ele></trkpt><trkpt lat="-27.000834" lon="-48.659514"><ele>7.011017</ele></trkpt><trkpt lat="-27.000852" lon="-48.65954"><ele>6.564972</ele></trkpt><trkpt lat="-27.00087" lon="-48.659562"><ele>7.360291</ele></trkpt><trkpt lat="-27.000889" lon="-48.659585"><ele>7.261078</ele></trkpt><trkpt lat="-27.000907" lon="-48.659608"><ele>7.448792</ele></trkpt><trkpt lat="-27.000925" lon="-48.659631"><ele>7.428162</ele></trkpt><trkpt lat="-27.000941" lon="-48.659654"><ele>7.876312</ele></trkpt><trkpt lat="-27.000957" lon="-48.659678"><ele>7.812622</ele></trkpt><trkpt lat="-27.000973" lon="-48.659701"><ele>8.124634</ele></trkpt><trkpt lat="-27.000988" lon="-48.659728"><ele>8.806274</ele></trkpt><trkpt lat="-27.001002" lon="-48.659753"><ele>9.427917</ele></trkpt><trkpt lat="-27.001015" lon="-48.659779"><ele>11.106049</ele></trkpt><trkpt lat="-27.001033" lon="-48.659802"><ele>10.964111</ele></trkpt><trkpt lat="-27.001048" lon="-48.659825"><ele>11.799988</ele></trkpt><trkpt lat="-27.001063" lon="-48.659846"><ele>12.29303</ele></trkpt><trkpt lat="-27.001078" lon="-48.659867"><ele>12.524231</ele></trkpt><trkpt lat="-27.001093" lon="-48.65989"><ele>13.111755</ele></trkpt><trkpt lat="-27.001106" lon="-48.659912"><ele>13.536255</ele></trkpt><trkpt lat="-27.001119" lon="-48.659932"><ele>11.971008</ele></trkpt><trkpt lat="-27.001133" lon="-48.659952"><ele>15.974976</ele></trkpt><trkpt lat="-27.001146" lon="-48.659968"><ele>17.184021</ele></trkpt><trkpt lat="-27.001156" lon="-48.659988"><ele>16.376953</ele></trkpt><trkpt lat="-27.001169" lon="-48.66"><ele>17.35907</ele></trkpt><trkpt lat="-27.001177" lon="-48.660015"><ele>17.896362</ele></trkpt><trkpt lat="-27.001185" lon="-48.660032"><ele>18.039368</ele></trkpt><trkpt lat="-27.001189" lon="-48.660049"><ele>18.149658</ele></trkpt><trkpt lat="-27.001196" lon="-48.660067"><ele>18.763855</ele></trkpt><trkpt lat="-27.001203" lon="-48.660083"><ele>16.046265</ele></trkpt><trkpt lat="-27.001209" lon="-48.6601"><ele>15.578003</ele></trkpt><trkpt lat="-27.001218" lon="-48.660117"><ele>15.960205</ele></trkpt><trkpt lat="-27.001227" lon="-48.660135"><ele>16.595032</ele></trkpt><trkpt lat="-27.001232" lon="-48.660155"><ele>16.285828</ele></trkpt><trkpt lat="-27.001241" lon="-48.660175"><ele>16.354614</ele></trkpt><trkpt lat="-27.001248" lon="-48.660194"><ele>20.082092</ele></trkpt><trkpt lat="-27.001254" lon="-48.660214"><ele>19.962524</ele></trkpt><trkpt lat="-27.00126" lon="-48.660234"><ele>20.671692</ele></trkpt><trkpt lat="-27.001265" lon="-48.660253"><ele>20.503052</ele></trkpt><trkpt lat="-27.001267" lon="-48.660273"><ele>20.228027</ele></trkpt><trkpt lat="-27.001267" lon="-48.660273"><ele>20.228027</ele></trkpt><trkpt lat="-27.001268" lon="-48.660292"><ele>20.408875</ele></trkpt><trkpt lat="-27.001269" lon="-48.660308"><ele>20.117737</ele></trkpt><trkpt lat="-27.001276" lon="-48.660328"><ele>20.193604</ele></trkpt><trkpt lat="-27.001287" lon="-48.660349"><ele>20.018921</ele></trkpt><trkpt lat="-27.001293" lon="-48.660365"><ele>19.721191</ele></trkpt><trkpt lat="-27.001303" lon="-48.660383"><ele>19.277405</ele></trkpt><trkpt lat="-27.00131" lon="-48.660403"><ele>19.402161</ele></trkpt><trkpt lat="-27.001316" lon="-48.660424"><ele>19.490173</ele></trkpt><trkpt lat="-27.00132" lon="-48.660436"><ele>19.594055</ele></trkpt><trkpt lat="-27.001324" lon="-48.66045"><ele>19.929626</ele></trkpt><trkpt lat="-27.001327" lon="-48.660462"><ele>20.099243</ele></trkpt><trkpt lat="-27.001327" lon="-48.660462"><ele>20.099243</ele></trkpt><trkpt lat="-27.001327" lon="-48.660472"><ele>20.06134</ele></trkpt><trkpt lat="-27.001327" lon="-48.660479"><ele>19.948486</ele></trkpt><trkpt lat="-27.001327" lon="-48.660479"><ele>19.948486</ele></trkpt><trkpt lat="-27.001327" lon="-48.660479"><ele>19.948486</ele></trkpt><trkpt lat="-27.001327" lon="-48.66048"><ele>19.952332</ele></trkpt><trkpt lat="-27.001329" lon="-48.660495"><ele>20.87384</ele></trkpt><trkpt lat="-27.00133" lon="-48.660498"><ele>20.838501</ele></trkpt><trkpt lat="-27.001328" lon="-48.660497"><ele>20.737976</ele></trkpt><trkpt lat="-27.00133" lon="-48.660498"><ele>20.33905</ele></trkpt><trkpt lat="-27.00133" lon="-48.660498"><ele>20.196838</ele></trkpt><trkpt lat="-27.00133" lon="-48.660495"><ele>20.535767</ele></trkpt><trkpt lat="-27.001329" lon="-48.660494"><ele>20.228149</ele></trkpt><trkpt lat="-27.001327" lon="-48.660494"><ele>19.924194</ele></trkpt><trkpt lat="-27.001326" lon="-48.660494"><ele>19.904297</ele></trkpt><trkpt lat="-27.001326" lon="-48.660494"><ele>19.906128</ele></trkpt><trkpt lat="-27.001326" lon="-48.660494"><ele>19.910095</ele></trkpt><trkpt lat="-27.001326" lon="-48.660494"><ele>19.914856</ele></trkpt><trkpt lat="-27.001325" lon="-48.660492"><ele>19.812866</ele></trkpt><trkpt lat="-27.001326" lon="-48.660491"><ele>19.771729</ele></trkpt><trkpt lat="-27.00133" lon="-48.660502"><ele>20.248535</ele></trkpt><trkpt lat="-27.001332" lon="-48.660506"><ele>19.926758</ele></trkpt><trkpt lat="-27.001335" lon="-48.660503"><ele>20.999023</ele></trkpt><trkpt lat="-27.001332" lon="-48.660499"><ele>21.514282</ele></trkpt><trkpt lat="-27.001329" lon="-48.6605"><ele>21.468811</ele></trkpt><trkpt lat="-27.001329" lon="-48.660498"><ele>21.958862</ele></trkpt><trkpt lat="-27.001327" lon="-48.660499"><ele>22.136108</ele></trkpt><trkpt lat="-27.001323" lon="-48.6605"><ele>22.270447</ele></trkpt><trkpt lat="-27.001323" lon="-48.6605"><ele>22.270447</ele></trkpt><trkpt lat="-27.001324" lon="-48.660497"><ele>22.564331</ele></trkpt><trkpt lat="-27.001324" lon="-48.660495"><ele>22.53302</ele></trkpt><trkpt lat="-27.001324" lon="-48.660493"><ele>22.575439</ele></trkpt><trkpt lat="-27.001325" lon="-48.660494"><ele>22.945313</ele></trkpt><trkpt lat="-27.001328" lon="-48.660495"><ele>23.111267</ele></trkpt><trkpt lat="-27.001339" lon="-48.660496"><ele>23.18634</ele></trkpt><trkpt lat="-27.001341" lon="-48.660496"><ele>23.188171</ele></trkpt><trkpt lat="-27.001342" lon="-48.660496"><ele>23.188232</ele></trkpt><trkpt lat="-27.001342" lon="-48.660496"><ele>23.188232</ele></trkpt><trkpt lat="-27.001342" lon="-48.660496"><ele>23.18866</ele></trkpt><trkpt lat="-27.001347" lon="-48.660498"><ele>23.293213</ele></trkpt><trkpt lat="-27.001348" lon="-48.660499"><ele>22.946106</ele></trkpt><trkpt lat="-27.001352" lon="-48.660503"><ele>23.107666</ele></trkpt><trkpt lat="-27.001354" lon="-48.660507"><ele>23.226196</ele></trkpt><trkpt lat="-27.001357" lon="-48.660513"><ele>22.432007</ele></trkpt><trkpt lat="-27.001362" lon="-48.660525"><ele>22.123169</ele></trkpt><trkpt lat="-27.001365" lon="-48.660532"><ele>22.235352</ele></trkpt><trkpt lat="-27.001361" lon="-48.660536"><ele>22.11615</ele></trkpt><trkpt lat="-27.001358" lon="-48.660537"><ele>22.087708</ele></trkpt><trkpt lat="-27.001358" lon="-48.660535"><ele>22.083618</ele></trkpt><trkpt lat="-27.00136" lon="-48.660533"><ele>22.168274</ele></trkpt><trkpt lat="-27.001365" lon="-48.660532"><ele>22.806091</ele></trkpt><trkpt lat="-27.001373" lon="-48.660537"><ele>23.602051</ele></trkpt><trkpt lat="-27.001373" lon="-48.660537"><ele>23.491333</ele></trkpt><trkpt lat="-27.001366" lon="-48.660548"><ele>23.982849</ele></trkpt><trkpt lat="-27.001357" lon="-48.660563"><ele>24.220337</ele></trkpt><trkpt lat="-27.001361" lon="-48.660582"><ele>23.632935</ele></trkpt><trkpt lat="-27.00137" lon="-48.660601"><ele>23.644104</ele></trkpt><trkpt lat="-27.001374" lon="-48.660622"><ele>22.778625</ele></trkpt><trkpt lat="-27.001378" lon="-48.660647"><ele>22.619629</ele></trkpt><trkpt lat="-27.001385" lon="-48.660674"><ele>22.464783</ele></trkpt><trkpt lat="-27.001391" lon="-48.6607"><ele>21.834961</ele></trkpt><trkpt lat="-27.001401" lon="-48.66073"><ele>21.598694</ele></trkpt><trkpt lat="-27.001412" lon="-48.660761"><ele>20.649414</ele></trkpt><trkpt lat="-27.001424" lon="-48.660796"><ele>19.854919</ele></trkpt><trkpt lat="-27.001439" lon="-48.660835"><ele>19.377808</ele></trkpt><trkpt lat="-27.001456" lon="-48.660889"><ele>18.226868</ele></trkpt><trkpt lat="-27.00147" lon="-48.660944"><ele>15.467651</ele></trkpt><trkpt lat="-27.001479" lon="-48.660999"><ele>15.176575</ele></trkpt><trkpt lat="-27.001481" lon="-48.661043"><ele>16.615051</ele></trkpt><trkpt lat="-27.001485" lon="-48.661073"><ele>16.067566</ele></trkpt><trkpt lat="-27.001492" lon="-48.661107"><ele>16.62561</ele></trkpt><trkpt lat="-27.001494" lon="-48.661127"><ele>16.445007</ele></trkpt><trkpt lat="-27.001497" lon="-48.661134"><ele>16.034302</ele></trkpt><trkpt lat="-27.001498" lon="-48.661136"><ele>16.002808</ele></trkpt><trkpt lat="-27.001499" lon="-48.661136"><ele>15.867188</ele></trkpt><trkpt lat="-27.001498" lon="-48.661136"><ele>15.6922</ele></trkpt><trkpt lat="-27.001495" lon="-48.661134"><ele>15.53656</ele></trkpt><trkpt lat="-27.001491" lon="-48.661133"><ele>15.546082</ele></trkpt><trkpt lat="-27.001491" lon="-48.661134"><ele>14.305115</ele></trkpt><trkpt lat="-27.001493" lon="-48.661134"><ele>14.463501</ele></trkpt><trkpt lat="-27.001495" lon="-48.661136"><ele>14.446228</ele></trkpt><trkpt lat="-27.001498" lon="-48.661135"><ele>14.348572</ele></trkpt><trkpt lat="-27.001501" lon="-48.661134"><ele>14.733459</ele></trkpt><trkpt lat="-27.001503" lon="-48.661125"><ele>14.36853</ele></trkpt><trkpt lat="-27.001504" lon="-48.661122"><ele>14.45929</ele></trkpt><trkpt lat="-27.001499" lon="-48.661123"><ele>14.025757</ele></trkpt><trkpt lat="-27.001499" lon="-48.661123"><ele>14.025757</ele></trkpt><trkpt lat="-27.001497" lon="-48.661125"><ele>13.895996</ele></trkpt><trkpt lat="-27.001496" lon="-48.661127"><ele>13.960815</ele></trkpt><trkpt lat="-27.001496" lon="-48.661127"><ele>13.960815</ele></trkpt><trkpt lat="-27.001495" lon="-48.661128"><ele>14.179443</ele></trkpt><trkpt lat="-27.001496" lon="-48.66113"><ele>14.37915</ele></trkpt><trkpt lat="-27.001496" lon="-48.66113"><ele>14.37915</ele></trkpt><trkpt lat="-27.001497" lon="-48.661131"><ele>14.801086</ele></trkpt><trkpt lat="-27.001497" lon="-48.661131"><ele>14.801086</ele></trkpt><trkpt lat="-27.001498" lon="-48.661133"><ele>14.997803</ele></trkpt><trkpt lat="-27.001498" lon="-48.661134"><ele>15.154236</ele></trkpt><trkpt lat="-27.001498" lon="-48.661135"><ele>15.157471</ele></trkpt><trkpt lat="-27.001498" lon="-48.661136"><ele>15.31366</ele></trkpt><trkpt lat="-27.001502" lon="-48.661134"><ele>15.432983</ele></trkpt><trkpt lat="-27.001503" lon="-48.661132"><ele>15.481812</ele></trkpt><trkpt lat="-27.001504" lon="-48.66113"><ele>15.654358</ele></trkpt><trkpt lat="-27.001504" lon="-48.661127"><ele>15.737061</ele></trkpt><trkpt lat="-27.001503" lon="-48.661126"><ele>15.582031</ele></trkpt><trkpt lat="-27.001504" lon="-48.661125"><ele>16.922302</ele></trkpt><trkpt lat="-27.001502" lon="-48.661125"><ele>16.908508</ele></trkpt><trkpt lat="-27.001503" lon="-48.661123"><ele>16.910645</ele></trkpt><trkpt lat="-27.001506" lon="-48.661125"><ele>16.952759</ele></trkpt><trkpt lat="-27.001507" lon="-48.661126"><ele>16.803528</ele></trkpt><trkpt lat="-27.001507" lon="-48.661128"><ele>17.098755</ele></trkpt><trkpt lat="-27.001506" lon="-48.661128"><ele>16.964661</ele></trkpt><trkpt lat="-27.001506" lon="-48.66113"><ele>17.013611</ele></trkpt><trkpt lat="-27.001507" lon="-48.661131"><ele>16.948181</ele></trkpt><trkpt lat="-27.001509" lon="-48.661131"><ele>17.093079</ele></trkpt><trkpt lat="-27.001509" lon="-48.661131"><ele>17.093079</ele></trkpt><trkpt lat="-27.001509" lon="-48.661131"><ele>17.033203</ele></trkpt><trkpt lat="-27.00151" lon="-48.661131"><ele>16.978149</ele></trkpt><trkpt lat="-27.001516" lon="-48.66114"><ele>17.035217</ele></trkpt><trkpt lat="-27.001522" lon="-48.661158"><ele>15.837341</ele></trkpt><trkpt lat="-27.001523" lon="-48.661181"><ele>15.704285</ele></trkpt><trkpt lat="-27.00153" lon="-48.661208"><ele>16.045471</ele></trkpt><trkpt lat="-27.001537" lon="-48.661234"><ele>15.697754</ele></trkpt><trkpt lat="-27.001542" lon="-48.661253"><ele>15.114685</ele></trkpt><trkpt lat="-27.001547" lon="-48.661271"><ele>15.143921</ele></trkpt><trkpt lat="-27.001547" lon="-48.661271"><ele>15.143921</ele></trkpt><trkpt lat="-27.001555" lon="-48.661287"><ele>14.989441</ele></trkpt><trkpt lat="-27.001569" lon="-48.661307"><ele>15.410461</ele></trkpt><trkpt lat="-27.001577" lon="-48.661329"><ele>15.280334</ele></trkpt><trkpt lat="-27.00158" lon="-48.661347"><ele>15.1604</ele></trkpt><trkpt lat="-27.001581" lon="-48.661351"><ele>16.106506</ele></trkpt><trkpt lat="-27.001578" lon="-48.66135"><ele>15.79718</ele></trkpt><trkpt lat="-27.001575" lon="-48.661347"><ele>15.862305</ele></trkpt><trkpt lat="-27.001575" lon="-48.661345"><ele>15.659729</ele></trkpt><trkpt lat="-27.001577" lon="-48.661343"><ele>15.177307</ele></trkpt><trkpt lat="-27.001579" lon="-48.661342"><ele>15.218689</ele></trkpt><trkpt lat="-27.00158" lon="-48.661342"><ele>15.233643</ele></trkpt><trkpt lat="-27.001579" lon="-48.661341"><ele>15.345215</ele></trkpt><trkpt lat="-27.001578" lon="-48.66134"><ele>15.696106</ele></trkpt><trkpt lat="-27.00158" lon="-48.66134"><ele>14.338318</ele></trkpt><trkpt lat="-27.001581" lon="-48.66134"><ele>14.365845</ele></trkpt><trkpt lat="-27.001581" lon="-48.66134"><ele>14.366943</ele></trkpt><trkpt lat="-27.001581" lon="-48.661339"><ele>14.353333</ele></trkpt><trkpt lat="-27.001581" lon="-48.661338"><ele>14.600281</ele></trkpt><trkpt lat="-27.001581" lon="-48.661338"><ele>14.600281</ele></trkpt><trkpt lat="-27.00158" lon="-48.661341"><ele>14.46344</ele></trkpt><trkpt lat="-27.00158" lon="-48.661344"><ele>14.615662</ele></trkpt><trkpt lat="-27.001582" lon="-48.661346"><ele>14.63208</ele></trkpt><trkpt lat="-27.001582" lon="-48.661346"><ele>14.94519</ele></trkpt><trkpt lat="-27.001583" lon="-48.661346"><ele>14.546265</ele></trkpt><trkpt lat="-27.001585" lon="-48.661346"><ele>14.434448</ele></trkpt><trkpt lat="-27.001585" lon="-48.661347"><ele>14.439819</ele></trkpt><trkpt lat="-27.001585" lon="-48.661348"><ele>14.692444</ele></trkpt><trkpt lat="-27.001584" lon="-48.661349"><ele>14.721619</ele></trkpt><trkpt lat="-27.001585" lon="-48.66135"><ele>14.373535</ele></trkpt><trkpt lat="-27.001586" lon="-48.661347"><ele>14.521423</ele></trkpt><trkpt lat="-27.001588" lon="-48.661345"><ele>14.238647</ele></trkpt><trkpt lat="-27.001591" lon="-48.661345"><ele>14.542114</ele></trkpt><trkpt lat="-27.001585" lon="-48.661337"><ele>14.299316</ele></trkpt><trkpt lat="-27.001585" lon="-48.661345"><ele>15.115051</ele></trkpt><trkpt lat="-27.001596" lon="-48.661369"><ele>16.217896</ele></trkpt><trkpt lat="-27.001607" lon="-48.661394"><ele>16.055054</ele></trkpt><trkpt lat="-27.001615" lon="-48.66142"><ele>15.885193</ele></trkpt><trkpt lat="-27.001622" lon="-48.661446"><ele>15.74585</ele></trkpt><trkpt lat="-27.001631" lon="-48.661472"><ele>15.858765</ele></trkpt><trkpt lat="-27.00164" lon="-48.661504"><ele>15.062256</ele></trkpt><trkpt lat="-27.001654" lon="-48.661539"><ele>15.389404</ele></trkpt><trkpt lat="-27.001662" lon="-48.661558"><ele>15.399658</ele></trkpt><trkpt lat="-27.001669" lon="-48.661572"><ele>14.820374</ele></trkpt><trkpt lat="-27.001676" lon="-48.661584"><ele>14.289001</ele></trkpt><trkpt lat="-27.001676" lon="-48.661585"><ele>14.235107</ele></trkpt><trkpt lat="-27.001674" lon="-48.661581"><ele>14.25238</ele></trkpt><trkpt lat="-27.001674" lon="-48.661581"><ele>14.25238</ele></trkpt><trkpt lat="-27.001675" lon="-48.661582"><ele>14.058289</ele></trkpt><trkpt lat="-27.001674" lon="-48.661586"><ele>13.541077</ele></trkpt><trkpt lat="-27.001675" lon="-48.661599"><ele>13.320496</ele></trkpt><trkpt lat="-27.001679" lon="-48.661621"><ele>13.321533</ele></trkpt><trkpt lat="-27.001685" lon="-48.661648"><ele>13.389648</ele></trkpt><trkpt lat="-27.001696" lon="-48.661678"><ele>13.505066</ele></trkpt><trkpt lat="-27.001706" lon="-48.661709"><ele>13.656921</ele></trkpt><trkpt lat="-27.001716" lon="-48.661742"><ele>13.672668</ele></trkpt><trkpt lat="-27.001724" lon="-48.661772"><ele>12.920959</ele></trkpt><trkpt lat="-27.00173" lon="-48.6618"><ele>12.480896</ele></trkpt><trkpt lat="-27.001736" lon="-48.661827"><ele>12.446045</ele></trkpt><trkpt lat="-27.001741" lon="-48.661855"><ele>12.559387</ele></trkpt><trkpt lat="-27.001745" lon="-48.661882"><ele>12.341125</ele></trkpt><trkpt lat="-27.001746" lon="-48.661906"><ele>12.052795</ele></trkpt><trkpt lat="-27.001749" lon="-48.661925"><ele>12.066101</ele></trkpt><trkpt lat="-27.001749" lon="-48.661925"><ele>12.066101</ele></trkpt><trkpt lat="-27.001752" lon="-48.66194"><ele>11.863007</ele></trkpt><trkpt lat="-27.001755" lon="-48.661962"><ele>11.952972</ele></trkpt><trkpt lat="-27.001757" lon="-48.661989"><ele>11.93689</ele></trkpt><trkpt lat="-27.001765" lon="-48.662019"><ele>9.936188</ele></trkpt><trkpt lat="-27.001775" lon="-48.662046"><ele>10.50119</ele></trkpt><trkpt lat="-27.001781" lon="-48.662069"><ele>10.746063</ele></trkpt><trkpt lat="-27.001789" lon="-48.662088"><ele>11.052216</ele></trkpt><trkpt lat="-27.001789" lon="-48.662088"><ele>11.052216</ele></trkpt><trkpt lat="-27.001801" lon="-48.662108"><ele>11.434235</ele></trkpt><trkpt lat="-27.001809" lon="-48.662132"><ele>10.736115</ele></trkpt><trkpt lat="-27.001815" lon="-48.66216"><ele>11.971039</ele></trkpt><trkpt lat="-27.001822" lon="-48.662192"><ele>11.84967</ele></trkpt><trkpt lat="-27.001831" lon="-48.662226"><ele>11.894775</ele></trkpt><trkpt lat="-27.001843" lon="-48.662259"><ele>11.822357</ele></trkpt><trkpt lat="-27.001852" lon="-48.662288"><ele>11.735779</ele></trkpt><trkpt lat="-27.00186" lon="-48.662315"><ele>11.761871</ele></trkpt><trkpt lat="-27.001866" lon="-48.662344"><ele>11.808777</ele></trkpt><trkpt lat="-27.001874" lon="-48.662372"><ele>12.245667</ele></trkpt><trkpt lat="-27.00188" lon="-48.662403"><ele>12.038696</ele></trkpt><trkpt lat="-27.001888" lon="-48.662436"><ele>12.096619</ele></trkpt><trkpt lat="-27.001895" lon="-48.66247"><ele>12.047852</ele></trkpt><trkpt lat="-27.001903" lon="-48.662504"><ele>11.700562</ele></trkpt><trkpt lat="-27.001911" lon="-48.662537"><ele>12.153931</ele></trkpt><trkpt lat="-27.001915" lon="-48.662568"><ele>11.589294</ele></trkpt><trkpt lat="-27.001926" lon="-48.662604"><ele>10.601379</ele></trkpt><trkpt lat="-27.001936" lon="-48.662633"><ele>11.767059</ele></trkpt><trkpt lat="-27.001947" lon="-48.662666"><ele>11.424835</ele></trkpt><trkpt lat="-27.001953" lon="-48.662701"><ele>11.203949</ele></trkpt><trkpt lat="-27.001962" lon="-48.662741"><ele>11.140106</ele></trkpt><trkpt lat="-27.001977" lon="-48.662771"><ele>10.826355</ele></trkpt><trkpt lat="-27.001986" lon="-48.662799"><ele>10.95694</ele></trkpt><trkpt lat="-27.001991" lon="-48.662827"><ele>10.773743</ele></trkpt><trkpt lat="-27.001994" lon="-48.662855"><ele>10.575104</ele></trkpt><trkpt lat="-27.002003" lon="-48.66288"><ele>11.315857</ele></trkpt><trkpt lat="-27.00201" lon="-48.662907"><ele>11.047089</ele></trkpt><trkpt lat="-27.002011" lon="-48.662929"><ele>10.403473</ele></trkpt><trkpt lat="-27.002013" lon="-48.662952"><ele>10.705627</ele></trkpt><trkpt lat="-27.002013" lon="-48.662952"><ele>10.705627</ele></trkpt><trkpt lat="-27.002014" lon="-48.662973"><ele>10.642426</ele></trkpt><trkpt lat="-27.002018" lon="-48.662997"><ele>10.854706</ele></trkpt><trkpt lat="-27.002022" lon="-48.663024"><ele>10.780945</ele></trkpt><trkpt lat="-27.002019" lon="-48.663046"><ele>10.624176</ele></trkpt><trkpt lat="-27.002019" lon="-48.663082"><ele>11.705688</ele></trkpt><trkpt lat="-27.002021" lon="-48.663116"><ele>12.127502</ele></trkpt><trkpt lat="-27.002024" lon="-48.663149"><ele>12.879883</ele></trkpt><trkpt lat="-27.002032" lon="-48.663183"><ele>13.210327</ele></trkpt><trkpt lat="-27.002042" lon="-48.663214"><ele>12.915039</ele></trkpt><trkpt lat="-27.002051" lon="-48.663243"><ele>12.793213</ele></trkpt><trkpt lat="-27.002063" lon="-48.663271"><ele>12.470764</ele></trkpt><trkpt lat="-27.002074" lon="-48.6633"><ele>12.288391</ele></trkpt><trkpt lat="-27.002082" lon="-48.663328"><ele>12.446533</ele></trkpt><trkpt lat="-27.002088" lon="-48.663357"><ele>12.388367</ele></trkpt><trkpt lat="-27.002096" lon="-48.663383"><ele>12.465881</ele></trkpt><trkpt lat="-27.002107" lon="-48.663407"><ele>12.110596</ele></trkpt><trkpt lat="-27.002117" lon="-48.663433"><ele>12.44281</ele></trkpt><trkpt lat="-27.002128" lon="-48.663462"><ele>12.104736</ele></trkpt><trkpt lat="-27.002142" lon="-48.66349"><ele>12.277161</ele></trkpt><trkpt lat="-27.002153" lon="-48.663521"><ele>12.343018</ele></trkpt><trkpt lat="-27.002163" lon="-48.663554"><ele>12.660522</ele></trkpt><trkpt lat="-27.002163" lon="-48.663554"><ele>12.660522</ele></trkpt><trkpt lat="-27.002176" lon="-48.663588"><ele>12.606812</ele></trkpt><trkpt lat="-27.002186" lon="-48.663618"><ele>12.28009</ele></trkpt><trkpt lat="-27.002195" lon="-48.663649"><ele>12.202026</ele></trkpt><trkpt lat="-27.002208" lon="-48.663684"><ele>13.219482</ele></trkpt><trkpt lat="-27.002223" lon="-48.663715"><ele>12.405945</ele></trkpt><trkpt lat="-27.002234" lon="-48.663749"><ele>12.557678</ele></trkpt><trkpt lat="-27.002242" lon="-48.663777"><ele>12.188293</ele></trkpt><trkpt lat="-27.002252" lon="-48.663808"><ele>12.469238</ele></trkpt><trkpt lat="-27.002261" lon="-48.663838"><ele>12.064575</ele></trkpt><trkpt lat="-27.002264" lon="-48.663867"><ele>12.512939</ele></trkpt><trkpt lat="-27.002268" lon="-48.663895"><ele>12.833801</ele></trkpt><trkpt lat="-27.002274" lon="-48.663922"><ele>12.519958</ele></trkpt><trkpt lat="-27.002279" lon="-48.663947"><ele>12.773743</ele></trkpt><trkpt lat="-27.002279" lon="-48.663947"><ele>12.773743</ele></trkpt><trkpt lat="-27.002284" lon="-48.663969"><ele>12.678406</ele></trkpt><trkpt lat="-27.002292" lon="-48.663995"><ele>12.871704</ele></trkpt><trkpt lat="-27.002298" lon="-48.664021"><ele>12.935791</ele></trkpt><trkpt lat="-27.002304" lon="-48.664035"><ele>13.370605</ele></trkpt><trkpt lat="-27.002306" lon="-48.664038"><ele>13.283386</ele></trkpt><trkpt lat="-27.002304" lon="-48.664038"><ele>12.902039</ele></trkpt><trkpt lat="-27.002304" lon="-48.664038"><ele>12.902039</ele></trkpt><trkpt lat="-27.002302" lon="-48.664036"><ele>12.889526</ele></trkpt><trkpt lat="-27.002302" lon="-48.664036"><ele>12.889526</ele></trkpt><trkpt lat="-27.0023" lon="-48.664036"><ele>12.931152</ele></trkpt><trkpt lat="-27.002302" lon="-48.664036"><ele>12.822388</ele></trkpt><trkpt lat="-27.002304" lon="-48.664039"><ele>13.039429</ele></trkpt><trkpt lat="-27.002307" lon="-48.664041"><ele>13.516541</ele></trkpt><trkpt lat="-27.002308" lon="-48.664043"><ele>13.711914</ele></trkpt><trkpt lat="-27.002306" lon="-48.664044"><ele>13.904968</ele></trkpt><trkpt lat="-27.002304" lon="-48.664043"><ele>13.859375</ele></trkpt><trkpt lat="-27.002304" lon="-48.664044"><ele>13.418091</ele></trkpt><trkpt lat="-27.002305" lon="-48.664048"><ele>13.270447</ele></trkpt><trkpt lat="-27.002305" lon="-48.664048"><ele>12.798706</ele></trkpt><trkpt lat="-27.002304" lon="-48.664048"><ele>12.63623</ele></trkpt><trkpt lat="-27.002307" lon="-48.664051"><ele>13.116577</ele></trkpt><trkpt lat="-27.002309" lon="-48.664054"><ele>13.358887</ele></trkpt><trkpt lat="-27.002311" lon="-48.664057"><ele>13.509094</ele></trkpt><trkpt lat="-27.002314" lon="-48.664057"><ele>13.586731</ele></trkpt><trkpt lat="-27.002314" lon="-48.664057"><ele>13.586731</ele></trkpt><trkpt lat="-27.002314" lon="-48.664058"><ele>13.462341</ele></trkpt><trkpt lat="-27.002311" lon="-48.664048"><ele>12.993347</ele></trkpt><trkpt lat="-27.002315" lon="-48.664049"><ele>13.293701</ele></trkpt><trkpt lat="-27.002311" lon="-48.664044"><ele>13.059021</ele></trkpt><trkpt lat="-27.002311" lon="-48.664065"><ele>13.750305</ele></trkpt><trkpt lat="-27.002323" lon="-48.664098"><ele>13.85968</ele></trkpt><trkpt lat="-27.002335" lon="-48.664127"><ele>14.358521</ele></trkpt><trkpt lat="-27.002345" lon="-48.664151"><ele>13.982239</ele></trkpt><trkpt lat="-27.002351" lon="-48.664171"><ele>13.871399</ele></trkpt><trkpt lat="-27.002353" lon="-48.664174"><ele>13.804321</ele></trkpt><trkpt lat="-27.002354" lon="-48.664174"><ele>13.804443</ele></trkpt><trkpt lat="-27.002354" lon="-48.66418"><ele>14.193542</ele></trkpt><trkpt lat="-27.002354" lon="-48.664181"><ele>14.216064</ele></trkpt><trkpt lat="-27.002354" lon="-48.66418"><ele>14.441711</ele></trkpt><trkpt lat="-27.00235" lon="-48.664174"><ele>14.618286</ele></trkpt><trkpt lat="-27.002344" lon="-48.664171"><ele>14.811646</ele></trkpt><trkpt lat="-27.002341" lon="-48.664173"><ele>14.799072</ele></trkpt><trkpt lat="-27.002342" lon="-48.664174"><ele>14.846313</ele></trkpt><trkpt lat="-27.002341" lon="-48.66417"><ele>14.828308</ele></trkpt><trkpt lat="-27.002339" lon="-48.664161"><ele>14.780457</ele></trkpt><trkpt lat="-27.002336" lon="-48.664151"><ele>14.492859</ele></trkpt><trkpt lat="-27.002331" lon="-48.664143"><ele>14.37616</ele></trkpt><trkpt lat="-27.00233" lon="-48.664139"><ele>14.401367</ele></trkpt><trkpt lat="-27.002331" lon="-48.664136"><ele>14.400024</ele></trkpt><trkpt lat="-27.002331" lon="-48.664136"><ele>14.400391</ele></trkpt><trkpt lat="-27.002331" lon="-48.664136"><ele>14.40094</ele></trkpt><trkpt lat="-27.002331" lon="-48.664136"><ele>14.401733</ele></trkpt><trkpt lat="-27.002331" lon="-48.664136"><ele>14.401733</ele></trkpt><trkpt lat="-27.002331" lon="-48.664136"><ele>14.401062</ele></trkpt><trkpt lat="-27.002331" lon="-48.664136"><ele>14.401062</ele></trkpt><trkpt lat="-27.002331" lon="-48.664136"><ele>14.401489</ele></trkpt><trkpt lat="-27.002331" lon="-48.664136"><ele>14.401001</ele></trkpt><trkpt lat="-27.002331" lon="-48.664136"><ele>14.401855</ele></trkpt><trkpt lat="-27.002331" lon="-48.664136"><ele>14.40094</ele></trkpt><trkpt lat="-27.002331" lon="-48.664136"><ele>14.401672</ele></trkpt><trkpt lat="-27.002331" lon="-48.664136"><ele>14.404358</ele></trkpt><trkpt lat="-27.00233" lon="-48.664134"><ele>14.164917</ele></trkpt><trkpt lat="-27.00233" lon="-48.664134"><ele>14.145325</ele></trkpt><trkpt lat="-27.002331" lon="-48.664134"><ele>14.087463</ele></trkpt><trkpt lat="-27.002331" lon="-48.664135"><ele>14.087891</ele></trkpt><trkpt lat="-27.002332" lon="-48.664135"><ele>14.088684</ele></trkpt><trkpt lat="-27.002332" lon="-48.664135"><ele>14.096497</ele></trkpt><trkpt lat="-27.002332" lon="-48.664135"><ele>14.096497</ele></trkpt><trkpt lat="-27.002332" lon="-48.664136"><ele>13.966309</ele></trkpt><trkpt lat="-27.002333" lon="-48.664138"><ele>13.946716</ele></trkpt><trkpt lat="-27.002334" lon="-48.664138"><ele>13.946045</ele></trkpt><trkpt lat="-27.002334" lon="-48.664138"><ele>13.946045</ele></trkpt><trkpt lat="-27.002334" lon="-48.664138"><ele>13.946045</ele></trkpt><trkpt lat="-27.002334" lon="-48.664138"><ele>13.946655</ele></trkpt><trkpt lat="-27.002334" lon="-48.664138"><ele>13.946655</ele></trkpt><trkpt lat="-27.002334" lon="-48.664138"><ele>13.94635</ele></trkpt><trkpt lat="-27.002334" lon="-48.664138"><ele>13.945984</ele></trkpt><trkpt lat="-27.002335" lon="-48.66414"><ele>13.864258</ele></trkpt><trkpt lat="-27.002341" lon="-48.664141"><ele>13.984741</ele></trkpt><trkpt lat="-27.002342" lon="-48.664142"><ele>14.03418</ele></trkpt><trkpt lat="-27.002342" lon="-48.664142"><ele>14.03418</ele></trkpt><trkpt lat="-27.002342" lon="-48.664142"><ele>14.034363</ele></trkpt><trkpt lat="-27.002342" lon="-48.664142"><ele>14.031189</ele></trkpt><trkpt lat="-27.002342" lon="-48.664142"><ele>14.025635</ele></trkpt><trkpt lat="-27.002342" lon="-48.664142"><ele>14.025635</ele></trkpt><trkpt lat="-27.002342" lon="-48.664142"><ele>14.027283</ele></trkpt><trkpt lat="-27.002342" lon="-48.664142"><ele>13.94812</ele></trkpt><trkpt lat="-27.002342" lon="-48.664142"><ele>13.94812</ele></trkpt><trkpt lat="-27.002342" lon="-48.664142"><ele>14.027405</ele></trkpt><trkpt lat="-27.002342" lon="-48.664142"><ele>14.028442</ele></trkpt><trkpt lat="-27.002342" lon="-48.664142"><ele>14.028625</ele></trkpt><trkpt lat="-27.002342" lon="-48.664142"><ele>14.026245</ele></trkpt><trkpt lat="-27.002342" lon="-48.664142"><ele>14.026733</ele></trkpt><trkpt lat="-27.002342" lon="-48.664142"><ele>14.025208</ele></trkpt><trkpt lat="-27.002342" lon="-48.664142"><ele>14.025208</ele></trkpt><trkpt lat="-27.002342" lon="-48.664142"><ele>14.02594</ele></trkpt><trkpt lat="-27.002342" lon="-48.664142"><ele>14.026367</ele></trkpt><trkpt lat="-27.002342" lon="-48.664142"><ele>14.024292</ele></trkpt><trkpt lat="-27.002342" lon="-48.664142"><ele>14.021851</ele></trkpt><trkpt lat="-27.002342" lon="-48.664142"><ele>14.017395</ele></trkpt><trkpt lat="-27.002342" lon="-48.664142"><ele>14.017273</ele></trkpt><trkpt lat="-27.002342" lon="-48.664142"><ele>14.014282</ele></trkpt><trkpt lat="-27.002342" lon="-48.664142"><ele>14.013855</ele></trkpt><trkpt lat="-27.002342" lon="-48.664142"><ele>14.011353</ele></trkpt><trkpt lat="-27.002344" lon="-48.664142"><ele>13.693665</ele></trkpt><trkpt lat="-27.002344" lon="-48.664142"><ele>13.693665</ele></trkpt><trkpt lat="-27.002344" lon="-48.664142"><ele>13.685852</ele></trkpt><trkpt lat="-27.002345" lon="-48.664142"><ele>13.682495</ele></trkpt><trkpt lat="-27.002345" lon="-48.664142"><ele>13.679871</ele></trkpt><trkpt lat="-27.002345" lon="-48.664141"><ele>13.680603</ele></trkpt><trkpt lat="-27.002345" lon="-48.664141"><ele>13.682983</ele></trkpt><trkpt lat="-27.002345" lon="-48.664141"><ele>13.682983</ele></trkpt><trkpt lat="-27.002345" lon="-48.664141"><ele>13.684509</ele></trkpt><trkpt lat="-27.002345" lon="-48.664142"><ele>13.683594</ele></trkpt><trkpt lat="-27.002345" lon="-48.664141"><ele>13.680786</ele></trkpt><trkpt lat="-27.002345" lon="-48.664141"><ele>13.679688</ele></trkpt><trkpt lat="-27.002345" lon="-48.664141"><ele>13.677551</ele></trkpt><trkpt lat="-27.002345" lon="-48.664141"><ele>13.674622</ele></trkpt><trkpt lat="-27.002345" lon="-48.664141"><ele>13.671875</ele></trkpt><trkpt lat="-27.002345" lon="-48.664141"><ele>13.669556</ele></trkpt><trkpt lat="-27.002345" lon="-48.664141"><ele>13.669556</ele></trkpt><trkpt lat="-27.002345" lon="-48.664141"><ele>13.6698</ele></trkpt><trkpt lat="-27.002345" lon="-48.664141"><ele>13.667664</ele></trkpt><trkpt lat="-27.002345" lon="-48.664141"><ele>13.665588</ele></trkpt><trkpt lat="-27.002345" lon="-48.664141"><ele>13.663269</ele></trkpt><trkpt lat="-27.002346" lon="-48.664141"><ele>13.686462</ele></trkpt><trkpt lat="-27.002346" lon="-48.664141"><ele>13.686096</ele></trkpt><trkpt lat="-27.002346" lon="-48.664141"><ele>13.686096</ele></trkpt><trkpt lat="-27.002346" lon="-48.664141"><ele>13.68457</ele></trkpt><trkpt lat="-27.002346" lon="-48.664141"><ele>13.682861</ele></trkpt><trkpt lat="-27.002346" lon="-48.664141"><ele>13.679199</ele></trkpt><trkpt lat="-27.002346" lon="-48.664141"><ele>13.678772</ele></trkpt><trkpt lat="-27.002346" lon="-48.664141"><ele>13.675903</ele></trkpt><trkpt lat="-27.002346" lon="-48.664141"><ele>13.675903</ele></trkpt><trkpt lat="-27.002346" lon="-48.664141"><ele>13.674683</ele></trkpt><trkpt lat="-27.002347" lon="-48.664139"><ele>13.755859</ele></trkpt><trkpt lat="-27.002347" lon="-48.664138"><ele>13.755066</ele></trkpt><trkpt lat="-27.002347" lon="-48.664138"><ele>13.755798</ele></trkpt><trkpt lat="-27.002347" lon="-48.664138"><ele>13.755798</ele></trkpt><trkpt lat="-27.002347" lon="-48.664138"><ele>13.752808</ele></trkpt><trkpt lat="-27.002347" lon="-48.664138"><ele>13.752075</ele></trkpt><trkpt lat="-27.002347" lon="-48.664138"><ele>13.750305</ele></trkpt><trkpt lat="-27.002347" lon="-48.664138"><ele>13.748352</ele></trkpt><trkpt lat="-27.002347" lon="-48.664138"><ele>13.748596</ele></trkpt></trkseg></trk></gpx>