<?xml version="1.0" encoding="UTF-8"?>
<gpx xmlns="http://www.topografix.com/GPX/1/1" version="1.1" creator="@dwayneparton/geojson-to-gpx"><wpt lat="-27.00759" lon="-48.660946"><ele>15.245422</ele><name>2 faixas</name></wpt><wpt lat="-27.007068" lon="-48.659357"><name>22</name></wpt><wpt lat="-27.006723" lon="-48.659796"><ele>18.959167</ele><name>40km/h</name></wpt><wpt lat="-27.00589" lon="-48.658495"><ele>17.197021</ele><name>150</name></wpt><wpt lat="-27.007557" lon="-48.660775"><ele>13.546143</ele><name>153</name></wpt><wpt lat="-27.00195" lon="-48.652575"><ele>13.650635</ele><name>160</name></wpt><wpt lat="-27.007579" lon="-48.660972"><ele>13.841492</ele><name>257</name></wpt><wpt lat="-27.005885" lon="-48.658521"><ele>16.4328</ele><name>274</name></wpt><wpt lat="-27.001896" lon="-48.652541"><ele>17.404602</ele><name>276</name></wpt><wpt lat="-27.007579" lon="-48.660973"><ele>10.823486</ele><name>725</name></wpt><wpt lat="-27.001896" lon="-48.652541"><ele>17.398315</ele><name>999</name></wpt><wpt lat="-27.00589" lon="-48.658525"><ele>16.851257</ele><name>1012</name></wpt><wpt lat="-27.001037" lon="-48.651231"><ele>14.705322</ele><name>A ciclo é completamente reta.</name></wpt><wpt lat="-27.001036" lon="-48.651232"><ele>14.681702</ele><name>A pintura está boa, mas FALHA em ALGUNS pontos</name></wpt><wpt lat="-27.007593" lon="-48.660929"><ele>16.837769</ele><name>Apenas faixas vermelhas nas bordas, com travessias pintadas nos cruzamentos</name></wpt><wpt lat="-27.001896" lon="-48.65254"><ele>17.428528</ele><name>Área de amortecimento da ciclo (cm)</name></wpt><wpt lat="-27.00754" lon="-48.660895"><name>Área de amortecimento da ciclo (cm)</name></wpt><wpt lat="-27.007563" lon="-48.660755"><ele>-25.973938</ele><name>Área transitável da ciclo (cm)</name></wpt><wpt lat="-27.005893" lon="-48.658506"><ele>17.776855</ele><name>Área transitável da ciclo (cm)</name></wpt><wpt lat="-27.001949" lon="-48.652591"><ele>6.876465</ele><name>Área transitável da ciclo (cm)</name></wpt><wpt lat="-27.007594" lon="-48.660934"><ele>16.163879</ele><name>Asfalto</name></wpt><wpt lat="-27.007619" lon="-48.660964"><ele>16.794495</ele><name>Bidirecional</name></wpt><wpt lat="-27.007589" lon="-48.66098"><ele>18.020325</ele><name>Bueiro</name></wpt><wpt lat="-27.00754" lon="-48.660921"><ele>16.220947</ele><name>Bueiro</name></wpt><wpt lat="-27.007127" lon="-48.66032"><ele>18.111206</ele><name>Bueiro</name></wpt><wpt lat="-27.007057" lon="-48.66023"><ele>18.326599</ele><name>Bueiro</name></wpt><wpt lat="-27.00632" lon="-48.659212"><ele>17.933411</ele><name>Bueiro</name></wpt><wpt lat="-27.005976" lon="-48.658662"><ele>16.156494</ele><name>Bueiro</name></wpt><wpt lat="-27.005902" lon="-48.658558"><ele>15.564148</ele><name>Bueiro</name></wpt><wpt lat="-27.0058" lon="-48.658428"><ele>14.75824</ele><name>Bueiro</name></wpt><wpt lat="-27.005564" lon="-48.658075"><ele>13.932434</ele><name>Bueiro</name></wpt><wpt lat="-27.00545" lon="-48.65791"><ele>15.487915</ele><name>Bueiro</name></wpt><wpt lat="-27.005351" lon="-48.657777"><ele>15.215576</ele><name>Bueiro</name></wpt><wpt lat="-27.003619" lon="-48.655141"><ele>16.049194</ele><name>Bueiro</name></wpt><wpt lat="-27.003206" lon="-48.654499"><ele>16.188293</ele><name>Bueiro</name></wpt><wpt lat="-27.002474" lon="-48.653411"><ele>13.66449</ele><name>Bueiro</name></wpt><wpt lat="-27.002383" lon="-48.653289"><ele>13.903931</ele><name>Bueiro</name></wpt><wpt lat="-27.002306" lon="-48.653168"><ele>13.626282</ele><name>Bueiro</name></wpt><wpt lat="-27.002206" lon="-48.653024"><ele>15.018921</ele><name>Bueiro</name></wpt><wpt lat="-27.002057" lon="-48.652782"><ele>16.097778</ele><name>Bueiro</name></wpt><wpt lat="-27.001881" lon="-48.652532"><ele>15.798279</ele><name>Bueiro</name></wpt><wpt lat="-27.001643" lon="-48.652188"><ele>15.023071</ele><name>Bueiro</name></wpt><wpt lat="-27.001524" lon="-48.65201"><ele>14.252808</ele><name>Bueiro</name></wpt><wpt lat="-27.001392" lon="-48.651823"><ele>13.074463</ele><name>Bueiro</name></wpt><wpt lat="-27.001026" lon="-48.651203"><ele>13.385254</ele><name>Bueiro</name></wpt><wpt lat="-27.001026" lon="-48.651202"><ele>13.357056</ele><name>Bueiro</name></wpt><wpt lat="-27.007013" lon="-48.66017"><ele>18.648621</ele><name>Buraco</name></wpt><wpt lat="-27.006661" lon="-48.659706"><ele>18.268738</ele><name>Buraco</name></wpt><wpt lat="-27.005984" lon="-48.658681"><ele>15.862488</ele><name>Buraco</name></wpt><wpt lat="-27.005564" lon="-48.658075"><ele>13.932434</ele><name>Buraco</name></wpt><wpt lat="-27.00545" lon="-48.65791"><ele>15.487915</ele><name>Buraco</name></wpt><wpt lat="-27.00522" lon="-48.65757"><ele>15.586914</ele><name>Buraco</name></wpt><wpt lat="-27.002198" lon="-48.653007"><ele>15.294373</ele><name>Buraco</name></wpt><wpt lat="-27.001643" lon="-48.652188"><ele>15.023071</ele><name>Buraco</name></wpt><wpt lat="-27.007612" lon="-48.66096"><ele>17.575378</ele><name>Ciclofaixa</name></wpt><wpt lat="-27.006486" lon="-48.659464"><ele>18.645142</ele><name>Desnível</name></wpt><wpt lat="-27.005232" lon="-48.657591"><ele>15.757751</ele><name>Desnível</name></wpt><wpt lat="-27.002965" lon="-48.65412"><ele>14.040161</ele><name>Desnível</name></wpt><wpt lat="-27.007577" lon="-48.660946"><ele>16.827393</ele><name>Em bordo de Via de Mão Dupla</name></wpt><wpt lat="-27.001038" lon="-48.651231"><ele>14.150757</ele><name>Estacionamento dedicado de um lado, segregado da circulação</name></wpt><wpt lat="-27.007579" lon="-48.660972"><ele>13.766602</ele><name>Faixa de carros logo ao lado da ciclo (cm)</name></wpt><wpt lat="-27.005884" lon="-48.658518"><ele>16.511902</ele><name>Faixa de carros logo ao lado da ciclo (cm)</name></wpt><wpt lat="-27.001896" lon="-48.652541"><ele>17.405518</ele><name>Faixa de carros logo ao lado da ciclo (cm)</name></wpt><wpt lat="-27.007596" lon="-48.66095"><ele>18.922424</ele><name>Foto</name></wpt><wpt lat="-27.007589" lon="-48.660982"><ele>18.973755</ele><name>Foto</name></wpt><wpt lat="-27.003625" lon="-48.655146"><ele>16.733826</ele><name>Foto</name></wpt><wpt lat="-27.003312" lon="-48.654648"><ele>15.463074</ele><name>Foto</name></wpt><wpt lat="-27.002281" lon="-48.653118"><ele>15.591919</ele><name>Foto</name></wpt><wpt lat="-27.00632" lon="-48.659212"><ele>17.933411</ele><name>Grade alinhada ao pneu</name></wpt><wpt lat="-27.001514" lon="-48.651994"><ele>14.177063</ele><name>Grade alinhada ao pneu</name></wpt><wpt lat="-27.001035" lon="-48.651232"><ele>14.672974</ele><name>Iluminação geral na via do outro lado da infraestrutura</name></wpt><wpt lat="-27.00493" lon="-48.65711"><ele>15.319092</ele><name>Lombadas físicas</name></wpt><wpt lat="-27.007603" lon="-48.660963"><ele>16.932373</ele><name>Mão Dupla</name></wpt><wpt lat="-27.007621" lon="-48.66097"><ele>15.659485</ele><name>No bordo esquerdo de Via de Mão Única</name></wpt><wpt lat="-27.001036" lon="-48.651232"><ele>14.675476</ele><name>Pequenas imperfeições, como fissuras</name></wpt><wpt lat="-27.007298" lon="-48.660581"><name>Em cruzamento MÁ condição</name></wpt><wpt lat="-27.006973" lon="-48.660132"><name>Em cruzamento MÁ condição</name></wpt><wpt lat="-27.006678" lon="-48.659732"><name>Em cruzamento MÁ condição</name></wpt><wpt lat="-27.006341" lon="-48.659287"><name>Em cruzamento MÁ condição</name></wpt><wpt lat="-27.004976" lon="-48.657266"><name>Em cruzamento MÁ condição</name></wpt><wpt lat="-27.00417" lon="-48.656044"><name>Em cruzamento MÁ condição</name></wpt><wpt lat="-27.003501" lon="-48.655038"><name>Em cruzamento MÁ condição</name></wpt><wpt lat="-27.002281" lon="-48.653216"><name>Em cruzamento MÁ condição</name></wpt><wpt lat="-27.003289" lon="-48.654634"><ele>15.220398</ele><name>Ponto de embarque de ônibus interrompe a ciclo</name></wpt><wpt lat="-27.001896" lon="-48.65254"><ele>17.407227</ele><name>R3m0v3r Largura 🗑️</name></wpt><wpt lat="-27.007582" lon="-48.660953"><ele>17.210083</ele><name>R3m0v3r Localização 🗑️</name></wpt><wpt lat="-27.001038" lon="-48.651231"><ele>14.14325</ele><name>SE CICLOFAIXA: para invadir a ciclo parte do automóvel passa obrigatoriamente por cima de segregadores</name></wpt><wpt lat="-27.001037" lon="-48.651231"><ele>14.170959</ele><name>Segregadores NÃO DIFICULTAM o acesso de ciclistas</name></wpt><wpt lat="-27.001036" lon="-48.651231"><ele>14.707275</ele><name>Sombras em alguns trechos, SEM mudas novas</name></wpt><wpt lat="-27.007591" lon="-48.66093"><ele>16.429932</ele><name>Tachões</name></wpt><wpt lat="-27.007579" lon="-48.660973"><ele>10.823486</ele><name>Total da via (incluindo a ciclo) (cm)</name></wpt><wpt lat="-27.00589" lon="-48.658525"><ele>16.851257</ele><name>Total da via (incluindo a ciclo) (cm)</name></wpt><wpt lat="-27.001896" lon="-48.652541"><ele>17.398315</ele><name>Total da via (incluindo a ciclo) (cm)</name></wpt><wpt lat="-27.006592" lon="-48.659598"><ele>17.690125</ele><name>Travessia de pedestre em nível (lombofaixa)</name></wpt><wpt lat="-27.00351" lon="-48.654966"><ele>16.120911</ele><name>Travessia de pedestre em nível (lombofaixa)</name></wpt><wpt lat="-27.001881" lon="-48.652508"><ele>15.736938</ele><name>Travessia de pedestre em nível (lombofaixa)</name></wpt><trk><name>Ciclofaixa R. Marmeleiro - Cb</name><trkseg><trkpt lat="-27.0076" lon="-48.660837"><ele>-20.828949</ele></trkpt><trkpt lat="-27.007587" lon="-48.660817"><ele>-18.511505</ele></trkpt><trkpt lat="-27.007576" lon="-48.660866"><ele>-12.833038</ele></trkpt><trkpt lat="-27.00758" lon="-48.660878"><ele>2.5578</ele></trkpt><trkpt lat="-27.007571" lon="-48.660884"><ele>5.493317</ele></trkpt><trkpt lat="-27.007571" lon="-48.660944"><ele>13.993286</ele></trkpt><trkpt lat="-27.00757" lon="-48.660946"><ele>15.360107</ele></trkpt><trkpt lat="-27.007576" lon="-48.660942"><ele>17.307129</ele></trkpt><trkpt lat="-27.007573" lon="-48.660941"><ele>18.065002</ele></trkpt><trkpt lat="-27.007569" lon="-48.660935"><ele>17.307068</ele></trkpt><trkpt lat="-27.007572" lon="-48.660939"><ele>19.161987</ele></trkpt><trkpt lat="-27.007587" lon="-48.660949"><ele>20.072937</ele></trkpt><trkpt lat="-27.007591" lon="-48.660952"><ele>19.792725</ele></trkpt><trkpt lat="-27.007589" lon="-48.660954"><ele>19.791687</ele></trkpt><trkpt lat="-27.00759" lon="-48.660956"><ele>19.273682</ele></trkpt><trkpt lat="-27.007593" lon="-48.660953"><ele>19.254211</ele></trkpt><trkpt lat="-27.007596" lon="-48.66095"><ele>18.922424</ele></trkpt><trkpt lat="-27.007596" lon="-48.66095"><ele>18.922424</ele></trkpt><trkpt lat="-27.007597" lon="-48.660949"><ele>19.03595</ele></trkpt><trkpt lat="-27.007594" lon="-48.66095"><ele>19.007019</ele></trkpt><trkpt lat="-27.007593" lon="-48.660948"><ele>18.248779</ele></trkpt><trkpt lat="-27.007596" lon="-48.660942"><ele>17.366394</ele></trkpt><trkpt lat="-27.007602" lon="-48.660938"><ele>17.539795</ele></trkpt><trkpt lat="-27.007608" lon="-48.660948"><ele>18.522217</ele></trkpt><trkpt lat="-27.007608" lon="-48.660953"><ele>18.404663</ele></trkpt><trkpt lat="-27.007609" lon="-48.660955"><ele>18.008606</ele></trkpt><trkpt lat="-27.007611" lon="-48.660956"><ele>18.078186</ele></trkpt><trkpt lat="-27.007611" lon="-48.66096"><ele>17.965637</ele></trkpt><trkpt lat="-27.007612" lon="-48.66096"><ele>17.575378</ele></trkpt><trkpt lat="-27.007612" lon="-48.66096"><ele>17.575378</ele></trkpt><trkpt lat="-27.007615" lon="-48.660963"><ele>17.056458</ele></trkpt><trkpt lat="-27.007619" lon="-48.660964"><ele>16.794495</ele></trkpt><trkpt lat="-27.007619" lon="-48.660964"><ele>16.794495</ele></trkpt><trkpt lat="-27.007622" lon="-48.660964"><ele>16.502869</ele></trkpt><trkpt lat="-27.007624" lon="-48.660965"><ele>16.231323</ele></trkpt><trkpt lat="-27.007624" lon="-48.660967"><ele>16.07428</ele></trkpt><trkpt lat="-27.007625" lon="-48.660968"><ele>16.024353</ele></trkpt><trkpt lat="-27.007626" lon="-48.66097"><ele>15.681458</ele></trkpt><trkpt lat="-27.007626" lon="-48.660971"><ele>15.477661</ele></trkpt><trkpt lat="-27.007626" lon="-48.660973"><ele>15.183105</ele></trkpt><trkpt lat="-27.007625" lon="-48.660972"><ele>15.149475</ele></trkpt><trkpt lat="-27.007623" lon="-48.660971"><ele>15.220825</ele></trkpt><trkpt lat="-27.007623" lon="-48.660971"><ele>15.441895</ele></trkpt><trkpt lat="-27.007622" lon="-48.660971"><ele>15.57428</ele></trkpt><trkpt lat="-27.007622" lon="-48.66097"><ele>15.630737</ele></trkpt><trkpt lat="-27.007622" lon="-48.66097"><ele>15.697937</ele></trkpt><trkpt lat="-27.007622" lon="-48.66097"><ele>15.764343</ele></trkpt><trkpt lat="-27.007621" lon="-48.66097"><ele>15.767639</ele></trkpt><trkpt lat="-27.007621" lon="-48.66097"><ele>15.659485</ele></trkpt><trkpt lat="-27.007621" lon="-48.66097"><ele>15.659485</ele></trkpt><trkpt lat="-27.007621" lon="-48.66097"><ele>15.276001</ele></trkpt><trkpt lat="-27.007621" lon="-48.66097"><ele>15.385071</ele></trkpt><trkpt lat="-27.00762" lon="-48.660967"><ele>15.443909</ele></trkpt><trkpt lat="-27.007619" lon="-48.660967"><ele>16.036133</ele></trkpt><trkpt lat="-27.007621" lon="-48.660972"><ele>16.153564</ele></trkpt><trkpt lat="-27.007622" lon="-48.660972"><ele>15.728882</ele></trkpt><trkpt lat="-27.007618" lon="-48.660971"><ele>15.472046</ele></trkpt><trkpt lat="-27.007616" lon="-48.660979"><ele>16.103088</ele></trkpt><trkpt lat="-27.007612" lon="-48.660982"><ele>16.1828</ele></trkpt><trkpt lat="-27.007609" lon="-48.660981"><ele>16.270508</ele></trkpt><trkpt lat="-27.007608" lon="-48.660977"><ele>16.97699</ele></trkpt><trkpt lat="-27.007603" lon="-48.660963"><ele>16.932373</ele></trkpt><trkpt lat="-27.007603" lon="-48.660963"><ele>16.932373</ele></trkpt><trkpt lat="-27.0076" lon="-48.66096"><ele>16.640503</ele></trkpt><trkpt lat="-27.007595" lon="-48.660959"><ele>16.846008</ele></trkpt><trkpt lat="-27.007592" lon="-48.66096"><ele>16.820801</ele></trkpt><trkpt lat="-27.007591" lon="-48.66096"><ele>16.627869</ele></trkpt><trkpt lat="-27.007589" lon="-48.66096"><ele>16.573853</ele></trkpt><trkpt lat="-27.007588" lon="-48.660961"><ele>16.426392</ele></trkpt><trkpt lat="-27.007588" lon="-48.660962"><ele>16.661438</ele></trkpt><trkpt lat="-27.007587" lon="-48.660963"><ele>16.799133</ele></trkpt><trkpt lat="-27.007585" lon="-48.660964"><ele>16.922668</ele></trkpt><trkpt lat="-27.007585" lon="-48.660965"><ele>16.916809</ele></trkpt><trkpt lat="-27.007585" lon="-48.660964"><ele>17.097473</ele></trkpt><trkpt lat="-27.007584" lon="-48.660964"><ele>17.287048</ele></trkpt><trkpt lat="-27.007587" lon="-48.660967"><ele>17.45813</ele></trkpt><trkpt lat="-27.007587" lon="-48.660967"><ele>17.45813</ele></trkpt><trkpt lat="-27.007588" lon="-48.660967"><ele>17.755249</ele></trkpt><trkpt lat="-27.007584" lon="-48.660958"><ele>17.346863</ele></trkpt><trkpt lat="-27.007582" lon="-48.660953"><ele>17.210083</ele></trkpt><trkpt lat="-27.007582" lon="-48.660953"><ele>17.210083</ele></trkpt><trkpt lat="-27.007581" lon="-48.660951"><ele>17.385559</ele></trkpt><trkpt lat="-27.007578" lon="-48.660952"><ele>17.479309</ele></trkpt><trkpt lat="-27.007576" lon="-48.660953"><ele>17.53717</ele></trkpt><trkpt lat="-27.007573" lon="-48.660951"><ele>17.138062</ele></trkpt><trkpt lat="-27.007575" lon="-48.660948"><ele>16.852905</ele></trkpt><trkpt lat="-27.007577" lon="-48.660946"><ele>16.827393</ele></trkpt><trkpt lat="-27.007577" lon="-48.660946"><ele>16.827393</ele></trkpt><trkpt lat="-27.00758" lon="-48.660943"><ele>16.816895</ele></trkpt><trkpt lat="-27.007582" lon="-48.66094"><ele>16.995117</ele></trkpt><trkpt lat="-27.007583" lon="-48.66094"><ele>17.045654</ele></trkpt><trkpt lat="-27.007587" lon="-48.660937"><ele>17.021606</ele></trkpt><trkpt lat="-27.007587" lon="-48.660937"><ele>17.021606</ele></trkpt><trkpt lat="-27.00759" lon="-48.660932"><ele>16.870483</ele></trkpt><trkpt lat="-27.007592" lon="-48.66093"><ele>16.874939</ele></trkpt><trkpt lat="-27.007592" lon="-48.66093"><ele>16.913086</ele></trkpt><trkpt lat="-27.007592" lon="-48.66093"><ele>16.905823</ele></trkpt><trkpt lat="-27.007593" lon="-48.660929"><ele>16.837769</ele></trkpt><trkpt lat="-27.007593" lon="-48.660929"><ele>16.837769</ele></trkpt><trkpt lat="-27.007593" lon="-48.660929"><ele>16.763916</ele></trkpt><trkpt lat="-27.007592" lon="-48.660929"><ele>16.657471</ele></trkpt><trkpt lat="-27.007592" lon="-48.66093"><ele>16.559631</ele></trkpt><trkpt lat="-27.007591" lon="-48.66093"><ele>16.429932</ele></trkpt><trkpt lat="-27.007591" lon="-48.66093"><ele>16.429932</ele></trkpt><trkpt lat="-27.007591" lon="-48.660931"><ele>16.342163</ele></trkpt><trkpt lat="-27.007592" lon="-48.660932"><ele>16.166687</ele></trkpt><trkpt lat="-27.007594" lon="-48.660934"><ele>16.163879</ele></trkpt><trkpt lat="-27.007594" lon="-48.660934"><ele>16.163879</ele></trkpt><trkpt lat="-27.007595" lon="-48.660935"><ele>15.95697</ele></trkpt><trkpt lat="-27.007593" lon="-48.660939"><ele>15.873596</ele></trkpt><trkpt lat="-27.007591" lon="-48.660942"><ele>15.562378</ele></trkpt><trkpt lat="-27.00759" lon="-48.660946"><ele>15.245422</ele></trkpt><trkpt lat="-27.00759" lon="-48.660946"><ele>15.245422</ele></trkpt><trkpt lat="-27.007589" lon="-48.660948"><ele>14.482971</ele></trkpt><trkpt lat="-27.007588" lon="-48.660949"><ele>13.99707</ele></trkpt><trkpt lat="-27.007589" lon="-48.66095"><ele>13.776733</ele></trkpt><trkpt lat="-27.007589" lon="-48.66095"><ele>13.73291</ele></trkpt><trkpt lat="-27.007588" lon="-48.660949"><ele>13.213379</ele></trkpt><trkpt lat="-27.007587" lon="-48.660951"><ele>13.488831</ele></trkpt><trkpt lat="-27.007586" lon="-48.660953"><ele>13.391113</ele></trkpt><trkpt lat="-27.007586" lon="-48.660952"><ele>13.449646</ele></trkpt><trkpt lat="-27.007587" lon="-48.660952"><ele>13.625671</ele></trkpt><trkpt lat="-27.007588" lon="-48.660951"><ele>13.596497</ele></trkpt><trkpt lat="-27.007587" lon="-48.660952"><ele>13.675903</ele></trkpt><trkpt lat="-27.007587" lon="-48.660952"><ele>13.729553</ele></trkpt><trkpt lat="-27.007588" lon="-48.660953"><ele>13.86499</ele></trkpt><trkpt lat="-27.007588" lon="-48.660953"><ele>13.978394</ele></trkpt><trkpt lat="-27.007589" lon="-48.660954"><ele>14.031372</ele></trkpt><trkpt lat="-27.007588" lon="-48.660955"><ele>14.196777</ele></trkpt><trkpt lat="-27.007586" lon="-48.660953"><ele>13.990967</ele></trkpt><trkpt lat="-27.007586" lon="-48.660952"><ele>13.917175</ele></trkpt><trkpt lat="-27.007585" lon="-48.660951"><ele>13.262939</ele></trkpt><trkpt lat="-27.007582" lon="-48.660946"><ele>13.723022</ele></trkpt><trkpt lat="-27.00757" lon="-48.660945"><ele>13.75116</ele></trkpt><trkpt lat="-27.00756" lon="-48.660946"><ele>14.657715</ele></trkpt><trkpt lat="-27.007549" lon="-48.660942"><ele>13.94574</ele></trkpt><trkpt lat="-27.00754" lon="-48.660931"><ele>14.278442</ele></trkpt><trkpt lat="-27.007539" lon="-48.660922"><ele>14.186157</ele></trkpt><trkpt lat="-27.007541" lon="-48.660915"><ele>14.586182</ele></trkpt><trkpt lat="-27.007545" lon="-48.660914"><ele>14.717773</ele></trkpt><trkpt lat="-27.007547" lon="-48.660914"><ele>14.73468</ele></trkpt><trkpt lat="-27.007548" lon="-48.660914"><ele>14.735046</ele></trkpt><trkpt lat="-27.007548" lon="-48.660914"><ele>14.736938</ele></trkpt><trkpt lat="-27.007552" lon="-48.660915"><ele>14.847595</ele></trkpt><trkpt lat="-27.007551" lon="-48.660916"><ele>14.901733</ele></trkpt><trkpt lat="-27.00755" lon="-48.660918"><ele>16.328308</ele></trkpt><trkpt lat="-27.007549" lon="-48.660922"><ele>16.300842</ele></trkpt><trkpt lat="-27.007549" lon="-48.660923"><ele>16.556458</ele></trkpt><trkpt lat="-27.007549" lon="-48.660922"><ele>16.445801</ele></trkpt><trkpt lat="-27.007549" lon="-48.660922"><ele>16.446838</ele></trkpt><trkpt lat="-27.007551" lon="-48.660926"><ele>16.364258</ele></trkpt><trkpt lat="-27.007553" lon="-48.660932"><ele>16.501465</ele></trkpt><trkpt lat="-27.007556" lon="-48.660945"><ele>17.158203</ele></trkpt><trkpt lat="-27.007555" lon="-48.660945"><ele>16.924988</ele></trkpt><trkpt lat="-27.007555" lon="-48.660946"><ele>16.959473</ele></trkpt><trkpt lat="-27.007555" lon="-48.660946"><ele>16.95874</ele></trkpt><trkpt lat="-27.007556" lon="-48.660946"><ele>16.852722</ele></trkpt><trkpt lat="-27.007561" lon="-48.660944"><ele>17.542236</ele></trkpt><trkpt lat="-27.007565" lon="-48.660944"><ele>17.664795</ele></trkpt><trkpt lat="-27.007564" lon="-48.660945"><ele>18.104675</ele></trkpt><trkpt lat="-27.007564" lon="-48.660943"><ele>17.665955</ele></trkpt><trkpt lat="-27.007565" lon="-48.660942"><ele>17.000977</ele></trkpt><trkpt lat="-27.007567" lon="-48.66094"><ele>16.894287</ele></trkpt><trkpt lat="-27.007561" lon="-48.660935"><ele>17.177551</ele></trkpt><trkpt lat="-27.007551" lon="-48.660922"><ele>16.96582</ele></trkpt><trkpt lat="-27.007543" lon="-48.660915"><ele>17.23407</ele></trkpt><trkpt lat="-27.007528" lon="-48.660921"><ele>16.719421</ele></trkpt><trkpt lat="-27.007525" lon="-48.660924"><ele>17.360413</ele></trkpt><trkpt lat="-27.007528" lon="-48.66092"><ele>17.253235</ele></trkpt><trkpt lat="-27.007534" lon="-48.660914"><ele>17.287476</ele></trkpt><trkpt lat="-27.007539" lon="-48.660907"><ele>16.948059</ele></trkpt><trkpt lat="-27.007542" lon="-48.660903"><ele>16.769775</ele></trkpt><trkpt lat="-27.007541" lon="-48.660905"><ele>16.987549</ele></trkpt><trkpt lat="-27.007541" lon="-48.660904"><ele>16.84613</ele></trkpt><trkpt lat="-27.007542" lon="-48.660901"><ele>16.605286</ele></trkpt><trkpt lat="-27.007542" lon="-48.6609"><ele>16.590088</ele></trkpt><trkpt lat="-27.007541" lon="-48.6609"><ele>16.719604</ele></trkpt><trkpt lat="-27.007541" lon="-48.6609"><ele>16.718567</ele></trkpt><trkpt lat="-27.007541" lon="-48.6609"><ele>16.728821</ele></trkpt><trkpt lat="-27.007541" lon="-48.660901"><ele>16.736938</ele></trkpt><trkpt lat="-27.007541" lon="-48.660901"><ele>16.61554</ele></trkpt><trkpt lat="-27.007544" lon="-48.6609"><ele>16.238953</ele></trkpt><trkpt lat="-27.007546" lon="-48.660905"><ele>16.381348</ele></trkpt><trkpt lat="-27.00754" lon="-48.660916"><ele>16.713501</ele></trkpt><trkpt lat="-27.007527" lon="-48.660925"><ele>16.376282</ele></trkpt><trkpt lat="-27.007518" lon="-48.660931"><ele>15.816528</ele></trkpt><trkpt lat="-27.007512" lon="-48.660926"><ele>13.879089</ele></trkpt><trkpt lat="-27.00751" lon="-48.660918"><ele>13.511353</ele></trkpt><trkpt lat="-27.007633" lon="-48.660772"><ele>-11.958252</ele></trkpt><trkpt lat="-27.007563" lon="-48.660755"><ele>-25.973938</ele></trkpt><trkpt lat="-27.007563" lon="-48.660755"><ele>-25.973938</ele></trkpt><trkpt lat="-27.007557" lon="-48.660775"><ele>13.546143</ele></trkpt><trkpt lat="-27.007557" lon="-48.660775"><ele>13.546143</ele></trkpt><trkpt lat="-27.007579" lon="-48.660805"><ele>13.444763</ele></trkpt><trkpt lat="-27.007567" lon="-48.660878"><ele>14.385376</ele></trkpt><trkpt lat="-27.007573" lon="-48.660904"><ele>13.231201</ele></trkpt><trkpt lat="-27.007581" lon="-48.660928"><ele>13.345947</ele></trkpt><trkpt lat="-27.007579" lon="-48.660952"><ele>14.618591</ele></trkpt><trkpt lat="-27.007581" lon="-48.660964"><ele>14.202209</ele></trkpt><trkpt lat="-27.007581" lon="-48.660968"><ele>14.321533</ele></trkpt><trkpt lat="-27.00758" lon="-48.66097"><ele>14.216797</ele></trkpt><trkpt lat="-27.00758" lon="-48.660971"><ele>13.809326</ele></trkpt><trkpt lat="-27.007579" lon="-48.660971"><ele>13.845642</ele></trkpt><trkpt lat="-27.007579" lon="-48.660972"><ele>14.159851</ele></trkpt><trkpt lat="-27.007579" lon="-48.660972"><ele>14.136353</ele></trkpt><trkpt lat="-27.007579" lon="-48.660972"><ele>13.766602</ele></trkpt><trkpt lat="-27.007579" lon="-48.660972"><ele>13.766602</ele></trkpt><trkpt lat="-27.007579" lon="-48.660972"><ele>13.841492</ele></trkpt><trkpt lat="-27.007579" lon="-48.660972"><ele>13.841492</ele></trkpt><trkpt lat="-27.007579" lon="-48.660972"><ele>12.318665</ele></trkpt><trkpt lat="-27.007579" lon="-48.660972"><ele>11.373901</ele></trkpt><trkpt lat="-27.007579" lon="-48.660973"><ele>11.12851</ele></trkpt><trkpt lat="-27.007579" lon="-48.660973"><ele>11.289093</ele></trkpt><trkpt lat="-27.007579" lon="-48.660973"><ele>10.99939</ele></trkpt><trkpt lat="-27.007579" lon="-48.660973"><ele>10.777039</ele></trkpt><trkpt lat="-27.007579" lon="-48.660973"><ele>10.823486</ele></trkpt><trkpt lat="-27.007579" lon="-48.660973"><ele>10.823486</ele></trkpt><trkpt lat="-27.007579" lon="-48.660973"><ele>10.823486</ele></trkpt><trkpt lat="-27.007589" lon="-48.660988"><ele>13.714172</ele></trkpt><trkpt lat="-27.00759" lon="-48.660986"><ele>13.828857</ele></trkpt><trkpt lat="-27.007593" lon="-48.660989"><ele>14.656189</ele></trkpt><trkpt lat="-27.007593" lon="-48.660987"><ele>14.67572</ele></trkpt><trkpt lat="-27.007594" lon="-48.660983"><ele>14.621338</ele></trkpt><trkpt lat="-27.007594" lon="-48.660986"><ele>15.474792</ele></trkpt><trkpt lat="-27.007594" lon="-48.66099"><ele>16.352478</ele></trkpt><trkpt lat="-27.007593" lon="-48.660986"><ele>16.331909</ele></trkpt><trkpt lat="-27.007594" lon="-48.660983"><ele>15.955078</ele></trkpt><trkpt lat="-27.007595" lon="-48.660983"><ele>16.537415</ele></trkpt><trkpt lat="-27.007596" lon="-48.660983"><ele>16.719727</ele></trkpt><trkpt lat="-27.007597" lon="-48.660981"><ele>16.828796</ele></trkpt><trkpt lat="-27.007596" lon="-48.660974"><ele>16.750183</ele></trkpt><trkpt lat="-27.007595" lon="-48.660978"><ele>17.095764</ele></trkpt><trkpt lat="-27.007593" lon="-48.660977"><ele>16.987244</ele></trkpt><trkpt lat="-27.007592" lon="-48.66098"><ele>17.400696</ele></trkpt><trkpt lat="-27.007589" lon="-48.66098"><ele>17.757629</ele></trkpt><trkpt lat="-27.007589" lon="-48.66098"><ele>18.020325</ele></trkpt><trkpt lat="-27.007589" lon="-48.66098"><ele>18.020325</ele></trkpt><trkpt lat="-27.007588" lon="-48.66098"><ele>18.177917</ele></trkpt><trkpt lat="-27.007589" lon="-48.66098"><ele>18.377075</ele></trkpt><trkpt lat="-27.007588" lon="-48.660981"><ele>18.548706</ele></trkpt><trkpt lat="-27.007588" lon="-48.660981"><ele>18.64917</ele></trkpt><trkpt lat="-27.007589" lon="-48.660981"><ele>18.676025</ele></trkpt><trkpt lat="-27.007589" lon="-48.66098"><ele>18.676086</ele></trkpt><trkpt lat="-27.007589" lon="-48.66098"><ele>18.686401</ele></trkpt><trkpt lat="-27.007589" lon="-48.66098"><ele>18.657776</ele></trkpt><trkpt lat="-27.007589" lon="-48.66098"><ele>18.67627</ele></trkpt><trkpt lat="-27.007589" lon="-48.660981"><ele>18.777954</ele></trkpt><trkpt lat="-27.007589" lon="-48.660982"><ele>18.902527</ele></trkpt><trkpt lat="-27.007589" lon="-48.660982"><ele>18.96521</ele></trkpt><trkpt lat="-27.007589" lon="-48.660982"><ele>18.973755</ele></trkpt><trkpt lat="-27.007589" lon="-48.660982"><ele>18.973755</ele></trkpt><trkpt lat="-27.007589" lon="-48.660982"><ele>18.976074</ele></trkpt><trkpt lat="-27.007584" lon="-48.660974"><ele>18.236755</ele></trkpt><trkpt lat="-27.007582" lon="-48.660981"><ele>17.217407</ele></trkpt><trkpt lat="-27.007583" lon="-48.660986"><ele>17.806946</ele></trkpt><trkpt lat="-27.007582" lon="-48.66099"><ele>17.637512</ele></trkpt><trkpt lat="-27.007579" lon="-48.660997"><ele>17.47406</ele></trkpt><trkpt lat="-27.007575" lon="-48.661002"><ele>17.447754</ele></trkpt><trkpt lat="-27.007568" lon="-48.660994"><ele>16.368774</ele></trkpt><trkpt lat="-27.007564" lon="-48.66098"><ele>16.085266</ele></trkpt><trkpt lat="-27.007565" lon="-48.660963"><ele>16.070923</ele></trkpt><trkpt lat="-27.007565" lon="-48.660959"><ele>16.071411</ele></trkpt><trkpt lat="-27.007565" lon="-48.660958"><ele>16.071777</ele></trkpt><trkpt lat="-27.007565" lon="-48.660958"><ele>16.072632</ele></trkpt><trkpt lat="-27.007565" lon="-48.660958"><ele>16.073608</ele></trkpt><trkpt lat="-27.007565" lon="-48.660958"><ele>16.092407</ele></trkpt><trkpt lat="-27.007565" lon="-48.660958"><ele>15.838135</ele></trkpt><trkpt lat="-27.007565" lon="-48.660956"><ele>16.065186</ele></trkpt><trkpt lat="-27.007565" lon="-48.660956"><ele>15.960266</ele></trkpt><trkpt lat="-27.007565" lon="-48.660955"><ele>15.989441</ele></trkpt><trkpt lat="-27.007565" lon="-48.660955"><ele>16.161621</ele></trkpt><trkpt lat="-27.007565" lon="-48.660952"><ele>16.217285</ele></trkpt><trkpt lat="-27.007565" lon="-48.66095"><ele>16.235901</ele></trkpt><trkpt lat="-27.007563" lon="-48.660952"><ele>16.334961</ele></trkpt><trkpt lat="-27.007562" lon="-48.660953"><ele>15.909851</ele></trkpt><trkpt lat="-27.007563" lon="-48.660953"><ele>15.939697</ele></trkpt><trkpt lat="-27.007563" lon="-48.660953"><ele>15.939636</ele></trkpt><trkpt lat="-27.007563" lon="-48.660953"><ele>15.941467</ele></trkpt><trkpt lat="-27.007563" lon="-48.660953"><ele>15.941162</ele></trkpt><trkpt lat="-27.007562" lon="-48.660952"><ele>15.880859</ele></trkpt><trkpt lat="-27.00756" lon="-48.66095"><ele>16.010376</ele></trkpt><trkpt lat="-27.007557" lon="-48.660945"><ele>15.635437</ele></trkpt><trkpt lat="-27.007551" lon="-48.660937"><ele>15.98938</ele></trkpt><trkpt lat="-27.007541" lon="-48.660928"><ele>16.013306</ele></trkpt><trkpt lat="-27.007538" lon="-48.660923"><ele>16.122559</ele></trkpt><trkpt lat="-27.00754" lon="-48.660921"><ele>16.197998</ele></trkpt><trkpt lat="-27.00754" lon="-48.660921"><ele>16.220947</ele></trkpt><trkpt lat="-27.00754" lon="-48.660921"><ele>16.220947</ele></trkpt><trkpt lat="-27.00754" lon="-48.660918"><ele>16.313477</ele></trkpt><trkpt lat="-27.007532" lon="-48.66091"><ele>16.330322</ele></trkpt><trkpt lat="-27.007523" lon="-48.660901"><ele>16.367004</ele></trkpt><trkpt lat="-27.007516" lon="-48.660885"><ele>16.671143</ele></trkpt><trkpt lat="-27.007506" lon="-48.660864"><ele>16.759827</ele></trkpt><trkpt lat="-27.007489" lon="-48.660844"><ele>17.731995</ele></trkpt><trkpt lat="-27.00747" lon="-48.660822"><ele>17.868347</ele></trkpt><trkpt lat="-27.007454" lon="-48.660801"><ele>17.957642</ele></trkpt><trkpt lat="-27.007437" lon="-48.660781"><ele>17.979858</ele></trkpt><trkpt lat="-27.007419" lon="-48.660757"><ele>17.613037</ele></trkpt><trkpt lat="-27.007401" lon="-48.660729"><ele>17.380676</ele></trkpt><trkpt lat="-27.007384" lon="-48.660702"><ele>17.389404</ele></trkpt><trkpt lat="-27.007366" lon="-48.660674"><ele>16.859985</ele></trkpt><trkpt lat="-27.007353" lon="-48.660653"><ele>16.91626</ele></trkpt><trkpt lat="-27.00734" lon="-48.660634"><ele>16.704285</ele></trkpt><trkpt lat="-27.007322" lon="-48.660612"><ele>16.837036</ele></trkpt><trkpt lat="-27.007305" lon="-48.660588"><ele>16.989929</ele></trkpt><trkpt lat="-27.007286" lon="-48.660564"><ele>16.94696</ele></trkpt><trkpt lat="-27.007268" lon="-48.660539"><ele>16.999268</ele></trkpt><trkpt lat="-27.007253" lon="-48.660514"><ele>17.166626</ele></trkpt><trkpt lat="-27.007235" lon="-48.660485"><ele>17.405212</ele></trkpt><trkpt lat="-27.007219" lon="-48.660454"><ele>17.805054</ele></trkpt><trkpt lat="-27.007203" lon="-48.660423"><ele>18.142151</ele></trkpt><trkpt lat="-27.007178" lon="-48.660397"><ele>18.513977</ele></trkpt><trkpt lat="-27.007157" lon="-48.660372"><ele>18.427002</ele></trkpt><trkpt lat="-27.007132" lon="-48.660348"><ele>18.220093</ele></trkpt><trkpt lat="-27.007127" lon="-48.66032"><ele>18.111206</ele></trkpt><trkpt lat="-27.007127" lon="-48.66032"><ele>18.111206</ele></trkpt><trkpt lat="-27.007107" lon="-48.660298"><ele>18.096252</ele></trkpt><trkpt lat="-27.007089" lon="-48.660275"><ele>18.332764</ele></trkpt><trkpt lat="-27.007076" lon="-48.660251"><ele>18.591614</ele></trkpt><trkpt lat="-27.007057" lon="-48.66023"><ele>18.326599</ele></trkpt><trkpt lat="-27.007057" lon="-48.66023"><ele>18.326599</ele></trkpt><trkpt lat="-27.00704" lon="-48.660212"><ele>17.864197</ele></trkpt><trkpt lat="-27.007025" lon="-48.660191"><ele>18.169861</ele></trkpt><trkpt lat="-27.007013" lon="-48.66017"><ele>18.648621</ele></trkpt><trkpt lat="-27.007013" lon="-48.66017"><ele>18.648621</ele></trkpt><trkpt lat="-27.006999" lon="-48.660152"><ele>19.083313</ele></trkpt><trkpt lat="-27.006982" lon="-48.660132"><ele>19.808105</ele></trkpt><trkpt lat="-27.006956" lon="-48.660115"><ele>19.633545</ele></trkpt><trkpt lat="-27.006935" lon="-48.660103"><ele>19.018066</ele></trkpt><trkpt lat="-27.00692" lon="-48.660093"><ele>19.330078</ele></trkpt><trkpt lat="-27.00691" lon="-48.66008"><ele>19.358276</ele></trkpt><trkpt lat="-27.006902" lon="-48.660065"><ele>19.297241</ele></trkpt><trkpt lat="-27.006892" lon="-48.66005"><ele>19.373901</ele></trkpt><trkpt lat="-27.006877" lon="-48.660031"><ele>18.75293</ele></trkpt><trkpt lat="-27.00686" lon="-48.660013"><ele>19.113098</ele></trkpt><trkpt lat="-27.006845" lon="-48.659989"><ele>19.204895</ele></trkpt><trkpt lat="-27.006829" lon="-48.659962"><ele>19.363281</ele></trkpt><trkpt lat="-27.006811" lon="-48.659936"><ele>19.520935</ele></trkpt><trkpt lat="-27.006792" lon="-48.659909"><ele>19.752563</ele></trkpt><trkpt lat="-27.006776" lon="-48.659885"><ele>19.492371</ele></trkpt><trkpt lat="-27.006763" lon="-48.659863"><ele>19.516296</ele></trkpt><trkpt lat="-27.006752" lon="-48.659843"><ele>19.352783</ele></trkpt><trkpt lat="-27.006742" lon="-48.659827"><ele>18.939453</ele></trkpt><trkpt lat="-27.006732" lon="-48.659812"><ele>19.069336</ele></trkpt><trkpt lat="-27.006723" lon="-48.659796"><ele>18.959167</ele></trkpt><trkpt lat="-27.006723" lon="-48.659796"><ele>18.959167</ele></trkpt><trkpt lat="-27.006713" lon="-48.659779"><ele>18.724182</ele></trkpt><trkpt lat="-27.006703" lon="-48.659762"><ele>18.190918</ele></trkpt><trkpt lat="-27.006689" lon="-48.659741"><ele>18.122864</ele></trkpt><trkpt lat="-27.006673" lon="-48.659722"><ele>18.262146</ele></trkpt><trkpt lat="-27.006661" lon="-48.659706"><ele>18.268738</ele></trkpt><trkpt lat="-27.006661" lon="-48.659706"><ele>18.268738</ele></trkpt><trkpt lat="-27.006654" lon="-48.659691"><ele>18.404907</ele></trkpt><trkpt lat="-27.006643" lon="-48.659672"><ele>18.254456</ele></trkpt><trkpt lat="-27.006628" lon="-48.659652"><ele>18.039978</ele></trkpt><trkpt lat="-27.006616" lon="-48.659634"><ele>18.09729</ele></trkpt><trkpt lat="-27.006606" lon="-48.659618"><ele>18.304626</ele></trkpt><trkpt lat="-27.006598" lon="-48.659604"><ele>18.21875</ele></trkpt><trkpt lat="-27.006595" lon="-48.659599"><ele>18.07019</ele></trkpt><trkpt lat="-27.006592" lon="-48.659598"><ele>17.690125</ele></trkpt><trkpt lat="-27.006592" lon="-48.659598"><ele>17.690125</ele></trkpt><trkpt lat="-27.006588" lon="-48.659599"><ele>17.693298</ele></trkpt><trkpt lat="-27.006587" lon="-48.659599"><ele>17.806213</ele></trkpt><trkpt lat="-27.006587" lon="-48.659599"><ele>17.805908</ele></trkpt><trkpt lat="-27.006582" lon="-48.659595"><ele>17.756836</ele></trkpt><trkpt lat="-27.006573" lon="-48.659584"><ele>18.080078</ele></trkpt><trkpt lat="-27.006562" lon="-48.659571"><ele>18.070923</ele></trkpt><trkpt lat="-27.006552" lon="-48.659558"><ele>17.712463</ele></trkpt><trkpt lat="-27.006536" lon="-48.659538"><ele>17.505859</ele></trkpt><trkpt lat="-27.006522" lon="-48.659517"><ele>17.618347</ele></trkpt><trkpt lat="-27.006507" lon="-48.659496"><ele>17.629211</ele></trkpt><trkpt lat="-27.006495" lon="-48.659479"><ele>18.025574</ele></trkpt><trkpt lat="-27.006488" lon="-48.659468"><ele>18.352051</ele></trkpt><trkpt lat="-27.006486" lon="-48.659464"><ele>18.645142</ele></trkpt><trkpt lat="-27.006486" lon="-48.659464"><ele>18.645142</ele></trkpt><trkpt lat="-27.006485" lon="-48.659465"><ele>18.65625</ele></trkpt><trkpt lat="-27.006483" lon="-48.659463"><ele>18.840637</ele></trkpt><trkpt lat="-27.006479" lon="-48.659455"><ele>18.936951</ele></trkpt><trkpt lat="-27.006471" lon="-48.659441"><ele>19.072632</ele></trkpt><trkpt lat="-27.006459" lon="-48.659426"><ele>18.800964</ele></trkpt><trkpt lat="-27.006446" lon="-48.65941"><ele>18.600769</ele></trkpt><trkpt lat="-27.006429" lon="-48.659392"><ele>18.523071</ele></trkpt><trkpt lat="-27.006413" lon="-48.65937"><ele>18.502869</ele></trkpt><trkpt lat="-27.006398" lon="-48.659347"><ele>18.38678</ele></trkpt><trkpt lat="-27.006384" lon="-48.659326"><ele>18.183716</ele></trkpt><trkpt lat="-27.006369" lon="-48.659302"><ele>18.244934</ele></trkpt><trkpt lat="-27.006355" lon="-48.659279"><ele>17.898132</ele></trkpt><trkpt lat="-27.006345" lon="-48.659259"><ele>18.163879</ele></trkpt><trkpt lat="-27.006337" lon="-48.659241"><ele>17.955139</ele></trkpt><trkpt lat="-27.00633" lon="-48.659229"><ele>17.535706</ele></trkpt><trkpt lat="-27.006325" lon="-48.659219"><ele>17.93335</ele></trkpt><trkpt lat="-27.00632" lon="-48.659212"><ele>17.933411</ele></trkpt><trkpt lat="-27.00632" lon="-48.659212"><ele>17.933411</ele></trkpt><trkpt lat="-27.00632" lon="-48.659212"><ele>17.933411</ele></trkpt><trkpt lat="-27.006316" lon="-48.659208"><ele>18.054871</ele></trkpt><trkpt lat="-27.006314" lon="-48.659205"><ele>17.997375</ele></trkpt><trkpt lat="-27.006311" lon="-48.659199"><ele>17.847595</ele></trkpt><trkpt lat="-27.006306" lon="-48.659189"><ele>17.642273</ele></trkpt><trkpt lat="-27.006299" lon="-48.659174"><ele>17.747864</ele></trkpt><trkpt lat="-27.00629" lon="-48.659157"><ele>17.896362</ele></trkpt><trkpt lat="-27.006281" lon="-48.659139"><ele>17.903015</ele></trkpt><trkpt lat="-27.006267" lon="-48.659119"><ele>17.808594</ele></trkpt><trkpt lat="-27.006252" lon="-48.659097"><ele>17.921692</ele></trkpt><trkpt lat="-27.006237" lon="-48.659076"><ele>17.471191</ele></trkpt><trkpt lat="-27.006223" lon="-48.659055"><ele>17.283447</ele></trkpt><trkpt lat="-27.006205" lon="-48.659034"><ele>17.126892</ele></trkpt><trkpt lat="-27.006189" lon="-48.659012"><ele>17.032227</ele></trkpt><trkpt lat="-27.006171" lon="-48.658986"><ele>17.03241</ele></trkpt><trkpt lat="-27.006153" lon="-48.658958"><ele>17.034302</ele></trkpt><trkpt lat="-27.006136" lon="-48.65893"><ele>16.92865</ele></trkpt><trkpt lat="-27.006118" lon="-48.658901"><ele>16.947144</ele></trkpt><trkpt lat="-27.0061" lon="-48.658873"><ele>16.985229</ele></trkpt><trkpt lat="-27.006081" lon="-48.658843"><ele>16.516418</ele></trkpt><trkpt lat="-27.006061" lon="-48.658812"><ele>15.781311</ele></trkpt><trkpt lat="-27.006042" lon="-48.658785"><ele>16.686646</ele></trkpt><trkpt lat="-27.006023" lon="-48.658759"><ele>16.243958</ele></trkpt><trkpt lat="-27.006009" lon="-48.658735"><ele>16.304993</ele></trkpt><trkpt lat="-27.005995" lon="-48.658708"><ele>16.071838</ele></trkpt><trkpt lat="-27.005984" lon="-48.658681"><ele>15.862488</ele></trkpt><trkpt lat="-27.005984" lon="-48.658681"><ele>15.862488</ele></trkpt><trkpt lat="-27.005976" lon="-48.658662"><ele>16.156494</ele></trkpt><trkpt lat="-27.005976" lon="-48.658662"><ele>16.156494</ele></trkpt><trkpt lat="-27.005969" lon="-48.658645"><ele>16.151733</ele></trkpt><trkpt lat="-27.005961" lon="-48.658628"><ele>16.114136</ele></trkpt><trkpt lat="-27.005947" lon="-48.658611"><ele>15.8302</ele></trkpt><trkpt lat="-27.005931" lon="-48.658593"><ele>15.755432</ele></trkpt><trkpt lat="-27.005915" lon="-48.658576"><ele>15.696777</ele></trkpt><trkpt lat="-27.005902" lon="-48.658558"><ele>15.564148</ele></trkpt><trkpt lat="-27.005902" lon="-48.658558"><ele>15.564148</ele></trkpt><trkpt lat="-27.005896" lon="-48.658543"><ele>15.582886</ele></trkpt><trkpt lat="-27.005891" lon="-48.658528"><ele>15.384766</ele></trkpt><trkpt lat="-27.005884" lon="-48.658514"><ele>15.427246</ele></trkpt><trkpt lat="-27.005879" lon="-48.658509"><ele>15.408691</ele></trkpt><trkpt lat="-27.005877" lon="-48.658508"><ele>15.671082</ele></trkpt><trkpt lat="-27.005874" lon="-48.658507"><ele>15.134216</ele></trkpt><trkpt lat="-27.005873" lon="-48.658505"><ele>15.707581</ele></trkpt><trkpt lat="-27.005872" lon="-48.658506"><ele>15.358337</ele></trkpt><trkpt lat="-27.005872" lon="-48.658506"><ele>15.515747</ele></trkpt><trkpt lat="-27.005872" lon="-48.658504"><ele>15.873047</ele></trkpt><trkpt lat="-27.005873" lon="-48.658503"><ele>16.301147</ele></trkpt><trkpt lat="-27.00587" lon="-48.658507"><ele>16.453064</ele></trkpt><trkpt lat="-27.005871" lon="-48.658511"><ele>16.12262</ele></trkpt><trkpt lat="-27.005873" lon="-48.658512"><ele>15.760803</ele></trkpt><trkpt lat="-27.005875" lon="-48.658512"><ele>15.509888</ele></trkpt><trkpt lat="-27.005874" lon="-48.658508"><ele>15.485474</ele></trkpt><trkpt lat="-27.005876" lon="-48.658506"><ele>15.230164</ele></trkpt><trkpt lat="-27.005879" lon="-48.658511"><ele>14.867004</ele></trkpt><trkpt lat="-27.005881" lon="-48.658515"><ele>15.079407</ele></trkpt><trkpt lat="-27.00588" lon="-48.658519"><ele>14.987854</ele></trkpt><trkpt lat="-27.00588" lon="-48.658521"><ele>15.175049</ele></trkpt><trkpt lat="-27.00588" lon="-48.658523"><ele>14.870178</ele></trkpt><trkpt lat="-27.005883" lon="-48.658524"><ele>14.34668</ele></trkpt><trkpt lat="-27.005886" lon="-48.658524"><ele>14.897583</ele></trkpt><trkpt lat="-27.005887" lon="-48.658524"><ele>14.960999</ele></trkpt><trkpt lat="-27.005888" lon="-48.658524"><ele>14.829346</ele></trkpt><trkpt lat="-27.005888" lon="-48.658522"><ele>14.779724</ele></trkpt><trkpt lat="-27.005888" lon="-48.658522"><ele>14.987</ele></trkpt><trkpt lat="-27.00589" lon="-48.65852"><ele>14.934998</ele></trkpt><trkpt lat="-27.005891" lon="-48.658521"><ele>15.0755</ele></trkpt><trkpt lat="-27.005892" lon="-48.65852"><ele>15.106995</ele></trkpt><trkpt lat="-27.005895" lon="-48.658521"><ele>15.055481</ele></trkpt><trkpt lat="-27.005896" lon="-48.658521"><ele>15.028992</ele></trkpt><trkpt lat="-27.005897" lon="-48.658522"><ele>15.035095</ele></trkpt><trkpt lat="-27.005894" lon="-48.658519"><ele>14.959229</ele></trkpt><trkpt lat="-27.005892" lon="-48.658518"><ele>15.046021</ele></trkpt><trkpt lat="-27.005896" lon="-48.65852"><ele>14.758545</ele></trkpt><trkpt lat="-27.005897" lon="-48.658521"><ele>14.643494</ele></trkpt><trkpt lat="-27.005896" lon="-48.658522"><ele>15.078796</ele></trkpt><trkpt lat="-27.005896" lon="-48.658523"><ele>15.077087</ele></trkpt><trkpt lat="-27.005896" lon="-48.658523"><ele>15.084229</ele></trkpt><trkpt lat="-27.005891" lon="-48.658519"><ele>15.335388</ele></trkpt><trkpt lat="-27.005883" lon="-48.658521"><ele>15.801086</ele></trkpt><trkpt lat="-27.005878" lon="-48.658523"><ele>15.419128</ele></trkpt><trkpt lat="-27.005875" lon="-48.658524"><ele>15.460632</ele></trkpt><trkpt lat="-27.005875" lon="-48.658525"><ele>16.092651</ele></trkpt><trkpt lat="-27.005875" lon="-48.658526"><ele>16.213196</ele></trkpt><trkpt lat="-27.005875" lon="-48.658527"><ele>16.213257</ele></trkpt><trkpt lat="-27.005875" lon="-48.658528"><ele>15.606323</ele></trkpt><trkpt lat="-27.00588" lon="-48.658533"><ele>15.278198</ele></trkpt><trkpt lat="-27.005875" lon="-48.658541"><ele>15.266357</ele></trkpt><trkpt lat="-27.005865" lon="-48.658544"><ele>15.109558</ele></trkpt><trkpt lat="-27.005859" lon="-48.658542"><ele>15.069641</ele></trkpt><trkpt lat="-27.005858" lon="-48.658539"><ele>14.98999</ele></trkpt><trkpt lat="-27.005862" lon="-48.658536"><ele>15.03241</ele></trkpt><trkpt lat="-27.005866" lon="-48.658537"><ele>15.037964</ele></trkpt><trkpt lat="-27.005866" lon="-48.658537"><ele>14.884277</ele></trkpt><trkpt lat="-27.005868" lon="-48.658536"><ele>15.01178</ele></trkpt><trkpt lat="-27.005872" lon="-48.658535"><ele>15.065063</ele></trkpt><trkpt lat="-27.005879" lon="-48.65853"><ele>15.634155</ele></trkpt><trkpt lat="-27.005886" lon="-48.658522"><ele>15.433044</ele></trkpt><trkpt lat="-27.005892" lon="-48.65852"><ele>15.91803</ele></trkpt><trkpt lat="-27.005892" lon="-48.658521"><ele>15.869812</ele></trkpt><trkpt lat="-27.005891" lon="-48.658521"><ele>15.871582</ele></trkpt><trkpt lat="-27.005891" lon="-48.658522"><ele>15.871094</ele></trkpt><trkpt lat="-27.005893" lon="-48.658523"><ele>15.44104</ele></trkpt><trkpt lat="-27.005894" lon="-48.658524"><ele>15.691833</ele></trkpt><trkpt lat="-27.005886" lon="-48.658521"><ele>15.697876</ele></trkpt><trkpt lat="-27.005874" lon="-48.658519"><ele>15.456665</ele></trkpt><trkpt lat="-27.00586" lon="-48.658521"><ele>15.127869</ele></trkpt><trkpt lat="-27.005851" lon="-48.658525"><ele>15.423279</ele></trkpt><trkpt lat="-27.005843" lon="-48.658531"><ele>15.240173</ele></trkpt><trkpt lat="-27.005833" lon="-48.658536"><ele>15.130005</ele></trkpt><trkpt lat="-27.005827" lon="-48.65854"><ele>14.925598</ele></trkpt><trkpt lat="-27.005825" lon="-48.658544"><ele>14.976563</ele></trkpt><trkpt lat="-27.005827" lon="-48.658547"><ele>15.084961</ele></trkpt><trkpt lat="-27.005821" lon="-48.658552"><ele>14.892944</ele></trkpt><trkpt lat="-27.005817" lon="-48.658557"><ele>14.891541</ele></trkpt><trkpt lat="-27.005818" lon="-48.658555"><ele>14.917664</ele></trkpt><trkpt lat="-27.005818" lon="-48.658554"><ele>14.92511</ele></trkpt><trkpt lat="-27.005819" lon="-48.658554"><ele>14.931702</ele></trkpt><trkpt lat="-27.005819" lon="-48.658554"><ele>15.543579</ele></trkpt><trkpt lat="-27.005818" lon="-48.658553"><ele>15.690796</ele></trkpt><trkpt lat="-27.005817" lon="-48.658551"><ele>15.668457</ele></trkpt><trkpt lat="-27.005815" lon="-48.658549"><ele>15.76825</ele></trkpt><trkpt lat="-27.005816" lon="-48.658547"><ele>15.571838</ele></trkpt><trkpt lat="-27.005816" lon="-48.658546"><ele>15.502686</ele></trkpt><trkpt lat="-27.005818" lon="-48.658542"><ele>15.325806</ele></trkpt><trkpt lat="-27.005827" lon="-48.658536"><ele>14.778442</ele></trkpt><trkpt lat="-27.005832" lon="-48.658533"><ele>14.791016</ele></trkpt><trkpt lat="-27.005942" lon="-48.658506"><ele>32.821106</ele></trkpt><trkpt lat="-27.005892" lon="-48.658503"><ele>18.314514</ele></trkpt><trkpt lat="-27.005893" lon="-48.658506"><ele>17.776855</ele></trkpt><trkpt lat="-27.005893" lon="-48.658506"><ele>17.776855</ele></trkpt><trkpt lat="-27.00589" lon="-48.658495"><ele>17.197021</ele></trkpt><trkpt lat="-27.00589" lon="-48.658495"><ele>17.197021</ele></trkpt><trkpt lat="-27.005883" lon="-48.658497"><ele>16.360352</ele></trkpt><trkpt lat="-27.005885" lon="-48.658498"><ele>15.887878</ele></trkpt><trkpt lat="-27.005883" lon="-48.658504"><ele>15.635071</ele></trkpt><trkpt lat="-27.005882" lon="-48.65851"><ele>15.64093</ele></trkpt><trkpt lat="-27.005884" lon="-48.658518"><ele>16.511902</ele></trkpt><trkpt lat="-27.005884" lon="-48.658518"><ele>16.511902</ele></trkpt><trkpt lat="-27.005885" lon="-48.658521"><ele>16.4328</ele></trkpt><trkpt lat="-27.005885" lon="-48.658521"><ele>16.4328</ele></trkpt><trkpt lat="-27.005885" lon="-48.658522"><ele>16.314941</ele></trkpt><trkpt lat="-27.005887" lon="-48.658524"><ele>16.598145</ele></trkpt><trkpt lat="-27.005887" lon="-48.658521"><ele>16.451599</ele></trkpt><trkpt lat="-27.005887" lon="-48.658522"><ele>16.307495</ele></trkpt><trkpt lat="-27.005887" lon="-48.65852"><ele>16.441711</ele></trkpt><trkpt lat="-27.005887" lon="-48.65852"><ele>16.111694</ele></trkpt><trkpt lat="-27.005887" lon="-48.658522"><ele>16.056946</ele></trkpt><trkpt lat="-27.005888" lon="-48.658525"><ele>16.403809</ele></trkpt><trkpt lat="-27.00589" lon="-48.658525"><ele>16.922791</ele></trkpt><trkpt lat="-27.00589" lon="-48.658525"><ele>16.851257</ele></trkpt><trkpt lat="-27.00589" lon="-48.658525"><ele>16.851257</ele></trkpt><trkpt lat="-27.00589" lon="-48.658525"><ele>16.851257</ele></trkpt><trkpt lat="-27.005893" lon="-48.658526"><ele>17.255493</ele></trkpt><trkpt lat="-27.005894" lon="-48.658527"><ele>17.432251</ele></trkpt><trkpt lat="-27.005893" lon="-48.658527"><ele>17.347168</ele></trkpt><trkpt lat="-27.005892" lon="-48.658525"><ele>17.150818</ele></trkpt><trkpt lat="-27.005891" lon="-48.658526"><ele>17.067749</ele></trkpt><trkpt lat="-27.00589" lon="-48.658525"><ele>16.851624</ele></trkpt><trkpt lat="-27.00589" lon="-48.658525"><ele>16.8396</ele></trkpt><trkpt lat="-27.00589" lon="-48.658525"><ele>16.994385</ele></trkpt><trkpt lat="-27.00589" lon="-48.658525"><ele>16.987061</ele></trkpt><trkpt lat="-27.00589" lon="-48.658526"><ele>16.725708</ele></trkpt><trkpt lat="-27.005888" lon="-48.658528"><ele>16.168091</ele></trkpt><trkpt lat="-27.005886" lon="-48.658525"><ele>16.022278</ele></trkpt><trkpt lat="-27.005881" lon="-48.658523"><ele>15.684021</ele></trkpt><trkpt lat="-27.005881" lon="-48.658524"><ele>15.550171</ele></trkpt><trkpt lat="-27.005882" lon="-48.658529"><ele>14.536865</ele></trkpt><trkpt lat="-27.005883" lon="-48.658533"><ele>14.53656</ele></trkpt><trkpt lat="-27.005879" lon="-48.65853"><ele>15.359802</ele></trkpt><trkpt lat="-27.005877" lon="-48.658529"><ele>15.385742</ele></trkpt><trkpt lat="-27.005876" lon="-48.658529"><ele>15.390015</ele></trkpt><trkpt lat="-27.005876" lon="-48.658529"><ele>15.392151</ele></trkpt><trkpt lat="-27.005874" lon="-48.658525"><ele>15.706604</ele></trkpt><trkpt lat="-27.00587" lon="-48.65852"><ele>15.197815</ele></trkpt><trkpt lat="-27.005867" lon="-48.658515"><ele>15.619446</ele></trkpt><trkpt lat="-27.005855" lon="-48.658503"><ele>15.487854</ele></trkpt><trkpt lat="-27.005841" lon="-48.658487"><ele>15.060608</ele></trkpt><trkpt lat="-27.005828" lon="-48.65847"><ele>14.816406</ele></trkpt><trkpt lat="-27.005815" lon="-48.65845"><ele>14.751709</ele></trkpt><trkpt lat="-27.0058" lon="-48.658428"><ele>14.75824</ele></trkpt><trkpt lat="-27.0058" lon="-48.658428"><ele>14.75824</ele></trkpt><trkpt lat="-27.005784" lon="-48.658405"><ele>14.659302</ele></trkpt><trkpt lat="-27.00577" lon="-48.658384"><ele>15.574585</ele></trkpt><trkpt lat="-27.005754" lon="-48.658361"><ele>15.335022</ele></trkpt><trkpt lat="-27.005738" lon="-48.658333"><ele>15.634033</ele></trkpt><trkpt lat="-27.005721" lon="-48.658305"><ele>15.360107</ele></trkpt><trkpt lat="-27.0057" lon="-48.658279"><ele>15.313416</ele></trkpt><trkpt lat="-27.00568" lon="-48.658255"><ele>14.993042</ele></trkpt><trkpt lat="-27.005662" lon="-48.658232"><ele>14.861572</ele></trkpt><trkpt lat="-27.005648" lon="-48.658204"><ele>14.993286</ele></trkpt><trkpt lat="-27.005634" lon="-48.658177"><ele>14.878784</ele></trkpt><trkpt lat="-27.005614" lon="-48.65815"><ele>14.558594</ele></trkpt><trkpt lat="-27.005595" lon="-48.658125"><ele>14.552429</ele></trkpt><trkpt lat="-27.00558" lon="-48.6581"><ele>14.283325</ele></trkpt><trkpt lat="-27.005564" lon="-48.658075"><ele>13.932434</ele></trkpt><trkpt lat="-27.005564" lon="-48.658075"><ele>13.932434</ele></trkpt><trkpt lat="-27.005564" lon="-48.658075"><ele>13.932434</ele></trkpt><trkpt lat="-27.005547" lon="-48.658051"><ele>14.317566</ele></trkpt><trkpt lat="-27.005528" lon="-48.658026"><ele>14.442505</ele></trkpt><trkpt lat="-27.005509" lon="-48.657997"><ele>14.427856</ele></trkpt><trkpt lat="-27.005493" lon="-48.65797"><ele>14.558044</ele></trkpt><trkpt lat="-27.005473" lon="-48.657939"><ele>15.07074</ele></trkpt><trkpt lat="-27.00545" lon="-48.65791"><ele>15.487915</ele></trkpt><trkpt lat="-27.00545" lon="-48.65791"><ele>15.487915</ele></trkpt><trkpt lat="-27.00545" lon="-48.65791"><ele>15.487915</ele></trkpt><trkpt lat="-27.005427" lon="-48.657878"><ele>15.530823</ele></trkpt><trkpt lat="-27.00541" lon="-48.657852"><ele>15.62262</ele></trkpt><trkpt lat="-27.005391" lon="-48.657826"><ele>15.442932</ele></trkpt><trkpt lat="-27.005373" lon="-48.657799"><ele>15.224854</ele></trkpt><trkpt lat="-27.005351" lon="-48.657777"><ele>15.215576</ele></trkpt><trkpt lat="-27.005351" lon="-48.657777"><ele>15.215576</ele></trkpt><trkpt lat="-27.00533" lon="-48.657749"><ele>15.359436</ele></trkpt><trkpt lat="-27.005312" lon="-48.657723"><ele>15.286377</ele></trkpt><trkpt lat="-27.005293" lon="-48.657697"><ele>15.607117</ele></trkpt><trkpt lat="-27.005276" lon="-48.657671"><ele>15.499023</ele></trkpt><trkpt lat="-27.005261" lon="-48.657643"><ele>15.514771</ele></trkpt><trkpt lat="-27.005246" lon="-48.657617"><ele>15.444458</ele></trkpt><trkpt lat="-27.005232" lon="-48.657591"><ele>15.757751</ele></trkpt><trkpt lat="-27.005232" lon="-48.657591"><ele>15.757751</ele></trkpt><trkpt lat="-27.00522" lon="-48.65757"><ele>15.586914</ele></trkpt><trkpt lat="-27.00522" lon="-48.65757"><ele>15.586914</ele></trkpt><trkpt lat="-27.00521" lon="-48.657551"><ele>15.663696</ele></trkpt><trkpt lat="-27.005203" lon="-48.65753"><ele>15.637939</ele></trkpt><trkpt lat="-27.005194" lon="-48.657508"><ele>15.785767</ele></trkpt><trkpt lat="-27.005183" lon="-48.657482"><ele>16.212402</ele></trkpt><trkpt lat="-27.00517" lon="-48.657458"><ele>16.516541</ele></trkpt><trkpt lat="-27.005154" lon="-48.657433"><ele>16.5896</ele></trkpt><trkpt lat="-27.005138" lon="-48.657411"><ele>16.416504</ele></trkpt><trkpt lat="-27.005118" lon="-48.657393"><ele>16.335938</ele></trkpt><trkpt lat="-27.0051" lon="-48.657372"><ele>16.583191</ele></trkpt><trkpt lat="-27.005082" lon="-48.65735"><ele>16.348022</ele></trkpt><trkpt lat="-27.005066" lon="-48.657329"><ele>16.095337</ele></trkpt><trkpt lat="-27.005053" lon="-48.657311"><ele>15.934692</ele></trkpt><trkpt lat="-27.005042" lon="-48.657292"><ele>15.384888</ele></trkpt><trkpt lat="-27.005028" lon="-48.657274"><ele>15.339355</ele></trkpt><trkpt lat="-27.005014" lon="-48.657253"><ele>15.124512</ele></trkpt><trkpt lat="-27.005002" lon="-48.657229"><ele>15.19458</ele></trkpt><trkpt lat="-27.004989" lon="-48.657206"><ele>15.233276</ele></trkpt><trkpt lat="-27.004975" lon="-48.657184"><ele>15.26825</ele></trkpt><trkpt lat="-27.004961" lon="-48.657164"><ele>14.924316</ele></trkpt><trkpt lat="-27.00495" lon="-48.657146"><ele>14.927368</ele></trkpt><trkpt lat="-27.004939" lon="-48.657126"><ele>15.150208</ele></trkpt><trkpt lat="-27.00493" lon="-48.65711"><ele>15.319092</ele></trkpt><trkpt lat="-27.00493" lon="-48.65711"><ele>15.319092</ele></trkpt><trkpt lat="-27.00492" lon="-48.657101"><ele>15.103027</ele></trkpt><trkpt lat="-27.004914" lon="-48.657093"><ele>15.150757</ele></trkpt><trkpt lat="-27.004905" lon="-48.657081"><ele>15.356262</ele></trkpt><trkpt lat="-27.004896" lon="-48.657062"><ele>15.83313</ele></trkpt><trkpt lat="-27.004881" lon="-48.657041"><ele>15.778625</ele></trkpt><trkpt lat="-27.004866" lon="-48.657016"><ele>15.845459</ele></trkpt><trkpt lat="-27.004851" lon="-48.65699"><ele>15.748596</ele></trkpt><trkpt lat="-27.004837" lon="-48.656963"><ele>15.44458</ele></trkpt><trkpt lat="-27.004815" lon="-48.656939"><ele>15.268555</ele></trkpt><trkpt lat="-27.004794" lon="-48.656914"><ele>15.35968</ele></trkpt><trkpt lat="-27.004773" lon="-48.656887"><ele>15.503967</ele></trkpt><trkpt lat="-27.004754" lon="-48.656861"><ele>15.470337</ele></trkpt><trkpt lat="-27.004738" lon="-48.656836"><ele>15.589661</ele></trkpt><trkpt lat="-27.004723" lon="-48.65681"><ele>15.578369</ele></trkpt><trkpt lat="-27.004704" lon="-48.656784"><ele>15.251831</ele></trkpt><trkpt lat="-27.004686" lon="-48.656764"><ele>15.526428</ele></trkpt><trkpt lat="-27.004676" lon="-48.656728"><ele>15.957092</ele></trkpt><trkpt lat="-27.004666" lon="-48.656708"><ele>16.145447</ele></trkpt><trkpt lat="-27.004655" lon="-48.65668"><ele>16.301025</ele></trkpt><trkpt lat="-27.004646" lon="-48.656654"><ele>16.495178</ele></trkpt><trkpt lat="-27.00463" lon="-48.656626"><ele>16.415771</ele></trkpt><trkpt lat="-27.004616" lon="-48.656599"><ele>16.27887</ele></trkpt><trkpt lat="-27.004599" lon="-48.65657"><ele>16.072144</ele></trkpt><trkpt lat="-27.004579" lon="-48.656542"><ele>15.932068</ele></trkpt><trkpt lat="-27.004557" lon="-48.656515"><ele>15.576904</ele></trkpt><trkpt lat="-27.004545" lon="-48.656492"><ele>15.282227</ele></trkpt><trkpt lat="-27.004526" lon="-48.656465"><ele>15.039978</ele></trkpt><trkpt lat="-27.004504" lon="-48.656437"><ele>15.214355</ele></trkpt><trkpt lat="-27.004481" lon="-48.656412"><ele>15.067444</ele></trkpt><trkpt lat="-27.004459" lon="-48.656383"><ele>15.218872</ele></trkpt><trkpt lat="-27.004437" lon="-48.656351"><ele>15.519897</ele></trkpt><trkpt lat="-27.004414" lon="-48.65632"><ele>14.661011</ele></trkpt><trkpt lat="-27.004393" lon="-48.65629"><ele>14.933167</ele></trkpt><trkpt lat="-27.004371" lon="-48.656262"><ele>15.609375</ele></trkpt><trkpt lat="-27.004352" lon="-48.656236"><ele>15.907227</ele></trkpt><trkpt lat="-27.004333" lon="-48.656206"><ele>15.928467</ele></trkpt><trkpt lat="-27.00432" lon="-48.656165"><ele>16.144531</ele></trkpt><trkpt lat="-27.004297" lon="-48.656132"><ele>16.414368</ele></trkpt><trkpt lat="-27.004282" lon="-48.6561"><ele>16.601074</ele></trkpt><trkpt lat="-27.004272" lon="-48.656069"><ele>16.362244</ele></trkpt><trkpt lat="-27.004264" lon="-48.656041"><ele>16.328857</ele></trkpt><trkpt lat="-27.004248" lon="-48.656011"><ele>16.5401</ele></trkpt><trkpt lat="-27.004226" lon="-48.655981"><ele>16.690796</ele></trkpt><trkpt lat="-27.004203" lon="-48.655953"><ele>16.736877</ele></trkpt><trkpt lat="-27.004183" lon="-48.655929"><ele>17.156677</ele></trkpt><trkpt lat="-27.004158" lon="-48.655907"><ele>17.383362</ele></trkpt><trkpt lat="-27.004135" lon="-48.655882"><ele>17.023132</ele></trkpt><trkpt lat="-27.004114" lon="-48.655855"><ele>17.16156</ele></trkpt><trkpt lat="-27.004095" lon="-48.655826"><ele>17.135437</ele></trkpt><trkpt lat="-27.004076" lon="-48.655795"><ele>17.424988</ele></trkpt><trkpt lat="-27.004058" lon="-48.655766"><ele>17.3703</ele></trkpt><trkpt lat="-27.004037" lon="-48.655739"><ele>17.783691</ele></trkpt><trkpt lat="-27.004015" lon="-48.655709"><ele>18.235962</ele></trkpt><trkpt lat="-27.00399" lon="-48.655679"><ele>18.142273</ele></trkpt><trkpt lat="-27.003967" lon="-48.655649"><ele>17.994629</ele></trkpt><trkpt lat="-27.003946" lon="-48.655621"><ele>17.595337</ele></trkpt><trkpt lat="-27.003924" lon="-48.655595"><ele>17.466125</ele></trkpt><trkpt lat="-27.003902" lon="-48.655566"><ele>17.404846</ele></trkpt><trkpt lat="-27.003882" lon="-48.655539"><ele>17.071411</ele></trkpt><trkpt lat="-27.003866" lon="-48.655514"><ele>16.506714</ele></trkpt><trkpt lat="-27.00385" lon="-48.655489"><ele>16.293213</ele></trkpt><trkpt lat="-27.003836" lon="-48.65546"><ele>16.449524</ele></trkpt><trkpt lat="-27.003821" lon="-48.655432"><ele>16.268433</ele></trkpt><trkpt lat="-27.003803" lon="-48.655404"><ele>16.569763</ele></trkpt><trkpt lat="-27.003782" lon="-48.655375"><ele>16.536621</ele></trkpt><trkpt lat="-27.003763" lon="-48.655348"><ele>16.209961</ele></trkpt><trkpt lat="-27.003741" lon="-48.655321"><ele>16.02356</ele></trkpt><trkpt lat="-27.003722" lon="-48.655297"><ele>15.975464</ele></trkpt><trkpt lat="-27.003706" lon="-48.655274"><ele>15.357483</ele></trkpt><trkpt lat="-27.003688" lon="-48.655249"><ele>15.801147</ele></trkpt><trkpt lat="-27.003667" lon="-48.655225"><ele>15.21521</ele></trkpt><trkpt lat="-27.003651" lon="-48.655201"><ele>14.954285</ele></trkpt><trkpt lat="-27.003632" lon="-48.655179"><ele>15.920837</ele></trkpt><trkpt lat="-27.003626" lon="-48.655157"><ele>16.065796</ele></trkpt><trkpt lat="-27.003622" lon="-48.655145"><ele>16.122803</ele></trkpt><trkpt lat="-27.003619" lon="-48.655141"><ele>15.715454</ele></trkpt><trkpt lat="-27.003619" lon="-48.65514"><ele>16.003357</ele></trkpt><trkpt lat="-27.003619" lon="-48.655141"><ele>16.049194</ele></trkpt><trkpt lat="-27.003619" lon="-48.655141"><ele>16.049194</ele></trkpt><trkpt lat="-27.00362" lon="-48.655142"><ele>16.155762</ele></trkpt><trkpt lat="-27.003622" lon="-48.655144"><ele>16.219055</ele></trkpt><trkpt lat="-27.003623" lon="-48.655144"><ele>16.210754</ele></trkpt><trkpt lat="-27.003623" lon="-48.655143"><ele>16.269836</ele></trkpt><trkpt lat="-27.003623" lon="-48.655148"><ele>16.079163</ele></trkpt><trkpt lat="-27.003621" lon="-48.655147"><ele>16.134888</ele></trkpt><trkpt lat="-27.003621" lon="-48.655146"><ele>16.07782</ele></trkpt><trkpt lat="-27.003622" lon="-48.655147"><ele>16.244751</ele></trkpt><trkpt lat="-27.003624" lon="-48.655149"><ele>16.306946</ele></trkpt><trkpt lat="-27.003627" lon="-48.65515"><ele>16.505798</ele></trkpt><trkpt lat="-27.003629" lon="-48.65515"><ele>16.63031</ele></trkpt><trkpt lat="-27.003628" lon="-48.655149"><ele>16.678101</ele></trkpt><trkpt lat="-27.003626" lon="-48.655148"><ele>16.769348</ele></trkpt><trkpt lat="-27.003625" lon="-48.655146"><ele>16.733826</ele></trkpt><trkpt lat="-27.003625" lon="-48.655146"><ele>16.733826</ele></trkpt><trkpt lat="-27.003625" lon="-48.655145"><ele>16.769287</ele></trkpt><trkpt lat="-27.003626" lon="-48.655145"><ele>16.547485</ele></trkpt><trkpt lat="-27.003624" lon="-48.655147"><ele>16.416504</ele></trkpt><trkpt lat="-27.003625" lon="-48.655149"><ele>16.308472</ele></trkpt><trkpt lat="-27.003625" lon="-48.655149"><ele>16.4505</ele></trkpt><trkpt lat="-27.003625" lon="-48.655151"><ele>16.507141</ele></trkpt><trkpt lat="-27.003627" lon="-48.655148"><ele>16.545715</ele></trkpt><trkpt lat="-27.00362" lon="-48.655141"><ele>16.349487</ele></trkpt><trkpt lat="-27.003611" lon="-48.655132"><ele>16.629028</ele></trkpt><trkpt lat="-27.0036" lon="-48.655119"><ele>16.549866</ele></trkpt><trkpt lat="-27.003587" lon="-48.655102"><ele>16.829529</ele></trkpt><trkpt lat="-27.003573" lon="-48.655083"><ele>16.329407</ele></trkpt><trkpt lat="-27.003559" lon="-48.655064"><ele>16.51825</ele></trkpt><trkpt lat="-27.003549" lon="-48.655043"><ele>16.518372</ele></trkpt><trkpt lat="-27.003542" lon="-48.655019"><ele>16.822693</ele></trkpt><trkpt lat="-27.003532" lon="-48.654999"><ele>16.730286</ele></trkpt><trkpt lat="-27.003521" lon="-48.65498"><ele>16.321411</ele></trkpt><trkpt lat="-27.00351" lon="-48.654966"><ele>16.120911</ele></trkpt><trkpt lat="-27.00351" lon="-48.654966"><ele>16.120911</ele></trkpt><trkpt lat="-27.003502" lon="-48.654953"><ele>15.996887</ele></trkpt><trkpt lat="-27.003497" lon="-48.654939"><ele>15.771545</ele></trkpt><trkpt lat="-27.003491" lon="-48.654924"><ele>15.750977</ele></trkpt><trkpt lat="-27.003485" lon="-48.654904"><ele>15.882507</ele></trkpt><trkpt lat="-27.003471" lon="-48.654884"><ele>15.773315</ele></trkpt><trkpt lat="-27.003455" lon="-48.654861"><ele>15.740173</ele></trkpt><trkpt lat="-27.003438" lon="-48.654838"><ele>15.775757</ele></trkpt><trkpt lat="-27.003422" lon="-48.654814"><ele>15.866333</ele></trkpt><trkpt lat="-27.003407" lon="-48.65479"><ele>15.950256</ele></trkpt><trkpt lat="-27.003391" lon="-48.65477"><ele>15.889526</ele></trkpt><trkpt lat="-27.003377" lon="-48.65475"><ele>15.598145</ele></trkpt><trkpt lat="-27.003362" lon="-48.654731"><ele>15.175659</ele></trkpt><trkpt lat="-27.003345" lon="-48.654714"><ele>15.026672</ele></trkpt><trkpt lat="-27.003332" lon="-48.654699"><ele>14.93512</ele></trkpt><trkpt lat="-27.003323" lon="-48.654685"><ele>14.875793</ele></trkpt><trkpt lat="-27.003314" lon="-48.654668"><ele>14.642395</ele></trkpt><trkpt lat="-27.003303" lon="-48.654651"><ele>14.830811</ele></trkpt><trkpt lat="-27.003297" lon="-48.654639"><ele>14.898499</ele></trkpt><trkpt lat="-27.003292" lon="-48.654635"><ele>14.64209</ele></trkpt><trkpt lat="-27.003289" lon="-48.654633"><ele>14.547058</ele></trkpt><trkpt lat="-27.003286" lon="-48.654631"><ele>14.557434</ele></trkpt><trkpt lat="-27.003289" lon="-48.654633"><ele>14.110413</ele></trkpt><trkpt lat="-27.003294" lon="-48.654639"><ele>13.99823</ele></trkpt><trkpt lat="-27.003298" lon="-48.654645"><ele>14.21814</ele></trkpt><trkpt lat="-27.003304" lon="-48.654653"><ele>14.390503</ele></trkpt><trkpt lat="-27.003306" lon="-48.654656"><ele>14.461426</ele></trkpt><trkpt lat="-27.003307" lon="-48.654657"><ele>14.318054</ele></trkpt><trkpt lat="-27.003309" lon="-48.654656"><ele>15.272461</ele></trkpt><trkpt lat="-27.003311" lon="-48.654654"><ele>15.243591</ele></trkpt><trkpt lat="-27.003311" lon="-48.654653"><ele>15.520447</ele></trkpt><trkpt lat="-27.003311" lon="-48.65465"><ele>15.504395</ele></trkpt><trkpt lat="-27.003312" lon="-48.654648"><ele>15.463074</ele></trkpt><trkpt lat="-27.003312" lon="-48.654648"><ele>15.463074</ele></trkpt><trkpt lat="-27.00331" lon="-48.654648"><ele>15.344238</ele></trkpt><trkpt lat="-27.003304" lon="-48.654643"><ele>15.214539</ele></trkpt><trkpt lat="-27.003298" lon="-48.654638"><ele>15.21167</ele></trkpt><trkpt lat="-27.003292" lon="-48.654635"><ele>15.189819</ele></trkpt><trkpt lat="-27.003289" lon="-48.654634"><ele>15.220398</ele></trkpt><trkpt lat="-27.003289" lon="-48.654634"><ele>15.220398</ele></trkpt><trkpt lat="-27.003287" lon="-48.654634"><ele>15.212952</ele></trkpt><trkpt lat="-27.003286" lon="-48.654634"><ele>15.214417</ele></trkpt><trkpt lat="-27.003286" lon="-48.654634"><ele>15.212341</ele></trkpt><trkpt lat="-27.003286" lon="-48.654638"><ele>14.878662</ele></trkpt><trkpt lat="-27.003286" lon="-48.654639"><ele>14.824341</ele></trkpt><trkpt lat="-27.003291" lon="-48.654641"><ele>14.823547</ele></trkpt><trkpt lat="-27.003305" lon="-48.654646"><ele>15.129944</ele></trkpt><trkpt lat="-27.003307" lon="-48.654643"><ele>15.888733</ele></trkpt><trkpt lat="-27.003304" lon="-48.654639"><ele>15.940002</ele></trkpt><trkpt lat="-27.003293" lon="-48.654635"><ele>16.03949</ele></trkpt><trkpt lat="-27.00328" lon="-48.654622"><ele>16.223022</ele></trkpt><trkpt lat="-27.003269" lon="-48.65461"><ele>15.579529</ele></trkpt><trkpt lat="-27.003256" lon="-48.654594"><ele>15.286926</ele></trkpt><trkpt lat="-27.003241" lon="-48.654576"><ele>15.515991</ele></trkpt><trkpt lat="-27.003232" lon="-48.654559"><ele>15.864014</ele></trkpt><trkpt lat="-27.003222" lon="-48.654543"><ele>16.076843</ele></trkpt><trkpt lat="-27.003218" lon="-48.654525"><ele>15.583801</ele></trkpt><trkpt lat="-27.003212" lon="-48.654508"><ele>15.519226</ele></trkpt><trkpt lat="-27.003206" lon="-48.654499"><ele>16.188293</ele></trkpt><trkpt lat="-27.003206" lon="-48.654499"><ele>16.188293</ele></trkpt><trkpt lat="-27.003197" lon="-48.654493"><ele>15.894958</ele></trkpt><trkpt lat="-27.00319" lon="-48.654486"><ele>15.54071</ele></trkpt><trkpt lat="-27.003181" lon="-48.654472"><ele>15.518738</ele></trkpt><trkpt lat="-27.003169" lon="-48.654454"><ele>15.291138</ele></trkpt><trkpt lat="-27.003157" lon="-48.654437"><ele>14.844238</ele></trkpt><trkpt lat="-27.003141" lon="-48.654415"><ele>14.757935</ele></trkpt><trkpt lat="-27.003128" lon="-48.654393"><ele>14.582886</ele></trkpt><trkpt lat="-27.003116" lon="-48.654369"><ele>14.667175</ele></trkpt><trkpt lat="-27.003102" lon="-48.654345"><ele>14.66272</ele></trkpt><trkpt lat="-27.003087" lon="-48.65432"><ele>14.554016</ele></trkpt><trkpt lat="-27.00307" lon="-48.654294"><ele>14.9245</ele></trkpt><trkpt lat="-27.003051" lon="-48.65427"><ele>14.838989</ele></trkpt><trkpt lat="-27.003033" lon="-48.654247"><ele>14.686401</ele></trkpt><trkpt lat="-27.00302" lon="-48.654232"><ele>14.757874</ele></trkpt><trkpt lat="-27.003009" lon="-48.654207"><ele>15.102661</ele></trkpt><trkpt lat="-27.002996" lon="-48.654185"><ele>14.151611</ele></trkpt><trkpt lat="-27.002983" lon="-48.654164"><ele>14.06604</ele></trkpt><trkpt lat="-27.002976" lon="-48.654142"><ele>14.021362</ele></trkpt><trkpt lat="-27.002965" lon="-48.65412"><ele>14.040161</ele></trkpt><trkpt lat="-27.002965" lon="-48.65412"><ele>14.040161</ele></trkpt><trkpt lat="-27.002953" lon="-48.654101"><ele>14.354248</ele></trkpt><trkpt lat="-27.00294" lon="-48.654084"><ele>14.263489</ele></trkpt><trkpt lat="-27.002922" lon="-48.654064"><ele>14.19989</ele></trkpt><trkpt lat="-27.002904" lon="-48.654045"><ele>14.128113</ele></trkpt><trkpt lat="-27.002889" lon="-48.654026"><ele>14.279114</ele></trkpt><trkpt lat="-27.002872" lon="-48.654003"><ele>14.35614</ele></trkpt><trkpt lat="-27.002855" lon="-48.65398"><ele>14.218018</ele></trkpt><trkpt lat="-27.002835" lon="-48.653955"><ele>14.807495</ele></trkpt><trkpt lat="-27.002815" lon="-48.653931"><ele>14.46875</ele></trkpt><trkpt lat="-27.002796" lon="-48.653905"><ele>13.379761</ele></trkpt><trkpt lat="-27.002777" lon="-48.653878"><ele>13.56897</ele></trkpt><trkpt lat="-27.002759" lon="-48.653853"><ele>13.416016</ele></trkpt><trkpt lat="-27.002742" lon="-48.653826"><ele>13.883057</ele></trkpt><trkpt lat="-27.002726" lon="-48.653799"><ele>13.811584</ele></trkpt><trkpt lat="-27.002709" lon="-48.653773"><ele>13.832397</ele></trkpt><trkpt lat="-27.002694" lon="-48.653744"><ele>14.079407</ele></trkpt><trkpt lat="-27.002676" lon="-48.653715"><ele>14.151672</ele></trkpt><trkpt lat="-27.002645" lon="-48.653673"><ele>15.163391</ele></trkpt><trkpt lat="-27.002629" lon="-48.653654"><ele>14.924927</ele></trkpt><trkpt lat="-27.002608" lon="-48.653618"><ele>15.084961</ele></trkpt><trkpt lat="-27.00259" lon="-48.653591"><ele>15.104492</ele></trkpt><trkpt lat="-27.002573" lon="-48.653563"><ele>15.071228</ele></trkpt><trkpt lat="-27.002554" lon="-48.653533"><ele>15.059509</ele></trkpt><trkpt lat="-27.002541" lon="-48.653512"><ele>14.852051</ele></trkpt><trkpt lat="-27.002523" lon="-48.653487"><ele>14.818481</ele></trkpt><trkpt lat="-27.002505" lon="-48.653463"><ele>14.812012</ele></trkpt><trkpt lat="-27.002489" lon="-48.653438"><ele>13.775635</ele></trkpt><trkpt lat="-27.002474" lon="-48.653411"><ele>13.66449</ele></trkpt><trkpt lat="-27.002474" lon="-48.653411"><ele>13.66449</ele></trkpt><trkpt lat="-27.002452" lon="-48.653388"><ele>14.191589</ele></trkpt><trkpt lat="-27.002434" lon="-48.653365"><ele>13.927307</ele></trkpt><trkpt lat="-27.002413" lon="-48.653333"><ele>14.151123</ele></trkpt><trkpt lat="-27.002395" lon="-48.653311"><ele>14.431213</ele></trkpt><trkpt lat="-27.002383" lon="-48.653289"><ele>13.903931</ele></trkpt><trkpt lat="-27.002383" lon="-48.653289"><ele>13.903931</ele></trkpt><trkpt lat="-27.002373" lon="-48.65327"><ele>13.512695</ele></trkpt><trkpt lat="-27.002367" lon="-48.65325"><ele>13.43219</ele></trkpt><trkpt lat="-27.002354" lon="-48.653228"><ele>13.569153</ele></trkpt><trkpt lat="-27.002338" lon="-48.653208"><ele>13.546631</ele></trkpt><trkpt lat="-27.002322" lon="-48.653188"><ele>13.726929</ele></trkpt><trkpt lat="-27.002306" lon="-48.653168"><ele>13.626282</ele></trkpt><trkpt lat="-27.002306" lon="-48.653168"><ele>13.626282</ele></trkpt><trkpt lat="-27.002299" lon="-48.653149"><ele>13.767883</ele></trkpt><trkpt lat="-27.002291" lon="-48.653133"><ele>14.041138</ele></trkpt><trkpt lat="-27.002286" lon="-48.653125"><ele>14.564514</ele></trkpt><trkpt lat="-27.002281" lon="-48.653119"><ele>15.220398</ele></trkpt><trkpt lat="-27.002278" lon="-48.653116"><ele>15.166504</ele></trkpt><trkpt lat="-27.00228" lon="-48.653117"><ele>15.504272</ele></trkpt><trkpt lat="-27.002281" lon="-48.653118"><ele>16.101501</ele></trkpt><trkpt lat="-27.002284" lon="-48.653119"><ele>16.365906</ele></trkpt><trkpt lat="-27.002289" lon="-48.653117"><ele>16.446594</ele></trkpt><trkpt lat="-27.002288" lon="-48.653117"><ele>16.242859</ele></trkpt><trkpt lat="-27.002286" lon="-48.653117"><ele>15.80957</ele></trkpt><trkpt lat="-27.002284" lon="-48.653117"><ele>15.686096</ele></trkpt><trkpt lat="-27.002283" lon="-48.653118"><ele>15.692139</ele></trkpt><trkpt lat="-27.002282" lon="-48.653119"><ele>15.640076</ele></trkpt><trkpt lat="-27.002281" lon="-48.653118"><ele>15.591919</ele></trkpt><trkpt lat="-27.002281" lon="-48.653118"><ele>15.591919</ele></trkpt><trkpt lat="-27.002283" lon="-48.653121"><ele>15.503967</ele></trkpt><trkpt lat="-27.002282" lon="-48.653123"><ele>15.174438</ele></trkpt><trkpt lat="-27.002283" lon="-48.653126"><ele>15.183655</ele></trkpt><trkpt lat="-27.00227" lon="-48.65312"><ele>15.015686</ele></trkpt><trkpt lat="-27.002262" lon="-48.653112"><ele>14.935181</ele></trkpt><trkpt lat="-27.002249" lon="-48.653103"><ele>15.390137</ele></trkpt><trkpt lat="-27.002238" lon="-48.653086"><ele>15.413391</ele></trkpt><trkpt lat="-27.002227" lon="-48.653062"><ele>15.520569</ele></trkpt><trkpt lat="-27.002217" lon="-48.653042"><ele>15.142151</ele></trkpt><trkpt lat="-27.002206" lon="-48.653024"><ele>15.018921</ele></trkpt><trkpt lat="-27.002206" lon="-48.653024"><ele>15.018921</ele></trkpt><trkpt lat="-27.002198" lon="-48.653007"><ele>15.294373</ele></trkpt><trkpt lat="-27.002198" lon="-48.653007"><ele>15.294373</ele></trkpt><trkpt lat="-27.002191" lon="-48.65299"><ele>15.495544</ele></trkpt><trkpt lat="-27.002182" lon="-48.652973"><ele>15.4198</ele></trkpt><trkpt lat="-27.002172" lon="-48.652954"><ele>15.451355</ele></trkpt><trkpt lat="-27.002161" lon="-48.65293"><ele>15.423706</ele></trkpt><trkpt lat="-27.002146" lon="-48.652907"><ele>15.681885</ele></trkpt><trkpt lat="-27.002128" lon="-48.652881"><ele>15.597351</ele></trkpt><trkpt lat="-27.002109" lon="-48.652854"><ele>15.559998</ele></trkpt><trkpt lat="-27.002092" lon="-48.652828"><ele>15.744446</ele></trkpt><trkpt lat="-27.002077" lon="-48.652805"><ele>15.636536</ele></trkpt><trkpt lat="-27.002057" lon="-48.652782"><ele>16.097778</ele></trkpt><trkpt lat="-27.002057" lon="-48.652782"><ele>16.097778</ele></trkpt><trkpt lat="-27.002042" lon="-48.652758"><ele>16.123352</ele></trkpt><trkpt lat="-27.002029" lon="-48.65274"><ele>15.535828</ele></trkpt><trkpt lat="-27.002018" lon="-48.652719"><ele>15.911804</ele></trkpt><trkpt lat="-27.002006" lon="-48.652701"><ele>15.650757</ele></trkpt><trkpt lat="-27.00199" lon="-48.652679"><ele>15.780396</ele></trkpt><trkpt lat="-27.00197" lon="-48.652658"><ele>15.984741</ele></trkpt><trkpt lat="-27.001953" lon="-48.652631"><ele>16.16156</ele></trkpt><trkpt lat="-27.001936" lon="-48.652606"><ele>16.031799</ele></trkpt><trkpt lat="-27.00192" lon="-48.652584"><ele>16.117798</ele></trkpt><trkpt lat="-27.001905" lon="-48.652564"><ele>16.166809</ele></trkpt><trkpt lat="-27.00189" lon="-48.652545"><ele>16.023926</ele></trkpt><trkpt lat="-27.001881" lon="-48.652532"><ele>15.798279</ele></trkpt><trkpt lat="-27.001881" lon="-48.652532"><ele>15.798279</ele></trkpt><trkpt lat="-27.00188" lon="-48.652526"><ele>15.81488</ele></trkpt><trkpt lat="-27.001879" lon="-48.652524"><ele>15.8302</ele></trkpt><trkpt lat="-27.001878" lon="-48.652525"><ele>15.997131</ele></trkpt><trkpt lat="-27.001878" lon="-48.652521"><ele>16.141846</ele></trkpt><trkpt lat="-27.001879" lon="-48.652516"><ele>15.621704</ele></trkpt><trkpt lat="-27.001878" lon="-48.652512"><ele>15.754639</ele></trkpt><trkpt lat="-27.001879" lon="-48.65251"><ele>15.781311</ele></trkpt><trkpt lat="-27.001881" lon="-48.652508"><ele>15.736938</ele></trkpt><trkpt lat="-27.001881" lon="-48.652508"><ele>15.736938</ele></trkpt><trkpt lat="-27.001881" lon="-48.652509"><ele>15.944092</ele></trkpt><trkpt lat="-27.001881" lon="-48.652507"><ele>15.931702</ele></trkpt><trkpt lat="-27.001881" lon="-48.652509"><ele>15.942688</ele></trkpt><trkpt lat="-27.001881" lon="-48.652509"><ele>15.775757</ele></trkpt><trkpt lat="-27.001877" lon="-48.652505"><ele>15.885071</ele></trkpt><trkpt lat="-27.001875" lon="-48.652505"><ele>15.560364</ele></trkpt><trkpt lat="-27.001877" lon="-48.652505"><ele>15.2724</ele></trkpt><trkpt lat="-27.00188" lon="-48.652507"><ele>15.541931</ele></trkpt><trkpt lat="-27.001882" lon="-48.652509"><ele>15.458557</ele></trkpt><trkpt lat="-27.001885" lon="-48.652509"><ele>15.543335</ele></trkpt><trkpt lat="-27.001888" lon="-48.65251"><ele>15.826843</ele></trkpt><trkpt lat="-27.001889" lon="-48.652509"><ele>15.859802</ele></trkpt><trkpt lat="-27.00189" lon="-48.652508"><ele>15.997009</ele></trkpt><trkpt lat="-27.00189" lon="-48.652506"><ele>16.084412</ele></trkpt><trkpt lat="-27.001889" lon="-48.652506"><ele>16.129211</ele></trkpt><trkpt lat="-27.001892" lon="-48.652506"><ele>16.270813</ele></trkpt><trkpt lat="-27.001894" lon="-48.652505"><ele>16.112122</ele></trkpt><trkpt lat="-27.001896" lon="-48.652504"><ele>16.028809</ele></trkpt><trkpt lat="-27.001897" lon="-48.652502"><ele>16.243164</ele></trkpt><trkpt lat="-27.001897" lon="-48.652501"><ele>16.361206</ele></trkpt><trkpt lat="-27.001895" lon="-48.652504"><ele>16.331604</ele></trkpt><trkpt lat="-27.001895" lon="-48.652508"><ele>16.503601</ele></trkpt><trkpt lat="-27.001899" lon="-48.652512"><ele>16.36084</ele></trkpt><trkpt lat="-27.001902" lon="-48.652517"><ele>16.117676</ele></trkpt><trkpt lat="-27.001903" lon="-48.652518"><ele>16.142151</ele></trkpt><trkpt lat="-27.001906" lon="-48.652523"><ele>15.709839</ele></trkpt><trkpt lat="-27.001907" lon="-48.652525"><ele>15.536987</ele></trkpt><trkpt lat="-27.001907" lon="-48.652526"><ele>15.499634</ele></trkpt><trkpt lat="-27.001907" lon="-48.652525"><ele>15.300232</ele></trkpt><trkpt lat="-27.001905" lon="-48.652527"><ele>14.950928</ele></trkpt><trkpt lat="-27.001907" lon="-48.652528"><ele>14.885071</ele></trkpt><trkpt lat="-27.001908" lon="-48.652528"><ele>14.835083</ele></trkpt><trkpt lat="-27.00191" lon="-48.65253"><ele>14.896057</ele></trkpt><trkpt lat="-27.001912" lon="-48.652529"><ele>14.684082</ele></trkpt><trkpt lat="-27.001911" lon="-48.652528"><ele>14.992737</ele></trkpt><trkpt lat="-27.001909" lon="-48.652528"><ele>15.289856</ele></trkpt><trkpt lat="-27.001908" lon="-48.652527"><ele>15.384888</ele></trkpt><trkpt lat="-27.001908" lon="-48.652527"><ele>15.488953</ele></trkpt><trkpt lat="-27.001908" lon="-48.652529"><ele>15.60022</ele></trkpt><trkpt lat="-27.001907" lon="-48.652531"><ele>15.77771</ele></trkpt><trkpt lat="-27.001906" lon="-48.652532"><ele>15.631592</ele></trkpt><trkpt lat="-27.001907" lon="-48.652534"><ele>15.612244</ele></trkpt><trkpt lat="-27.001912" lon="-48.652531"><ele>15.931274</ele></trkpt><trkpt lat="-27.001912" lon="-48.65253"><ele>15.854126</ele></trkpt><trkpt lat="-27.001912" lon="-48.652531"><ele>15.770447</ele></trkpt><trkpt lat="-27.001909" lon="-48.65253"><ele>15.775818</ele></trkpt><trkpt lat="-27.001909" lon="-48.65253"><ele>15.850037</ele></trkpt><trkpt lat="-27.00191" lon="-48.65253"><ele>15.578064</ele></trkpt><trkpt lat="-27.00191" lon="-48.652533"><ele>15.210449</ele></trkpt><trkpt lat="-27.00191" lon="-48.652537"><ele>15.091675</ele></trkpt><trkpt lat="-27.001908" lon="-48.652541"><ele>15.045105</ele></trkpt><trkpt lat="-27.001909" lon="-48.652553"><ele>14.832886</ele></trkpt><trkpt lat="-27.00191" lon="-48.652557"><ele>14.989929</ele></trkpt><trkpt lat="-27.001911" lon="-48.652557"><ele>14.880615</ele></trkpt><trkpt lat="-27.001913" lon="-48.652554"><ele>15.009827</ele></trkpt><trkpt lat="-27.001913" lon="-48.652554"><ele>14.853088</ele></trkpt><trkpt lat="-27.001912" lon="-48.652556"><ele>14.845154</ele></trkpt><trkpt lat="-27.001913" lon="-48.652555"><ele>14.710632</ele></trkpt><trkpt lat="-27.001916" lon="-48.652552"><ele>15.217285</ele></trkpt><trkpt lat="-27.001919" lon="-48.652551"><ele>15.581055</ele></trkpt><trkpt lat="-27.00192" lon="-48.652549"><ele>15.544128</ele></trkpt><trkpt lat="-27.001919" lon="-48.652545"><ele>15.386292</ele></trkpt><trkpt lat="-27.001921" lon="-48.652541"><ele>15.791016</ele></trkpt><trkpt lat="-27.001918" lon="-48.652538"><ele>15.754944</ele></trkpt><trkpt lat="-27.00191" lon="-48.652531"><ele>15.605774</ele></trkpt><trkpt lat="-27.001894" lon="-48.652526"><ele>15.504028</ele></trkpt><trkpt lat="-27.001877" lon="-48.65253"><ele>15.54718</ele></trkpt><trkpt lat="-27.001866" lon="-48.652534"><ele>15.141785</ele></trkpt><trkpt lat="-27.001861" lon="-48.652538"><ele>15.095947</ele></trkpt><trkpt lat="-27.00186" lon="-48.652541"><ele>14.78418</ele></trkpt><trkpt lat="-27.001859" lon="-48.652543"><ele>14.608704</ele></trkpt><trkpt lat="-27.001856" lon="-48.652546"><ele>14.822632</ele></trkpt><trkpt lat="-27.001854" lon="-48.652549"><ele>15.210632</ele></trkpt><trkpt lat="-27.001848" lon="-48.652552"><ele>14.963135</ele></trkpt><trkpt lat="-27.001846" lon="-48.652556"><ele>14.741333</ele></trkpt><trkpt lat="-27.001844" lon="-48.65256"><ele>14.732788</ele></trkpt><trkpt lat="-27.001837" lon="-48.652569"><ele>14.663452</ele></trkpt><trkpt lat="-27.001827" lon="-48.652574"><ele>14.742615</ele></trkpt><trkpt lat="-27.001828" lon="-48.652567"><ele>14.829224</ele></trkpt><trkpt lat="-27.001923" lon="-48.652563"><ele>7.958984</ele></trkpt><trkpt lat="-27.001949" lon="-48.652591"><ele>6.876465</ele></trkpt><trkpt lat="-27.001949" lon="-48.652591"><ele>6.876465</ele></trkpt><trkpt lat="-27.00195" lon="-48.652575"><ele>13.650635</ele></trkpt><trkpt lat="-27.00195" lon="-48.652575"><ele>13.650635</ele></trkpt><trkpt lat="-27.001937" lon="-48.652552"><ele>14.367981</ele></trkpt><trkpt lat="-27.001931" lon="-48.652549"><ele>14.538086</ele></trkpt><trkpt lat="-27.001926" lon="-48.652538"><ele>15.217285</ele></trkpt><trkpt lat="-27.001915" lon="-48.652538"><ele>15.890442</ele></trkpt><trkpt lat="-27.001907" lon="-48.65254"><ele>16.385071</ele></trkpt><trkpt lat="-27.001902" lon="-48.652539"><ele>17.265808</ele></trkpt><trkpt lat="-27.001902" lon="-48.652539"><ele>17.7099</ele></trkpt><trkpt lat="-27.001899" lon="-48.652539"><ele>17.541748</ele></trkpt><trkpt lat="-27.001897" lon="-48.65254"><ele>17.529358</ele></trkpt><trkpt lat="-27.001897" lon="-48.65254"><ele>17.469727</ele></trkpt><trkpt lat="-27.001897" lon="-48.65254"><ele>17.434937</ele></trkpt><trkpt lat="-27.001896" lon="-48.65254"><ele>17.434082</ele></trkpt><trkpt lat="-27.001896" lon="-48.65254"><ele>17.428528</ele></trkpt><trkpt lat="-27.001896" lon="-48.65254"><ele>17.428528</ele></trkpt><trkpt lat="-27.001896" lon="-48.65254"><ele>17.429016</ele></trkpt><trkpt lat="-27.001896" lon="-48.65254"><ele>17.421204</ele></trkpt><trkpt lat="-27.001896" lon="-48.65254"><ele>17.407227</ele></trkpt><trkpt lat="-27.001896" lon="-48.65254"><ele>17.407227</ele></trkpt><trkpt lat="-27.001896" lon="-48.652541"><ele>17.405518</ele></trkpt><trkpt lat="-27.001896" lon="-48.652541"><ele>17.405518</ele></trkpt><trkpt lat="-27.001896" lon="-48.652541"><ele>17.404602</ele></trkpt><trkpt lat="-27.001896" lon="-48.652541"><ele>17.404602</ele></trkpt><trkpt lat="-27.001896" lon="-48.652541"><ele>17.401672</ele></trkpt><trkpt lat="-27.001896" lon="-48.652541"><ele>17.401245</ele></trkpt><trkpt lat="-27.001896" lon="-48.652541"><ele>17.400085</ele></trkpt><trkpt lat="-27.001896" lon="-48.652541"><ele>17.401672</ele></trkpt><trkpt lat="-27.001896" lon="-48.652541"><ele>17.398315</ele></trkpt><trkpt lat="-27.001896" lon="-48.652541"><ele>17.398315</ele></trkpt><trkpt lat="-27.001896" lon="-48.652541"><ele>17.398315</ele></trkpt><trkpt lat="-27.001896" lon="-48.652541"><ele>17.398193</ele></trkpt><trkpt lat="-27.001896" lon="-48.652541"><ele>17.405457</ele></trkpt><trkpt lat="-27.001896" lon="-48.652541"><ele>17.406494</ele></trkpt><trkpt lat="-27.001895" lon="-48.652541"><ele>17.407654</ele></trkpt><trkpt lat="-27.001895" lon="-48.652541"><ele>17.406799</ele></trkpt><trkpt lat="-27.001895" lon="-48.652541"><ele>17.409546</ele></trkpt><trkpt lat="-27.001895" lon="-48.652541"><ele>17.411377</ele></trkpt><trkpt lat="-27.001895" lon="-48.65254"><ele>17.568298</ele></trkpt><trkpt lat="-27.001897" lon="-48.652541"><ele>16.933105</ele></trkpt><trkpt lat="-27.001896" lon="-48.652541"><ele>16.868225</ele></trkpt><trkpt lat="-27.001894" lon="-48.652541"><ele>16.903015</ele></trkpt><trkpt lat="-27.001891" lon="-48.65254"><ele>16.886597</ele></trkpt><trkpt lat="-27.001889" lon="-48.652539"><ele>16.880493</ele></trkpt><trkpt lat="-27.001887" lon="-48.652539"><ele>16.870178</ele></trkpt><trkpt lat="-27.001885" lon="-48.652538"><ele>16.824158</ele></trkpt><trkpt lat="-27.001882" lon="-48.652539"><ele>16.596191</ele></trkpt><trkpt lat="-27.001878" lon="-48.65254"><ele>16.789429</ele></trkpt><trkpt lat="-27.001878" lon="-48.652539"><ele>16.822327</ele></trkpt><trkpt lat="-27.001875" lon="-48.652537"><ele>16.968018</ele></trkpt><trkpt lat="-27.001869" lon="-48.652534"><ele>16.66626</ele></trkpt><trkpt lat="-27.001862" lon="-48.652525"><ele>16.861206</ele></trkpt><trkpt lat="-27.001855" lon="-48.652518"><ele>16.217896</ele></trkpt><trkpt lat="-27.001843" lon="-48.652509"><ele>16.097778</ele></trkpt><trkpt lat="-27.001833" lon="-48.652498"><ele>15.773804</ele></trkpt><trkpt lat="-27.001818" lon="-48.652478"><ele>15.865234</ele></trkpt><trkpt lat="-27.001805" lon="-48.652458"><ele>15.776184</ele></trkpt><trkpt lat="-27.001794" lon="-48.652439"><ele>15.567261</ele></trkpt><trkpt lat="-27.001783" lon="-48.65242"><ele>15.207581</ele></trkpt><trkpt lat="-27.00177" lon="-48.652399"><ele>15.156799</ele></trkpt><trkpt lat="-27.001758" lon="-48.652379"><ele>15.124878</ele></trkpt><trkpt lat="-27.001744" lon="-48.652359"><ele>15.291931</ele></trkpt><trkpt lat="-27.001724" lon="-48.652338"><ele>15.170593</ele></trkpt><trkpt lat="-27.001713" lon="-48.652321"><ele>15.314758</ele></trkpt><trkpt lat="-27.001703" lon="-48.652302"><ele>15.590088</ele></trkpt><trkpt lat="-27.001693" lon="-48.652278"><ele>15.398865</ele></trkpt><trkpt lat="-27.001681" lon="-48.652253"><ele>15.089722</ele></trkpt><trkpt lat="-27.001666" lon="-48.652229"><ele>14.828674</ele></trkpt><trkpt lat="-27.001653" lon="-48.652206"><ele>15.104675</ele></trkpt><trkpt lat="-27.001643" lon="-48.652188"><ele>15.023071</ele></trkpt><trkpt lat="-27.001643" lon="-48.652188"><ele>15.023071</ele></trkpt><trkpt lat="-27.001643" lon="-48.652188"><ele>15.023071</ele></trkpt><trkpt lat="-27.001632" lon="-48.652172"><ele>14.656067</ele></trkpt><trkpt lat="-27.00162" lon="-48.652156"><ele>14.577271</ele></trkpt><trkpt lat="-27.001604" lon="-48.652135"><ele>14.62738</ele></trkpt><trkpt lat="-27.001589" lon="-48.652112"><ele>14.535278</ele></trkpt><trkpt lat="-27.001575" lon="-48.652089"><ele>14.55896</ele></trkpt><trkpt lat="-27.00156" lon="-48.652067"><ele>14.800903</ele></trkpt><trkpt lat="-27.001547" lon="-48.652047"><ele>14.568115</ele></trkpt><trkpt lat="-27.001534" lon="-48.652027"><ele>14.516174</ele></trkpt><trkpt lat="-27.001524" lon="-48.65201"><ele>14.252808</ele></trkpt><trkpt lat="-27.001524" lon="-48.65201"><ele>14.252808</ele></trkpt><trkpt lat="-27.001514" lon="-48.651994"><ele>14.177063</ele></trkpt><trkpt lat="-27.001514" lon="-48.651994"><ele>14.177063</ele></trkpt><trkpt lat="-27.001505" lon="-48.65198"><ele>13.938049</ele></trkpt><trkpt lat="-27.001495" lon="-48.651964"><ele>13.68335</ele></trkpt><trkpt lat="-27.001483" lon="-48.651946"><ele>13.52179</ele></trkpt><trkpt lat="-27.001468" lon="-48.651933"><ele>13.212952</ele></trkpt><trkpt lat="-27.001449" lon="-48.651913"><ele>12.928345</ele></trkpt><trkpt lat="-27.001434" lon="-48.651891"><ele>12.929932</ele></trkpt><trkpt lat="-27.00142" lon="-48.651868"><ele>12.781982</ele></trkpt><trkpt lat="-27.001406" lon="-48.651844"><ele>13.011047</ele></trkpt><trkpt lat="-27.001392" lon="-48.651823"><ele>13.074463</ele></trkpt><trkpt lat="-27.001392" lon="-48.651823"><ele>13.074463</ele></trkpt><trkpt lat="-27.001379" lon="-48.651804"><ele>13.079285</ele></trkpt><trkpt lat="-27.001368" lon="-48.651786"><ele>12.952576</ele></trkpt><trkpt lat="-27.001355" lon="-48.651761"><ele>13.050659</ele></trkpt><trkpt lat="-27.001342" lon="-48.651736"><ele>12.895081</ele></trkpt><trkpt lat="-27.001332" lon="-48.651714"><ele>13.10553</ele></trkpt><trkpt lat="-27.001323" lon="-48.651689"><ele>13.065674</ele></trkpt><trkpt lat="-27.001308" lon="-48.651661"><ele>12.945007</ele></trkpt><trkpt lat="-27.001292" lon="-48.651636"><ele>12.457642</ele></trkpt><trkpt lat="-27.001273" lon="-48.651612"><ele>13.035706</ele></trkpt><trkpt lat="-27.001258" lon="-48.651587"><ele>12.588135</ele></trkpt><trkpt lat="-27.001243" lon="-48.65156"><ele>12.419006</ele></trkpt><trkpt lat="-27.001227" lon="-48.651534"><ele>12.450317</ele></trkpt><trkpt lat="-27.001208" lon="-48.651508"><ele>12.24646</ele></trkpt><trkpt lat="-27.001188" lon="-48.651481"><ele>12.417603</ele></trkpt><trkpt lat="-27.001173" lon="-48.651454"><ele>12.579346</ele></trkpt><trkpt lat="-27.001162" lon="-48.651428"><ele>12.429016</ele></trkpt><trkpt lat="-27.001155" lon="-48.6514"><ele>12.20813</ele></trkpt><trkpt lat="-27.001138" lon="-48.651379"><ele>12.106689</ele></trkpt><trkpt lat="-27.001117" lon="-48.65136"><ele>12.294861</ele></trkpt><trkpt lat="-27.001097" lon="-48.65134"><ele>12.588989</ele></trkpt><trkpt lat="-27.001078" lon="-48.651313"><ele>13.117676</ele></trkpt><trkpt lat="-27.001068" lon="-48.651288"><ele>12.931824</ele></trkpt><trkpt lat="-27.00106" lon="-48.651264"><ele>12.742371</ele></trkpt><trkpt lat="-27.001053" lon="-48.651245"><ele>12.639587</ele></trkpt><trkpt lat="-27.001046" lon="-48.651232"><ele>12.647217</ele></trkpt><trkpt lat="-27.001044" lon="-48.651227"><ele>11.875061</ele></trkpt><trkpt lat="-27.001041" lon="-48.651225"><ele>11.9552</ele></trkpt><trkpt lat="-27.001038" lon="-48.651228"><ele>12.079346</ele></trkpt><trkpt lat="-27.001038" lon="-48.651229"><ele>12.140259</ele></trkpt><trkpt lat="-27.001035" lon="-48.651229"><ele>11.86972</ele></trkpt><trkpt lat="-27.001035" lon="-48.651228"><ele>12.164063</ele></trkpt><trkpt lat="-27.001037" lon="-48.651226"><ele>12.260437</ele></trkpt><trkpt lat="-27.001038" lon="-48.65122"><ele>12.178162</ele></trkpt><trkpt lat="-27.001037" lon="-48.651216"><ele>12.191589</ele></trkpt><trkpt lat="-27.001033" lon="-48.651209"><ele>12.826355</ele></trkpt><trkpt lat="-27.001029" lon="-48.651204"><ele>13.432495</ele></trkpt><trkpt lat="-27.001026" lon="-48.651203"><ele>13.385254</ele></trkpt><trkpt lat="-27.001026" lon="-48.651203"><ele>13.385254</ele></trkpt><trkpt lat="-27.001026" lon="-48.651202"><ele>13.357056</ele></trkpt><trkpt lat="-27.001026" lon="-48.651202"><ele>13.357056</ele></trkpt><trkpt lat="-27.001026" lon="-48.651202"><ele>13.388977</ele></trkpt><trkpt lat="-27.001025" lon="-48.651202"><ele>13.39856</ele></trkpt><trkpt lat="-27.001025" lon="-48.651202"><ele>13.35437</ele></trkpt><trkpt lat="-27.001025" lon="-48.651202"><ele>13.339722</ele></trkpt><trkpt lat="-27.001024" lon="-48.651204"><ele>13.234497</ele></trkpt><trkpt lat="-27.001027" lon="-48.651213"><ele>14.129944</ele></trkpt><trkpt lat="-27.00103" lon="-48.651218"><ele>14.574585</ele></trkpt><trkpt lat="-27.00104" lon="-48.651225"><ele>14.486267</ele></trkpt><trkpt lat="-27.001043" lon="-48.651226"><ele>14.28595</ele></trkpt><trkpt lat="-27.001042" lon="-48.651223"><ele>14.287231</ele></trkpt><trkpt lat="-27.001042" lon="-48.65122"><ele>14.288879</ele></trkpt><trkpt lat="-27.001042" lon="-48.65122"><ele>14.290955</ele></trkpt><trkpt lat="-27.001042" lon="-48.65122"><ele>14.290161</ele></trkpt><trkpt lat="-27.001042" lon="-48.65122"><ele>14.289185</ele></trkpt><trkpt lat="-27.001042" lon="-48.65122"><ele>14.289551</ele></trkpt><trkpt lat="-27.001052" lon="-48.651213"><ele>14.274048</ele></trkpt><trkpt lat="-27.001062" lon="-48.651206"><ele>13.673157</ele></trkpt><trkpt lat="-27.001056" lon="-48.651203"><ele>13.714355</ele></trkpt><trkpt lat="-27.001056" lon="-48.651202"><ele>14.003479</ele></trkpt><trkpt lat="-27.001055" lon="-48.6512"><ele>14.011841</ele></trkpt><trkpt lat="-27.001055" lon="-48.6512"><ele>14.008972</ele></trkpt><trkpt lat="-27.001055" lon="-48.6512"><ele>14.17157</ele></trkpt><trkpt lat="-27.001055" lon="-48.6512"><ele>14.167419</ele></trkpt><trkpt lat="-27.001055" lon="-48.651203"><ele>13.526611</ele></trkpt><trkpt lat="-27.001051" lon="-48.651213"><ele>13.472656</ele></trkpt><trkpt lat="-27.00105" lon="-48.651217"><ele>13.603943</ele></trkpt><trkpt lat="-27.001049" lon="-48.651219"><ele>13.440979</ele></trkpt><trkpt lat="-27.001046" lon="-48.65122"><ele>13.436401</ele></trkpt><trkpt lat="-27.001044" lon="-48.651222"><ele>13.45166</ele></trkpt><trkpt lat="-27.001043" lon="-48.651222"><ele>13.43158</ele></trkpt><trkpt lat="-27.001043" lon="-48.651222"><ele>13.431641</ele></trkpt><trkpt lat="-27.001042" lon="-48.651222"><ele>13.430969</ele></trkpt><trkpt lat="-27.001042" lon="-48.651222"><ele>13.431213</ele></trkpt><trkpt lat="-27.001042" lon="-48.651222"><ele>13.431641</ele></trkpt><trkpt lat="-27.001038" lon="-48.651222"><ele>13.365051</ele></trkpt><trkpt lat="-27.001037" lon="-48.651222"><ele>13.36676</ele></trkpt><trkpt lat="-27.001036" lon="-48.651224"><ele>13.257202</ele></trkpt><trkpt lat="-27.001036" lon="-48.651224"><ele>13.582947</ele></trkpt><trkpt lat="-27.001038" lon="-48.651227"><ele>13.920837</ele></trkpt><trkpt lat="-27.001039" lon="-48.65123"><ele>14.18103</ele></trkpt><trkpt lat="-27.001038" lon="-48.651231"><ele>14.160706</ele></trkpt><trkpt lat="-27.001038" lon="-48.651231"><ele>14.1604</ele></trkpt><trkpt lat="-27.001038" lon="-48.651231"><ele>14.158875</ele></trkpt><trkpt lat="-27.001038" lon="-48.651231"><ele>14.156799</ele></trkpt><trkpt lat="-27.001038" lon="-48.651231"><ele>14.15448</ele></trkpt><trkpt lat="-27.001038" lon="-48.651231"><ele>14.153259</ele></trkpt><trkpt lat="-27.001038" lon="-48.651231"><ele>14.150757</ele></trkpt><trkpt lat="-27.001038" lon="-48.651231"><ele>14.150757</ele></trkpt><trkpt lat="-27.001038" lon="-48.651231"><ele>14.150757</ele></trkpt><trkpt lat="-27.001038" lon="-48.651231"><ele>14.144958</ele></trkpt><trkpt lat="-27.001038" lon="-48.651231"><ele>14.141052</ele></trkpt><trkpt lat="-27.001038" lon="-48.651231"><ele>14.137695</ele></trkpt><trkpt lat="-27.001038" lon="-48.651231"><ele>14.134155</ele></trkpt><trkpt lat="-27.001038" lon="-48.651231"><ele>14.134644</ele></trkpt><trkpt lat="-27.001038" lon="-48.651231"><ele>14.136597</ele></trkpt><trkpt lat="-27.001038" lon="-48.651231"><ele>14.139954</ele></trkpt><trkpt lat="-27.001038" lon="-48.651231"><ele>14.142334</ele></trkpt><trkpt lat="-27.001038" lon="-48.651231"><ele>14.14325</ele></trkpt><trkpt lat="-27.001038" lon="-48.651231"><ele>14.14325</ele></trkpt><trkpt lat="-27.001037" lon="-48.651231"><ele>14.146179</ele></trkpt><trkpt lat="-27.001037" lon="-48.651231"><ele>14.152588</ele></trkpt><trkpt lat="-27.001037" lon="-48.651231"><ele>14.154907</ele></trkpt><trkpt lat="-27.001037" lon="-48.651231"><ele>14.149658</ele></trkpt><trkpt lat="-27.001037" lon="-48.651231"><ele>14.157593</ele></trkpt><trkpt lat="-27.001037" lon="-48.651231"><ele>14.165466</ele></trkpt><trkpt lat="-27.001037" lon="-48.651231"><ele>14.169861</ele></trkpt><trkpt lat="-27.001037" lon="-48.651231"><ele>14.170959</ele></trkpt><trkpt lat="-27.001037" lon="-48.651231"><ele>14.170959</ele></trkpt><trkpt lat="-27.001037" lon="-48.651231"><ele>14.705078</ele></trkpt><trkpt lat="-27.001037" lon="-48.651231"><ele>14.704956</ele></trkpt><trkpt lat="-27.001037" lon="-48.651231"><ele>14.705322</ele></trkpt><trkpt lat="-27.001037" lon="-48.651231"><ele>14.705322</ele></trkpt><trkpt lat="-27.001037" lon="-48.651231"><ele>14.704834</ele></trkpt><trkpt lat="-27.001037" lon="-48.651231"><ele>14.705322</ele></trkpt><trkpt lat="-27.001037" lon="-48.651231"><ele>14.705505</ele></trkpt><trkpt lat="-27.001037" lon="-48.651231"><ele>14.709656</ele></trkpt><trkpt lat="-27.001037" lon="-48.651231"><ele>14.709595</ele></trkpt><trkpt lat="-27.001037" lon="-48.651231"><ele>14.710388</ele></trkpt><trkpt lat="-27.001037" lon="-48.651231"><ele>14.709961</ele></trkpt><trkpt lat="-27.001037" lon="-48.651231"><ele>14.708618</ele></trkpt><trkpt lat="-27.001036" lon="-48.651231"><ele>14.707275</ele></trkpt><trkpt lat="-27.001036" lon="-48.651231"><ele>14.707275</ele></trkpt><trkpt lat="-27.001036" lon="-48.651232"><ele>14.704834</ele></trkpt><trkpt lat="-27.001036" lon="-48.651232"><ele>14.703247</ele></trkpt><trkpt lat="-27.001036" lon="-48.651232"><ele>14.700317</ele></trkpt><trkpt lat="-27.001036" lon="-48.651232"><ele>14.69635</ele></trkpt><trkpt lat="-27.001036" lon="-48.651232"><ele>14.692627</ele></trkpt><trkpt lat="-27.001036" lon="-48.651232"><ele>14.688354</ele></trkpt><trkpt lat="-27.001036" lon="-48.651232"><ele>14.687561</ele></trkpt><trkpt lat="-27.001036" lon="-48.651232"><ele>14.687439</ele></trkpt><trkpt lat="-27.001036" lon="-48.651232"><ele>14.68573</ele></trkpt><trkpt lat="-27.001036" lon="-48.651232"><ele>14.683594</ele></trkpt><trkpt lat="-27.001036" lon="-48.651232"><ele>14.683838</ele></trkpt><trkpt lat="-27.001036" lon="-48.651232"><ele>14.681702</ele></trkpt><trkpt lat="-27.001036" lon="-48.651232"><ele>14.681702</ele></trkpt><trkpt lat="-27.001036" lon="-48.651232"><ele>14.679443</ele></trkpt><trkpt lat="-27.001036" lon="-48.651232"><ele>14.677612</ele></trkpt><trkpt lat="-27.001036" lon="-48.651232"><ele>14.676392</ele></trkpt><trkpt lat="-27.001036" lon="-48.651232"><ele>14.675476</ele></trkpt><trkpt lat="-27.001036" lon="-48.651232"><ele>14.675476</ele></trkpt><trkpt lat="-27.001036" lon="-48.651232"><ele>14.675659</ele></trkpt><trkpt lat="-27.001036" lon="-48.651232"><ele>14.675232</ele></trkpt><trkpt lat="-27.001035" lon="-48.651232"><ele>14.675537</ele></trkpt><trkpt lat="-27.001035" lon="-48.651232"><ele>14.674744</ele></trkpt><trkpt lat="-27.001035" lon="-48.651232"><ele>14.673279</ele></trkpt><trkpt lat="-27.001035" lon="-48.651232"><ele>14.672974</ele></trkpt><trkpt lat="-27.001035" lon="-48.651232"><ele>14.672974</ele></trkpt><trkpt lat="-27.001035" lon="-48.651232"><ele>14.674011</ele></trkpt><trkpt lat="-27.001035" lon="-48.651232"><ele>14.671692</ele></trkpt><trkpt lat="-27.001035" lon="-48.651232"><ele>14.671997</ele></trkpt><trkpt lat="-27.001035" lon="-48.651232"><ele>14.669983</ele></trkpt><trkpt lat="-27.001035" lon="-48.651232"><ele>14.669434</ele></trkpt><trkpt lat="-27.001035" lon="-48.651232"><ele>14.66748</ele></trkpt><trkpt lat="-27.001035" lon="-48.651232"><ele>14.664246</ele></trkpt><trkpt lat="-27.001035" lon="-48.651232"><ele>14.66449</ele></trkpt><trkpt lat="-27.001034" lon="-48.65123"><ele>14.610779</ele></trkpt><trkpt lat="-27.001034" lon="-48.651228"><ele>14.637207</ele></trkpt><trkpt lat="-27.001035" lon="-48.651228"><ele>14.637817</ele></trkpt><trkpt lat="-27.001035" lon="-48.651228"><ele>14.637512</ele></trkpt><trkpt lat="-27.001034" lon="-48.651227"><ele>14.635803</ele></trkpt></trkseg></trk></gpx>