<?xml version="1.0" encoding="UTF-8"?>
<gpx xmlns="http://www.topografix.com/GPX/1/1" version="1.1" creator="@dwayneparton/geojson-to-gpx"><wpt lat="-27.000293333333335" lon="-48.64707833333333"><ele>4.5</ele></wpt><wpt lat="-27.000291666666666" lon="-48.64707833333333"><ele>4.6</ele></wpt><wpt lat="-26.999905" lon="-48.646523333333334"><ele>4.4</ele><name>2 faixas</name></wpt><wpt lat="-27.001555" lon="-48.64900166666666"><ele>6.199999999999999</ele><name>23</name></wpt><wpt lat="-27.000080000000004" lon="-48.64677"><ele>5.4</ele><name>40km/h</name></wpt><wpt lat="-27.001893333333335" lon="-48.64953166666666"><ele>5.6</ele><name>40km/h</name></wpt><wpt lat="-27.001555" lon="-48.64900166666666"><ele>6.199999999999999</ele><name>130</name></wpt><wpt lat="-27.001555" lon="-48.64900166666666"><ele>6.199999999999999</ele><name>315</name></wpt><wpt lat="-27.001549999999998" lon="-48.64899833333334"><ele>7.699999999999999</ele><name>960</name></wpt><wpt lat="-27.002428333333334" lon="-48.65031166666666"><ele>8.6</ele><name>A ciclo é completamente reta.</name></wpt><wpt lat="-27.002428333333334" lon="-48.65031166666666"><ele>8.6</ele><name>A pintura está boa, COMPLETA e visível</name></wpt><wpt lat="-27.001555" lon="-48.64900166666666"><ele>6.199999999999999</ele><name>Área de amortecimento da ciclo (cm)</name></wpt><wpt lat="-27.001555" lon="-48.64900166666666"><ele>6.199999999999999</ele><name>Área transitável da ciclo (cm)</name></wpt><wpt lat="-26.99990833333333" lon="-48.646519999999995"><ele>4.4</ele><name>Asfalto</name></wpt><wpt lat="-26.999915" lon="-48.64648999999999"><ele>2.7</ele><name>Bidirecional</name></wpt><wpt lat="-27.002428333333334" lon="-48.65031166666666"><ele>8.6</ele><name>Bom estado</name></wpt><wpt lat="-27.000165" lon="-48.64687333333333"><ele>5.4</ele><name>Bueiro</name></wpt><wpt lat="-26.99984833333333" lon="-48.64652666666666"><ele>1.5</ele><name>Ciclofaixa</name></wpt><wpt lat="-27.001308333333334" lon="-48.64857666666667"><ele>3.9</ele><name>Obstáculo: empoçamento de água</name></wpt><wpt lat="-26.999905" lon="-48.646523333333334"><ele>4.4</ele><name>Estacionamento de um lado, incluso na circulação</name></wpt><wpt lat="-27.001555" lon="-48.64900166666666"><ele>6.199999999999999</ele><name>Faixa de carros logo ao lado da ciclo (cm)</name></wpt><wpt lat="-26.999913333333332" lon="-48.64648999999999"><ele>5.4</ele><name>Foto</name></wpt><wpt lat="-26.999931666666665" lon="-48.646568333333335"><ele>4.800000000000001</ele><name>Foto</name></wpt><wpt lat="-27.00007833333333" lon="-48.64676166666666"><ele>5.699999999999999</ele><name>Foto</name></wpt><wpt lat="-27.000288333333334" lon="-48.64707666666666"><ele>4.7</ele><name>Foto</name></wpt><wpt lat="-27.000618333333332" lon="-48.647535"><ele>6.4</ele><name>Foto</name></wpt><wpt lat="-27.000618333333332" lon="-48.647535"><ele>6.4</ele><name>Foto</name></wpt><wpt lat="-27.000903333333333" lon="-48.64797"><ele>8</ele><name>Foto</name></wpt><wpt lat="-27.001168333333332" lon="-48.64827666666667"><ele>1.1</ele><name>Foto</name></wpt><wpt lat="-27.001294999999995" lon="-48.648525"><ele>2</ele><name>Foto</name></wpt><wpt lat="-27.001311666666666" lon="-48.64855833333333"><ele>3.4000000000000004</ele><name>Foto</name></wpt><wpt lat="-27.001371666666667" lon="-48.648763333333335"><ele>7</ele><name>Foto</name></wpt><wpt lat="-27.001773333333336" lon="-48.649335"><ele>4.4</ele><name>Foto</name></wpt><wpt lat="-27.001775" lon="-48.649338333333326"><ele>4.4</ele><name>Foto</name></wpt><wpt lat="-27.001973333333332" lon="-48.649629999999995"><ele>6.6</ele><name>Foto</name></wpt><wpt lat="-27.002221666666667" lon="-48.64993666666666"><ele>8</ele><name>Foto</name></wpt><wpt lat="-27.00231833333333" lon="-48.65011666666666"><ele>8.1</ele><name>Foto</name></wpt><wpt lat="-27.002411666666664" lon="-48.65033833333334"><ele>7.9</ele><name>Foto</name></wpt><wpt lat="-27.000616666666662" lon="-48.647535"><ele>6.199999999999999</ele><name>Grade alinhada ao pneu</name></wpt><wpt lat="-27.001369999999998" lon="-48.64877"><ele>6.300000000000001</ele><name>Grade alinhada ao pneu</name></wpt><wpt lat="-27.001770000000004" lon="-48.64933666666668"><ele>4.2</ele><name>Grade alinhada ao pneu</name></wpt><wpt lat="-27.002021666666664" lon="-48.64968999999999"><ele>6.6</ele><name>Grade alinhada ao pneu</name></wpt><wpt lat="-27.002200000000002" lon="-48.64990833333333"><ele>8.5</ele><name>Grade alinhada ao pneu</name></wpt><wpt lat="-27.002428333333334" lon="-48.65031166666666"><ele>8.6</ele><name>Iluminação geral na via do mesmo lado da estrutura</name></wpt><wpt lat="-26.99990833333333" lon="-48.646505"><ele>4.5</ele><name>Mão Única</name></wpt><wpt lat="-27.002428333333334" lon="-48.65031166666666"><ele>8.6</ele><name>Não há árvores nem mudas</name></wpt><wpt lat="-26.999913333333332" lon="-48.646510000000006"><ele>4.300000000000001</ele><name>No bordo direito de Via de Mão Única</name></wpt><wpt lat="-27.000288333333334" lon="-48.64707666666666"><ele>4.7</ele><name>Obstáculo: acúmulo de lixo e terra e sedimento</name></wpt><wpt lat="-27.000294999999998" lon="-48.64707833333333"><ele>4.2</ele><name>Outro obstáculo</name></wpt><wpt lat="-27.001308333333334" lon="-48.648575"><ele>4.1</ele><name>Outro obstáculo</name></wpt><wpt lat="-27.002328333333335" lon="-48.65010166666666"><ele>7.800000000000001</ele><name>Outro obstáculo</name></wpt><wpt lat="-27.00242166666667" lon="-48.65033333333334"><ele>8.5</ele><name>Pictograma BOA condição</name></wpt><wpt lat="-26.999915" lon="-48.64654166666666"><ele>5.699999999999999</ele><name>Pictograma MÁ condição</name></wpt><wpt lat="-27.000963333333335" lon="-48.64803833333334"><ele>4.4</ele><name>Em cruzamento MÁ condição</name></wpt><wpt lat="-27.002328333333335" lon="-48.65010166666666"><ele>7.800000000000001</ele><name>Obstáculo: rampa para entrada em loja construída sobre a ciclofaixa</name></wpt><wpt lat="-27.002428333333334" lon="-48.65031166666666"><ele>8.6</ele><name>SE CICLOFAIXA: para invadir a ciclo parte do automóvel passa obrigatoriamente por cima de segregadores</name></wpt><wpt lat="-26.999906666666668" lon="-48.64651166666666"><ele>4.300000000000001</ele><name>Tachões</name></wpt><wpt lat="-26.999919999999996" lon="-48.64649666666666"><ele>4.2</ele><name>Toda área de circulação pintada de vermelho</name></wpt><wpt lat="-27.00155333333333" lon="-48.64899666666667"><ele>7.699999999999999</ele><name>Total da via (incluindo a ciclo) (cm)</name></wpt><wpt lat="-27.000553333333333" lon="-48.647479999999995"><ele>4</ele><name>Travessia de pedestre em nível (lombofaixa)</name></wpt><wpt lat="-27.000886666666663" lon="-48.64798166666666"><ele>8.7</ele><name>Travessia de pedestre em nível (lombofaixa)</name></wpt><wpt lat="-27.00129" lon="-48.64853"><ele>2.1</ele><name>Travessia de pedestre em nível (lombofaixa)</name></wpt><wpt lat="-27.001775" lon="-48.649338333333326"><ele>4.4</ele><name>Travessia de pedestre em nível (lombofaixa)</name></wpt><trk><name>Ciclofaixa R. Imbuia - Cb</name><trkseg><trkpt lat="-26.99870333333333" lon="-48.64651166666666"><ele>4.5</ele></trkpt><trkpt lat="-26.999366666666667" lon="-48.646568333333335"><ele>3.6</ele></trkpt><trkpt lat="-26.999631666666666" lon="-48.64654166666666"><ele>2.7</ele></trkpt><trkpt lat="-26.999735" lon="-48.64655"><ele>2.3</ele></trkpt><trkpt lat="-26.999806666666668" lon="-48.64654"><ele>1.6</ele></trkpt><trkpt lat="-26.99984833333333" lon="-48.64652666666666"><ele>1.5</ele></trkpt><trkpt lat="-26.99984833333333" lon="-48.64652666666666"><ele>1.5</ele></trkpt><trkpt lat="-26.999868333333332" lon="-48.64651333333333"><ele>1.8</ele></trkpt><trkpt lat="-26.999915" lon="-48.64648999999999"><ele>2.7</ele></trkpt><trkpt lat="-26.999915" lon="-48.64648999999999"><ele>2.7</ele></trkpt><trkpt lat="-26.99993833333333" lon="-48.646478333333334"><ele>4.1</ele></trkpt><trkpt lat="-26.999945000000004" lon="-48.646478333333334"><ele>4.4</ele></trkpt><trkpt lat="-26.999915" lon="-48.64651333333333"><ele>3.8000000000000003</ele></trkpt><trkpt lat="-26.999913333333332" lon="-48.64651166666666"><ele>4</ele></trkpt><trkpt lat="-26.999913333333332" lon="-48.646510000000006"><ele>4.1</ele></trkpt><trkpt lat="-26.999913333333332" lon="-48.646510000000006"><ele>4.300000000000001</ele></trkpt><trkpt lat="-26.999913333333332" lon="-48.646510000000006"><ele>4.300000000000001</ele></trkpt><trkpt lat="-26.99991166666667" lon="-48.64650833333334"><ele>4.6</ele></trkpt><trkpt lat="-26.99990833333333" lon="-48.64650833333334"><ele>4.6</ele></trkpt><trkpt lat="-26.999906666666668" lon="-48.64650666666667"><ele>4.6</ele></trkpt><trkpt lat="-26.99990833333333" lon="-48.646505"><ele>4.5</ele></trkpt><trkpt lat="-26.99990833333333" lon="-48.646505"><ele>4.5</ele></trkpt><trkpt lat="-26.99991" lon="-48.64650166666667"><ele>4.6</ele></trkpt><trkpt lat="-26.99991166666667" lon="-48.64649833333333"><ele>4.4</ele></trkpt><trkpt lat="-26.999915" lon="-48.64649666666666"><ele>4.2</ele></trkpt><trkpt lat="-26.999916666666664" lon="-48.646495"><ele>4.1</ele></trkpt><trkpt lat="-26.999918333333333" lon="-48.646495"><ele>4.2</ele></trkpt><trkpt lat="-26.999919999999996" lon="-48.64649666666666"><ele>4.2</ele></trkpt><trkpt lat="-26.999919999999996" lon="-48.64649666666666"><ele>4.2</ele></trkpt><trkpt lat="-26.999919999999996" lon="-48.646499999999996"><ele>4</ele></trkpt><trkpt lat="-26.999916666666664" lon="-48.64650166666667"><ele>4</ele></trkpt><trkpt lat="-26.99991166666667" lon="-48.64650333333334"><ele>4.2</ele></trkpt><trkpt lat="-26.99990833333333" lon="-48.64650666666667"><ele>4.2</ele></trkpt><trkpt lat="-26.999906666666668" lon="-48.64651166666666"><ele>4.300000000000001</ele></trkpt><trkpt lat="-26.999906666666668" lon="-48.64651166666666"><ele>4.300000000000001</ele></trkpt><trkpt lat="-26.999906666666668" lon="-48.64651333333333"><ele>4.5</ele></trkpt><trkpt lat="-26.999906666666668" lon="-48.64651666666667"><ele>4.4</ele></trkpt><trkpt lat="-26.999906666666668" lon="-48.64651833333334"><ele>4.4</ele></trkpt><trkpt lat="-26.99990833333333" lon="-48.646519999999995"><ele>4.4</ele></trkpt><trkpt lat="-26.99990833333333" lon="-48.646519999999995"><ele>4.4</ele></trkpt><trkpt lat="-26.999906666666668" lon="-48.646521666666665"><ele>4.4</ele></trkpt><trkpt lat="-26.999905" lon="-48.646523333333334"><ele>4.4</ele></trkpt><trkpt lat="-26.999905" lon="-48.646523333333334"><ele>4.4</ele></trkpt><trkpt lat="-26.999905" lon="-48.646523333333334"><ele>4.4</ele></trkpt><trkpt lat="-26.999905" lon="-48.646523333333334"><ele>4.4</ele></trkpt><trkpt lat="-26.999905" lon="-48.646523333333334"><ele>4.4</ele></trkpt><trkpt lat="-26.999905" lon="-48.646523333333334"><ele>4.4</ele></trkpt><trkpt lat="-26.999905" lon="-48.646523333333334"><ele>4.4</ele></trkpt><trkpt lat="-26.999905" lon="-48.646523333333334"><ele>4.4</ele></trkpt><trkpt lat="-26.999905" lon="-48.646523333333334"><ele>4.4</ele></trkpt><trkpt lat="-26.999905" lon="-48.646523333333334"><ele>4.4</ele></trkpt><trkpt lat="-26.999905" lon="-48.646523333333334"><ele>4.4</ele></trkpt><trkpt lat="-26.999905" lon="-48.646523333333334"><ele>4.4</ele></trkpt><trkpt lat="-26.999905" lon="-48.646523333333334"><ele>4.4</ele></trkpt><trkpt lat="-26.999905" lon="-48.646523333333334"><ele>4.4</ele></trkpt><trkpt lat="-26.999905" lon="-48.646523333333334"><ele>4.4</ele></trkpt><trkpt lat="-26.999905" lon="-48.646523333333334"><ele>4.4</ele></trkpt><trkpt lat="-26.999905" lon="-48.646523333333334"><ele>4.4</ele></trkpt><trkpt lat="-26.999905" lon="-48.646523333333334"><ele>4.4</ele></trkpt><trkpt lat="-26.999905" lon="-48.646523333333334"><ele>4.4</ele></trkpt><trkpt lat="-26.999905" lon="-48.646523333333334"><ele>4.4</ele></trkpt><trkpt lat="-26.999905" lon="-48.646523333333334"><ele>4.4</ele></trkpt><trkpt lat="-26.999905" lon="-48.646523333333334"><ele>4.4</ele></trkpt><trkpt lat="-26.999905" lon="-48.646523333333334"><ele>4.4</ele></trkpt><trkpt lat="-26.999905" lon="-48.646523333333334"><ele>4.4</ele></trkpt><trkpt lat="-26.999905" lon="-48.646523333333334"><ele>4.4</ele></trkpt><trkpt lat="-26.999905" lon="-48.646523333333334"><ele>4.4</ele></trkpt><trkpt lat="-26.999905" lon="-48.646523333333334"><ele>4.4</ele></trkpt><trkpt lat="-26.999905" lon="-48.646523333333334"><ele>4.4</ele></trkpt><trkpt lat="-26.999905" lon="-48.646523333333334"><ele>4.4</ele></trkpt><trkpt lat="-26.999905" lon="-48.646523333333334"><ele>4.4</ele></trkpt><trkpt lat="-26.999905" lon="-48.646523333333334"><ele>4.4</ele></trkpt><trkpt lat="-26.999905" lon="-48.646523333333334"><ele>4.4</ele></trkpt><trkpt lat="-26.999905" lon="-48.646523333333334"><ele>4.4</ele></trkpt><trkpt lat="-26.999905" lon="-48.646523333333334"><ele>4.4</ele></trkpt><trkpt lat="-26.999905" lon="-48.646523333333334"><ele>4.4</ele></trkpt><trkpt lat="-26.999905" lon="-48.646523333333334"><ele>4.4</ele></trkpt><trkpt lat="-26.999905" lon="-48.646523333333334"><ele>4.4</ele></trkpt><trkpt lat="-26.999905" lon="-48.646523333333334"><ele>4.4</ele></trkpt><trkpt lat="-26.999905" lon="-48.646523333333334"><ele>4.4</ele></trkpt><trkpt lat="-26.999905" lon="-48.646523333333334"><ele>4.4</ele></trkpt><trkpt lat="-26.999905" lon="-48.646523333333334"><ele>4.4</ele></trkpt><trkpt lat="-26.999905" lon="-48.646523333333334"><ele>4.4</ele></trkpt><trkpt lat="-26.999905" lon="-48.646523333333334"><ele>4.4</ele></trkpt><trkpt lat="-26.999905" lon="-48.646523333333334"><ele>4.4</ele></trkpt><trkpt lat="-26.999905" lon="-48.646523333333334"><ele>4.4</ele></trkpt><trkpt lat="-26.999905" lon="-48.646523333333334"><ele>4.4</ele></trkpt><trkpt lat="-26.999905" lon="-48.646523333333334"><ele>4.4</ele></trkpt><trkpt lat="-26.999905" lon="-48.646523333333334"><ele>4.4</ele></trkpt><trkpt lat="-26.999905" lon="-48.646523333333334"><ele>4.4</ele></trkpt><trkpt lat="-26.999905" lon="-48.646523333333334"><ele>4.4</ele></trkpt><trkpt lat="-26.999905" lon="-48.646523333333334"><ele>4.4</ele></trkpt><trkpt lat="-26.999905" lon="-48.646523333333334"><ele>4.4</ele></trkpt><trkpt lat="-26.999905" lon="-48.646523333333334"><ele>4.4</ele></trkpt><trkpt lat="-26.999905" lon="-48.646523333333334"><ele>4.4</ele></trkpt><trkpt lat="-26.999905" lon="-48.646523333333334"><ele>4.4</ele></trkpt><trkpt lat="-26.999905" lon="-48.646523333333334"><ele>4.4</ele></trkpt><trkpt lat="-26.999918333333333" lon="-48.64650666666667"><ele>4.6</ele></trkpt><trkpt lat="-26.999918333333333" lon="-48.64649666666666"><ele>4.9</ele></trkpt><trkpt lat="-26.999916666666664" lon="-48.64649166666666"><ele>5.1</ele></trkpt><trkpt lat="-26.999913333333332" lon="-48.64648999999999"><ele>5.4</ele></trkpt><trkpt lat="-26.999913333333332" lon="-48.64648999999999"><ele>5.4</ele></trkpt><trkpt lat="-26.999913333333332" lon="-48.64648999999999"><ele>5.4</ele></trkpt><trkpt lat="-26.999913333333332" lon="-48.64648999999999"><ele>5.4</ele></trkpt><trkpt lat="-26.999913333333332" lon="-48.64648999999999"><ele>5.4</ele></trkpt><trkpt lat="-26.999913333333332" lon="-48.64648999999999"><ele>5.4</ele></trkpt><trkpt lat="-26.99989333333333" lon="-48.646495"><ele>5.1</ele></trkpt><trkpt lat="-26.999896666666668" lon="-48.64650333333334"><ele>5.4</ele></trkpt><trkpt lat="-26.999900000000004" lon="-48.64651166666666"><ele>5.9</ele></trkpt><trkpt lat="-26.999905" lon="-48.646521666666665"><ele>5.699999999999999</ele></trkpt><trkpt lat="-26.99991" lon="-48.64653166666667"><ele>5.699999999999999</ele></trkpt><trkpt lat="-26.999915" lon="-48.64654166666666"><ele>5.699999999999999</ele></trkpt><trkpt lat="-26.999915" lon="-48.64654166666666"><ele>5.699999999999999</ele></trkpt><trkpt lat="-26.99992166666667" lon="-48.64655"><ele>5.5</ele></trkpt><trkpt lat="-26.999928333333333" lon="-48.646555000000006"><ele>5.699999999999999</ele></trkpt><trkpt lat="-26.999931666666665" lon="-48.64655666666666"><ele>5.300000000000001</ele></trkpt><trkpt lat="-26.999933333333335" lon="-48.64656"><ele>5.2</ele></trkpt><trkpt lat="-26.999933333333335" lon="-48.64656333333334"><ele>5.2</ele></trkpt><trkpt lat="-26.999931666666665" lon="-48.646568333333335"><ele>4.800000000000001</ele></trkpt><trkpt lat="-26.999931666666665" lon="-48.646568333333335"><ele>4.800000000000001</ele></trkpt><trkpt lat="-26.999930000000003" lon="-48.64657166666666"><ele>3.9</ele></trkpt><trkpt lat="-26.99992333333333" lon="-48.646566666666665"><ele>3.4000000000000004</ele></trkpt><trkpt lat="-26.999918333333333" lon="-48.64655833333333"><ele>2.9000000000000004</ele></trkpt><trkpt lat="-26.999913333333332" lon="-48.64654833333334"><ele>2.6</ele></trkpt><trkpt lat="-26.99990833333333" lon="-48.64654"><ele>2.5</ele></trkpt><trkpt lat="-26.999903333333336" lon="-48.64653"><ele>2.7</ele></trkpt><trkpt lat="-26.999903333333336" lon="-48.64653166666667"><ele>2.6</ele></trkpt><trkpt lat="-26.99990833333333" lon="-48.64653666666666"><ele>2.7</ele></trkpt><trkpt lat="-26.99991" lon="-48.646544999999996"><ele>2.6</ele></trkpt><trkpt lat="-26.99992166666667" lon="-48.64655166666667"><ele>2.9000000000000004</ele></trkpt><trkpt lat="-26.999933333333335" lon="-48.64655833333333"><ele>3.2</ele></trkpt><trkpt lat="-26.99994166666667" lon="-48.646566666666665"><ele>3.3</ele></trkpt><trkpt lat="-26.999945000000004" lon="-48.646570000000004"><ele>3.6</ele></trkpt><trkpt lat="-26.999951666666668" lon="-48.64657999999999"><ele>3.7</ele></trkpt><trkpt lat="-26.999958333333332" lon="-48.64659166666667"><ele>3.4000000000000004</ele></trkpt><trkpt lat="-26.99997" lon="-48.64660666666667"><ele>3.3</ele></trkpt><trkpt lat="-26.999985" lon="-48.64662833333333"><ele>3.5</ele></trkpt><trkpt lat="-26.99999833333333" lon="-48.64664666666666"><ele>3.4000000000000004</ele></trkpt><trkpt lat="-27.00001166666667" lon="-48.64666999999999"><ele>3.6</ele></trkpt><trkpt lat="-27.00002833333333" lon="-48.64669333333333"><ele>4</ele></trkpt><trkpt lat="-27.00004" lon="-48.64671499999999"><ele>4.5</ele></trkpt><trkpt lat="-27.000054999999996" lon="-48.64673666666666"><ele>5</ele></trkpt><trkpt lat="-27.00007333333333" lon="-48.64676166666666"><ele>5</ele></trkpt><trkpt lat="-27.000086666666668" lon="-48.64677166666667"><ele>5.1</ele></trkpt><trkpt lat="-27.00009166666667" lon="-48.646775"><ele>5</ele></trkpt><trkpt lat="-27.00009" lon="-48.646775"><ele>4.9</ele></trkpt><trkpt lat="-27.000086666666668" lon="-48.646775"><ele>5</ele></trkpt><trkpt lat="-27.000083333333336" lon="-48.646775"><ele>5.1</ele></trkpt><trkpt lat="-27.000080000000004" lon="-48.64677166666667"><ele>5.300000000000001</ele></trkpt><trkpt lat="-27.000080000000004" lon="-48.64677"><ele>5.4</ele></trkpt><trkpt lat="-27.000080000000004" lon="-48.64677"><ele>5.4</ele></trkpt><trkpt lat="-27.00007833333333" lon="-48.64676833333333"><ele>5.4</ele></trkpt><trkpt lat="-27.000080000000004" lon="-48.64676666666666"><ele>5.6</ele></trkpt><trkpt lat="-27.000080000000004" lon="-48.64676333333333"><ele>5.699999999999999</ele></trkpt><trkpt lat="-27.00007833333333" lon="-48.64676166666666"><ele>5.699999999999999</ele></trkpt><trkpt lat="-27.00007833333333" lon="-48.64676166666666"><ele>5.699999999999999</ele></trkpt><trkpt lat="-27.00007833333333" lon="-48.64676166666666"><ele>5.699999999999999</ele></trkpt><trkpt lat="-27.00007833333333" lon="-48.64676166666666"><ele>5.699999999999999</ele></trkpt><trkpt lat="-27.00007833333333" lon="-48.64676166666666"><ele>5.699999999999999</ele></trkpt><trkpt lat="-27.00007833333333" lon="-48.64676166666666"><ele>5.699999999999999</ele></trkpt><trkpt lat="-27.00007833333333" lon="-48.64676166666666"><ele>5.699999999999999</ele></trkpt><trkpt lat="-27.00007833333333" lon="-48.64676166666666"><ele>5.699999999999999</ele></trkpt><trkpt lat="-27.00007833333333" lon="-48.64676166666666"><ele>5.699999999999999</ele></trkpt><trkpt lat="-27.00007833333333" lon="-48.64676166666666"><ele>5.699999999999999</ele></trkpt><trkpt lat="-27.00007833333333" lon="-48.64676166666666"><ele>5.699999999999999</ele></trkpt><trkpt lat="-27.00007833333333" lon="-48.64676166666666"><ele>5.699999999999999</ele></trkpt><trkpt lat="-27.00007833333333" lon="-48.64676166666666"><ele>5.699999999999999</ele></trkpt><trkpt lat="-27.00008833333333" lon="-48.64676333333333"><ele>6.800000000000001</ele></trkpt><trkpt lat="-27.000095" lon="-48.646775"><ele>6.699999999999999</ele></trkpt><trkpt lat="-27.000099999999996" lon="-48.64678333333333"><ele>6.699999999999999</ele></trkpt><trkpt lat="-27.000108333333333" lon="-48.646789999999996"><ele>6.9</ele></trkpt><trkpt lat="-27.00012" lon="-48.64680333333334"><ele>6.9</ele></trkpt><trkpt lat="-27.000131666666668" lon="-48.646815"><ele>6.5</ele></trkpt><trkpt lat="-27.000141666666664" lon="-48.64683333333334"><ele>6.1</ele></trkpt><trkpt lat="-27.00015166666667" lon="-48.646855"><ele>5.800000000000001</ele></trkpt><trkpt lat="-27.000165" lon="-48.64687333333333"><ele>5.4</ele></trkpt><trkpt lat="-27.000165" lon="-48.64687333333333"><ele>5.4</ele></trkpt><trkpt lat="-27.00017666666667" lon="-48.6469"><ele>4.7</ele></trkpt><trkpt lat="-27.000189999999996" lon="-48.64692333333334"><ele>4.6</ele></trkpt><trkpt lat="-27.000201666666666" lon="-48.64694666666666"><ele>4.6</ele></trkpt><trkpt lat="-27.00022" lon="-48.64696833333334"><ele>4.6</ele></trkpt><trkpt lat="-27.00023666666667" lon="-48.64698833333333"><ele>4.7</ele></trkpt><trkpt lat="-27.000251666666667" lon="-48.64701"><ele>4.300000000000001</ele></trkpt><trkpt lat="-27.000265" lon="-48.647029999999994"><ele>3.8000000000000003</ele></trkpt><trkpt lat="-27.000276666666664" lon="-48.64704666666667"><ele>3.5</ele></trkpt><trkpt lat="-27.000285" lon="-48.647059999999996"><ele>3.1</ele></trkpt><trkpt lat="-27.000293333333335" lon="-48.64707333333334"><ele>2.9000000000000004</ele></trkpt><trkpt lat="-27.0003" lon="-48.64708"><ele>3.2</ele></trkpt><trkpt lat="-27.0003" lon="-48.64708166666666"><ele>3.6</ele></trkpt><trkpt lat="-27.000296666666667" lon="-48.64708"><ele>4</ele></trkpt><trkpt lat="-27.000294999999998" lon="-48.64707666666666"><ele>4.1</ele></trkpt><trkpt lat="-27.000294999999998" lon="-48.64707833333333"><ele>4.2</ele></trkpt><trkpt lat="-27.000294999999998" lon="-48.64707833333333"><ele>4.2</ele></trkpt><trkpt lat="-27.000293333333335" lon="-48.64707833333333"><ele>4.300000000000001</ele></trkpt><trkpt lat="-27.000293333333335" lon="-48.64707833333333"><ele>4.5</ele></trkpt><trkpt lat="-27.000293333333335" lon="-48.64707833333333"><ele>4.5</ele></trkpt><trkpt lat="-27.000293333333335" lon="-48.64707833333333"><ele>4.6</ele></trkpt><trkpt lat="-27.000291666666666" lon="-48.64707833333333"><ele>4.6</ele></trkpt><trkpt lat="-27.000291666666666" lon="-48.64707833333333"><ele>4.6</ele></trkpt><trkpt lat="-27.000290000000003" lon="-48.64707833333333"><ele>4.6</ele></trkpt><trkpt lat="-27.000288333333334" lon="-48.64707666666666"><ele>4.7</ele></trkpt><trkpt lat="-27.000288333333334" lon="-48.64707666666666"><ele>4.7</ele></trkpt><trkpt lat="-27.000288333333334" lon="-48.64707666666666"><ele>4.7</ele></trkpt><trkpt lat="-27.000288333333334" lon="-48.64707666666666"><ele>4.7</ele></trkpt><trkpt lat="-27.000288333333334" lon="-48.64707666666666"><ele>4.7</ele></trkpt><trkpt lat="-27.000288333333334" lon="-48.64707666666666"><ele>4.7</ele></trkpt><trkpt lat="-27.000288333333334" lon="-48.64707666666666"><ele>4.7</ele></trkpt><trkpt lat="-27.000288333333334" lon="-48.64707666666666"><ele>4.7</ele></trkpt><trkpt lat="-27.000288333333334" lon="-48.64707666666666"><ele>4.7</ele></trkpt><trkpt lat="-27.000288333333334" lon="-48.64707666666666"><ele>4.7</ele></trkpt><trkpt lat="-27.000288333333334" lon="-48.64707666666666"><ele>4.7</ele></trkpt><trkpt lat="-27.000288333333334" lon="-48.64707666666666"><ele>4.7</ele></trkpt><trkpt lat="-27.000288333333334" lon="-48.64707666666666"><ele>4.7</ele></trkpt><trkpt lat="-27.000288333333334" lon="-48.64707666666666"><ele>4.7</ele></trkpt><trkpt lat="-27.000288333333334" lon="-48.64707666666666"><ele>4.7</ele></trkpt><trkpt lat="-27.000288333333334" lon="-48.64707666666666"><ele>4.7</ele></trkpt><trkpt lat="-27.000288333333334" lon="-48.64707666666666"><ele>4.7</ele></trkpt><trkpt lat="-27.000288333333334" lon="-48.64707666666666"><ele>4.7</ele></trkpt><trkpt lat="-27.000288333333334" lon="-48.64707666666666"><ele>4.7</ele></trkpt><trkpt lat="-27.000288333333334" lon="-48.64707666666666"><ele>4.7</ele></trkpt><trkpt lat="-27.000288333333334" lon="-48.64707666666666"><ele>4.7</ele></trkpt><trkpt lat="-27.000288333333334" lon="-48.64707666666666"><ele>4.7</ele></trkpt><trkpt lat="-27.000288333333334" lon="-48.64707666666666"><ele>4.7</ele></trkpt><trkpt lat="-27.000288333333334" lon="-48.64707666666666"><ele>4.7</ele></trkpt><trkpt lat="-27.000288333333334" lon="-48.64707666666666"><ele>4.7</ele></trkpt><trkpt lat="-27.000288333333334" lon="-48.64707666666666"><ele>4.7</ele></trkpt><trkpt lat="-27.00030166666666" lon="-48.647104999999996"><ele>3.8000000000000003</ele></trkpt><trkpt lat="-27.00031166666667" lon="-48.647119999999994"><ele>4</ele></trkpt><trkpt lat="-27.000324999999997" lon="-48.64714166666666"><ele>4.300000000000001</ele></trkpt><trkpt lat="-27.00034333333333" lon="-48.64716833333333"><ele>4.6</ele></trkpt><trkpt lat="-27.000363333333333" lon="-48.647194999999996"><ele>4.5</ele></trkpt><trkpt lat="-27.000380000000003" lon="-48.647221666666674"><ele>4.7</ele></trkpt><trkpt lat="-27.000395000000005" lon="-48.64724833333333"><ele>4.9</ele></trkpt><trkpt lat="-27.000411666666665" lon="-48.64727333333334"><ele>4.9</ele></trkpt><trkpt lat="-27.000426666666666" lon="-48.64729833333334"><ele>4.6</ele></trkpt><trkpt lat="-27.000445" lon="-48.647325"><ele>4.300000000000001</ele></trkpt><trkpt lat="-27.000463333333332" lon="-48.64735333333333"><ele>4.1</ele></trkpt><trkpt lat="-27.000481666666662" lon="-48.64738166666666"><ele>4.1</ele></trkpt><trkpt lat="-27.000501666666665" lon="-48.64740833333334"><ele>4.1</ele></trkpt><trkpt lat="-27.000519999999998" lon="-48.64743166666667"><ele>4.2</ele></trkpt><trkpt lat="-27.000535" lon="-48.64745666666666"><ele>4</ele></trkpt><trkpt lat="-27.000553333333333" lon="-48.647479999999995"><ele>4</ele></trkpt><trkpt lat="-27.000553333333333" lon="-48.647479999999995"><ele>4</ele></trkpt><trkpt lat="-27.00056833333333" lon="-48.647505"><ele>4.2</ele></trkpt><trkpt lat="-27.000576666666667" lon="-48.647523333333325"><ele>4.6</ele></trkpt><trkpt lat="-27.000586666666663" lon="-48.64754166666667"><ele>5.1</ele></trkpt><trkpt lat="-27.000594999999997" lon="-48.64755166666667"><ele>5</ele></trkpt><trkpt lat="-27.000598333333333" lon="-48.64755333333333"><ele>4.800000000000001</ele></trkpt><trkpt lat="-27.000600000000002" lon="-48.64755"><ele>5.2</ele></trkpt><trkpt lat="-27.000601666666665" lon="-48.64754666666666"><ele>5.5</ele></trkpt><trkpt lat="-27.000605000000004" lon="-48.64754500000001"><ele>5.699999999999999</ele></trkpt><trkpt lat="-27.000608333333336" lon="-48.64754166666667"><ele>5.800000000000001</ele></trkpt><trkpt lat="-27.000611666666668" lon="-48.64754"><ele>5.9</ele></trkpt><trkpt lat="-27.00061333333333" lon="-48.64753833333332"><ele>5.9</ele></trkpt><trkpt lat="-27.000616666666662" lon="-48.647536666666674"><ele>6.1</ele></trkpt><trkpt lat="-27.000616666666662" lon="-48.647535"><ele>6.199999999999999</ele></trkpt><trkpt lat="-27.000616666666662" lon="-48.647535"><ele>6.199999999999999</ele></trkpt><trkpt lat="-27.000618333333332" lon="-48.647535"><ele>6.4</ele></trkpt><trkpt lat="-27.000618333333332" lon="-48.647535"><ele>6.4</ele></trkpt><trkpt lat="-27.000618333333332" lon="-48.647535"><ele>6.4</ele></trkpt><trkpt lat="-27.000618333333332" lon="-48.647535"><ele>6.4</ele></trkpt><trkpt lat="-27.000618333333332" lon="-48.647535"><ele>6.4</ele></trkpt><trkpt lat="-27.000618333333332" lon="-48.647535"><ele>6.4</ele></trkpt><trkpt lat="-27.000618333333332" lon="-48.647535"><ele>6.4</ele></trkpt><trkpt lat="-27.000618333333332" lon="-48.647535"><ele>6.4</ele></trkpt><trkpt lat="-27.000618333333332" lon="-48.647535"><ele>6.4</ele></trkpt><trkpt lat="-27.000618333333332" lon="-48.647535"><ele>6.4</ele></trkpt><trkpt lat="-27.000618333333332" lon="-48.647535"><ele>6.4</ele></trkpt><trkpt lat="-27.000618333333332" lon="-48.647535"><ele>6.4</ele></trkpt><trkpt lat="-27.000618333333332" lon="-48.647535"><ele>6.4</ele></trkpt><trkpt lat="-27.000618333333332" lon="-48.647535"><ele>6.4</ele></trkpt><trkpt lat="-27.000618333333332" lon="-48.647535"><ele>6.4</ele></trkpt><trkpt lat="-27.000618333333332" lon="-48.647535"><ele>6.4</ele></trkpt><trkpt lat="-27.000618333333332" lon="-48.647535"><ele>6.4</ele></trkpt><trkpt lat="-27.000608333333336" lon="-48.64754333333334"><ele>7.4</ele></trkpt><trkpt lat="-27.000615" lon="-48.647558333333336"><ele>7.4</ele></trkpt><trkpt lat="-27.00063" lon="-48.64757666666666"><ele>7.199999999999999</ele></trkpt><trkpt lat="-27.000645000000002" lon="-48.64760166666667"><ele>7.4</ele></trkpt><trkpt lat="-27.000656666666668" lon="-48.64763166666667"><ele>7.300000000000001</ele></trkpt><trkpt lat="-27.00067" lon="-48.647650000000006"><ele>7.5</ele></trkpt><trkpt lat="-27.000695000000004" lon="-48.647675"><ele>7.199999999999999</ele></trkpt><trkpt lat="-27.000713333333337" lon="-48.64769666666666"><ele>6.6</ele></trkpt><trkpt lat="-27.000733333333333" lon="-48.64772833333333"><ele>6.5</ele></trkpt><trkpt lat="-27.000751666666662" lon="-48.64776333333332"><ele>6.6</ele></trkpt><trkpt lat="-27.000770000000003" lon="-48.64780166666666"><ele>6.300000000000001</ele></trkpt><trkpt lat="-27.000788333333336" lon="-48.647841666666665"><ele>6.4</ele></trkpt><trkpt lat="-27.000811666666664" lon="-48.647875000000006"><ele>6.699999999999999</ele></trkpt><trkpt lat="-27.000826666666665" lon="-48.64790500000001"><ele>7.6</ele></trkpt><trkpt lat="-27.000844999999995" lon="-48.647933333333334"><ele>7.800000000000001</ele></trkpt><trkpt lat="-27.000859999999996" lon="-48.64795833333333"><ele>8.1</ele></trkpt><trkpt lat="-27.000870000000003" lon="-48.647974999999995"><ele>8.4</ele></trkpt><trkpt lat="-27.000878333333336" lon="-48.64798166666666"><ele>8.7</ele></trkpt><trkpt lat="-27.00088333333333" lon="-48.64798166666666"><ele>8.6</ele></trkpt><trkpt lat="-27.00088333333333" lon="-48.64798333333333"><ele>8.5</ele></trkpt><trkpt lat="-27.000885" lon="-48.64798333333333"><ele>8.5</ele></trkpt><trkpt lat="-27.000886666666663" lon="-48.64798166666666"><ele>8.7</ele></trkpt><trkpt lat="-27.000886666666663" lon="-48.64798166666666"><ele>8.7</ele></trkpt><trkpt lat="-27.000889999999995" lon="-48.64798166666666"><ele>8.7</ele></trkpt><trkpt lat="-27.000889999999995" lon="-48.647976666666665"><ele>8.7</ele></trkpt><trkpt lat="-27.000891666666668" lon="-48.64797166666667"><ele>8.6</ele></trkpt><trkpt lat="-27.00089666666667" lon="-48.64797"><ele>8.4</ele></trkpt><trkpt lat="-27.000903333333333" lon="-48.64797"><ele>8</ele></trkpt><trkpt lat="-27.000903333333333" lon="-48.64797"><ele>8</ele></trkpt><trkpt lat="-27.000908333333335" lon="-48.64797"><ele>7.699999999999999</ele></trkpt><trkpt lat="-27.000916666666665" lon="-48.64797166666667"><ele>7.4</ele></trkpt><trkpt lat="-27.00092666666667" lon="-48.64799"><ele>7.300000000000001</ele></trkpt><trkpt lat="-27.000934999999995" lon="-48.64801333333333"><ele>7.1</ele></trkpt><trkpt lat="-27.000948333333334" lon="-48.64802666666666"><ele>6.199999999999999</ele></trkpt><trkpt lat="-27.00095666666667" lon="-48.64803333333332"><ele>5.4</ele></trkpt><trkpt lat="-27.000961666666665" lon="-48.64804000000001"><ele>4.7</ele></trkpt><trkpt lat="-27.000963333333335" lon="-48.64803833333334"><ele>4.4</ele></trkpt><trkpt lat="-27.000963333333335" lon="-48.64803833333334"><ele>4.4</ele></trkpt><trkpt lat="-27.000961666666665" lon="-48.64803666666667"><ele>4.2</ele></trkpt><trkpt lat="-27.000961666666665" lon="-48.64803666666667"><ele>4.1</ele></trkpt><trkpt lat="-27.000963333333335" lon="-48.64803666666667"><ele>4</ele></trkpt><trkpt lat="-27.000966666666667" lon="-48.64803666666667"><ele>3.9</ele></trkpt><trkpt lat="-27.000968333333336" lon="-48.64804666666667"><ele>3.9</ele></trkpt><trkpt lat="-27.000975" lon="-48.64805666666666"><ele>3.8000000000000003</ele></trkpt><trkpt lat="-27.000985" lon="-48.648070000000004"><ele>3.6</ele></trkpt><trkpt lat="-27.000999999999998" lon="-48.64809"><ele>3.6</ele></trkpt><trkpt lat="-27.001015" lon="-48.648109999999996"><ele>3.5</ele></trkpt><trkpt lat="-27.00103" lon="-48.64812833333334"><ele>3</ele></trkpt><trkpt lat="-27.001048333333333" lon="-48.64814666666666"><ele>2.4000000000000004</ele></trkpt><trkpt lat="-27.001068333333333" lon="-48.648165"><ele>2.1</ele></trkpt><trkpt lat="-27.001096666666665" lon="-48.648185"><ele>1.8</ele></trkpt><trkpt lat="-27.001123333333332" lon="-48.648213333333324"><ele>1.3</ele></trkpt><trkpt lat="-27.001146666666667" lon="-48.648243333333326"><ele>0.7000000000000001</ele></trkpt><trkpt lat="-27.001168333333332" lon="-48.64827666666667"><ele>1.1</ele></trkpt><trkpt lat="-27.001168333333332" lon="-48.64827666666667"><ele>1.1</ele></trkpt><trkpt lat="-27.001183333333334" lon="-48.648305"><ele>1.5</ele></trkpt><trkpt lat="-27.001204999999995" lon="-48.64834166666666"><ele>1.4000000000000001</ele></trkpt><trkpt lat="-27.001228333333334" lon="-48.64836666666667"><ele>2</ele></trkpt><trkpt lat="-27.00124333333333" lon="-48.64839"><ele>2.5</ele></trkpt><trkpt lat="-27.001249999999995" lon="-48.64842"><ele>2.8</ele></trkpt><trkpt lat="-27.001253333333338" lon="-48.648455"><ele>2.6</ele></trkpt><trkpt lat="-27.001263333333334" lon="-48.648481666666676"><ele>2.5</ele></trkpt><trkpt lat="-27.001276666666666" lon="-48.64850499999999"><ele>2.6</ele></trkpt><trkpt lat="-27.00128666666667" lon="-48.64852166666666"><ele>2.6</ele></trkpt><trkpt lat="-27.00129" lon="-48.64853"><ele>2.1</ele></trkpt><trkpt lat="-27.00129" lon="-48.64853"><ele>2.1</ele></trkpt><trkpt lat="-27.001291666666663" lon="-48.648526666666676"><ele>1.7000000000000002</ele></trkpt><trkpt lat="-27.001293333333333" lon="-48.64852333333333"><ele>1.8</ele></trkpt><trkpt lat="-27.00129666666667" lon="-48.64852166666666"><ele>1.7000000000000002</ele></trkpt><trkpt lat="-27.00129666666667" lon="-48.64852166666666"><ele>1.8</ele></trkpt><trkpt lat="-27.001294999999995" lon="-48.648525"><ele>2</ele></trkpt><trkpt lat="-27.001294999999995" lon="-48.648525"><ele>2</ele></trkpt><trkpt lat="-27.00129" lon="-48.648526666666676"><ele>2.1</ele></trkpt><trkpt lat="-27.001291666666663" lon="-48.64853"><ele>2.2</ele></trkpt><trkpt lat="-27.001294999999995" lon="-48.648536666666665"><ele>2.5</ele></trkpt><trkpt lat="-27.00130166666667" lon="-48.648545"><ele>2.9000000000000004</ele></trkpt><trkpt lat="-27.001305000000002" lon="-48.64855333333333"><ele>2.8</ele></trkpt><trkpt lat="-27.001308333333334" lon="-48.648563333333335"><ele>3</ele></trkpt><trkpt lat="-27.001309999999997" lon="-48.64857"><ele>3.4000000000000004</ele></trkpt><trkpt lat="-27.001308333333334" lon="-48.648575"><ele>4.1</ele></trkpt><trkpt lat="-27.001308333333334" lon="-48.648575"><ele>4.1</ele></trkpt><trkpt lat="-27.001308333333334" lon="-48.64857666666667"><ele>3.9</ele></trkpt><trkpt lat="-27.001308333333334" lon="-48.64857666666667"><ele>3.9</ele></trkpt><trkpt lat="-27.001306666666665" lon="-48.648579999999995"><ele>4</ele></trkpt><trkpt lat="-27.001305000000002" lon="-48.648583333333335"><ele>3.8000000000000003</ele></trkpt><trkpt lat="-27.001306666666665" lon="-48.648581666666665"><ele>3.7</ele></trkpt><trkpt lat="-27.00130166666667" lon="-48.648581666666665"><ele>3.7</ele></trkpt><trkpt lat="-27.00130166666667" lon="-48.64857833333334"><ele>3.7</ele></trkpt><trkpt lat="-27.001303333333333" lon="-48.648571666666676"><ele>3.5</ele></trkpt><trkpt lat="-27.001306666666665" lon="-48.648563333333335"><ele>3.5</ele></trkpt><trkpt lat="-27.001311666666666" lon="-48.64855833333333"><ele>3.4000000000000004</ele></trkpt><trkpt lat="-27.001311666666666" lon="-48.64855833333333"><ele>3.4000000000000004</ele></trkpt><trkpt lat="-27.001311666666666" lon="-48.64855833333333"><ele>3.4000000000000004</ele></trkpt><trkpt lat="-27.001311666666666" lon="-48.64855833333333"><ele>3.4000000000000004</ele></trkpt><trkpt lat="-27.001311666666666" lon="-48.64855833333333"><ele>3.4000000000000004</ele></trkpt><trkpt lat="-27.001311666666666" lon="-48.64855833333333"><ele>3.4000000000000004</ele></trkpt><trkpt lat="-27.001311666666666" lon="-48.64855833333333"><ele>3.4000000000000004</ele></trkpt><trkpt lat="-27.001311666666666" lon="-48.64855833333333"><ele>3.4000000000000004</ele></trkpt><trkpt lat="-27.001311666666666" lon="-48.64855833333333"><ele>3.4000000000000004</ele></trkpt><trkpt lat="-27.001311666666666" lon="-48.64855833333333"><ele>3.4000000000000004</ele></trkpt><trkpt lat="-27.001311666666666" lon="-48.64855833333333"><ele>3.4000000000000004</ele></trkpt><trkpt lat="-27.001323333333335" lon="-48.64856666666666"><ele>3.2</ele></trkpt><trkpt lat="-27.00132833333333" lon="-48.648571666666676"><ele>2.8</ele></trkpt><trkpt lat="-27.001335" lon="-48.648579999999995"><ele>2.8</ele></trkpt><trkpt lat="-27.001338333333333" lon="-48.64859833333333"><ele>2.6</ele></trkpt><trkpt lat="-27.001345" lon="-48.64862"><ele>2.6</ele></trkpt><trkpt lat="-27.001354999999997" lon="-48.64864666666667"><ele>2.6</ele></trkpt><trkpt lat="-27.00136166666667" lon="-48.648676666666674"><ele>2.4000000000000004</ele></trkpt><trkpt lat="-27.001366666666666" lon="-48.64870333333333"><ele>2.3</ele></trkpt><trkpt lat="-27.001371666666667" lon="-48.64872666666667"><ele>2.1</ele></trkpt><trkpt lat="-27.00137666666667" lon="-48.648741666666666"><ele>2.2</ele></trkpt><trkpt lat="-27.00138" lon="-48.648751666666676"><ele>2.7</ele></trkpt><trkpt lat="-27.00138" lon="-48.648751666666676"><ele>2.7</ele></trkpt><trkpt lat="-27.00137833333333" lon="-48.648763333333335"><ele>2.8</ele></trkpt><trkpt lat="-27.001375" lon="-48.648766666666674"><ele>3.5</ele></trkpt><trkpt lat="-27.001371666666667" lon="-48.64877"><ele>4.5</ele></trkpt><trkpt lat="-27.001371666666667" lon="-48.64877"><ele>5.6</ele></trkpt><trkpt lat="-27.001369999999998" lon="-48.64877"><ele>6.300000000000001</ele></trkpt><trkpt lat="-27.001369999999998" lon="-48.64877"><ele>6.300000000000001</ele></trkpt><trkpt lat="-27.001368333333335" lon="-48.648766666666674"><ele>6.699999999999999</ele></trkpt><trkpt lat="-27.001368333333335" lon="-48.648765000000004"><ele>6.800000000000001</ele></trkpt><trkpt lat="-27.001368333333335" lon="-48.648766666666674"><ele>6.9</ele></trkpt><trkpt lat="-27.001369999999998" lon="-48.648763333333335"><ele>6.9</ele></trkpt><trkpt lat="-27.001371666666667" lon="-48.648763333333335"><ele>7</ele></trkpt><trkpt lat="-27.001371666666667" lon="-48.648763333333335"><ele>7</ele></trkpt><trkpt lat="-27.001371666666667" lon="-48.648763333333335"><ele>7</ele></trkpt><trkpt lat="-27.001381666666664" lon="-48.64877"><ele>7.6</ele></trkpt><trkpt lat="-27.001393333333333" lon="-48.64878166666667"><ele>8</ele></trkpt><trkpt lat="-27.001405" lon="-48.648798333333325"><ele>8.8</ele></trkpt><trkpt lat="-27.00142" lon="-48.64881666666667"><ele>9.6</ele></trkpt><trkpt lat="-27.00143666666667" lon="-48.648833333333336"><ele>9.799999999999999</ele></trkpt><trkpt lat="-27.00145166666667" lon="-48.64884833333334"><ele>9.4</ele></trkpt><trkpt lat="-27.001465" lon="-48.64886833333333"><ele>9.2</ele></trkpt><trkpt lat="-27.001489999999997" lon="-48.648898333333335"><ele>5.800000000000001</ele></trkpt><trkpt lat="-27.001498333333334" lon="-48.648923333333336"><ele>5.800000000000001</ele></trkpt><trkpt lat="-27.001506666666668" lon="-48.648946666666674"><ele>5.300000000000001</ele></trkpt><trkpt lat="-27.00152333333333" lon="-48.64897166666666"><ele>5.2</ele></trkpt><trkpt lat="-27.001533333333334" lon="-48.648986666666666"><ele>4.800000000000001</ele></trkpt><trkpt lat="-27.001534999999997" lon="-48.648988333333335"><ele>4.7</ele></trkpt><trkpt lat="-27.001533333333334" lon="-48.648988333333335"><ele>4.6</ele></trkpt><trkpt lat="-27.001533333333334" lon="-48.648990000000005"><ele>5</ele></trkpt><trkpt lat="-27.001533333333334" lon="-48.648988333333335"><ele>5.699999999999999</ele></trkpt><trkpt lat="-27.001534999999997" lon="-48.64899333333333"><ele>6.5</ele></trkpt><trkpt lat="-27.001536666666667" lon="-48.648999999999994"><ele>6.699999999999999</ele></trkpt><trkpt lat="-27.00154" lon="-48.64900166666666"><ele>6.5</ele></trkpt><trkpt lat="-27.001545000000004" lon="-48.64900333333333"><ele>6.5</ele></trkpt><trkpt lat="-27.001548333333336" lon="-48.649005"><ele>6.199999999999999</ele></trkpt><trkpt lat="-27.001551666666668" lon="-48.649005"><ele>6.4</ele></trkpt><trkpt lat="-27.001555" lon="-48.64900166666666"><ele>6.199999999999999</ele></trkpt><trkpt lat="-27.001555" lon="-48.64900166666666"><ele>6.199999999999999</ele></trkpt><trkpt lat="-27.001555" lon="-48.64900166666666"><ele>6.199999999999999</ele></trkpt><trkpt lat="-27.001555" lon="-48.64900166666666"><ele>6.199999999999999</ele></trkpt><trkpt lat="-27.001555" lon="-48.64900166666666"><ele>6.199999999999999</ele></trkpt><trkpt lat="-27.001555" lon="-48.64900166666666"><ele>6.199999999999999</ele></trkpt><trkpt lat="-27.001555" lon="-48.64900166666666"><ele>6.199999999999999</ele></trkpt><trkpt lat="-27.001555" lon="-48.64900166666666"><ele>6.199999999999999</ele></trkpt><trkpt lat="-27.001555" lon="-48.64900166666666"><ele>6.199999999999999</ele></trkpt><trkpt lat="-27.001555" lon="-48.64900166666666"><ele>6.199999999999999</ele></trkpt><trkpt lat="-27.001555" lon="-48.64900166666666"><ele>6.199999999999999</ele></trkpt><trkpt lat="-27.001555" lon="-48.64900166666666"><ele>6.199999999999999</ele></trkpt><trkpt lat="-27.001555" lon="-48.64900166666666"><ele>6.199999999999999</ele></trkpt><trkpt lat="-27.001555" lon="-48.64900166666666"><ele>6.199999999999999</ele></trkpt><trkpt lat="-27.001555" lon="-48.64900166666666"><ele>6.199999999999999</ele></trkpt><trkpt lat="-27.001555" lon="-48.64900166666666"><ele>6.199999999999999</ele></trkpt><trkpt lat="-27.001555" lon="-48.64900166666666"><ele>6.199999999999999</ele></trkpt><trkpt lat="-27.001555" lon="-48.64900166666666"><ele>6.199999999999999</ele></trkpt><trkpt lat="-27.001555" lon="-48.64900166666666"><ele>6.199999999999999</ele></trkpt><trkpt lat="-27.001555" lon="-48.64900166666666"><ele>6.199999999999999</ele></trkpt><trkpt lat="-27.001555" lon="-48.64900166666666"><ele>6.199999999999999</ele></trkpt><trkpt lat="-27.001555" lon="-48.64900166666666"><ele>6.199999999999999</ele></trkpt><trkpt lat="-27.001555" lon="-48.64900166666666"><ele>6.199999999999999</ele></trkpt><trkpt lat="-27.001555" lon="-48.64900166666666"><ele>6.199999999999999</ele></trkpt><trkpt lat="-27.001555" lon="-48.64900166666666"><ele>6.199999999999999</ele></trkpt><trkpt lat="-27.001555" lon="-48.64900166666666"><ele>6.199999999999999</ele></trkpt><trkpt lat="-27.001555" lon="-48.64900166666666"><ele>6.199999999999999</ele></trkpt><trkpt lat="-27.001555" lon="-48.64900166666666"><ele>6.199999999999999</ele></trkpt><trkpt lat="-27.001555" lon="-48.64900166666666"><ele>6.199999999999999</ele></trkpt><trkpt lat="-27.001555" lon="-48.64900166666666"><ele>6.199999999999999</ele></trkpt><trkpt lat="-27.001555" lon="-48.64900166666666"><ele>6.199999999999999</ele></trkpt><trkpt lat="-27.001555" lon="-48.64900166666666"><ele>6.199999999999999</ele></trkpt><trkpt lat="-27.001555" lon="-48.64900166666666"><ele>6.199999999999999</ele></trkpt><trkpt lat="-27.001555" lon="-48.64900166666666"><ele>6.199999999999999</ele></trkpt><trkpt lat="-27.001555" lon="-48.64900166666666"><ele>6.199999999999999</ele></trkpt><trkpt lat="-27.001555" lon="-48.64900166666666"><ele>6.199999999999999</ele></trkpt><trkpt lat="-27.001555" lon="-48.64900166666666"><ele>6.199999999999999</ele></trkpt><trkpt lat="-27.00156" lon="-48.64900666666667"><ele>6.699999999999999</ele></trkpt><trkpt lat="-27.001564999999996" lon="-48.64900333333333"><ele>6.199999999999999</ele></trkpt><trkpt lat="-27.00156666666667" lon="-48.64900166666666"><ele>6.1</ele></trkpt><trkpt lat="-27.001564999999996" lon="-48.648999999999994"><ele>5.9</ele></trkpt><trkpt lat="-27.001564999999996" lon="-48.648999999999994"><ele>5.9</ele></trkpt><trkpt lat="-27.001564999999996" lon="-48.648999999999994"><ele>5.9</ele></trkpt><trkpt lat="-27.001564999999996" lon="-48.648999999999994"><ele>5.9</ele></trkpt><trkpt lat="-27.001564999999996" lon="-48.648999999999994"><ele>5.9</ele></trkpt><trkpt lat="-27.001564999999996" lon="-48.648999999999994"><ele>5.9</ele></trkpt><trkpt lat="-27.001564999999996" lon="-48.648999999999994"><ele>5.9</ele></trkpt><trkpt lat="-27.001564999999996" lon="-48.648999999999994"><ele>5.9</ele></trkpt><trkpt lat="-27.001564999999996" lon="-48.648999999999994"><ele>5.9</ele></trkpt><trkpt lat="-27.001564999999996" lon="-48.648999999999994"><ele>5.9</ele></trkpt><trkpt lat="-27.001564999999996" lon="-48.648999999999994"><ele>5.9</ele></trkpt><trkpt lat="-27.001564999999996" lon="-48.648999999999994"><ele>5.9</ele></trkpt><trkpt lat="-27.001564999999996" lon="-48.648999999999994"><ele>5.9</ele></trkpt><trkpt lat="-27.001564999999996" lon="-48.648999999999994"><ele>5.9</ele></trkpt><trkpt lat="-27.001564999999996" lon="-48.648999999999994"><ele>5.9</ele></trkpt><trkpt lat="-27.001564999999996" lon="-48.648999999999994"><ele>5.9</ele></trkpt><trkpt lat="-27.001564999999996" lon="-48.648999999999994"><ele>5.9</ele></trkpt><trkpt lat="-27.001564999999996" lon="-48.648999999999994"><ele>5.9</ele></trkpt><trkpt lat="-27.001563333333333" lon="-48.64898333333334"><ele>7</ele></trkpt><trkpt lat="-27.001564999999996" lon="-48.648984999999996"><ele>7.199999999999999</ele></trkpt><trkpt lat="-27.00156666666667" lon="-48.64898333333334"><ele>7.4</ele></trkpt><trkpt lat="-27.00156833333333" lon="-48.64898"><ele>7.6</ele></trkpt><trkpt lat="-27.00156833333333" lon="-48.64898"><ele>7.6</ele></trkpt><trkpt lat="-27.001578333333335" lon="-48.648965"><ele>7.800000000000001</ele></trkpt><trkpt lat="-27.001579999999997" lon="-48.64896"><ele>7.800000000000001</ele></trkpt><trkpt lat="-27.001581666666667" lon="-48.64895666666666"><ele>7.699999999999999</ele></trkpt><trkpt lat="-27.001588333333334" lon="-48.648946666666674"><ele>7.4</ele></trkpt><trkpt lat="-27.001595" lon="-48.64893833333334"><ele>7.300000000000001</ele></trkpt><trkpt lat="-27.001603333333332" lon="-48.64893666666667"><ele>7.1</ele></trkpt><trkpt lat="-27.001609999999996" lon="-48.648935"><ele>7</ele></trkpt><trkpt lat="-27.001615" lon="-48.64893166666668"><ele>6.800000000000001</ele></trkpt><trkpt lat="-27.001618333333333" lon="-48.64892833333333"><ele>6.4</ele></trkpt><trkpt lat="-27.00161666666667" lon="-48.648933333333325"><ele>6.199999999999999</ele></trkpt><trkpt lat="-27.001615" lon="-48.648941666666666"><ele>6.4</ele></trkpt><trkpt lat="-27.001606666666664" lon="-48.64894833333333"><ele>6.699999999999999</ele></trkpt><trkpt lat="-27.001593333333336" lon="-48.64895833333333"><ele>6.800000000000001</ele></trkpt><trkpt lat="-27.001581666666667" lon="-48.64896666666667"><ele>7.1</ele></trkpt><trkpt lat="-27.00157" lon="-48.64897666666668"><ele>7</ele></trkpt><trkpt lat="-27.00156" lon="-48.648988333333335"><ele>7.6</ele></trkpt><trkpt lat="-27.001555" lon="-48.64899666666667"><ele>7.800000000000001</ele></trkpt><trkpt lat="-27.00155333333333" lon="-48.64899666666667"><ele>7.699999999999999</ele></trkpt><trkpt lat="-27.00155333333333" lon="-48.64899666666667"><ele>7.699999999999999</ele></trkpt><trkpt lat="-27.001549999999998" lon="-48.64899833333334"><ele>7.699999999999999</ele></trkpt><trkpt lat="-27.001549999999998" lon="-48.64899833333334"><ele>7.699999999999999</ele></trkpt><trkpt lat="-27.001548333333336" lon="-48.64899666666667"><ele>7.699999999999999</ele></trkpt><trkpt lat="-27.001545000000004" lon="-48.648991666666674"><ele>7.800000000000001</ele></trkpt><trkpt lat="-27.001543333333334" lon="-48.648988333333335"><ele>7.699999999999999</ele></trkpt><trkpt lat="-27.00154" lon="-48.648988333333335"><ele>7.5</ele></trkpt><trkpt lat="-27.00154" lon="-48.648988333333335"><ele>7.199999999999999</ele></trkpt><trkpt lat="-27.00154" lon="-48.648990000000005"><ele>7</ele></trkpt><trkpt lat="-27.00154166666667" lon="-48.648990000000005"><ele>7</ele></trkpt><trkpt lat="-27.001545000000004" lon="-48.64899333333333"><ele>6.800000000000001</ele></trkpt><trkpt lat="-27.001549999999998" lon="-48.648999999999994"><ele>6.9</ele></trkpt><trkpt lat="-27.00156" lon="-48.649013333333336"><ele>6.800000000000001</ele></trkpt><trkpt lat="-27.00157" lon="-48.64902666666667"><ele>6.300000000000001</ele></trkpt><trkpt lat="-27.001585" lon="-48.64903833333333"><ele>6.199999999999999</ele></trkpt><trkpt lat="-27.0016" lon="-48.64906166666666"><ele>6.300000000000001</ele></trkpt><trkpt lat="-27.001623333333335" lon="-48.649089999999994"><ele>5.9</ele></trkpt><trkpt lat="-27.00164" lon="-48.649121666666666"><ele>5.1</ele></trkpt><trkpt lat="-27.001651666666664" lon="-48.64915166666666"><ele>4.4</ele></trkpt><trkpt lat="-27.001669999999997" lon="-48.649185"><ele>4.1</ele></trkpt><trkpt lat="-27.00168833333333" lon="-48.649213333333336"><ele>4.300000000000001</ele></trkpt><trkpt lat="-27.001710000000003" lon="-48.64924166666666"><ele>4</ele></trkpt><trkpt lat="-27.001728333333336" lon="-48.64926833333334"><ele>4.7</ele></trkpt><trkpt lat="-27.001735" lon="-48.64929166666668"><ele>4.5</ele></trkpt><trkpt lat="-27.00174833333333" lon="-48.64931333333334"><ele>4.1</ele></trkpt><trkpt lat="-27.001758333333335" lon="-48.64932999999999"><ele>3.9</ele></trkpt><trkpt lat="-27.001761666666667" lon="-48.64934"><ele>3.9</ele></trkpt><trkpt lat="-27.001765" lon="-48.649338333333326"><ele>4.1</ele></trkpt><trkpt lat="-27.001768333333334" lon="-48.64933666666668"><ele>4.1</ele></trkpt><trkpt lat="-27.001770000000004" lon="-48.64933666666668"><ele>4.2</ele></trkpt><trkpt lat="-27.001770000000004" lon="-48.64933666666668"><ele>4.2</ele></trkpt><trkpt lat="-27.001771666666667" lon="-48.64933666666668"><ele>4.300000000000001</ele></trkpt><trkpt lat="-27.001771666666667" lon="-48.64933666666668"><ele>4.4</ele></trkpt><trkpt lat="-27.001773333333336" lon="-48.649335"><ele>4.5</ele></trkpt><trkpt lat="-27.001773333333336" lon="-48.649335"><ele>4.300000000000001</ele></trkpt><trkpt lat="-27.001773333333336" lon="-48.649335"><ele>4.4</ele></trkpt><trkpt lat="-27.001773333333336" lon="-48.649335"><ele>4.4</ele></trkpt><trkpt lat="-27.001773333333336" lon="-48.649335"><ele>4.4</ele></trkpt><trkpt lat="-27.001775" lon="-48.649338333333326"><ele>4.4</ele></trkpt><trkpt lat="-27.001775" lon="-48.649338333333326"><ele>4.4</ele></trkpt><trkpt lat="-27.001775" lon="-48.649338333333326"><ele>4.4</ele></trkpt><trkpt lat="-27.001775" lon="-48.649338333333326"><ele>4.4</ele></trkpt><trkpt lat="-27.001775" lon="-48.649338333333326"><ele>4.4</ele></trkpt><trkpt lat="-27.001775" lon="-48.649338333333326"><ele>4.4</ele></trkpt><trkpt lat="-27.001775" lon="-48.649338333333326"><ele>4.4</ele></trkpt><trkpt lat="-27.001775" lon="-48.649338333333326"><ele>4.4</ele></trkpt><trkpt lat="-27.001775" lon="-48.649338333333326"><ele>4.4</ele></trkpt><trkpt lat="-27.001776666666668" lon="-48.64934333333334"><ele>5.1</ele></trkpt><trkpt lat="-27.00178" lon="-48.64935333333333"><ele>5.2</ele></trkpt><trkpt lat="-27.001783333333332" lon="-48.649365"><ele>4.9</ele></trkpt><trkpt lat="-27.001786666666664" lon="-48.649383333333326"><ele>4.5</ele></trkpt><trkpt lat="-27.001789999999996" lon="-48.64940166666667"><ele>4.300000000000001</ele></trkpt><trkpt lat="-27.001801666666665" lon="-48.64942333333333"><ele>3.8000000000000003</ele></trkpt><trkpt lat="-27.00182" lon="-48.64944833333334"><ele>3.9</ele></trkpt><trkpt lat="-27.00184" lon="-48.64947166666668"><ele>4.4</ele></trkpt><trkpt lat="-27.001860000000004" lon="-48.64949166666667"><ele>4.5</ele></trkpt><trkpt lat="-27.001879999999996" lon="-48.64950999999999"><ele>5</ele></trkpt><trkpt lat="-27.001893333333335" lon="-48.64953166666666"><ele>5.6</ele></trkpt><trkpt lat="-27.001893333333335" lon="-48.64953166666666"><ele>5.6</ele></trkpt><trkpt lat="-27.00191" lon="-48.64955166666667"><ele>6.1</ele></trkpt><trkpt lat="-27.001921666666664" lon="-48.64957"><ele>6.199999999999999</ele></trkpt><trkpt lat="-27.001936666666666" lon="-48.649588333333334"><ele>6.6</ele></trkpt><trkpt lat="-27.001945" lon="-48.64960666666666"><ele>6.800000000000001</ele></trkpt><trkpt lat="-27.00195833333333" lon="-48.649620000000006"><ele>6.9</ele></trkpt><trkpt lat="-27.001973333333332" lon="-48.649629999999995"><ele>6.6</ele></trkpt><trkpt lat="-27.001973333333332" lon="-48.649629999999995"><ele>6.6</ele></trkpt><trkpt lat="-27.00198833333333" lon="-48.64964333333334"><ele>6.4</ele></trkpt><trkpt lat="-27.00200333333333" lon="-48.64966"><ele>6.9</ele></trkpt><trkpt lat="-27.002013333333334" lon="-48.649678333333334"><ele>6.9</ele></trkpt><trkpt lat="-27.002021666666664" lon="-48.64968999999999"><ele>6.6</ele></trkpt><trkpt lat="-27.002021666666664" lon="-48.64968999999999"><ele>6.6</ele></trkpt><trkpt lat="-27.002028333333335" lon="-48.6497"><ele>6.300000000000001</ele></trkpt><trkpt lat="-27.002036666666662" lon="-48.649710000000006"><ele>6.199999999999999</ele></trkpt><trkpt lat="-27.00204666666667" lon="-48.649719999999995"><ele>6.6</ele></trkpt><trkpt lat="-27.002056666666665" lon="-48.64973833333333"><ele>6.6</ele></trkpt><trkpt lat="-27.002068333333334" lon="-48.64976"><ele>6.5</ele></trkpt><trkpt lat="-27.002083333333335" lon="-48.64978166666666"><ele>6.699999999999999</ele></trkpt><trkpt lat="-27.002098333333333" lon="-48.649805"><ele>7.1</ele></trkpt><trkpt lat="-27.002116666666666" lon="-48.64983"><ele>7.6</ele></trkpt><trkpt lat="-27.00213666666667" lon="-48.64985"><ele>7.699999999999999</ele></trkpt><trkpt lat="-27.002158333333334" lon="-48.64986833333334"><ele>7.9</ele></trkpt><trkpt lat="-27.002176666666667" lon="-48.649885"><ele>8</ele></trkpt><trkpt lat="-27.002188333333333" lon="-48.64989833333334"><ele>8.2</ele></trkpt><trkpt lat="-27.002200000000002" lon="-48.64990833333333"><ele>8.5</ele></trkpt><trkpt lat="-27.002200000000002" lon="-48.64990833333333"><ele>8.5</ele></trkpt><trkpt lat="-27.002208333333336" lon="-48.64991833333333"><ele>8.5</ele></trkpt><trkpt lat="-27.002209999999998" lon="-48.64992333333333"><ele>8.2</ele></trkpt><trkpt lat="-27.00221333333333" lon="-48.64992666666667"><ele>8</ele></trkpt><trkpt lat="-27.002216666666662" lon="-48.64993333333334"><ele>7.800000000000001</ele></trkpt><trkpt lat="-27.002221666666667" lon="-48.64993666666666"><ele>8</ele></trkpt><trkpt lat="-27.002221666666667" lon="-48.64993666666666"><ele>8</ele></trkpt><trkpt lat="-27.00223" lon="-48.64994333333334"><ele>8.1</ele></trkpt><trkpt lat="-27.002243333333332" lon="-48.649955"><ele>8.2</ele></trkpt><trkpt lat="-27.00225833333333" lon="-48.64996833333333"><ele>8.1</ele></trkpt><trkpt lat="-27.00227" lon="-48.64998666666667"><ele>7.800000000000001</ele></trkpt><trkpt lat="-27.002281666666665" lon="-48.65000166666667"><ele>7.300000000000001</ele></trkpt><trkpt lat="-27.002293333333334" lon="-48.65001"><ele>7</ele></trkpt><trkpt lat="-27.00230333333333" lon="-48.65001833333334"><ele>6.5</ele></trkpt><trkpt lat="-27.002315" lon="-48.65002500000001"><ele>6.699999999999999</ele></trkpt><trkpt lat="-27.002326666666665" lon="-48.650038333333335"><ele>7.6</ele></trkpt><trkpt lat="-27.00233166666667" lon="-48.65004999999999"><ele>7.5</ele></trkpt><trkpt lat="-27.002338333333334" lon="-48.65006333333334"><ele>7.4</ele></trkpt><trkpt lat="-27.002340000000004" lon="-48.650081666666665"><ele>7.6</ele></trkpt><trkpt lat="-27.002343333333336" lon="-48.650085000000004"><ele>7.6</ele></trkpt><trkpt lat="-27.002343333333336" lon="-48.65008666666666"><ele>7.699999999999999</ele></trkpt><trkpt lat="-27.002336666666665" lon="-48.65008833333333"><ele>7.800000000000001</ele></trkpt><trkpt lat="-27.002333333333333" lon="-48.65009166666667"><ele>7.800000000000001</ele></trkpt><trkpt lat="-27.002329999999997" lon="-48.65009666666666"><ele>7.800000000000001</ele></trkpt><trkpt lat="-27.002328333333335" lon="-48.65010166666666"><ele>7.800000000000001</ele></trkpt><trkpt lat="-27.002328333333335" lon="-48.65010166666666"><ele>7.800000000000001</ele></trkpt><trkpt lat="-27.002328333333335" lon="-48.65010166666666"><ele>7.800000000000001</ele></trkpt><trkpt lat="-27.002321666666663" lon="-48.65010833333334"><ele>7.9</ele></trkpt><trkpt lat="-27.002321666666663" lon="-48.65011166666667"><ele>8.1</ele></trkpt><trkpt lat="-27.00232" lon="-48.65011666666666"><ele>8.1</ele></trkpt><trkpt lat="-27.00231833333333" lon="-48.65011666666666"><ele>8.1</ele></trkpt><trkpt lat="-27.00231833333333" lon="-48.65011666666666"><ele>8.1</ele></trkpt><trkpt lat="-27.00231833333333" lon="-48.65011666666666"><ele>8.1</ele></trkpt><trkpt lat="-27.00231833333333" lon="-48.65011666666666"><ele>8.1</ele></trkpt><trkpt lat="-27.00231833333333" lon="-48.65011666666666"><ele>8.1</ele></trkpt><trkpt lat="-27.00231833333333" lon="-48.65011666666666"><ele>8.1</ele></trkpt><trkpt lat="-27.00231833333333" lon="-48.65011666666666"><ele>8.1</ele></trkpt><trkpt lat="-27.00231833333333" lon="-48.65011666666666"><ele>8.1</ele></trkpt><trkpt lat="-27.00231833333333" lon="-48.65011666666666"><ele>8.1</ele></trkpt><trkpt lat="-27.00231833333333" lon="-48.65011666666666"><ele>8.1</ele></trkpt><trkpt lat="-27.00231833333333" lon="-48.65011666666666"><ele>8.1</ele></trkpt><trkpt lat="-27.00231833333333" lon="-48.65011666666666"><ele>8.1</ele></trkpt><trkpt lat="-27.00231833333333" lon="-48.65011666666666"><ele>8.1</ele></trkpt><trkpt lat="-27.00231833333333" lon="-48.65011666666666"><ele>8.1</ele></trkpt><trkpt lat="-27.00231833333333" lon="-48.65011666666666"><ele>8.1</ele></trkpt><trkpt lat="-27.00231833333333" lon="-48.65011666666666"><ele>8.1</ele></trkpt><trkpt lat="-27.00231833333333" lon="-48.65011666666666"><ele>8.1</ele></trkpt><trkpt lat="-27.00231833333333" lon="-48.65011666666666"><ele>8.1</ele></trkpt><trkpt lat="-27.00231833333333" lon="-48.65011666666666"><ele>8.1</ele></trkpt><trkpt lat="-27.00231833333333" lon="-48.65011666666666"><ele>8.1</ele></trkpt><trkpt lat="-27.002313333333337" lon="-48.65015333333334"><ele>7.9</ele></trkpt><trkpt lat="-27.00231833333333" lon="-48.65016666666667"><ele>7.9</ele></trkpt><trkpt lat="-27.002328333333335" lon="-48.65018499999999"><ele>7.5</ele></trkpt><trkpt lat="-27.002341666666666" lon="-48.65020333333334"><ele>6.9</ele></trkpt><trkpt lat="-27.002356666666667" lon="-48.650225"><ele>7.1</ele></trkpt><trkpt lat="-27.002371666666665" lon="-48.65025000000001"><ele>7.300000000000001</ele></trkpt><trkpt lat="-27.002381666666665" lon="-48.65027666666666"><ele>7.300000000000001</ele></trkpt><trkpt lat="-27.00239333333333" lon="-48.65029833333333"><ele>7.1</ele></trkpt><trkpt lat="-27.002403333333337" lon="-48.650315"><ele>7.800000000000001</ele></trkpt><trkpt lat="-27.002411666666664" lon="-48.65033833333334"><ele>7.9</ele></trkpt><trkpt lat="-27.002411666666664" lon="-48.65033833333334"><ele>7.9</ele></trkpt><trkpt lat="-27.002419999999997" lon="-48.650349999999996"><ele>8.3</ele></trkpt><trkpt lat="-27.002419999999997" lon="-48.65034833333334"><ele>8.8</ele></trkpt><trkpt lat="-27.002419999999997" lon="-48.65034166666666"><ele>8.3</ele></trkpt><trkpt lat="-27.00242166666667" lon="-48.65033333333334"><ele>8.5</ele></trkpt><trkpt lat="-27.00242166666667" lon="-48.65033333333334"><ele>8.5</ele></trkpt><trkpt lat="-27.00242166666667" lon="-48.65032666666666"><ele>8.7</ele></trkpt><trkpt lat="-27.00242166666667" lon="-48.65032333333333"><ele>8.7</ele></trkpt><trkpt lat="-27.002423333333333" lon="-48.65031833333334"><ele>8.5</ele></trkpt><trkpt lat="-27.002425000000002" lon="-48.65031333333333"><ele>8.7</ele></trkpt><trkpt lat="-27.002426666666665" lon="-48.650310000000005"><ele>8.7</ele></trkpt><trkpt lat="-27.002428333333334" lon="-48.65031166666666"><ele>8.7</ele></trkpt><trkpt lat="-27.002428333333334" lon="-48.65031333333333"><ele>8.7</ele></trkpt><trkpt lat="-27.002428333333334" lon="-48.65031166666666"><ele>8.6</ele></trkpt><trkpt lat="-27.002428333333334" lon="-48.65031166666666"><ele>8.6</ele></trkpt><trkpt lat="-27.002428333333334" lon="-48.65031166666666"><ele>8.6</ele></trkpt><trkpt lat="-27.002428333333334" lon="-48.65031166666666"><ele>8.6</ele></trkpt><trkpt lat="-27.002428333333334" lon="-48.65031166666666"><ele>8.6</ele></trkpt><trkpt lat="-27.002428333333334" lon="-48.65031166666666"><ele>8.6</ele></trkpt><trkpt lat="-27.002428333333334" lon="-48.65031166666666"><ele>8.6</ele></trkpt><trkpt lat="-27.002428333333334" lon="-48.65031166666666"><ele>8.6</ele></trkpt><trkpt lat="-27.002428333333334" lon="-48.65031166666666"><ele>8.6</ele></trkpt><trkpt lat="-27.002428333333334" lon="-48.65031166666666"><ele>8.6</ele></trkpt><trkpt lat="-27.002428333333334" lon="-48.65031166666666"><ele>8.6</ele></trkpt><trkpt lat="-27.002428333333334" lon="-48.65031166666666"><ele>8.6</ele></trkpt><trkpt lat="-27.002428333333334" lon="-48.65031166666666"><ele>8.6</ele></trkpt><trkpt lat="-27.002428333333334" lon="-48.65031166666666"><ele>8.6</ele></trkpt><trkpt lat="-27.002428333333334" lon="-48.65031166666666"><ele>8.6</ele></trkpt><trkpt lat="-27.002428333333334" lon="-48.65031166666666"><ele>8.6</ele></trkpt><trkpt lat="-27.002428333333334" lon="-48.65031166666666"><ele>8.6</ele></trkpt><trkpt lat="-27.002428333333334" lon="-48.65031166666666"><ele>8.6</ele></trkpt><trkpt lat="-27.002428333333334" lon="-48.65031166666666"><ele>8.6</ele></trkpt><trkpt lat="-27.002428333333334" lon="-48.65031166666666"><ele>8.6</ele></trkpt><trkpt lat="-27.002428333333334" lon="-48.65031166666666"><ele>8.6</ele></trkpt><trkpt lat="-27.002428333333334" lon="-48.65031166666666"><ele>8.6</ele></trkpt><trkpt lat="-27.002428333333334" lon="-48.65031166666666"><ele>8.6</ele></trkpt><trkpt lat="-27.002428333333334" lon="-48.65031166666666"><ele>8.6</ele></trkpt><trkpt lat="-27.002428333333334" lon="-48.65031166666666"><ele>8.6</ele></trkpt><trkpt lat="-27.002428333333334" lon="-48.65031166666666"><ele>8.6</ele></trkpt><trkpt lat="-27.002428333333334" lon="-48.65031166666666"><ele>8.6</ele></trkpt><trkpt lat="-27.002428333333334" lon="-48.65031166666666"><ele>8.6</ele></trkpt><trkpt lat="-27.002428333333334" lon="-48.65031166666666"><ele>8.6</ele></trkpt><trkpt lat="-27.002428333333334" lon="-48.65031166666666"><ele>8.6</ele></trkpt><trkpt lat="-27.002428333333334" lon="-48.65031166666666"><ele>8.6</ele></trkpt><trkpt lat="-27.002428333333334" lon="-48.65031166666666"><ele>8.6</ele></trkpt></trkseg></trk></gpx>