<?xml version="1.0" encoding="UTF-8"?>
<gpx xmlns="http://www.topografix.com/GPX/1/1" version="1.1" creator="@dwayneparton/geojson-to-gpx"><wpt lat="-26.95635333333333" lon="-48.632938333333335"><ele>17.8</ele></wpt><wpt lat="-26.961378" lon="-48.630441"><name>2 faixas</name></wpt><wpt lat="-26.959515000000003" lon="-48.63158166666667"><ele>12.3</ele><name>23</name></wpt><wpt lat="-26.959515000000003" lon="-48.63158166666667"><ele>12.3</ele><name>170</name></wpt><wpt lat="-26.959525" lon="-48.631524999999996"><ele>10.5</ele><name>430</name></wpt><wpt lat="-26.95635333333333" lon="-48.632938333333335"><ele>17.8</ele><name>A ciclo é completamente reta.</name></wpt><wpt lat="-26.95635333333333" lon="-48.632938333333335"><ele>17.8</ele><name>A pintura é falha em VÁRIOS pontos</name></wpt><wpt lat="-26.95635333333333" lon="-48.632938333333335"><ele>17.8</ele><name>A pintura está boa, mas FALHA em ALGUNS pontos</name></wpt><wpt lat="-26.95635333333333" lon="-48.632938333333335"><ele>17.8</ele><name>Ambas: Alguns trechos sem segregadores. Automóvel consegue passar por entre estes com facilidade</name></wpt><wpt lat="-26.959515000000003" lon="-48.63158166666667"><ele>12.3</ele><name>Área de amortecimento da ciclo (cm)</name></wpt><wpt lat="-26.959515000000003" lon="-48.63158166666667"><ele>12.3</ele><name>Área transitável da ciclo (cm)</name></wpt><wpt lat="-26.961611" lon="-48.631319"><name>Asfalto</name></wpt><wpt lat="-26.961599" lon="-48.631326"><name>Bidirecional</name></wpt><wpt lat="-26.95745" lon="-48.632690000000004"><ele>7.6</ele><name>Buraco</name></wpt><wpt lat="-26.96159" lon="-48.631335"><name>Ciclofaixa</name></wpt><wpt lat="-26.96142" lon="-48.631266"><name>Estacionamento dedicado de um lado, segregado da circulação</name></wpt><wpt lat="-26.959504999999996" lon="-48.631505"><ele>11</ele><name>Faixa de carros logo ao lado da ciclo (cm)</name></wpt><wpt lat="-26.961682" lon="-48.631377"><name>Foto</name></wpt><wpt lat="-26.961658333333336" lon="-48.631365"><ele>12.5</ele><name>Foto</name></wpt><wpt lat="-26.961158333333334" lon="-48.631099999999996"><ele>15.4</ele><name>Foto</name></wpt><wpt lat="-26.960984999999997" lon="-48.63107"><ele>14.8</ele><name>Foto</name></wpt><wpt lat="-26.960534999999997" lon="-48.631015"><ele>15.3</ele><name>Foto</name></wpt><wpt lat="-26.960341666666668" lon="-48.63107333333334"><ele>13.9</ele><name>Foto</name></wpt><wpt lat="-26.960339999999995" lon="-48.631080000000004"><ele>13.7</ele><name>Foto</name></wpt><wpt lat="-26.95982333333333" lon="-48.63124833333333"><ele>12.5</ele><name>Foto</name></wpt><wpt lat="-26.959603333333334" lon="-48.63141333333333"><ele>11.8</ele><name>Foto</name></wpt><wpt lat="-26.959576666666667" lon="-48.631475"><ele>13.4</ele><name>Foto</name></wpt><wpt lat="-26.95882166666667" lon="-48.63214"><ele>4.4</ele><name>Foto</name></wpt><wpt lat="-26.957571666666663" lon="-48.63264000000001"><ele>4.7</ele><name>Foto</name></wpt><wpt lat="-26.95745833333334" lon="-48.63269166666667"><ele>7.1</ele><name>Foto</name></wpt><wpt lat="-26.956923333333332" lon="-48.63280666666666"><ele>8</ele><name>Foto</name></wpt><wpt lat="-26.9565" lon="-48.632901666666676"><ele>7.7</ele><name>Foto</name></wpt><wpt lat="-26.956241666666664" lon="-48.63297833333333"><ele>13.3</ele><name>Foto</name></wpt><wpt lat="-26.95633" lon="-48.63297833333333"><ele>16.1</ele><name>Foto</name></wpt><wpt lat="-26.95635333333333" lon="-48.632938333333335"><ele>17.8</ele><name>Iluminação geral na via do outro lado da infraestrutura</name></wpt><wpt lat="-26.95635333333333" lon="-48.632938333333335"><ele>17.8</ele><name>iluminação no canteiro central da avenida</name></wpt><wpt lat="-26.96103666666667" lon="-48.63110333333334"><ele>16.4</ele><name>Lombadas físicas</name></wpt><wpt lat="-26.961499" lon="-48.63129"><name>Mão Dupla</name></wpt><wpt lat="-26.961595" lon="-48.631346"><name>No bordo direito de Via de Mão Única</name></wpt><wpt lat="-26.95635333333333" lon="-48.632938333333335"><ele>17.8</ele><name>o correto é pintura falha em alguns pontos</name></wpt><wpt lat="-26.959923333333336" lon="-48.631205"><ele>8.2</ele><name>Em cruzamento BOA condição</name></wpt><wpt lat="-26.96168" lon="-48.631396"><name>Em cruzamento MÁ condição</name></wpt><wpt lat="-26.960551666666667" lon="-48.63102666666667"><ele>17.5</ele><name>Em cruzamento MÁ condição</name></wpt><wpt lat="-26.961531" lon="-48.631299"><name>Pista dupla</name></wpt><wpt lat="-26.961650000000002" lon="-48.631359999999994"><ele>12</ele><name>R-34</name></wpt><wpt lat="-26.960343333333338" lon="-48.63106500000001"><ele>13.7</ele><name>R-34</name></wpt><wpt lat="-26.959555" lon="-48.63145166666666"><ele>13.8</ele><name>R-34</name></wpt><wpt lat="-26.958810000000003" lon="-48.632146666666664"><ele>5.2</ele><name>R-34</name></wpt><wpt lat="-26.957571666666663" lon="-48.63264000000001"><ele>4.7</ele><name>R-34</name></wpt><wpt lat="-26.956923333333332" lon="-48.632801666666666"><ele>8.1</ele><name>R-34</name></wpt><wpt lat="-26.95635333333333" lon="-48.632938333333335"><ele>17.8</ele><name>R3m0v3r Situação Pintura 🗑️</name></wpt><wpt lat="-26.95635333333333" lon="-48.632938333333335"><ele>17.8</ele><name>SE CICLOFAIXA: para invadir a ciclo parte do automóvel passa obrigatoriamente por cima de segregadores</name></wpt><wpt lat="-26.95635333333333" lon="-48.632938333333335"><ele>17.8</ele><name>Sombras em alguns trechos, SEM mudas novas</name></wpt><wpt lat="-26.96156" lon="-48.631286"><name>Tachões</name></wpt><wpt lat="-26.961546" lon="-48.63129"><name>Toda área de circulação pintada de vermelho</name></wpt><wpt lat="-26.959498333333332" lon="-48.6315"><ele>10.5</ele><name>trecho com uma dupla canteiro central</name></wpt><wpt lat="-26.956256" lon="-48.632973"><name>Ausência de conexão entre ciclos.</name></wpt><trk><name>Ciclofaixa Av. Ruy Barbosa - BC</name><trkseg><trkpt lat="-26.961782" lon="-48.631429"><ele>10.8</ele></trkpt><trkpt lat="-26.961788" lon="-48.631387"><ele>10.6</ele></trkpt><trkpt lat="-26.961757" lon="-48.631378"><ele>11</ele></trkpt><trkpt lat="-26.961722" lon="-48.631367"><ele>11.4</ele></trkpt><trkpt lat="-26.961688" lon="-48.631358"><ele>11.4</ele></trkpt><trkpt lat="-26.961665" lon="-48.631348"><ele>11.6</ele></trkpt><trkpt lat="-26.96166" lon="-48.63135"><ele>11.4</ele></trkpt><trkpt lat="-26.961657" lon="-48.631353"><ele>11.4</ele></trkpt><trkpt lat="-26.961653" lon="-48.631353"><ele>11.6</ele></trkpt><trkpt lat="-26.961652" lon="-48.631357"><ele>11.7</ele></trkpt><trkpt lat="-26.96165" lon="-48.63136"><ele>12</ele></trkpt><trkpt lat="-26.96165" lon="-48.63136"><ele>12</ele></trkpt><trkpt lat="-26.961652" lon="-48.631362"><ele>12.3</ele></trkpt><trkpt lat="-26.961655" lon="-48.631363"><ele>12.6</ele></trkpt><trkpt lat="-26.961657" lon="-48.631363"><ele>12.6</ele></trkpt><trkpt lat="-26.961658" lon="-48.631365"><ele>12.5</ele></trkpt><trkpt lat="-26.961658" lon="-48.631365"><ele>12.5</ele></trkpt><trkpt lat="-26.961658" lon="-48.631365"><ele>12.4</ele></trkpt><trkpt lat="-26.961655" lon="-48.631365"><ele>12.7</ele></trkpt><trkpt lat="-26.961643" lon="-48.631362"><ele>12.4</ele></trkpt><trkpt lat="-26.96163" lon="-48.631355"><ele>12.4</ele></trkpt><trkpt lat="-26.961613" lon="-48.631352"><ele>12.7</ele></trkpt><trkpt lat="-26.9616" lon="-48.631345"><ele>13.2</ele></trkpt><trkpt lat="-26.961582" lon="-48.63134"><ele>13.5</ele></trkpt><trkpt lat="-26.961555" lon="-48.631328"><ele>13.9</ele></trkpt><trkpt lat="-26.961523" lon="-48.631307"><ele>13.8</ele></trkpt><trkpt lat="-26.96149" lon="-48.631293"><ele>13.9</ele></trkpt><trkpt lat="-26.96145" lon="-48.631283"><ele>15.2</ele></trkpt><trkpt lat="-26.961407" lon="-48.631267"><ele>15.6</ele></trkpt><trkpt lat="-26.961368" lon="-48.631242"><ele>15.2</ele></trkpt><trkpt lat="-26.961333" lon="-48.631222"><ele>15.3</ele></trkpt><trkpt lat="-26.9613" lon="-48.631202"><ele>15.1</ele></trkpt><trkpt lat="-26.961265" lon="-48.631183"><ele>14.7</ele></trkpt><trkpt lat="-26.961237" lon="-48.631157"><ele>15.5</ele></trkpt><trkpt lat="-26.961208" lon="-48.631135"><ele>15.4</ele></trkpt><trkpt lat="-26.961183" lon="-48.631117"><ele>14.9</ele></trkpt><trkpt lat="-26.961168" lon="-48.631105"><ele>14.7</ele></trkpt><trkpt lat="-26.961162" lon="-48.6311"><ele>14.5</ele></trkpt><trkpt lat="-26.96116" lon="-48.631098"><ele>14.6</ele></trkpt><trkpt lat="-26.961157" lon="-48.6311"><ele>14.7</ele></trkpt><trkpt lat="-26.961157" lon="-48.631098"><ele>15.1</ele></trkpt><trkpt lat="-26.961158" lon="-48.6311"><ele>15.3</ele></trkpt><trkpt lat="-26.961158" lon="-48.6311"><ele>15.4</ele></trkpt><trkpt lat="-26.961158" lon="-48.6311"><ele>15.4</ele></trkpt><trkpt lat="-26.961155" lon="-48.6311"><ele>15.9</ele></trkpt><trkpt lat="-26.961147" lon="-48.631102"><ele>15.9</ele></trkpt><trkpt lat="-26.961132" lon="-48.631103"><ele>16.1</ele></trkpt><trkpt lat="-26.961108" lon="-48.631102"><ele>16.1</ele></trkpt><trkpt lat="-26.961083" lon="-48.631103"><ele>16.3</ele></trkpt><trkpt lat="-26.961058" lon="-48.631107"><ele>16.5</ele></trkpt><trkpt lat="-26.961037" lon="-48.631103"><ele>16.4</ele></trkpt><trkpt lat="-26.961037" lon="-48.631103"><ele>16.4</ele></trkpt><trkpt lat="-26.961017" lon="-48.631103"><ele>16.5</ele></trkpt><trkpt lat="-26.961" lon="-48.6311"><ele>16.4</ele></trkpt><trkpt lat="-26.960993" lon="-48.631093"><ele>16.4</ele></trkpt><trkpt lat="-26.960992" lon="-48.631092"><ele>15.8</ele></trkpt><trkpt lat="-26.960993" lon="-48.631092"><ele>15.5</ele></trkpt><trkpt lat="-26.960992" lon="-48.631087"><ele>15.3</ele></trkpt><trkpt lat="-26.960987" lon="-48.631083"><ele>15.2</ele></trkpt><trkpt lat="-26.960985" lon="-48.63108"><ele>14.9</ele></trkpt><trkpt lat="-26.960985" lon="-48.63107"><ele>14.8</ele></trkpt><trkpt lat="-26.960985" lon="-48.63107"><ele>14.8</ele></trkpt><trkpt lat="-26.960985" lon="-48.631068"><ele>14.7</ele></trkpt><trkpt lat="-26.960983" lon="-48.63106"><ele>14.6</ele></trkpt><trkpt lat="-26.960985" lon="-48.631055"><ele>14.8</ele></trkpt><trkpt lat="-26.960995" lon="-48.631055"><ele>14.5</ele></trkpt><trkpt lat="-26.961" lon="-48.631053"><ele>14.2</ele></trkpt><trkpt lat="-26.960997" lon="-48.631055"><ele>14.3</ele></trkpt><trkpt lat="-26.960993" lon="-48.631048"><ele>13.9</ele></trkpt><trkpt lat="-26.960985" lon="-48.63105"><ele>14</ele></trkpt><trkpt lat="-26.960972" lon="-48.631052"><ele>13.9</ele></trkpt><trkpt lat="-26.96096" lon="-48.631055"><ele>13.6</ele></trkpt><trkpt lat="-26.960942" lon="-48.631047"><ele>13.9</ele></trkpt><trkpt lat="-26.960918" lon="-48.631038"><ele>13.6</ele></trkpt><trkpt lat="-26.960888" lon="-48.63104"><ele>13.6</ele></trkpt><trkpt lat="-26.960855" lon="-48.631043"><ele>13.3</ele></trkpt><trkpt lat="-26.96082" lon="-48.631042"><ele>13.7</ele></trkpt><trkpt lat="-26.960797" lon="-48.631038"><ele>13.5</ele></trkpt><trkpt lat="-26.960775" lon="-48.631033"><ele>13.4</ele></trkpt><trkpt lat="-26.96075" lon="-48.631037"><ele>13.8</ele></trkpt><trkpt lat="-26.960723" lon="-48.631037"><ele>14.4</ele></trkpt><trkpt lat="-26.960702" lon="-48.631038"><ele>16.2</ele></trkpt><trkpt lat="-26.960678" lon="-48.631035"><ele>17</ele></trkpt><trkpt lat="-26.960653" lon="-48.631035"><ele>17.2</ele></trkpt><trkpt lat="-26.960627" lon="-48.631032"><ele>17.3</ele></trkpt><trkpt lat="-26.960607" lon="-48.631032"><ele>17.8</ele></trkpt><trkpt lat="-26.96059" lon="-48.631037"><ele>18</ele></trkpt><trkpt lat="-26.96058" lon="-48.631038"><ele>18</ele></trkpt><trkpt lat="-26.960568" lon="-48.631035"><ele>18</ele></trkpt><trkpt lat="-26.960562" lon="-48.631032"><ele>18</ele></trkpt><trkpt lat="-26.960552" lon="-48.631027"><ele>17.5</ele></trkpt><trkpt lat="-26.960552" lon="-48.631027"><ele>17.5</ele></trkpt><trkpt lat="-26.960548" lon="-48.631028"><ele>17.1</ele></trkpt><trkpt lat="-26.960542" lon="-48.631027"><ele>17.1</ele></trkpt><trkpt lat="-26.960537" lon="-48.631023"><ele>16.6</ele></trkpt><trkpt lat="-26.960535" lon="-48.631022"><ele>16.2</ele></trkpt><trkpt lat="-26.960537" lon="-48.631018"><ele>15.8</ele></trkpt><trkpt lat="-26.960538" lon="-48.631017"><ele>15.4</ele></trkpt><trkpt lat="-26.960535" lon="-48.631015"><ele>15.3</ele></trkpt><trkpt lat="-26.960535" lon="-48.631015"><ele>15.3</ele></trkpt><trkpt lat="-26.960537" lon="-48.631005"><ele>15</ele></trkpt><trkpt lat="-26.960537" lon="-48.631"><ele>15.1</ele></trkpt><trkpt lat="-26.960532" lon="-48.631002"><ele>15.1</ele></trkpt><trkpt lat="-26.960518" lon="-48.631002"><ele>14.4</ele></trkpt><trkpt lat="-26.960505" lon="-48.631005"><ele>14.3</ele></trkpt><trkpt lat="-26.960482" lon="-48.63101"><ele>14.1</ele></trkpt><trkpt lat="-26.960462" lon="-48.631018"><ele>14.2</ele></trkpt><trkpt lat="-26.960438" lon="-48.63103"><ele>14.6</ele></trkpt><trkpt lat="-26.960412" lon="-48.631038"><ele>14.9</ele></trkpt><trkpt lat="-26.96039" lon="-48.631045"><ele>14.9</ele></trkpt><trkpt lat="-26.960367" lon="-48.631047"><ele>15</ele></trkpt><trkpt lat="-26.960353" lon="-48.631052"><ele>14.9</ele></trkpt><trkpt lat="-26.960348" lon="-48.631057"><ele>14.1</ele></trkpt><trkpt lat="-26.960345" lon="-48.63106"><ele>13.6</ele></trkpt><trkpt lat="-26.960345" lon="-48.631062"><ele>13.5</ele></trkpt><trkpt lat="-26.960343" lon="-48.631065"><ele>13.7</ele></trkpt><trkpt lat="-26.960343" lon="-48.631065"><ele>13.7</ele></trkpt><trkpt lat="-26.960343" lon="-48.631065"><ele>13.8</ele></trkpt><trkpt lat="-26.96034" lon="-48.631065"><ele>14</ele></trkpt><trkpt lat="-26.96034" lon="-48.631065"><ele>13.9</ele></trkpt><trkpt lat="-26.960342" lon="-48.631067"><ele>14.1</ele></trkpt><trkpt lat="-26.960342" lon="-48.63107"><ele>14</ele></trkpt><trkpt lat="-26.960342" lon="-48.631073"><ele>13.9</ele></trkpt><trkpt lat="-26.960342" lon="-48.631073"><ele>13.9</ele></trkpt><trkpt lat="-26.96034" lon="-48.63108"><ele>13.7</ele></trkpt><trkpt lat="-26.96034" lon="-48.63108"><ele>13.7</ele></trkpt><trkpt lat="-26.96034" lon="-48.63108"><ele>13.7</ele></trkpt><trkpt lat="-26.96034" lon="-48.63108"><ele>13.7</ele></trkpt><trkpt lat="-26.96034" lon="-48.63108"><ele>13.7</ele></trkpt><trkpt lat="-26.96034" lon="-48.63108"><ele>13.7</ele></trkpt><trkpt lat="-26.96034" lon="-48.63108"><ele>13.7</ele></trkpt><trkpt lat="-26.96034" lon="-48.63108"><ele>13.7</ele></trkpt><trkpt lat="-26.96034" lon="-48.63108"><ele>13.7</ele></trkpt><trkpt lat="-26.960332" lon="-48.631082"><ele>13.6</ele></trkpt><trkpt lat="-26.960318" lon="-48.631078"><ele>13.6</ele></trkpt><trkpt lat="-26.960298" lon="-48.631077"><ele>13.6</ele></trkpt><trkpt lat="-26.960273" lon="-48.631078"><ele>13.3</ele></trkpt><trkpt lat="-26.960243" lon="-48.631082"><ele>13.1</ele></trkpt><trkpt lat="-26.960218" lon="-48.631083"><ele>12.6</ele></trkpt><trkpt lat="-26.960197" lon="-48.63109"><ele>11.8</ele></trkpt><trkpt lat="-26.960175" lon="-48.6311"><ele>11.2</ele></trkpt><trkpt lat="-26.960152" lon="-48.631103"><ele>10.8</ele></trkpt><trkpt lat="-26.960125" lon="-48.631107"><ele>10.7</ele></trkpt><trkpt lat="-26.96009" lon="-48.631113"><ele>11</ele></trkpt><trkpt lat="-26.960058" lon="-48.631123"><ele>10.2</ele></trkpt><trkpt lat="-26.960025" lon="-48.631137"><ele>9.9</ele></trkpt><trkpt lat="-26.95999" lon="-48.63116"><ele>9.1</ele></trkpt><trkpt lat="-26.95995" lon="-48.631187"><ele>7.8</ele></trkpt><trkpt lat="-26.959923" lon="-48.631205"><ele>8.2</ele></trkpt><trkpt lat="-26.959923" lon="-48.631205"><ele>8.2</ele></trkpt><trkpt lat="-26.95989" lon="-48.63123"><ele>8.4</ele></trkpt><trkpt lat="-26.959875" lon="-48.631242"><ele>7.9</ele></trkpt><trkpt lat="-26.959853" lon="-48.631248"><ele>10.1</ele></trkpt><trkpt lat="-26.95985" lon="-48.63125"><ele>10.2</ele></trkpt><trkpt lat="-26.959842" lon="-48.631252"><ele>10.7</ele></trkpt><trkpt lat="-26.959835" lon="-48.631253"><ele>11.2</ele></trkpt><trkpt lat="-26.959828" lon="-48.631253"><ele>11.9</ele></trkpt><trkpt lat="-26.959827" lon="-48.631253"><ele>12.3</ele></trkpt><trkpt lat="-26.959823" lon="-48.63125"><ele>12.5</ele></trkpt><trkpt lat="-26.959823" lon="-48.631248"><ele>12.5</ele></trkpt><trkpt lat="-26.959823" lon="-48.631248"><ele>12.5</ele></trkpt><trkpt lat="-26.959823" lon="-48.631248"><ele>12.5</ele></trkpt><trkpt lat="-26.959818" lon="-48.631248"><ele>12.5</ele></trkpt><trkpt lat="-26.95981" lon="-48.631247"><ele>12.6</ele></trkpt><trkpt lat="-26.959795" lon="-48.631247"><ele>12.4</ele></trkpt><trkpt lat="-26.959782" lon="-48.631255"><ele>12</ele></trkpt><trkpt lat="-26.95976" lon="-48.631262"><ele>13.4</ele></trkpt><trkpt lat="-26.959738" lon="-48.631273"><ele>13.5</ele></trkpt><trkpt lat="-26.95972" lon="-48.63129"><ele>13.3</ele></trkpt><trkpt lat="-26.9597" lon="-48.63131"><ele>13.1</ele></trkpt><trkpt lat="-26.959682" lon="-48.63133"><ele>12.9</ele></trkpt><trkpt lat="-26.959665" lon="-48.631345"><ele>12.7</ele></trkpt><trkpt lat="-26.959648" lon="-48.631363"><ele>12.5</ele></trkpt><trkpt lat="-26.959633" lon="-48.631383"><ele>12.3</ele></trkpt><trkpt lat="-26.95962" lon="-48.6314"><ele>12</ele></trkpt><trkpt lat="-26.959603" lon="-48.631413"><ele>11.8</ele></trkpt><trkpt lat="-26.959603" lon="-48.631413"><ele>11.8</ele></trkpt><trkpt lat="-26.95958" lon="-48.631433"><ele>11.3</ele></trkpt><trkpt lat="-26.959563" lon="-48.63144"><ele>12.5</ele></trkpt><trkpt lat="-26.959553" lon="-48.631447"><ele>12.8</ele></trkpt><trkpt lat="-26.959553" lon="-48.63145"><ele>13.2</ele></trkpt><trkpt lat="-26.959555" lon="-48.631452"><ele>13.8</ele></trkpt><trkpt lat="-26.959555" lon="-48.631452"><ele>13.8</ele></trkpt><trkpt lat="-26.959562" lon="-48.631455"><ele>14.4</ele></trkpt><trkpt lat="-26.959567" lon="-48.631457"><ele>14.2</ele></trkpt><trkpt lat="-26.959573" lon="-48.63146"><ele>14.2</ele></trkpt><trkpt lat="-26.959577" lon="-48.63147"><ele>13.9</ele></trkpt><trkpt lat="-26.959577" lon="-48.631475"><ele>13.4</ele></trkpt><trkpt lat="-26.959577" lon="-48.631475"><ele>13.4</ele></trkpt><trkpt lat="-26.959575" lon="-48.631485"><ele>12.8</ele></trkpt><trkpt lat="-26.95957" lon="-48.6315"><ele>11.4</ele></trkpt><trkpt lat="-26.959558" lon="-48.631507"><ele>11</ele></trkpt><trkpt lat="-26.959543" lon="-48.631515"><ele>9.9</ele></trkpt><trkpt lat="-26.959528" lon="-48.631525"><ele>8.8</ele></trkpt><trkpt lat="-26.95952" lon="-48.631532"><ele>7.4</ele></trkpt><trkpt lat="-26.959518" lon="-48.631532"><ele>7.5</ele></trkpt><trkpt lat="-26.959517" lon="-48.631527"><ele>7.7</ele></trkpt><trkpt lat="-26.959517" lon="-48.631525"><ele>7.6</ele></trkpt><trkpt lat="-26.959518" lon="-48.631527"><ele>7.4</ele></trkpt><trkpt lat="-26.959522" lon="-48.63153"><ele>7.2</ele></trkpt><trkpt lat="-26.959522" lon="-48.631532"><ele>6.8</ele></trkpt><trkpt lat="-26.959527" lon="-48.631538"><ele>6.8</ele></trkpt><trkpt lat="-26.959522" lon="-48.631547"><ele>7.1</ele></trkpt><trkpt lat="-26.959518" lon="-48.631548"><ele>7.3</ele></trkpt><trkpt lat="-26.959513" lon="-48.631548"><ele>7.6</ele></trkpt><trkpt lat="-26.959508" lon="-48.631542"><ele>8.4</ele></trkpt><trkpt lat="-26.959505" lon="-48.631538"><ele>8.7</ele></trkpt><trkpt lat="-26.95951" lon="-48.63154"><ele>9</ele></trkpt><trkpt lat="-26.959512" lon="-48.631543"><ele>9.4</ele></trkpt><trkpt lat="-26.959515" lon="-48.631553"><ele>9.5</ele></trkpt><trkpt lat="-26.959517" lon="-48.631565"><ele>9.7</ele></trkpt><trkpt lat="-26.959515" lon="-48.631573"><ele>9.7</ele></trkpt><trkpt lat="-26.959518" lon="-48.631575"><ele>9.6</ele></trkpt><trkpt lat="-26.959517" lon="-48.631582"><ele>9.7</ele></trkpt><trkpt lat="-26.959508" lon="-48.631583"><ele>9.9</ele></trkpt><trkpt lat="-26.959508" lon="-48.631583"><ele>10.2</ele></trkpt><trkpt lat="-26.959507" lon="-48.63158"><ele>10.7</ele></trkpt><trkpt lat="-26.959503" lon="-48.631578"><ele>11.4</ele></trkpt><trkpt lat="-26.959507" lon="-48.631578"><ele>11.8</ele></trkpt><trkpt lat="-26.95951" lon="-48.631578"><ele>12</ele></trkpt><trkpt lat="-26.959515" lon="-48.631582"><ele>12.3</ele></trkpt><trkpt lat="-26.959515" lon="-48.631582"><ele>12.3</ele></trkpt><trkpt lat="-26.959515" lon="-48.631582"><ele>12.3</ele></trkpt><trkpt lat="-26.959515" lon="-48.631582"><ele>12.3</ele></trkpt><trkpt lat="-26.959515" lon="-48.631582"><ele>12.3</ele></trkpt><trkpt lat="-26.959515" lon="-48.631582"><ele>12.3</ele></trkpt><trkpt lat="-26.959515" lon="-48.631582"><ele>12.3</ele></trkpt><trkpt lat="-26.959515" lon="-48.631582"><ele>12.3</ele></trkpt><trkpt lat="-26.959515" lon="-48.631582"><ele>12.3</ele></trkpt><trkpt lat="-26.959515" lon="-48.631582"><ele>12.3</ele></trkpt><trkpt lat="-26.959515" lon="-48.631582"><ele>12.3</ele></trkpt><trkpt lat="-26.959515" lon="-48.631582"><ele>12.3</ele></trkpt><trkpt lat="-26.959515" lon="-48.631582"><ele>12.3</ele></trkpt><trkpt lat="-26.959515" lon="-48.631582"><ele>12.3</ele></trkpt><trkpt lat="-26.959515" lon="-48.631582"><ele>12.3</ele></trkpt><trkpt lat="-26.959515" lon="-48.631582"><ele>12.3</ele></trkpt><trkpt lat="-26.959515" lon="-48.631582"><ele>12.3</ele></trkpt><trkpt lat="-26.959515" lon="-48.631582"><ele>12.3</ele></trkpt><trkpt lat="-26.959515" lon="-48.631582"><ele>12.3</ele></trkpt><trkpt lat="-26.959515" lon="-48.631582"><ele>12.3</ele></trkpt><trkpt lat="-26.959515" lon="-48.631582"><ele>12.3</ele></trkpt><trkpt lat="-26.959515" lon="-48.631582"><ele>12.3</ele></trkpt><trkpt lat="-26.959515" lon="-48.631582"><ele>12.3</ele></trkpt><trkpt lat="-26.959515" lon="-48.631582"><ele>12.3</ele></trkpt><trkpt lat="-26.959505" lon="-48.63157"><ele>13.4</ele></trkpt><trkpt lat="-26.959508" lon="-48.631572"><ele>13.5</ele></trkpt><trkpt lat="-26.959508" lon="-48.631573"><ele>13.4</ele></trkpt><trkpt lat="-26.959505" lon="-48.631568"><ele>13.4</ele></trkpt><trkpt lat="-26.9595" lon="-48.631573"><ele>13.3</ele></trkpt><trkpt lat="-26.959497" lon="-48.631583"><ele>13.1</ele></trkpt><trkpt lat="-26.959487" lon="-48.631582"><ele>12.8</ele></trkpt><trkpt lat="-26.959478" lon="-48.631582"><ele>12.8</ele></trkpt><trkpt lat="-26.959468" lon="-48.631585"><ele>11.8</ele></trkpt><trkpt lat="-26.959465" lon="-48.631577"><ele>11.3</ele></trkpt><trkpt lat="-26.959463" lon="-48.631567"><ele>10.4</ele></trkpt><trkpt lat="-26.959467" lon="-48.631555"><ele>10</ele></trkpt><trkpt lat="-26.959473" lon="-48.631542"><ele>9.8</ele></trkpt><trkpt lat="-26.959478" lon="-48.631538"><ele>9.6</ele></trkpt><trkpt lat="-26.959488" lon="-48.631542"><ele>9.6</ele></trkpt><trkpt lat="-26.959498" lon="-48.631547"><ele>9.8</ele></trkpt><trkpt lat="-26.959503" lon="-48.631542"><ele>9.8</ele></trkpt><trkpt lat="-26.959507" lon="-48.631533"><ele>9.9</ele></trkpt><trkpt lat="-26.959513" lon="-48.631528"><ele>9.9</ele></trkpt><trkpt lat="-26.959522" lon="-48.631528"><ele>9.9</ele></trkpt><trkpt lat="-26.959525" lon="-48.63153"><ele>10.3</ele></trkpt><trkpt lat="-26.959525" lon="-48.631525"><ele>10.5</ele></trkpt><trkpt lat="-26.959525" lon="-48.631525"><ele>10.5</ele></trkpt><trkpt lat="-26.959518" lon="-48.631517"><ele>10.8</ele></trkpt><trkpt lat="-26.959512" lon="-48.631513"><ele>11</ele></trkpt><trkpt lat="-26.959508" lon="-48.631512"><ele>10.9</ele></trkpt><trkpt lat="-26.959505" lon="-48.631505"><ele>11</ele></trkpt><trkpt lat="-26.959505" lon="-48.631505"><ele>11</ele></trkpt><trkpt lat="-26.959502" lon="-48.631503"><ele>11</ele></trkpt><trkpt lat="-26.959498" lon="-48.631498"><ele>11</ele></trkpt><trkpt lat="-26.959498" lon="-48.631497"><ele>10.9</ele></trkpt><trkpt lat="-26.959498" lon="-48.6315"><ele>10.5</ele></trkpt><trkpt lat="-26.959498" lon="-48.6315"><ele>10.5</ele></trkpt><trkpt lat="-26.959498" lon="-48.631502"><ele>10.5</ele></trkpt><trkpt lat="-26.959495" lon="-48.631503"><ele>10.4</ele></trkpt><trkpt lat="-26.959492" lon="-48.631503"><ele>10.4</ele></trkpt><trkpt lat="-26.959492" lon="-48.631503"><ele>10.4</ele></trkpt><trkpt lat="-26.959492" lon="-48.631503"><ele>10.4</ele></trkpt><trkpt lat="-26.959492" lon="-48.631503"><ele>10.4</ele></trkpt><trkpt lat="-26.959492" lon="-48.631503"><ele>10.4</ele></trkpt><trkpt lat="-26.959492" lon="-48.631503"><ele>10.4</ele></trkpt><trkpt lat="-26.959492" lon="-48.631503"><ele>10.4</ele></trkpt><trkpt lat="-26.959492" lon="-48.631503"><ele>10.4</ele></trkpt><trkpt lat="-26.959492" lon="-48.631503"><ele>10.4</ele></trkpt><trkpt lat="-26.959492" lon="-48.631503"><ele>10.4</ele></trkpt><trkpt lat="-26.959492" lon="-48.631503"><ele>10.4</ele></trkpt><trkpt lat="-26.959492" lon="-48.631503"><ele>10.4</ele></trkpt><trkpt lat="-26.959493" lon="-48.631535"><ele>10.1</ele></trkpt><trkpt lat="-26.959478" lon="-48.631557"><ele>9.9</ele></trkpt><trkpt lat="-26.95946" lon="-48.631582"><ele>10.2</ele></trkpt><trkpt lat="-26.959433" lon="-48.6316"><ele>10.4</ele></trkpt><trkpt lat="-26.959405" lon="-48.631618"><ele>10.7</ele></trkpt><trkpt lat="-26.959377" lon="-48.631638"><ele>10.3</ele></trkpt><trkpt lat="-26.959357" lon="-48.631662"><ele>10.2</ele></trkpt><trkpt lat="-26.959337" lon="-48.631685"><ele>10</ele></trkpt><trkpt lat="-26.959315" lon="-48.631717"><ele>9.8</ele></trkpt><trkpt lat="-26.959285" lon="-48.631747"><ele>8.9</ele></trkpt><trkpt lat="-26.959257" lon="-48.631778"><ele>9.2</ele></trkpt><trkpt lat="-26.959227" lon="-48.631807"><ele>9.1</ele></trkpt><trkpt lat="-26.959197" lon="-48.63183"><ele>9.3</ele></trkpt><trkpt lat="-26.959175" lon="-48.631853"><ele>9.1</ele></trkpt><trkpt lat="-26.95915" lon="-48.63188"><ele>8.8</ele></trkpt><trkpt lat="-26.959125" lon="-48.631905"><ele>8.4</ele></trkpt><trkpt lat="-26.959093" lon="-48.631938"><ele>7.8</ele></trkpt><trkpt lat="-26.959062" lon="-48.631968"><ele>7.7</ele></trkpt><trkpt lat="-26.959028" lon="-48.63199"><ele>7.5</ele></trkpt><trkpt lat="-26.95899" lon="-48.632015"><ele>6.7</ele></trkpt><trkpt lat="-26.958958" lon="-48.632045"><ele>5.9</ele></trkpt><trkpt lat="-26.95893" lon="-48.632068"><ele>5.5</ele></trkpt><trkpt lat="-26.958902" lon="-48.632092"><ele>5.1</ele></trkpt><trkpt lat="-26.958875" lon="-48.632108"><ele>4.9</ele></trkpt><trkpt lat="-26.958845" lon="-48.632127"><ele>4.7</ele></trkpt><trkpt lat="-26.958822" lon="-48.63214"><ele>4.4</ele></trkpt><trkpt lat="-26.958822" lon="-48.63214"><ele>4.4</ele></trkpt><trkpt lat="-26.9588" lon="-48.632147"><ele>4.3</ele></trkpt><trkpt lat="-26.958802" lon="-48.632153"><ele>3.9</ele></trkpt><trkpt lat="-26.958802" lon="-48.632147"><ele>4.2</ele></trkpt><trkpt lat="-26.958802" lon="-48.632143"><ele>4.6</ele></trkpt><trkpt lat="-26.958807" lon="-48.632142"><ele>4.7</ele></trkpt><trkpt lat="-26.95881" lon="-48.632147"><ele>5.2</ele></trkpt><trkpt lat="-26.95881" lon="-48.632147"><ele>5.2</ele></trkpt><trkpt lat="-26.958812" lon="-48.632148"><ele>5.7</ele></trkpt><trkpt lat="-26.95881" lon="-48.632153"><ele>6.1</ele></trkpt><trkpt lat="-26.958812" lon="-48.632158"><ele>6.7</ele></trkpt><trkpt lat="-26.958815" lon="-48.632163"><ele>7.4</ele></trkpt><trkpt lat="-26.958817" lon="-48.632168"><ele>7.6</ele></trkpt><trkpt lat="-26.958815" lon="-48.63217"><ele>7.8</ele></trkpt><trkpt lat="-26.958815" lon="-48.63217"><ele>7.8</ele></trkpt><trkpt lat="-26.958798" lon="-48.632178"><ele>8.1</ele></trkpt><trkpt lat="-26.958783" lon="-48.632188"><ele>8.1</ele></trkpt><trkpt lat="-26.958763" lon="-48.632202"><ele>8.9</ele></trkpt><trkpt lat="-26.95875" lon="-48.63222"><ele>9.4</ele></trkpt><trkpt lat="-26.958733" lon="-48.632238"><ele>9.8</ele></trkpt><trkpt lat="-26.958712" lon="-48.632263"><ele>10.2</ele></trkpt><trkpt lat="-26.958687" lon="-48.632287"><ele>11.4</ele></trkpt><trkpt lat="-26.958655" lon="-48.632317"><ele>11.9</ele></trkpt><trkpt lat="-26.95861" lon="-48.632342"><ele>11.8</ele></trkpt><trkpt lat="-26.958573" lon="-48.632362"><ele>11.5</ele></trkpt><trkpt lat="-26.958538" lon="-48.632385"><ele>10.9</ele></trkpt><trkpt lat="-26.958513" lon="-48.632397"><ele>10.8</ele></trkpt><trkpt lat="-26.958497" lon="-48.632405"><ele>11.4</ele></trkpt><trkpt lat="-26.95846" lon="-48.632427"><ele>11.7</ele></trkpt><trkpt lat="-26.95842" lon="-48.63244"><ele>11</ele></trkpt><trkpt lat="-26.958387" lon="-48.632455"><ele>10.9</ele></trkpt><trkpt lat="-26.958348" lon="-48.632468"><ele>10.8</ele></trkpt><trkpt lat="-26.958308" lon="-48.632482"><ele>10.8</ele></trkpt><trkpt lat="-26.958267" lon="-48.632497"><ele>10.8</ele></trkpt><trkpt lat="-26.958223" lon="-48.63251"><ele>10.1</ele></trkpt><trkpt lat="-26.95819" lon="-48.63252"><ele>9.3</ele></trkpt><trkpt lat="-26.958148" lon="-48.632532"><ele>8.1</ele></trkpt><trkpt lat="-26.958097" lon="-48.632533"><ele>5.5</ele></trkpt><trkpt lat="-26.958048" lon="-48.632542"><ele>4.3</ele></trkpt><trkpt lat="-26.958002" lon="-48.632552"><ele>3.7</ele></trkpt><trkpt lat="-26.957958" lon="-48.632558"><ele>3.5</ele></trkpt><trkpt lat="-26.957917" lon="-48.632565"><ele>3.2</ele></trkpt><trkpt lat="-26.957875" lon="-48.632575"><ele>2.3</ele></trkpt><trkpt lat="-26.957827" lon="-48.632583"><ele>1.5</ele></trkpt><trkpt lat="-26.957778" lon="-48.632595"><ele>1.9</ele></trkpt><trkpt lat="-26.957732" lon="-48.632603"><ele>2.4</ele></trkpt><trkpt lat="-26.957683" lon="-48.632617"><ele>2.8</ele></trkpt><trkpt lat="-26.957642" lon="-48.632633"><ele>2.4</ele></trkpt><trkpt lat="-26.957605" lon="-48.632638"><ele>2.2</ele></trkpt><trkpt lat="-26.957587" lon="-48.632638"><ele>2.4</ele></trkpt><trkpt lat="-26.957583" lon="-48.632637"><ele>2.6</ele></trkpt><trkpt lat="-26.957582" lon="-48.63264"><ele>3.2</ele></trkpt><trkpt lat="-26.957572" lon="-48.63264"><ele>4.7</ele></trkpt><trkpt lat="-26.957572" lon="-48.63264"><ele>4.7</ele></trkpt><trkpt lat="-26.957572" lon="-48.63264"><ele>4.7</ele></trkpt><trkpt lat="-26.957572" lon="-48.63264"><ele>4.7</ele></trkpt><trkpt lat="-26.957572" lon="-48.63264"><ele>4.7</ele></trkpt><trkpt lat="-26.957572" lon="-48.63264"><ele>4.7</ele></trkpt><trkpt lat="-26.957572" lon="-48.63264"><ele>4.7</ele></trkpt><trkpt lat="-26.957572" lon="-48.63264"><ele>4.7</ele></trkpt><trkpt lat="-26.957572" lon="-48.63264"><ele>4.7</ele></trkpt><trkpt lat="-26.957572" lon="-48.63264"><ele>4.7</ele></trkpt><trkpt lat="-26.957572" lon="-48.63264"><ele>4.7</ele></trkpt><trkpt lat="-26.957545" lon="-48.632665"><ele>9</ele></trkpt><trkpt lat="-26.957523" lon="-48.632675"><ele>9</ele></trkpt><trkpt lat="-26.957493" lon="-48.632683"><ele>9</ele></trkpt><trkpt lat="-26.957468" lon="-48.632688"><ele>8.6</ele></trkpt><trkpt lat="-26.957458" lon="-48.632692"><ele>7.5</ele></trkpt><trkpt lat="-26.957455" lon="-48.632693"><ele>7.4</ele></trkpt><trkpt lat="-26.957453" lon="-48.632688"><ele>7.1</ele></trkpt><trkpt lat="-26.95745" lon="-48.63269"><ele>7.6</ele></trkpt><trkpt lat="-26.95745" lon="-48.63269"><ele>7.6</ele></trkpt><trkpt lat="-26.95745" lon="-48.632687"><ele>7.2</ele></trkpt><trkpt lat="-26.957455" lon="-48.632683"><ele>7.3</ele></trkpt><trkpt lat="-26.957458" lon="-48.63268"><ele>7.1</ele></trkpt><trkpt lat="-26.95746" lon="-48.632683"><ele>7.1</ele></trkpt><trkpt lat="-26.957458" lon="-48.632692"><ele>7.1</ele></trkpt><trkpt lat="-26.957458" lon="-48.632692"><ele>7.1</ele></trkpt><trkpt lat="-26.957453" lon="-48.6327"><ele>7.2</ele></trkpt><trkpt lat="-26.957452" lon="-48.632707"><ele>7.4</ele></trkpt><trkpt lat="-26.957445" lon="-48.632712"><ele>7.5</ele></trkpt><trkpt lat="-26.957437" lon="-48.632717"><ele>7.8</ele></trkpt><trkpt lat="-26.957418" lon="-48.632727"><ele>7.8</ele></trkpt><trkpt lat="-26.957402" lon="-48.632725"><ele>7.7</ele></trkpt><trkpt lat="-26.957378" lon="-48.632728"><ele>7.6</ele></trkpt><trkpt lat="-26.957352" lon="-48.632727"><ele>7.9</ele></trkpt><trkpt lat="-26.957313" lon="-48.632733"><ele>8.2</ele></trkpt><trkpt lat="-26.957278" lon="-48.632733"><ele>7.9</ele></trkpt><trkpt lat="-26.957238" lon="-48.63274"><ele>7.6</ele></trkpt><trkpt lat="-26.957195" lon="-48.632747"><ele>7.6</ele></trkpt><trkpt lat="-26.957155" lon="-48.632753"><ele>7.6</ele></trkpt><trkpt lat="-26.957117" lon="-48.632755"><ele>7.5</ele></trkpt><trkpt lat="-26.95708" lon="-48.632762"><ele>7.4</ele></trkpt><trkpt lat="-26.95704" lon="-48.632772"><ele>6.9</ele></trkpt><trkpt lat="-26.957008" lon="-48.632777"><ele>6.8</ele></trkpt><trkpt lat="-26.956982" lon="-48.632778"><ele>7.5</ele></trkpt><trkpt lat="-26.956953" lon="-48.632787"><ele>8</ele></trkpt><trkpt lat="-26.95693" lon="-48.6328"><ele>7.6</ele></trkpt><trkpt lat="-26.956925" lon="-48.632808"><ele>7.6</ele></trkpt><trkpt lat="-26.956923" lon="-48.632808"><ele>7.9</ele></trkpt><trkpt lat="-26.956923" lon="-48.632802"><ele>8.1</ele></trkpt><trkpt lat="-26.956923" lon="-48.632802"><ele>8.1</ele></trkpt><trkpt lat="-26.956927" lon="-48.632798"><ele>8.3</ele></trkpt><trkpt lat="-26.956928" lon="-48.632798"><ele>8.5</ele></trkpt><trkpt lat="-26.956927" lon="-48.632798"><ele>8.3</ele></trkpt><trkpt lat="-26.956928" lon="-48.632802"><ele>8.3</ele></trkpt><trkpt lat="-26.956927" lon="-48.632803"><ele>8.1</ele></trkpt><trkpt lat="-26.956923" lon="-48.632807"><ele>8</ele></trkpt><trkpt lat="-26.956923" lon="-48.632807"><ele>8</ele></trkpt><trkpt lat="-26.95692" lon="-48.632805"><ele>8</ele></trkpt><trkpt lat="-26.956913" lon="-48.63281"><ele>8.1</ele></trkpt><trkpt lat="-26.956913" lon="-48.63281"><ele>8.1</ele></trkpt><trkpt lat="-26.956885" lon="-48.632827"><ele>8.5</ele></trkpt><trkpt lat="-26.95686" lon="-48.632832"><ele>8.7</ele></trkpt><trkpt lat="-26.956833" lon="-48.63284"><ele>8.6</ele></trkpt><trkpt lat="-26.95681" lon="-48.632848"><ele>8.6</ele></trkpt><trkpt lat="-26.956787" lon="-48.632852"><ele>8.4</ele></trkpt><trkpt lat="-26.956758" lon="-48.632867"><ele>8.5</ele></trkpt><trkpt lat="-26.95673" lon="-48.63288"><ele>8.2</ele></trkpt><trkpt lat="-26.956707" lon="-48.632887"><ele>7.6</ele></trkpt><trkpt lat="-26.956687" lon="-48.632895"><ele>7.5</ele></trkpt><trkpt lat="-26.956665" lon="-48.6329"><ele>7.6</ele></trkpt><trkpt lat="-26.95664" lon="-48.632903"><ele>7.3</ele></trkpt><trkpt lat="-26.956612" lon="-48.632903"><ele>6.9</ele></trkpt><trkpt lat="-26.956578" lon="-48.632908"><ele>6.6</ele></trkpt><trkpt lat="-26.956555" lon="-48.632912"><ele>6.9</ele></trkpt><trkpt lat="-26.956528" lon="-48.632917"><ele>7.1</ele></trkpt><trkpt lat="-26.956512" lon="-48.632918"><ele>7.2</ele></trkpt><trkpt lat="-26.95651" lon="-48.632912"><ele>6.9</ele></trkpt><trkpt lat="-26.956507" lon="-48.632908"><ele>7.3</ele></trkpt><trkpt lat="-26.956505" lon="-48.63291"><ele>7.6</ele></trkpt><trkpt lat="-26.956503" lon="-48.632908"><ele>7.5</ele></trkpt><trkpt lat="-26.956502" lon="-48.632907"><ele>7.4</ele></trkpt><trkpt lat="-26.956502" lon="-48.632903"><ele>7.4</ele></trkpt><trkpt lat="-26.9565" lon="-48.632902"><ele>7.7</ele></trkpt><trkpt lat="-26.9565" lon="-48.632902"><ele>7.7</ele></trkpt><trkpt lat="-26.956498" lon="-48.632902"><ele>7.9</ele></trkpt><trkpt lat="-26.956497" lon="-48.632903"><ele>7.8</ele></trkpt><trkpt lat="-26.956497" lon="-48.632905"><ele>7.8</ele></trkpt><trkpt lat="-26.956487" lon="-48.63291"><ele>7.9</ele></trkpt><trkpt lat="-26.956477" lon="-48.632915"><ele>8</ele></trkpt><trkpt lat="-26.956458" lon="-48.63292"><ele>8.4</ele></trkpt><trkpt lat="-26.956437" lon="-48.63292"><ele>8.6</ele></trkpt><trkpt lat="-26.956418" lon="-48.632925"><ele>8.3</ele></trkpt><trkpt lat="-26.95639" lon="-48.632935"><ele>8.2</ele></trkpt><trkpt lat="-26.956358" lon="-48.632937"><ele>9.4</ele></trkpt><trkpt lat="-26.956333" lon="-48.63293"><ele>10.6</ele></trkpt><trkpt lat="-26.956315" lon="-48.632927"><ele>11.7</ele></trkpt><trkpt lat="-26.956298" lon="-48.632932"><ele>12</ele></trkpt><trkpt lat="-26.956288" lon="-48.632937"><ele>12.5</ele></trkpt><trkpt lat="-26.956275" lon="-48.632937"><ele>12.7</ele></trkpt><trkpt lat="-26.956257" lon="-48.632933"><ele>12.5</ele></trkpt><trkpt lat="-26.95624" lon="-48.632923"><ele>12</ele></trkpt><trkpt lat="-26.956225" lon="-48.63291"><ele>12.2</ele></trkpt><trkpt lat="-26.956208" lon="-48.6329"><ele>12.3</ele></trkpt><trkpt lat="-26.956195" lon="-48.632902"><ele>12.4</ele></trkpt><trkpt lat="-26.956187" lon="-48.632898"><ele>12.4</ele></trkpt><trkpt lat="-26.956183" lon="-48.632897"><ele>12</ele></trkpt><trkpt lat="-26.956182" lon="-48.6329"><ele>11.6</ele></trkpt><trkpt lat="-26.956178" lon="-48.632902"><ele>11.3</ele></trkpt><trkpt lat="-26.956177" lon="-48.632905"><ele>11.1</ele></trkpt><trkpt lat="-26.956177" lon="-48.632907"><ele>10.8</ele></trkpt><trkpt lat="-26.956175" lon="-48.63291"><ele>10.8</ele></trkpt><trkpt lat="-26.956177" lon="-48.632907"><ele>10.7</ele></trkpt><trkpt lat="-26.956177" lon="-48.632905"><ele>10.3</ele></trkpt><trkpt lat="-26.956173" lon="-48.632903"><ele>10.2</ele></trkpt><trkpt lat="-26.956172" lon="-48.632898"><ele>10.2</ele></trkpt><trkpt lat="-26.956167" lon="-48.6329"><ele>10.5</ele></trkpt><trkpt lat="-26.956162" lon="-48.632918"><ele>10.8</ele></trkpt><trkpt lat="-26.956165" lon="-48.632937"><ele>11.3</ele></trkpt><trkpt lat="-26.95618" lon="-48.632953"><ele>11.6</ele></trkpt><trkpt lat="-26.956195" lon="-48.632968"><ele>12</ele></trkpt><trkpt lat="-26.956215" lon="-48.632975"><ele>12.3</ele></trkpt><trkpt lat="-26.956227" lon="-48.632975"><ele>12.8</ele></trkpt><trkpt lat="-26.956242" lon="-48.632978"><ele>13.3</ele></trkpt><trkpt lat="-26.956242" lon="-48.632978"><ele>13.3</ele></trkpt><trkpt lat="-26.956255" lon="-48.632982"><ele>14.1</ele></trkpt><trkpt lat="-26.95627" lon="-48.632982"><ele>14.6</ele></trkpt><trkpt lat="-26.956287" lon="-48.632983"><ele>15.2</ele></trkpt><trkpt lat="-26.956302" lon="-48.632985"><ele>15.7</ele></trkpt><trkpt lat="-26.956313" lon="-48.632983"><ele>16.4</ele></trkpt><trkpt lat="-26.95633" lon="-48.632978"><ele>16.1</ele></trkpt><trkpt lat="-26.95633" lon="-48.632978"><ele>16.1</ele></trkpt><trkpt lat="-26.956342" lon="-48.632972"><ele>15.8</ele></trkpt><trkpt lat="-26.95635" lon="-48.632967"><ele>15.8</ele></trkpt><trkpt lat="-26.956357" lon="-48.632962"><ele>16.3</ele></trkpt><trkpt lat="-26.956362" lon="-48.632955"><ele>16.6</ele></trkpt><trkpt lat="-26.95636" lon="-48.632948"><ele>17</ele></trkpt><trkpt lat="-26.956355" lon="-48.632945"><ele>17.6</ele></trkpt><trkpt lat="-26.956355" lon="-48.632947"><ele>18</ele></trkpt><trkpt lat="-26.956355" lon="-48.632947"><ele>18.2</ele></trkpt><trkpt lat="-26.956353" lon="-48.632947"><ele>18.3</ele></trkpt><trkpt lat="-26.956353" lon="-48.632947"><ele>18.1</ele></trkpt><trkpt lat="-26.956353" lon="-48.632945"><ele>17.9</ele></trkpt><trkpt lat="-26.956353" lon="-48.63294"><ele>17.8</ele></trkpt><trkpt lat="-26.956353" lon="-48.632938"><ele>17.8</ele></trkpt><trkpt lat="-26.956353" lon="-48.632938"><ele>17.8</ele></trkpt><trkpt lat="-26.956353" lon="-48.632938"><ele>17.8</ele></trkpt><trkpt lat="-26.956353" lon="-48.632938"><ele>17.8</ele></trkpt><trkpt lat="-26.956353" lon="-48.632938"><ele>17.8</ele></trkpt><trkpt lat="-26.956353" lon="-48.632938"><ele>17.8</ele></trkpt><trkpt lat="-26.956353" lon="-48.632938"><ele>17.8</ele></trkpt><trkpt lat="-26.956353" lon="-48.632938"><ele>17.8</ele></trkpt><trkpt lat="-26.956353" lon="-48.632938"><ele>17.8</ele></trkpt><trkpt lat="-26.956353" lon="-48.632938"><ele>17.8</ele></trkpt><trkpt lat="-26.956353" lon="-48.632938"><ele>17.8</ele></trkpt><trkpt lat="-26.956353" lon="-48.632938"><ele>17.8</ele></trkpt><trkpt lat="-26.956353" lon="-48.632938"><ele>17.8</ele></trkpt><trkpt lat="-26.956353" lon="-48.632938"><ele>17.8</ele></trkpt><trkpt lat="-26.956353" lon="-48.632938"><ele>17.8</ele></trkpt><trkpt lat="-26.956353" lon="-48.632938"><ele>17.8</ele></trkpt><trkpt lat="-26.956353" lon="-48.632938"><ele>17.8</ele></trkpt><trkpt lat="-26.956353" lon="-48.632938"><ele>17.8</ele></trkpt><trkpt lat="-26.956353" lon="-48.632938"><ele>17.8</ele></trkpt><trkpt lat="-26.956353" lon="-48.632938"><ele>17.8</ele></trkpt><trkpt lat="-26.956353" lon="-48.632938"><ele>17.8</ele></trkpt><trkpt lat="-26.956353" lon="-48.632938"><ele>17.8</ele></trkpt><trkpt lat="-26.956353" lon="-48.632938"><ele>17.8</ele></trkpt><trkpt lat="-26.956353" lon="-48.632938"><ele>17.8</ele></trkpt><trkpt lat="-26.956353" lon="-48.632938"><ele>17.8</ele></trkpt><trkpt lat="-26.956353" lon="-48.632938"><ele>17.8</ele></trkpt><trkpt lat="-26.956353" lon="-48.632938"><ele>17.8</ele></trkpt><trkpt lat="-26.956353" lon="-48.632938"><ele>17.8</ele></trkpt><trkpt lat="-26.956353" lon="-48.632938"><ele>17.8</ele></trkpt><trkpt lat="-26.956353" lon="-48.632938"><ele>17.8</ele></trkpt><trkpt lat="-26.956353" lon="-48.632938"><ele>17.8</ele></trkpt><trkpt lat="-26.956353" lon="-48.632938"><ele>17.8</ele></trkpt><trkpt lat="-26.956353" lon="-48.632938"><ele>17.8</ele></trkpt><trkpt lat="-26.956353" lon="-48.632938"><ele>17.8</ele></trkpt><trkpt lat="-26.956353" lon="-48.632938"><ele>17.8</ele></trkpt><trkpt lat="-26.956353" lon="-48.632938"><ele>17.8</ele></trkpt><trkpt lat="-26.956353" lon="-48.632938"><ele>17.8</ele></trkpt><trkpt lat="-26.956353" lon="-48.632938"><ele>17.8</ele></trkpt><trkpt lat="-26.956353" lon="-48.632938"><ele>17.8</ele></trkpt><trkpt lat="-26.956353" lon="-48.632938"><ele>17.8</ele></trkpt><trkpt lat="-26.956353" lon="-48.632938"><ele>17.8</ele></trkpt><trkpt lat="-26.956353" lon="-48.632938"><ele>17.8</ele></trkpt><trkpt lat="-26.956353" lon="-48.632938"><ele>17.8</ele></trkpt><trkpt lat="-26.956353" lon="-48.632938"><ele>17.8</ele></trkpt><trkpt lat="-26.956353" lon="-48.632938"><ele>17.8</ele></trkpt><trkpt lat="-26.956353" lon="-48.632938"><ele>17.8</ele></trkpt><trkpt lat="-26.956353" lon="-48.632938"><ele>17.8</ele></trkpt><trkpt lat="-26.956353" lon="-48.632938"><ele>17.8</ele></trkpt><trkpt lat="-26.956353" lon="-48.632938"><ele>17.8</ele></trkpt><trkpt lat="-26.956353" lon="-48.632938"><ele>17.8</ele></trkpt><trkpt lat="-26.956353" lon="-48.632938"><ele>17.8</ele></trkpt><trkpt lat="-26.956353" lon="-48.632938"><ele>17.8</ele></trkpt><trkpt lat="-26.956353" lon="-48.632938"><ele>17.8</ele></trkpt><trkpt lat="-26.956353" lon="-48.632938"><ele>17.8</ele></trkpt><trkpt lat="-26.956353" lon="-48.632938"><ele>17.8</ele></trkpt><trkpt lat="-26.956353" lon="-48.632938"><ele>17.8</ele></trkpt><trkpt lat="-26.956353" lon="-48.632938"><ele>17.8</ele></trkpt><trkpt lat="-26.956353" lon="-48.632938"><ele>17.8</ele></trkpt><trkpt lat="-26.956353" lon="-48.632938"><ele>17.8</ele></trkpt><trkpt lat="-26.956353" lon="-48.632938"><ele>17.8</ele></trkpt><trkpt lat="-26.956353" lon="-48.632938"><ele>17.8</ele></trkpt><trkpt lat="-26.956353" lon="-48.632938"><ele>17.8</ele></trkpt><trkpt lat="-26.956353" lon="-48.632938"><ele>17.8</ele></trkpt><trkpt lat="-26.956353" lon="-48.632938"><ele>17.8</ele></trkpt><trkpt lat="-26.956353" lon="-48.632938"><ele>17.8</ele></trkpt><trkpt lat="-26.956353" lon="-48.632938"><ele>17.8</ele></trkpt><trkpt lat="-26.956353" lon="-48.632938"><ele>17.8</ele></trkpt><trkpt lat="-26.956353" lon="-48.632938"><ele>17.8</ele></trkpt><trkpt lat="-26.956353" lon="-48.632938"><ele>17.8</ele></trkpt><trkpt lat="-26.956353" lon="-48.632938"><ele>17.8</ele></trkpt><trkpt lat="-26.956353" lon="-48.632938"><ele>17.8</ele></trkpt><trkpt lat="-26.956353" lon="-48.632938"><ele>17.8</ele></trkpt><trkpt lat="-26.956353" lon="-48.632938"><ele>17.8</ele></trkpt><trkpt lat="-26.956353" lon="-48.632938"><ele>17.8</ele></trkpt><trkpt lat="-26.956353" lon="-48.632938"><ele>17.8</ele></trkpt><trkpt lat="-26.956353" lon="-48.632938"><ele>17.8</ele></trkpt><trkpt lat="-26.956353" lon="-48.632938"><ele>17.8</ele></trkpt><trkpt lat="-26.956353" lon="-48.632938"><ele>17.8</ele></trkpt><trkpt lat="-26.956353" lon="-48.632938"><ele>17.8</ele></trkpt><trkpt lat="-26.956353" lon="-48.632938"><ele>17.8</ele></trkpt><trkpt lat="-26.956353" lon="-48.632938"><ele>17.8</ele></trkpt><trkpt lat="-26.956353" lon="-48.632938"><ele>17.8</ele></trkpt><trkpt lat="-26.956353" lon="-48.632938"><ele>17.8</ele></trkpt><trkpt lat="-26.956353" lon="-48.632938"><ele>17.8</ele></trkpt><trkpt lat="-26.956353" lon="-48.632938"><ele>17.8</ele></trkpt><trkpt lat="-26.956353" lon="-48.632938"><ele>17.8</ele></trkpt><trkpt lat="-26.956353" lon="-48.632938"><ele>17.8</ele></trkpt><trkpt lat="-26.956353" lon="-48.632938"><ele>17.8</ele></trkpt><trkpt lat="-26.956353" lon="-48.632938"><ele>17.8</ele></trkpt><trkpt lat="-26.956353" lon="-48.632938"><ele>17.8</ele></trkpt><trkpt lat="-26.956353" lon="-48.632938"><ele>17.8</ele></trkpt><trkpt lat="-26.956353" lon="-48.632938"><ele>17.8</ele></trkpt><trkpt lat="-26.956353" lon="-48.632938"><ele>17.8</ele></trkpt><trkpt lat="-26.956353" lon="-48.632938"><ele>17.8</ele></trkpt><trkpt lat="-26.956353" lon="-48.632938"><ele>17.8</ele></trkpt><trkpt lat="-26.956353" lon="-48.632938"><ele>17.8</ele></trkpt><trkpt lat="-26.956353" lon="-48.632938"><ele>17.8</ele></trkpt><trkpt lat="-26.956353" lon="-48.632938"><ele>17.8</ele></trkpt><trkpt lat="-26.956353" lon="-48.632938"><ele>17.8</ele></trkpt><trkpt lat="-26.956353" lon="-48.632938"><ele>17.8</ele></trkpt><trkpt lat="-26.956353" lon="-48.632938"><ele>17.8</ele></trkpt><trkpt lat="-26.956353" lon="-48.632938"><ele>17.8</ele></trkpt><trkpt lat="-26.956353" lon="-48.632938"><ele>17.8</ele></trkpt><trkpt lat="-26.956353" lon="-48.632938"><ele>17.8</ele></trkpt><trkpt lat="-26.956353" lon="-48.632938"><ele>17.8</ele></trkpt><trkpt lat="-26.956353" lon="-48.632938"><ele>17.8</ele></trkpt><trkpt lat="-26.956353" lon="-48.632938"><ele>17.8</ele></trkpt><trkpt lat="-26.956353" lon="-48.632938"><ele>17.8</ele></trkpt><trkpt lat="-26.956353" lon="-48.632938"><ele>17.8</ele></trkpt><trkpt lat="-26.956353" lon="-48.632938"><ele>17.8</ele></trkpt><trkpt lat="-26.956353" lon="-48.632938"><ele>17.8</ele></trkpt><trkpt lat="-26.956353" lon="-48.632938"><ele>17.8</ele></trkpt><trkpt lat="-26.956353" lon="-48.632938"><ele>17.8</ele></trkpt><trkpt lat="-26.956353" lon="-48.632938"><ele>17.8</ele></trkpt><trkpt lat="-26.956353" lon="-48.632938"><ele>17.8</ele></trkpt><trkpt lat="-26.956353" lon="-48.632938"><ele>17.8</ele></trkpt><trkpt lat="-26.956353" lon="-48.632938"><ele>17.8</ele></trkpt><trkpt lat="-26.956353" lon="-48.632938"><ele>17.8</ele></trkpt><trkpt lat="-26.956353" lon="-48.632938"><ele>17.8</ele></trkpt><trkpt lat="-26.956353" lon="-48.632938"><ele>17.8</ele></trkpt><trkpt lat="-26.956353" lon="-48.632938"><ele>17.8</ele></trkpt><trkpt lat="-26.956353" lon="-48.632938"><ele>17.8</ele></trkpt><trkpt lat="-26.956353" lon="-48.632938"><ele>17.8</ele></trkpt><trkpt lat="-26.956353" lon="-48.632938"><ele>17.8</ele></trkpt><trkpt lat="-26.956353" lon="-48.632938"><ele>17.8</ele></trkpt><trkpt lat="-26.956353" lon="-48.632938"><ele>17.8</ele></trkpt><trkpt lat="-26.956353" lon="-48.632938"><ele>17.8</ele></trkpt><trkpt lat="-26.956353" lon="-48.632938"><ele>17.8</ele></trkpt><trkpt lat="-26.956353" lon="-48.632938"><ele>17.8</ele></trkpt><trkpt lat="-26.956353" lon="-48.632938"><ele>17.8</ele></trkpt><trkpt lat="-26.956353" lon="-48.632938"><ele>17.8</ele></trkpt><trkpt lat="-26.956353" lon="-48.632938"><ele>17.8</ele></trkpt></trkseg></trk></gpx>