<?xml version="1.0" encoding="UTF-8"?>
<gpx xmlns="http://www.topografix.com/GPX/1/1" version="1.1" creator="@dwayneparton/geojson-to-gpx">
    <wpt lat="-27.008556666666664" lon="-48.641891666666666">
        <ele>2.8</ele>
        <name>2 faixas</name>
    </wpt>
    <wpt lat="-27.009441666666664" lon="-48.64096833333333">
        <ele>5.2</ele>
        <name>10</name>
    </wpt>
    <wpt lat="-27.008653333333335" lon="-48.641803333333336">
        <ele>6</ele>
        <name>45</name>
    </wpt>
    <wpt lat="-27.008653333333335" lon="-48.641799999999996">
        <ele>6.800000000000001</ele>
        <name>250</name>
    </wpt>
    <wpt lat="-27.008685" lon="-48.641785">
        <ele>5.5</ele>
        <name>340</name>
    </wpt>
    <wpt lat="-27.008571666666665" lon="-48.64167166666666">
        <ele>4.1</ele>
        <name>1700</name>
    </wpt>
    <wpt lat="-27.0105" lon="-48.639766666666674">
        <ele>9.6</ele>
        <name>A ciclo é completamente reta.</name>
    </wpt>
    <wpt lat="-27.0105" lon="-48.639766666666674">
        <ele>9.6</ele>
        <name>A pintura está boa, COMPLETA e visível</name>
    </wpt>
    <wpt lat="-27.00855333333333" lon="-48.641893333333336">
        <ele>2</ele>
        <name>Apenas faixas vermelhas nas bordas</name>
    </wpt>
    <wpt lat="-27.008654999999997" lon="-48.641801666666666">
        <ele>6.699999999999999</ele>
        <name>Área transitável da ciclo (cm)</name>
    </wpt>
    <wpt lat="-27.008556666666664" lon="-48.641891666666666">
        <ele>2.8</ele>
        <name>Asfalto</name>
    </wpt>
    <wpt lat="-27.00853833333333" lon="-48.64194666666667">
        <ele>2</ele>
        <name>Bidirecional</name>
    </wpt>
    <wpt lat="-27.0105" lon="-48.639766666666674">
        <ele>9.6</ele>
        <name>Bom estado</name>
    </wpt>
    <wpt lat="-27.009588333333333" lon="-48.64083833333334">
        <ele>2.6</ele>
        <name>Bueiro</name>
    </wpt>
    <wpt lat="-27.010236666666668" lon="-48.640170000000005">
        <ele>1</ele>
        <name>Bueiro</name>
    </wpt>
    <wpt lat="-27.008556666666664" lon="-48.641891666666666">
        <ele>2.8</ele>
        <name>Canteiros</name>
    </wpt>
    <wpt lat="-27.008543333333332" lon="-48.64197833333333">
        <ele>1.3</ele>
        <name>Ciclovia</name>
    </wpt>
    <wpt lat="-27.008556666666664" lon="-48.641891666666666">
        <ele>2.8</ele>
        <name>Estacionamento dos dois lados</name>
    </wpt>
    <wpt lat="-27.008681666666668" lon="-48.641781666666674">
        <ele>5.300000000000001</ele>
        <name>Faixa de carros logo ao lado da ciclo (cm)</name>
    </wpt>
    <wpt lat="-27.008556666666664" lon="-48.641891666666666">
        <ele>2.8</ele>
        <name>Foto</name>
    </wpt>
    <wpt lat="-27.009024" lon="-48.641439">
        <name>Foto</name>
    </wpt>
    <wpt lat="-27.009276666666665" lon="-48.64115333333333">
        <ele>2.3</ele>
        <name>Foto</name>
    </wpt>
    <wpt lat="-27.00958666666667" lon="-48.64084666666666">
        <ele>3.5</ele>
        <name>Foto</name>
    </wpt>
    <wpt lat="-27.009444999999996" lon="-48.640966666666664">
        <ele>4.800000000000001</ele>
        <name>Foto</name>
    </wpt>
    <wpt lat="-27.009335000000004" lon="-48.64093666666666">
        <ele>5</ele>
        <name>Foto</name>
    </wpt>
    <wpt lat="-27.01012166666667" lon="-48.64028833333334">
        <ele>1.5</ele>
        <name>Foto</name>
    </wpt>
    <wpt lat="-27.010238333333337" lon="-48.64017166666666">
        <ele>0.8</ele>
        <name>Foto</name>
    </wpt>
    <wpt lat="-27.010444999999997" lon="-48.63994833333333">
        <ele>2.6</ele>
        <name>Foto</name>
    </wpt>
    <wpt lat="-27.010513333333332" lon="-48.63975833333334">
        <ele>3.7</ele>
        <name>Foto</name>
    </wpt>
    <wpt lat="-27.01045333333333" lon="-48.639714999999995">
        <ele>4</ele>
        <name>Foto</name>
    </wpt>
    <wpt lat="-27.0105" lon="-48.639766666666674">
        <ele>9.6</ele>
        <name>Iluminação geral na via do mesmo lado da estrutura</name>
    </wpt>
    <wpt lat="-27.008561666666665" lon="-48.64189833333333">
        <ele>1.9000000000000001</ele>
        <name>Mão Dupla</name>
    </wpt>
    <wpt lat="-27.008556666666664" lon="-48.641891666666666">
        <ele>2.8</ele>
        <name>Nenhum elemento de controle de velocidade na via</name>
    </wpt>
    <wpt lat="-27.009281666666666" lon="-48.64115666666667">
        <ele>1.8</ele>
        <name>Pictograma BOA condição</name>
    </wpt>
    <wpt lat="-27.009441666666664" lon="-48.64096833333333">
        <ele>5.2</ele>
        <name>Quantidade de vagas</name>
    </wpt>
    <wpt lat="-27.0105" lon="-48.639766666666674">
        <ele>9.6</ele>
        <name>SE CICLOVIA: segregação impede completamente a invasão de automóvel e não há trechos desprotegidos</name>
    </wpt>
    <wpt lat="-27.0105" lon="-48.639766666666674">
        <ele>9.6</ele>
        <name>Segregadores NÃO DIFICULTAM o acesso de ciclistas</name>
    </wpt>
    <wpt lat="-27.0105" lon="-48.639766666666674">
        <ele>9.6</ele>
        <name>Sombras em alguns trechos, SEM mudas novas</name>
    </wpt>
    <wpt lat="-27.008570000000002" lon="-48.64167166666666">
        <ele>4.2</ele>
        <name>Total da via (incluindo a ciclo) (cm)</name>
    </wpt>
    <wpt lat="-27.009441666666664" lon="-48.64097">
        <ele>5.2</ele>
        <name>U invertido</name>
    </wpt>
    <wpt lat="-27.008583" lon="-48.641733">
        <name>Área de amortecimento da ciclo (cm)</name>
    </wpt>
    <wpt lat="-27.008583" lon="-48.641733">
        <name>Em bordo de Via de Mão Dupla</name>
    </wpt>
    <trk>
        <name>Ciclovia Al. Delfim P. Peixoto Filho - BC</name>
        <trkseg>
            <trkpt lat="-27.008380000000002" lon="-48.64247">
                <ele>-0.2999999999999998</ele>
            </trkpt>
            <trkpt lat="-27.008468333333333" lon="-48.642183333333335">
                <ele>-0.2999999999999998</ele>
            </trkpt>
            <trkpt lat="-27.008616666666665" lon="-48.64237833333333">
                <ele>-0.2999999999999998</ele>
            </trkpt>
            <trkpt lat="-27.00862833333333" lon="-48.642273333333335">
                <ele>-0.2999999999999998</ele>
            </trkpt>
            <trkpt lat="-27.00859833333333" lon="-48.64214666666667">
                <ele>-0.2999999999999998</ele>
            </trkpt>
            <trkpt lat="-27.008548333333337" lon="-48.642006666666674">
                <ele>0.40000000000000013</ele>
            </trkpt>
            <trkpt lat="-27.008543333333332" lon="-48.64197833333333">
                <ele>1.3</ele>
            </trkpt>
            <trkpt lat="-27.008543333333332" lon="-48.64197833333333">
                <ele>1.3</ele>
            </trkpt>
            <trkpt lat="-27.00854" lon="-48.64196666666667">
                <ele>1.6</ele>
            </trkpt>
            <trkpt lat="-27.008536666666668" lon="-48.64197000000001">
                <ele>1.5</ele>
            </trkpt>
            <trkpt lat="-27.00854" lon="-48.641960000000005">
                <ele>1.7000000000000002</ele>
            </trkpt>
            <trkpt lat="-27.00853833333333" lon="-48.64194666666667">
                <ele>2</ele>
            </trkpt>
            <trkpt lat="-27.00853833333333" lon="-48.64194666666667">
                <ele>2</ele>
            </trkpt>
            <trkpt lat="-27.00853833333333" lon="-48.641936666666666">
                <ele>2.1</ele>
            </trkpt>
            <trkpt lat="-27.008543333333332" lon="-48.64192666666666">
                <ele>2.1</ele>
            </trkpt>
            <trkpt lat="-27.00855" lon="-48.64192166666667">
                <ele>2</ele>
            </trkpt>
            <trkpt lat="-27.00855333333333" lon="-48.64191833333333">
                <ele>2</ele>
            </trkpt>
            <trkpt lat="-27.008556666666664" lon="-48.641915000000004">
                <ele>1.9000000000000001</ele>
            </trkpt>
            <trkpt lat="-27.008560000000003" lon="-48.64191000000001">
                <ele>2</ele>
            </trkpt>
            <trkpt lat="-27.008561666666665" lon="-48.641904999999994">
                <ele>2</ele>
            </trkpt>
            <trkpt lat="-27.008563333333335" lon="-48.641903333333325">
                <ele>2.1</ele>
            </trkpt>
            <trkpt lat="-27.008563333333335" lon="-48.64190166666667">
                <ele>2</ele>
            </trkpt>
            <trkpt lat="-27.008563333333335" lon="-48.6419">
                <ele>2</ele>
            </trkpt>
            <trkpt lat="-27.008561666666665" lon="-48.64189833333333">
                <ele>1.9000000000000001</ele>
            </trkpt>
            <trkpt lat="-27.008561666666665" lon="-48.64189833333333">
                <ele>1.9000000000000001</ele>
            </trkpt>
            <trkpt lat="-27.008561666666665" lon="-48.64189833333333">
                <ele>1.9000000000000001</ele>
            </trkpt>
            <trkpt lat="-27.008561666666665" lon="-48.64189666666666">
                <ele>1.9000000000000001</ele>
            </trkpt>
            <trkpt lat="-27.008560000000003" lon="-48.64189666666666">
                <ele>1.9000000000000001</ele>
            </trkpt>
            <trkpt lat="-27.008558333333333" lon="-48.64189833333333">
                <ele>1.9000000000000001</ele>
            </trkpt>
            <trkpt lat="-27.008556666666664" lon="-48.64189666666666">
                <ele>1.9000000000000001</ele>
            </trkpt>
            <trkpt lat="-27.008555" lon="-48.64189833333333">
                <ele>1.9000000000000001</ele>
            </trkpt>
            <trkpt lat="-27.008556666666664" lon="-48.6419">
                <ele>1.9000000000000001</ele>
            </trkpt>
            <trkpt lat="-27.00855333333333" lon="-48.64189833333333">
                <ele>1.9000000000000001</ele>
            </trkpt>
            <trkpt lat="-27.00855333333333" lon="-48.641895000000005">
                <ele>1.9000000000000001</ele>
            </trkpt>
            <trkpt lat="-27.00855333333333" lon="-48.641893333333336">
                <ele>2</ele>
            </trkpt>
            <trkpt lat="-27.00855333333333" lon="-48.641893333333336">
                <ele>2</ele>
            </trkpt>
            <trkpt lat="-27.00855333333333" lon="-48.641893333333336">
                <ele>2</ele>
            </trkpt>
            <trkpt lat="-27.008555" lon="-48.641891666666666">
                <ele>2.1</ele>
            </trkpt>
            <trkpt lat="-27.008556666666664" lon="-48.641891666666666">
                <ele>2.3</ele>
            </trkpt>
            <trkpt lat="-27.008556666666664" lon="-48.641891666666666">
                <ele>2.6</ele>
            </trkpt>
            <trkpt lat="-27.008556666666664" lon="-48.641891666666666">
                <ele>2.8</ele>
            </trkpt>
            <trkpt lat="-27.008556666666664" lon="-48.641891666666666">
                <ele>2.8</ele>
            </trkpt>
            <trkpt lat="-27.008556666666664" lon="-48.641891666666666">
                <ele>2.8</ele>
            </trkpt>
            <trkpt lat="-27.008556666666664" lon="-48.641891666666666">
                <ele>2.8</ele>
            </trkpt>
            <trkpt lat="-27.008556666666664" lon="-48.641891666666666">
                <ele>2.8</ele>
            </trkpt>
            <trkpt lat="-27.008556666666664" lon="-48.641891666666666">
                <ele>2.8</ele>
            </trkpt>
            <trkpt lat="-27.008556666666664" lon="-48.641891666666666">
                <ele>2.8</ele>
            </trkpt>
            <trkpt lat="-27.008556666666664" lon="-48.641891666666666">
                <ele>2.8</ele>
            </trkpt>
            <trkpt lat="-27.008556666666664" lon="-48.641891666666666">
                <ele>2.8</ele>
            </trkpt>
            <trkpt lat="-27.008556666666664" lon="-48.641891666666666">
                <ele>2.8</ele>
            </trkpt>
            <trkpt lat="-27.008556666666664" lon="-48.641891666666666">
                <ele>2.8</ele>
            </trkpt>
            <trkpt lat="-27.008556666666664" lon="-48.641891666666666">
                <ele>2.8</ele>
            </trkpt>
            <trkpt lat="-27.008556666666664" lon="-48.641891666666666">
                <ele>2.8</ele>
            </trkpt>
            <trkpt lat="-27.008556666666664" lon="-48.641891666666666">
                <ele>2.8</ele>
            </trkpt>
            <trkpt lat="-27.008556666666664" lon="-48.641891666666666">
                <ele>2.8</ele>
            </trkpt>
            <trkpt lat="-27.008556666666664" lon="-48.641891666666666">
                <ele>2.8</ele>
            </trkpt>
            <trkpt lat="-27.008556666666664" lon="-48.641891666666666">
                <ele>2.8</ele>
            </trkpt>
            <trkpt lat="-27.008556666666664" lon="-48.641891666666666">
                <ele>2.8</ele>
            </trkpt>
            <trkpt lat="-27.008556666666664" lon="-48.641891666666666">
                <ele>2.8</ele>
            </trkpt>
            <trkpt lat="-27.008556666666664" lon="-48.641891666666666">
                <ele>2.8</ele>
            </trkpt>
            <trkpt lat="-27.008556666666664" lon="-48.641891666666666">
                <ele>2.8</ele>
            </trkpt>
            <trkpt lat="-27.008556666666664" lon="-48.641891666666666">
                <ele>2.8</ele>
            </trkpt>
            <trkpt lat="-27.008556666666664" lon="-48.641891666666666">
                <ele>2.8</ele>
            </trkpt>
            <trkpt lat="-27.008556666666664" lon="-48.641891666666666">
                <ele>2.8</ele>
            </trkpt>
            <trkpt lat="-27.008556666666664" lon="-48.641891666666666">
                <ele>2.8</ele>
            </trkpt>
            <trkpt lat="-27.008556666666664" lon="-48.641891666666666">
                <ele>2.8</ele>
            </trkpt>
            <trkpt lat="-27.008556666666664" lon="-48.641891666666666">
                <ele>2.8</ele>
            </trkpt>
            <trkpt lat="-27.008556666666664" lon="-48.641891666666666">
                <ele>2.8</ele>
            </trkpt>
            <trkpt lat="-27.008556666666664" lon="-48.641891666666666">
                <ele>2.8</ele>
            </trkpt>
            <trkpt lat="-27.008556666666664" lon="-48.641891666666666">
                <ele>2.8</ele>
            </trkpt>
            <trkpt lat="-27.008556666666664" lon="-48.641891666666666">
                <ele>2.8</ele>
            </trkpt>
            <trkpt lat="-27.008556666666664" lon="-48.641891666666666">
                <ele>2.8</ele>
            </trkpt>
            <trkpt lat="-27.008556666666664" lon="-48.641891666666666">
                <ele>2.8</ele>
            </trkpt>
            <trkpt lat="-27.008556666666664" lon="-48.641891666666666">
                <ele>2.8</ele>
            </trkpt>
            <trkpt lat="-27.008556666666664" lon="-48.641891666666666">
                <ele>2.8</ele>
            </trkpt>
            <trkpt lat="-27.008556666666664" lon="-48.641891666666666">
                <ele>2.8</ele>
            </trkpt>
            <trkpt lat="-27.008556666666664" lon="-48.641891666666666">
                <ele>2.8</ele>
            </trkpt>
            <trkpt lat="-27.008556666666664" lon="-48.641891666666666">
                <ele>2.8</ele>
            </trkpt>
            <trkpt lat="-27.008556666666664" lon="-48.641891666666666">
                <ele>2.8</ele>
            </trkpt>
            <trkpt lat="-27.008556666666664" lon="-48.641891666666666">
                <ele>2.8</ele>
            </trkpt>
            <trkpt lat="-27.008556666666664" lon="-48.641891666666666">
                <ele>2.8</ele>
            </trkpt>
            <trkpt lat="-27.008556666666664" lon="-48.641891666666666">
                <ele>2.8</ele>
            </trkpt>
            <trkpt lat="-27.008556666666664" lon="-48.641891666666666">
                <ele>2.8</ele>
            </trkpt>
            <trkpt lat="-27.008556666666664" lon="-48.641891666666666">
                <ele>2.8</ele>
            </trkpt>
            <trkpt lat="-27.008556666666664" lon="-48.641891666666666">
                <ele>2.8</ele>
            </trkpt>
            <trkpt lat="-27.008556666666664" lon="-48.641891666666666">
                <ele>2.8</ele>
            </trkpt>
            <trkpt lat="-27.008556666666664" lon="-48.641891666666666">
                <ele>2.8</ele>
            </trkpt>
            <trkpt lat="-27.008556666666664" lon="-48.641891666666666">
                <ele>2.8</ele>
            </trkpt>
            <trkpt lat="-27.008556666666664" lon="-48.641891666666666">
                <ele>2.8</ele>
            </trkpt>
            <trkpt lat="-27.008556666666664" lon="-48.641891666666666">
                <ele>2.8</ele>
            </trkpt>
            <trkpt lat="-27.008556666666664" lon="-48.641891666666666">
                <ele>2.8</ele>
            </trkpt>
            <trkpt lat="-27.008556666666664" lon="-48.641891666666666">
                <ele>2.8</ele>
            </trkpt>
            <trkpt lat="-27.008556666666664" lon="-48.641891666666666">
                <ele>2.8</ele>
            </trkpt>
            <trkpt lat="-27.008556666666664" lon="-48.641891666666666">
                <ele>2.8</ele>
            </trkpt>
            <trkpt lat="-27.008556666666664" lon="-48.641891666666666">
                <ele>2.8</ele>
            </trkpt>
            <trkpt lat="-27.008556666666664" lon="-48.641891666666666">
                <ele>2.8</ele>
            </trkpt>
            <trkpt lat="-27.008556666666664" lon="-48.641891666666666">
                <ele>2.8</ele>
            </trkpt>
            <trkpt lat="-27.008556666666664" lon="-48.641891666666666">
                <ele>2.8</ele>
            </trkpt>
            <trkpt lat="-27.008556666666664" lon="-48.641891666666666">
                <ele>2.8</ele>
            </trkpt>
            <trkpt lat="-27.008556666666664" lon="-48.641891666666666">
                <ele>2.8</ele>
            </trkpt>
            <trkpt lat="-27.008556666666664" lon="-48.641891666666666">
                <ele>2.8</ele>
            </trkpt>
            <trkpt lat="-27.008556666666664" lon="-48.641891666666666">
                <ele>2.8</ele>
            </trkpt>
            <trkpt lat="-27.008556666666664" lon="-48.641891666666666">
                <ele>2.8</ele>
            </trkpt>
            <trkpt lat="-27.008556666666664" lon="-48.641891666666666">
                <ele>2.8</ele>
            </trkpt>
            <trkpt lat="-27.008556666666664" lon="-48.641891666666666">
                <ele>2.8</ele>
            </trkpt>
            <trkpt lat="-27.008556666666664" lon="-48.641891666666666">
                <ele>2.8</ele>
            </trkpt>
            <trkpt lat="-27.008556666666664" lon="-48.641891666666666">
                <ele>2.8</ele>
            </trkpt>
            <trkpt lat="-27.008556666666664" lon="-48.641891666666666">
                <ele>2.8</ele>
            </trkpt>
            <trkpt lat="-27.008556666666664" lon="-48.641891666666666">
                <ele>2.8</ele>
            </trkpt>
            <trkpt lat="-27.008556666666664" lon="-48.641891666666666">
                <ele>2.8</ele>
            </trkpt>
            <trkpt lat="-27.008556666666664" lon="-48.641891666666666">
                <ele>2.8</ele>
            </trkpt>
            <trkpt lat="-27.008556666666664" lon="-48.641891666666666">
                <ele>2.8</ele>
            </trkpt>
            <trkpt lat="-27.008556666666664" lon="-48.641891666666666">
                <ele>2.8</ele>
            </trkpt>
            <trkpt lat="-27.008556666666664" lon="-48.641891666666666">
                <ele>2.8</ele>
            </trkpt>
            <trkpt lat="-27.008556666666664" lon="-48.641891666666666">
                <ele>2.8</ele>
            </trkpt>
            <trkpt lat="-27.008556666666664" lon="-48.641891666666666">
                <ele>2.8</ele>
            </trkpt>
            <trkpt lat="-27.008556666666664" lon="-48.641891666666666">
                <ele>2.8</ele>
            </trkpt>
            <trkpt lat="-27.008556666666664" lon="-48.641891666666666">
                <ele>2.8</ele>
            </trkpt>
            <trkpt lat="-27.008556666666664" lon="-48.641891666666666">
                <ele>2.8</ele>
            </trkpt>
            <trkpt lat="-27.008556666666664" lon="-48.641891666666666">
                <ele>2.8</ele>
            </trkpt>
            <trkpt lat="-27.008556666666664" lon="-48.641891666666666">
                <ele>2.8</ele>
            </trkpt>
            <trkpt lat="-27.008585" lon="-48.641891666666666">
                <ele>7.6</ele>
            </trkpt>
            <trkpt lat="-27.008595" lon="-48.64188666666667">
                <ele>7.5</ele>
            </trkpt>
            <trkpt lat="-27.008603333333333" lon="-48.64187666666667">
                <ele>7.6</ele>
            </trkpt>
            <trkpt lat="-27.008609999999997" lon="-48.641875">
                <ele>7.6</ele>
            </trkpt>
            <trkpt lat="-27.008616666666665" lon="-48.641870000000004">
                <ele>7.5</ele>
            </trkpt>
            <trkpt lat="-27.008621666666667" lon="-48.64186333333334">
                <ele>7.5</ele>
            </trkpt>
            <trkpt lat="-27.00862833333333" lon="-48.641850000000005">
                <ele>7.6</ele>
            </trkpt>
            <trkpt lat="-27.008633333333332" lon="-48.64184">
                <ele>7</ele>
            </trkpt>
            <trkpt lat="-27.008638333333337" lon="-48.64183166666667">
                <ele>6.5</ele>
            </trkpt>
            <trkpt lat="-27.008645" lon="-48.641826666666674">
                <ele>6.5</ele>
            </trkpt>
            <trkpt lat="-27.008649999999996" lon="-48.641821666666665">
                <ele>6.4</ele>
            </trkpt>
            <trkpt lat="-27.008653333333335" lon="-48.641816666666664">
                <ele>6.4</ele>
            </trkpt>
            <trkpt lat="-27.008658333333333" lon="-48.64181">
                <ele>6.6</ele>
            </trkpt>
            <trkpt lat="-27.00865666666667" lon="-48.641805000000005">
                <ele>6.699999999999999</ele>
            </trkpt>
            <trkpt lat="-27.008654999999997" lon="-48.641801666666666">
                <ele>6.699999999999999</ele>
            </trkpt>
            <trkpt lat="-27.008654999999997" lon="-48.641801666666666">
                <ele>6.699999999999999</ele>
            </trkpt>
            <trkpt lat="-27.008653333333335" lon="-48.641799999999996">
                <ele>6.800000000000001</ele>
            </trkpt>
            <trkpt lat="-27.008653333333335" lon="-48.641799999999996">
                <ele>6.800000000000001</ele>
            </trkpt>
            <trkpt lat="-27.008653333333335" lon="-48.64179666666667">
                <ele>6.5</ele>
            </trkpt>
            <trkpt lat="-27.008654999999997" lon="-48.64179833333333">
                <ele>6.6</ele>
            </trkpt>
            <trkpt lat="-27.008653333333335" lon="-48.64179833333333">
                <ele>6.6</ele>
            </trkpt>
            <trkpt lat="-27.008651666666665" lon="-48.64179666666667">
                <ele>6.699999999999999</ele>
            </trkpt>
            <trkpt lat="-27.008649999999996" lon="-48.64179833333333">
                <ele>6.5</ele>
            </trkpt>
            <trkpt lat="-27.008651666666665" lon="-48.641799999999996">
                <ele>6.300000000000001</ele>
            </trkpt>
            <trkpt lat="-27.008651666666665" lon="-48.641801666666666">
                <ele>6.199999999999999</ele>
            </trkpt>
            <trkpt lat="-27.008653333333335" lon="-48.641803333333336">
                <ele>6</ele>
            </trkpt>
            <trkpt lat="-27.008653333333335" lon="-48.641803333333336">
                <ele>6</ele>
            </trkpt>
            <trkpt lat="-27.008653333333335" lon="-48.641803333333336">
                <ele>6</ele>
            </trkpt>
            <trkpt lat="-27.008653333333335" lon="-48.641803333333336">
                <ele>6</ele>
            </trkpt>
            <trkpt lat="-27.008653333333335" lon="-48.641803333333336">
                <ele>6</ele>
            </trkpt>
            <trkpt lat="-27.008653333333335" lon="-48.641803333333336">
                <ele>6</ele>
            </trkpt>
            <trkpt lat="-27.008653333333335" lon="-48.641803333333336">
                <ele>6</ele>
            </trkpt>
            <trkpt lat="-27.008653333333335" lon="-48.641803333333336">
                <ele>6</ele>
            </trkpt>
            <trkpt lat="-27.008653333333335" lon="-48.641803333333336">
                <ele>6</ele>
            </trkpt>
            <trkpt lat="-27.008653333333335" lon="-48.641803333333336">
                <ele>6</ele>
            </trkpt>
            <trkpt lat="-27.008653333333335" lon="-48.641803333333336">
                <ele>6</ele>
            </trkpt>
            <trkpt lat="-27.008653333333335" lon="-48.641803333333336">
                <ele>6</ele>
            </trkpt>
            <trkpt lat="-27.008653333333335" lon="-48.641803333333336">
                <ele>6</ele>
            </trkpt>
            <trkpt lat="-27.008653333333335" lon="-48.641803333333336">
                <ele>6</ele>
            </trkpt>
            <trkpt lat="-27.008653333333335" lon="-48.641803333333336">
                <ele>6</ele>
            </trkpt>
            <trkpt lat="-27.008653333333335" lon="-48.641803333333336">
                <ele>6</ele>
            </trkpt>
            <trkpt lat="-27.008653333333335" lon="-48.641803333333336">
                <ele>6</ele>
            </trkpt>
            <trkpt lat="-27.008653333333335" lon="-48.641803333333336">
                <ele>6</ele>
            </trkpt>
            <trkpt lat="-27.008653333333335" lon="-48.641803333333336">
                <ele>6</ele>
            </trkpt>
            <trkpt lat="-27.008653333333335" lon="-48.641803333333336">
                <ele>6</ele>
            </trkpt>
            <trkpt lat="-27.008653333333335" lon="-48.641803333333336">
                <ele>6</ele>
            </trkpt>
            <trkpt lat="-27.008653333333335" lon="-48.641803333333336">
                <ele>6</ele>
            </trkpt>
            <trkpt lat="-27.008653333333335" lon="-48.641803333333336">
                <ele>6</ele>
            </trkpt>
            <trkpt lat="-27.008653333333335" lon="-48.641803333333336">
                <ele>6</ele>
            </trkpt>
            <trkpt lat="-27.008653333333335" lon="-48.641803333333336">
                <ele>6</ele>
            </trkpt>
            <trkpt lat="-27.008653333333335" lon="-48.641803333333336">
                <ele>6</ele>
            </trkpt>
            <trkpt lat="-27.008653333333335" lon="-48.641803333333336">
                <ele>6</ele>
            </trkpt>
            <trkpt lat="-27.008653333333335" lon="-48.641803333333336">
                <ele>6</ele>
            </trkpt>
            <trkpt lat="-27.008653333333335" lon="-48.641803333333336">
                <ele>6</ele>
            </trkpt>
            <trkpt lat="-27.008653333333335" lon="-48.641803333333336">
                <ele>6</ele>
            </trkpt>
            <trkpt lat="-27.008653333333335" lon="-48.641803333333336">
                <ele>6</ele>
            </trkpt>
            <trkpt lat="-27.008653333333335" lon="-48.641803333333336">
                <ele>6</ele>
            </trkpt>
            <trkpt lat="-27.008653333333335" lon="-48.641803333333336">
                <ele>6</ele>
            </trkpt>
            <trkpt lat="-27.008653333333335" lon="-48.641803333333336">
                <ele>6</ele>
            </trkpt>
            <trkpt lat="-27.008653333333335" lon="-48.641803333333336">
                <ele>6</ele>
            </trkpt>
            <trkpt lat="-27.008653333333335" lon="-48.641803333333336">
                <ele>6</ele>
            </trkpt>
            <trkpt lat="-27.008658333333333" lon="-48.641805000000005">
                <ele>5.5</ele>
            </trkpt>
            <trkpt lat="-27.00865666666667" lon="-48.641805000000005">
                <ele>5.1</ele>
            </trkpt>
            <trkpt lat="-27.008654999999997" lon="-48.641803333333336">
                <ele>4.9</ele>
            </trkpt>
            <trkpt lat="-27.008653333333335" lon="-48.64180666666666">
                <ele>5.1</ele>
            </trkpt>
            <trkpt lat="-27.008653333333335" lon="-48.64180666666666">
                <ele>5.1</ele>
            </trkpt>
            <trkpt lat="-27.008653333333335" lon="-48.64180666666666">
                <ele>5.1</ele>
            </trkpt>
            <trkpt lat="-27.008653333333335" lon="-48.64180666666666">
                <ele>5.1</ele>
            </trkpt>
            <trkpt lat="-27.008653333333335" lon="-48.64180666666666">
                <ele>5.1</ele>
            </trkpt>
            <trkpt lat="-27.008653333333335" lon="-48.64180666666666">
                <ele>5.1</ele>
            </trkpt>
            <trkpt lat="-27.008653333333335" lon="-48.64180666666666">
                <ele>5.1</ele>
            </trkpt>
            <trkpt lat="-27.008653333333335" lon="-48.64180666666666">
                <ele>5.1</ele>
            </trkpt>
            <trkpt lat="-27.008653333333335" lon="-48.64180666666666">
                <ele>5.1</ele>
            </trkpt>
            <trkpt lat="-27.008660000000003" lon="-48.641795">
                <ele>5.300000000000001</ele>
            </trkpt>
            <trkpt lat="-27.008663333333335" lon="-48.641795">
                <ele>5.4</ele>
            </trkpt>
            <trkpt lat="-27.008668333333336" lon="-48.641795">
                <ele>5.1</ele>
            </trkpt>
            <trkpt lat="-27.008666666666667" lon="-48.64179333333333">
                <ele>5.1</ele>
            </trkpt>
            <trkpt lat="-27.008661666666665" lon="-48.64178833333334">
                <ele>4.800000000000001</ele>
            </trkpt>
            <trkpt lat="-27.008654999999997" lon="-48.64178333333333">
                <ele>4.7</ele>
            </trkpt>
            <trkpt lat="-27.008649999999996" lon="-48.641781666666674">
                <ele>4.7</ele>
            </trkpt>
            <trkpt lat="-27.008645" lon="-48.641778333333335">
                <ele>4.5</ele>
            </trkpt>
            <trkpt lat="-27.008643333333332" lon="-48.64177333333334">
                <ele>4.5</ele>
            </trkpt>
            <trkpt lat="-27.008636666666668" lon="-48.64176666666667">
                <ele>4.6</ele>
            </trkpt>
            <trkpt lat="-27.00862833333333" lon="-48.641760000000005">
                <ele>4.800000000000001</ele>
            </trkpt>
            <trkpt lat="-27.008618333333335" lon="-48.64175">
                <ele>4.800000000000001</ele>
            </trkpt>
            <trkpt lat="-27.008609999999997" lon="-48.641736666666674">
                <ele>5.1</ele>
            </trkpt>
            <trkpt lat="-27.0086" lon="-48.641724999999994">
                <ele>5.2</ele>
            </trkpt>
            <trkpt lat="-27.008588333333332" lon="-48.641713333333335">
                <ele>5.1</ele>
            </trkpt>
            <trkpt lat="-27.00858" lon="-48.641705">
                <ele>4.7</ele>
            </trkpt>
            <trkpt lat="-27.008573333333334" lon="-48.64169333333333">
                <ele>4.7</ele>
            </trkpt>
            <trkpt lat="-27.008568333333333" lon="-48.64168333333334">
                <ele>4.9</ele>
            </trkpt>
            <trkpt lat="-27.00856666666667" lon="-48.64167666666667">
                <ele>4.9</ele>
            </trkpt>
            <trkpt lat="-27.00856666666667" lon="-48.641675">
                <ele>4.6</ele>
            </trkpt>
            <trkpt lat="-27.008570000000002" lon="-48.64167166666666">
                <ele>4.2</ele>
            </trkpt>
            <trkpt lat="-27.008570000000002" lon="-48.64167166666666">
                <ele>4.2</ele>
            </trkpt>
            <trkpt lat="-27.008571666666665" lon="-48.64167166666666">
                <ele>4.1</ele>
            </trkpt>
            <trkpt lat="-27.008571666666665" lon="-48.64167166666666">
                <ele>4.1</ele>
            </trkpt>
            <trkpt lat="-27.008575000000004" lon="-48.64167166666666">
                <ele>4</ele>
            </trkpt>
            <trkpt lat="-27.00858" lon="-48.641675">
                <ele>3.9</ele>
            </trkpt>
            <trkpt lat="-27.008585" lon="-48.64168166666666">
                <ele>3.9</ele>
            </trkpt>
            <trkpt lat="-27.008593333333337" lon="-48.64169333333333">
                <ele>4</ele>
            </trkpt>
            <trkpt lat="-27.008606666666665" lon="-48.64170333333333">
                <ele>4.4</ele>
            </trkpt>
            <trkpt lat="-27.008618333333335" lon="-48.641711666666666">
                <ele>4.5</ele>
            </trkpt>
            <trkpt lat="-27.00863" lon="-48.64172166666667">
                <ele>4.9</ele>
            </trkpt>
            <trkpt lat="-27.00864166666667" lon="-48.64172833333334">
                <ele>5</ele>
            </trkpt>
            <trkpt lat="-27.008651666666665" lon="-48.641736666666674">
                <ele>5</ele>
            </trkpt>
            <trkpt lat="-27.008660000000003" lon="-48.64174333333334">
                <ele>5</ele>
            </trkpt>
            <trkpt lat="-27.008664999999997" lon="-48.64175333333333">
                <ele>4.800000000000001</ele>
            </trkpt>
            <trkpt lat="-27.008675" lon="-48.64176166666666">
                <ele>4.9</ele>
            </trkpt>
            <trkpt lat="-27.008675" lon="-48.64176166666666">
                <ele>4.9</ele>
            </trkpt>
            <trkpt lat="-27.008678333333332" lon="-48.64177166666666">
                <ele>4.9</ele>
            </trkpt>
            <trkpt lat="-27.008678333333332" lon="-48.64177166666666">
                <ele>4.9</ele>
            </trkpt>
            <trkpt lat="-27.008679999999995" lon="-48.641778333333335">
                <ele>5.1</ele>
            </trkpt>
            <trkpt lat="-27.008681666666668" lon="-48.641781666666674">
                <ele>5.300000000000001</ele>
            </trkpt>
            <trkpt lat="-27.008681666666668" lon="-48.641781666666674">
                <ele>5.300000000000001</ele>
            </trkpt>
            <trkpt lat="-27.008685" lon="-48.641785">
                <ele>5.5</ele>
            </trkpt>
            <trkpt lat="-27.008685" lon="-48.641785">
                <ele>5.5</ele>
            </trkpt>
            <trkpt lat="-27.008688333333332" lon="-48.641785">
                <ele>5.699999999999999</ele>
            </trkpt>
            <trkpt lat="-27.00869" lon="-48.64178666666667">
                <ele>6</ele>
            </trkpt>
            <trkpt lat="-27.008693333333333" lon="-48.64178666666667">
                <ele>6.4</ele>
            </trkpt>
            <trkpt lat="-27.008696666666665" lon="-48.64179166666666">
                <ele>6.6</ele>
            </trkpt>
            <trkpt lat="-27.008696666666665" lon="-48.641795">
                <ele>6.6</ele>
            </trkpt>
            <trkpt lat="-27.00869" lon="-48.64179833333333">
                <ele>6.5</ele>
            </trkpt>
            <trkpt lat="-27.008683333333337" lon="-48.641805000000005">
                <ele>6.6</ele>
            </trkpt>
            <trkpt lat="-27.008678333333332" lon="-48.64181">
                <ele>6.9</ele>
            </trkpt>
            <trkpt lat="-27.008675" lon="-48.641816666666664">
                <ele>6.9</ele>
            </trkpt>
            <trkpt lat="-27.00867" lon="-48.641823333333335">
                <ele>7.199999999999999</ele>
            </trkpt>
            <trkpt lat="-27.008658333333333" lon="-48.64183">
                <ele>7.300000000000001</ele>
            </trkpt>
            <trkpt lat="-27.008648333333333" lon="-48.64184">
                <ele>7.4</ele>
            </trkpt>
            <trkpt lat="-27.008643333333332" lon="-48.641846666666666">
                <ele>7.4</ele>
            </trkpt>
            <trkpt lat="-27.008645" lon="-48.641850000000005">
                <ele>6.9</ele>
            </trkpt>
            <trkpt lat="-27.008645" lon="-48.641850000000005">
                <ele>6.5</ele>
            </trkpt>
            <trkpt lat="-27.008646666666664" lon="-48.641846666666666">
                <ele>6.4</ele>
            </trkpt>
            <trkpt lat="-27.008649999999996" lon="-48.64183833333333">
                <ele>6.1</ele>
            </trkpt>
            <trkpt lat="-27.008658333333333" lon="-48.641825000000004">
                <ele>5.699999999999999</ele>
            </trkpt>
            <trkpt lat="-27.008671666666668" lon="-48.64180666666666">
                <ele>5.5</ele>
            </trkpt>
            <trkpt lat="-27.00868666666667" lon="-48.64178833333334">
                <ele>5.4</ele>
            </trkpt>
            <trkpt lat="-27.008705000000003" lon="-48.641769999999994">
                <ele>5</ele>
            </trkpt>
            <trkpt lat="-27.008721666666663" lon="-48.64174833333333">
                <ele>4.4</ele>
            </trkpt>
            <trkpt lat="-27.008739999999996" lon="-48.641723333333324">
                <ele>4</ele>
            </trkpt>
            <trkpt lat="-27.00876333333333" lon="-48.64170333333333">
                <ele>3.2</ele>
            </trkpt>
            <trkpt lat="-27.008789999999998" lon="-48.641679999999994">
                <ele>3.2</ele>
            </trkpt>
            <trkpt lat="-27.008814999999995" lon="-48.64166">
                <ele>2.1</ele>
            </trkpt>
            <trkpt lat="-27.008833333333335" lon="-48.64163833333334">
                <ele>1.8</ele>
            </trkpt>
            <trkpt lat="-27.008855" lon="-48.64161333333333">
                <ele>1.3</ele>
            </trkpt>
            <trkpt lat="-27.008876666666666" lon="-48.64158666666667">
                <ele>1.1</ele>
            </trkpt>
            <trkpt lat="-27.00889833333333" lon="-48.64156166666667">
                <ele>0.8</ele>
            </trkpt>
            <trkpt lat="-27.008919999999996" lon="-48.64154">
                <ele>0.9000000000000001</ele>
            </trkpt>
            <trkpt lat="-27.00894166666667" lon="-48.64152000000001">
                <ele>1.1</ele>
            </trkpt>
            <trkpt lat="-27.008966666666666" lon="-48.641498333333324">
                <ele>2</ele>
            </trkpt>
            <trkpt lat="-27.008993333333333" lon="-48.64147">
                <ele>2.8</ele>
            </trkpt>
            <trkpt lat="-27.008993333333333" lon="-48.64147">
                <ele>2.8</ele>
            </trkpt>
            <trkpt lat="-27.009018333333334" lon="-48.64144666666666">
                <ele>3.3</ele>
            </trkpt>
            <trkpt lat="-27.00904166666667" lon="-48.641425">
                <ele>3.2</ele>
            </trkpt>
            <trkpt lat="-27.00906166666667" lon="-48.641400000000004">
                <ele>2.9000000000000004</ele>
            </trkpt>
            <trkpt lat="-27.00907833333333" lon="-48.64138166666667">
                <ele>2.6</ele>
            </trkpt>
            <trkpt lat="-27.009099999999997" lon="-48.64136">
                <ele>2.5</ele>
            </trkpt>
            <trkpt lat="-27.00912166666667" lon="-48.64133333333333">
                <ele>2.4000000000000004</ele>
            </trkpt>
            <trkpt lat="-27.009143333333334" lon="-48.641308333333335">
                <ele>2.4000000000000004</ele>
            </trkpt>
            <trkpt lat="-27.00916666666667" lon="-48.641283333333334">
                <ele>2.2</ele>
            </trkpt>
            <trkpt lat="-27.009189999999997" lon="-48.641259999999996">
                <ele>2.2</ele>
            </trkpt>
            <trkpt lat="-27.00921166666667" lon="-48.64124">
                <ele>2.2</ele>
            </trkpt>
            <trkpt lat="-27.009233333333334" lon="-48.641218333333335">
                <ele>2.2</ele>
            </trkpt>
            <trkpt lat="-27.00925333333333" lon="-48.64119833333333">
                <ele>2.2</ele>
            </trkpt>
            <trkpt lat="-27.00927" lon="-48.641173333333334">
                <ele>2</ele>
            </trkpt>
            <trkpt lat="-27.009278333333334" lon="-48.641160000000006">
                <ele>1.6</ele>
            </trkpt>
            <trkpt lat="-27.009281666666666" lon="-48.641155">
                <ele>1.7000000000000002</ele>
            </trkpt>
            <trkpt lat="-27.009281666666666" lon="-48.64115666666667">
                <ele>1.8</ele>
            </trkpt>
            <trkpt lat="-27.009281666666666" lon="-48.64115666666667">
                <ele>1.8</ele>
            </trkpt>
            <trkpt lat="-27.009279999999997" lon="-48.64115666666667">
                <ele>2</ele>
            </trkpt>
            <trkpt lat="-27.009278333333334" lon="-48.64115333333333">
                <ele>2.2</ele>
            </trkpt>
            <trkpt lat="-27.009276666666665" lon="-48.64115166666667">
                <ele>2.1</ele>
            </trkpt>
            <trkpt lat="-27.009275000000002" lon="-48.64115166666667">
                <ele>2.2</ele>
            </trkpt>
            <trkpt lat="-27.009276666666665" lon="-48.64115333333333">
                <ele>2.3</ele>
            </trkpt>
            <trkpt lat="-27.009276666666665" lon="-48.64115333333333">
                <ele>2.3</ele>
            </trkpt>
            <trkpt lat="-27.009278333333334" lon="-48.64115333333333">
                <ele>2.4000000000000004</ele>
            </trkpt>
            <trkpt lat="-27.009279999999997" lon="-48.641155">
                <ele>2.4000000000000004</ele>
            </trkpt>
            <trkpt lat="-27.009281666666666" lon="-48.641155">
                <ele>2.3</ele>
            </trkpt>
            <trkpt lat="-27.009285" lon="-48.641155">
                <ele>2.5</ele>
            </trkpt>
            <trkpt lat="-27.009291666666666" lon="-48.641146666666664">
                <ele>2.6</ele>
            </trkpt>
            <trkpt lat="-27.00929833333333" lon="-48.64113833333334">
                <ele>2.5</ele>
            </trkpt>
            <trkpt lat="-27.009306666666664" lon="-48.641124999999995">
                <ele>2.5</ele>
            </trkpt>
            <trkpt lat="-27.009320000000002" lon="-48.641115000000006">
                <ele>2</ele>
            </trkpt>
            <trkpt lat="-27.00933166666667" lon="-48.64110000000001">
                <ele>2.2</ele>
            </trkpt>
            <trkpt lat="-27.009353333333333" lon="-48.64108666666666">
                <ele>2.2</ele>
            </trkpt>
            <trkpt lat="-27.009369999999997" lon="-48.64107333333333">
                <ele>2</ele>
            </trkpt>
            <trkpt lat="-27.009386666666668" lon="-48.64105833333333">
                <ele>1.9000000000000001</ele>
            </trkpt>
            <trkpt lat="-27.009405" lon="-48.641040000000004">
                <ele>1.9000000000000001</ele>
            </trkpt>
            <trkpt lat="-27.009425000000004" lon="-48.64101666666667">
                <ele>1.4000000000000001</ele>
            </trkpt>
            <trkpt lat="-27.009443333333333" lon="-48.640993333333334">
                <ele>1.3</ele>
            </trkpt>
            <trkpt lat="-27.009461666666667" lon="-48.64097833333334">
                <ele>1.9000000000000001</ele>
            </trkpt>
            <trkpt lat="-27.00948166666667" lon="-48.64095833333334">
                <ele>2.3</ele>
            </trkpt>
            <trkpt lat="-27.00949666666667" lon="-48.64094166666667">
                <ele>2.3</ele>
            </trkpt>
            <trkpt lat="-27.009511666666672" lon="-48.64092833333334">
                <ele>2.8</ele>
            </trkpt>
            <trkpt lat="-27.009531666666664" lon="-48.64091166666667">
                <ele>3</ele>
            </trkpt>
            <trkpt lat="-27.00955333333333" lon="-48.64089166666666">
                <ele>2.5</ele>
            </trkpt>
            <trkpt lat="-27.009566666666668" lon="-48.64087333333334">
                <ele>2.9000000000000004</ele>
            </trkpt>
            <trkpt lat="-27.009579999999996" lon="-48.640854999999995">
                <ele>2.7</ele>
            </trkpt>
            <trkpt lat="-27.009591666666665" lon="-48.640845000000006">
                <ele>2.9000000000000004</ele>
            </trkpt>
            <trkpt lat="-27.009591666666665" lon="-48.64084166666667">
                <ele>3.1</ele>
            </trkpt>
            <trkpt lat="-27.009591666666665" lon="-48.64083833333334">
                <ele>3</ele>
            </trkpt>
            <trkpt lat="-27.009590000000003" lon="-48.64083833333334">
                <ele>2.8</ele>
            </trkpt>
            <trkpt lat="-27.009588333333333" lon="-48.64083833333334">
                <ele>2.6</ele>
            </trkpt>
            <trkpt lat="-27.009588333333333" lon="-48.64083833333334">
                <ele>2.6</ele>
            </trkpt>
            <trkpt lat="-27.00958666666667" lon="-48.64084166666667">
                <ele>2.5</ele>
            </trkpt>
            <trkpt lat="-27.009585" lon="-48.640843333333336">
                <ele>2.5</ele>
            </trkpt>
            <trkpt lat="-27.009585" lon="-48.640843333333336">
                <ele>2.7</ele>
            </trkpt>
            <trkpt lat="-27.00958666666667" lon="-48.640845000000006">
                <ele>3.1</ele>
            </trkpt>
            <trkpt lat="-27.00958666666667" lon="-48.64084666666666">
                <ele>3.5</ele>
            </trkpt>
            <trkpt lat="-27.00958666666667" lon="-48.64084666666666">
                <ele>3.5</ele>
            </trkpt>
            <trkpt lat="-27.009588333333333" lon="-48.64084666666666">
                <ele>3.8000000000000003</ele>
            </trkpt>
            <trkpt lat="-27.009588333333333" lon="-48.64084666666666">
                <ele>3.8000000000000003</ele>
            </trkpt>
            <trkpt lat="-27.009588333333333" lon="-48.64084666666666">
                <ele>3.8000000000000003</ele>
            </trkpt>
            <trkpt lat="-27.009588333333333" lon="-48.64084666666666">
                <ele>3.8000000000000003</ele>
            </trkpt>
            <trkpt lat="-27.009588333333333" lon="-48.64084666666666">
                <ele>3.8000000000000003</ele>
            </trkpt>
            <trkpt lat="-27.009588333333333" lon="-48.64084666666666">
                <ele>3.8000000000000003</ele>
            </trkpt>
            <trkpt lat="-27.009593333333335" lon="-48.640835">
                <ele>4.800000000000001</ele>
            </trkpt>
            <trkpt lat="-27.009606666666667" lon="-48.64082666666666">
                <ele>4.800000000000001</ele>
            </trkpt>
            <trkpt lat="-27.00961666666667" lon="-48.64081666666666">
                <ele>4.6</ele>
            </trkpt>
            <trkpt lat="-27.009623333333334" lon="-48.64080333333333">
                <ele>4.5</ele>
            </trkpt>
            <trkpt lat="-27.00962666666667" lon="-48.64079">
                <ele>4.2</ele>
            </trkpt>
            <trkpt lat="-27.00963166666667" lon="-48.64077833333334">
                <ele>4.1</ele>
            </trkpt>
            <trkpt lat="-27.009639999999997" lon="-48.64077">
                <ele>3.7</ele>
            </trkpt>
            <trkpt lat="-27.009655" lon="-48.64075666666666">
                <ele>3.8000000000000003</ele>
            </trkpt>
            <trkpt lat="-27.009669999999996" lon="-48.64074166666666">
                <ele>4.2</ele>
            </trkpt>
            <trkpt lat="-27.009684999999998" lon="-48.640725">
                <ele>4.1</ele>
            </trkpt>
            <trkpt lat="-27.009705" lon="-48.640710000000006">
                <ele>3.7</ele>
            </trkpt>
            <trkpt lat="-27.00972" lon="-48.64069166666666">
                <ele>4</ele>
            </trkpt>
            <trkpt lat="-27.009731666666667" lon="-48.64066833333333">
                <ele>5.1</ele>
            </trkpt>
            <trkpt lat="-27.00974666666667" lon="-48.640655">
                <ele>5.800000000000001</ele>
            </trkpt>
            <trkpt lat="-27.009758333333334" lon="-48.64064333333334">
                <ele>6.300000000000001</ele>
            </trkpt>
            <trkpt lat="-27.009773333333335" lon="-48.64062666666667">
                <ele>6.4</ele>
            </trkpt>
            <trkpt lat="-27.009786666666667" lon="-48.640616666666666">
                <ele>6.6</ele>
            </trkpt>
            <trkpt lat="-27.009796666666663" lon="-48.64059999999999">
                <ele>6.300000000000001</ele>
            </trkpt>
            <trkpt lat="-27.00980666666667" lon="-48.640586666666664">
                <ele>6.4</ele>
            </trkpt>
            <trkpt lat="-27.009821666666667" lon="-48.640575000000005">
                <ele>6.300000000000001</ele>
            </trkpt>
            <trkpt lat="-27.009833333333336" lon="-48.64056333333333">
                <ele>6</ele>
            </trkpt>
            <trkpt lat="-27.009853333333332" lon="-48.64056333333333">
                <ele>6</ele>
            </trkpt>
            <trkpt lat="-27.009873333333335" lon="-48.64055666666666">
                <ele>5.5</ele>
            </trkpt>
            <trkpt lat="-27.009885" lon="-48.640539999999994">
                <ele>5.6</ele>
            </trkpt>
            <trkpt lat="-27.00988" lon="-48.64052333333334">
                <ele>5.699999999999999</ele>
            </trkpt>
            <trkpt lat="-27.009861666666666" lon="-48.640530000000005">
                <ele>5.699999999999999</ele>
            </trkpt>
            <trkpt lat="-27.009846666666665" lon="-48.64055">
                <ele>5.4</ele>
            </trkpt>
            <trkpt lat="-27.009830000000004" lon="-48.64057666666666">
                <ele>5.6</ele>
            </trkpt>
            <trkpt lat="-27.00980666666667" lon="-48.64060500000001">
                <ele>5.300000000000001</ele>
            </trkpt>
            <trkpt lat="-27.009783333333335" lon="-48.640625">
                <ele>5.4</ele>
            </trkpt>
            <trkpt lat="-27.009758333333334" lon="-48.64064666666666">
                <ele>5.699999999999999</ele>
            </trkpt>
            <trkpt lat="-27.00973333333333" lon="-48.64067333333334">
                <ele>5.699999999999999</ele>
            </trkpt>
            <trkpt lat="-27.009706666666663" lon="-48.6407">
                <ele>5.4</ele>
            </trkpt>
            <trkpt lat="-27.009681666666665" lon="-48.64072666666666">
                <ele>5.4</ele>
            </trkpt>
            <trkpt lat="-27.009656666666668" lon="-48.64075">
                <ele>5.4</ele>
            </trkpt>
            <trkpt lat="-27.009635000000003" lon="-48.64077333333333">
                <ele>5.2</ele>
            </trkpt>
            <trkpt lat="-27.00961333333333" lon="-48.64079666666667">
                <ele>5</ele>
            </trkpt>
            <trkpt lat="-27.009591666666665" lon="-48.64081833333333">
                <ele>4.800000000000001</ele>
            </trkpt>
            <trkpt lat="-27.009573333333332" lon="-48.64084">
                <ele>4.9</ele>
            </trkpt>
            <trkpt lat="-27.009555" lon="-48.64086333333333">
                <ele>4.7</ele>
            </trkpt>
            <trkpt lat="-27.00953666666667" lon="-48.64088333333334">
                <ele>4.6</ele>
            </trkpt>
            <trkpt lat="-27.009516666666666" lon="-48.640903333333334">
                <ele>4.800000000000001</ele>
            </trkpt>
            <trkpt lat="-27.009498333333333" lon="-48.640925">
                <ele>5.5</ele>
            </trkpt>
            <trkpt lat="-27.009483333333332" lon="-48.640946666666665">
                <ele>5.800000000000001</ele>
            </trkpt>
            <trkpt lat="-27.009466666666672" lon="-48.64095999999999">
                <ele>5.800000000000001</ele>
            </trkpt>
            <trkpt lat="-27.00945166666667" lon="-48.64097166666667">
                <ele>5.5</ele>
            </trkpt>
            <trkpt lat="-27.009441666666664" lon="-48.640975">
                <ele>5.5</ele>
            </trkpt>
            <trkpt lat="-27.00944" lon="-48.64097166666667">
                <ele>5.4</ele>
            </trkpt>
            <trkpt lat="-27.00944" lon="-48.64097">
                <ele>5.6</ele>
            </trkpt>
            <trkpt lat="-27.00944" lon="-48.64097">
                <ele>5.6</ele>
            </trkpt>
            <trkpt lat="-27.009441666666664" lon="-48.64096833333333">
                <ele>5.4</ele>
            </trkpt>
            <trkpt lat="-27.009441666666664" lon="-48.64097">
                <ele>5.2</ele>
            </trkpt>
            <trkpt lat="-27.009441666666664" lon="-48.64097">
                <ele>5.2</ele>
            </trkpt>
            <trkpt lat="-27.009441666666664" lon="-48.64096833333333">
                <ele>5.2</ele>
            </trkpt>
            <trkpt lat="-27.009441666666664" lon="-48.64096833333333">
                <ele>5.2</ele>
            </trkpt>
            <trkpt lat="-27.009441666666664" lon="-48.64096833333333">
                <ele>5.2</ele>
            </trkpt>
            <trkpt lat="-27.009441666666664" lon="-48.64096833333333">
                <ele>5.1</ele>
            </trkpt>
            <trkpt lat="-27.009441666666664" lon="-48.640966666666664">
                <ele>5</ele>
            </trkpt>
            <trkpt lat="-27.009443333333333" lon="-48.640966666666664">
                <ele>4.9</ele>
            </trkpt>
            <trkpt lat="-27.009444999999996" lon="-48.640966666666664">
                <ele>4.800000000000001</ele>
            </trkpt>
            <trkpt lat="-27.009444999999996" lon="-48.640966666666664">
                <ele>4.800000000000001</ele>
            </trkpt>
            <trkpt lat="-27.009444999999996" lon="-48.640966666666664">
                <ele>4.800000000000001</ele>
            </trkpt>
            <trkpt lat="-27.009444999999996" lon="-48.640966666666664">
                <ele>4.800000000000001</ele>
            </trkpt>
            <trkpt lat="-27.009444999999996" lon="-48.640966666666664">
                <ele>4.800000000000001</ele>
            </trkpt>
            <trkpt lat="-27.009444999999996" lon="-48.640966666666664">
                <ele>4.800000000000001</ele>
            </trkpt>
            <trkpt lat="-27.009444999999996" lon="-48.640966666666664">
                <ele>4.800000000000001</ele>
            </trkpt>
            <trkpt lat="-27.009444999999996" lon="-48.640966666666664">
                <ele>4.800000000000001</ele>
            </trkpt>
            <trkpt lat="-27.009444999999996" lon="-48.640966666666664">
                <ele>4.800000000000001</ele>
            </trkpt>
            <trkpt lat="-27.009444999999996" lon="-48.640966666666664">
                <ele>4.800000000000001</ele>
            </trkpt>
            <trkpt lat="-27.009444999999996" lon="-48.64097">
                <ele>4</ele>
            </trkpt>
            <trkpt lat="-27.00943666666667" lon="-48.64097666666667">
                <ele>3.5</ele>
            </trkpt>
            <trkpt lat="-27.009428333333336" lon="-48.64098666666667">
                <ele>3</ele>
            </trkpt>
            <trkpt lat="-27.00942" lon="-48.64099833333333">
                <ele>2.8</ele>
            </trkpt>
            <trkpt lat="-27.009408333333333" lon="-48.64100833333334">
                <ele>2.6</ele>
            </trkpt>
            <trkpt lat="-27.00939166666667" lon="-48.641025000000006">
                <ele>2.5</ele>
            </trkpt>
            <trkpt lat="-27.00937333333333" lon="-48.64104333333333">
                <ele>3</ele>
            </trkpt>
            <trkpt lat="-27.009351666666664" lon="-48.64105333333334">
                <ele>2.9000000000000004</ele>
            </trkpt>
            <trkpt lat="-27.00932833333333" lon="-48.64104666666667">
                <ele>3.3</ele>
            </trkpt>
            <trkpt lat="-27.00931333333333" lon="-48.641040000000004">
                <ele>3.7</ele>
            </trkpt>
            <trkpt lat="-27.009308333333333" lon="-48.641025000000006">
                <ele>4.5</ele>
            </trkpt>
            <trkpt lat="-27.009309999999996" lon="-48.64100666666666">
                <ele>4.9</ele>
            </trkpt>
            <trkpt lat="-27.00931166666667" lon="-48.640993333333334">
                <ele>5.1</ele>
            </trkpt>
            <trkpt lat="-27.009321666666665" lon="-48.64097666666667">
                <ele>5.6</ele>
            </trkpt>
            <trkpt lat="-27.009333333333334" lon="-48.64095999999999">
                <ele>5.699999999999999</ele>
            </trkpt>
            <trkpt lat="-27.009339999999998" lon="-48.64094333333334">
                <ele>5.6</ele>
            </trkpt>
            <trkpt lat="-27.00934833333333" lon="-48.64093333333334">
                <ele>5.4</ele>
            </trkpt>
            <trkpt lat="-27.009351666666664" lon="-48.64092833333334">
                <ele>5.6</ele>
            </trkpt>
            <trkpt lat="-27.009353333333333" lon="-48.64092666666667">
                <ele>5.5</ele>
            </trkpt>
            <trkpt lat="-27.009351666666664" lon="-48.64092666666667">
                <ele>6.1</ele>
            </trkpt>
            <trkpt lat="-27.00935" lon="-48.64093">
                <ele>6.1</ele>
            </trkpt>
            <trkpt lat="-27.00934666666667" lon="-48.640935000000006">
                <ele>5.9</ele>
            </trkpt>
            <trkpt lat="-27.009341666666668" lon="-48.64093833333333">
                <ele>5.6</ele>
            </trkpt>
            <trkpt lat="-27.009335000000004" lon="-48.64094">
                <ele>5.300000000000001</ele>
            </trkpt>
            <trkpt lat="-27.009335000000004" lon="-48.64093666666666">
                <ele>5</ele>
            </trkpt>
            <trkpt lat="-27.009335000000004" lon="-48.64093666666666">
                <ele>5</ele>
            </trkpt>
            <trkpt lat="-27.00933166666667" lon="-48.64093333333334">
                <ele>4.7</ele>
            </trkpt>
            <trkpt lat="-27.00933" lon="-48.64092833333334">
                <ele>4.1</ele>
            </trkpt>
            <trkpt lat="-27.009320000000002" lon="-48.640921666666664">
                <ele>3.6</ele>
            </trkpt>
            <trkpt lat="-27.009306666666664" lon="-48.640921666666664">
                <ele>3.5</ele>
            </trkpt>
            <trkpt lat="-27.009290000000004" lon="-48.64092666666667">
                <ele>3.6</ele>
            </trkpt>
            <trkpt lat="-27.009275000000002" lon="-48.64094">
                <ele>3.1</ele>
            </trkpt>
            <trkpt lat="-27.009263333333333" lon="-48.64095333333333">
                <ele>2.7</ele>
            </trkpt>
            <trkpt lat="-27.00925666666667" lon="-48.64097">
                <ele>2.7</ele>
            </trkpt>
            <trkpt lat="-27.009245000000004" lon="-48.640985">
                <ele>2.5</ele>
            </trkpt>
            <trkpt lat="-27.009245000000004" lon="-48.64100166666667">
                <ele>2.8</ele>
            </trkpt>
            <trkpt lat="-27.009249999999998" lon="-48.64101333333333">
                <ele>2.7</ele>
            </trkpt>
            <trkpt lat="-27.00926" lon="-48.64100833333334">
                <ele>3.3</ele>
            </trkpt>
            <trkpt lat="-27.009276666666665" lon="-48.64099833333333">
                <ele>3.2</ele>
            </trkpt>
            <trkpt lat="-27.009291666666666" lon="-48.640985">
                <ele>3.3</ele>
            </trkpt>
            <trkpt lat="-27.009305" lon="-48.640975">
                <ele>3.4000000000000004</ele>
            </trkpt>
            <trkpt lat="-27.00931666666667" lon="-48.64096833333333">
                <ele>3.2</ele>
            </trkpt>
            <trkpt lat="-27.00933" lon="-48.64096166666666">
                <ele>3.3</ele>
            </trkpt>
            <trkpt lat="-27.009336666666666" lon="-48.640955">
                <ele>3.4000000000000004</ele>
            </trkpt>
            <trkpt lat="-27.009338333333336" lon="-48.64095166666666">
                <ele>3.2</ele>
            </trkpt>
            <trkpt lat="-27.009341666666668" lon="-48.64095166666666">
                <ele>3.1</ele>
            </trkpt>
            <trkpt lat="-27.00934333333333" lon="-48.64095166666666">
                <ele>3.1</ele>
            </trkpt>
            <trkpt lat="-27.00934333333333" lon="-48.640950000000004">
                <ele>3.2</ele>
            </trkpt>
            <trkpt lat="-27.00935" lon="-48.64094333333334">
                <ele>3.3</ele>
            </trkpt>
            <trkpt lat="-27.009354999999996" lon="-48.64093666666666">
                <ele>3.8000000000000003</ele>
            </trkpt>
            <trkpt lat="-27.009366666666665" lon="-48.64092666666667">
                <ele>3.8000000000000003</ele>
            </trkpt>
            <trkpt lat="-27.009380000000004" lon="-48.64091666666666">
                <ele>3.9</ele>
            </trkpt>
            <trkpt lat="-27.009395" lon="-48.640905000000004">
                <ele>3.9</ele>
            </trkpt>
            <trkpt lat="-27.00940666666667" lon="-48.64089333333333">
                <ele>3.8000000000000003</ele>
            </trkpt>
            <trkpt lat="-27.00942" lon="-48.64088">
                <ele>3.5</ele>
            </trkpt>
            <trkpt lat="-27.00943666666667" lon="-48.64087166666666">
                <ele>3.2</ele>
            </trkpt>
            <trkpt lat="-27.00945166666667" lon="-48.640865">
                <ele>2.8</ele>
            </trkpt>
            <trkpt lat="-27.009465" lon="-48.640854999999995">
                <ele>2.6</ele>
            </trkpt>
            <trkpt lat="-27.009470000000004" lon="-48.64083666666667">
                <ele>2.4000000000000004</ele>
            </trkpt>
            <trkpt lat="-27.009456666666665" lon="-48.64082666666666">
                <ele>2.3</ele>
            </trkpt>
            <trkpt lat="-27.009438333333332" lon="-48.64082499999999">
                <ele>2.4000000000000004</ele>
            </trkpt>
            <trkpt lat="-27.00943" lon="-48.640835">
                <ele>2.6</ele>
            </trkpt>
            <trkpt lat="-27.00942166666667" lon="-48.640843333333336">
                <ele>3.2</ele>
            </trkpt>
            <trkpt lat="-27.00942166666667" lon="-48.64084833333333">
                <ele>3.4000000000000004</ele>
            </trkpt>
            <trkpt lat="-27.00942166666667" lon="-48.64084666666666">
                <ele>3.5</ele>
            </trkpt>
            <trkpt lat="-27.009423333333334" lon="-48.640845000000006">
                <ele>3.7</ele>
            </trkpt>
            <trkpt lat="-27.00941833333333" lon="-48.640843333333336">
                <ele>3.8000000000000003</ele>
            </trkpt>
            <trkpt lat="-27.009411666666665" lon="-48.64084166666667">
                <ele>3.9</ele>
            </trkpt>
            <trkpt lat="-27.00940333333333" lon="-48.64084166666667">
                <ele>3.9</ele>
            </trkpt>
            <trkpt lat="-27.009395" lon="-48.64084666666666">
                <ele>3.7</ele>
            </trkpt>
            <trkpt lat="-27.009384999999998" lon="-48.640854999999995">
                <ele>3.6</ele>
            </trkpt>
            <trkpt lat="-27.00937333333333" lon="-48.64086166666666">
                <ele>3.6</ele>
            </trkpt>
            <trkpt lat="-27.009363333333333" lon="-48.64086833333334">
                <ele>3.5</ele>
            </trkpt>
            <trkpt lat="-27.009354999999996" lon="-48.64087500000001">
                <ele>3</ele>
            </trkpt>
            <trkpt lat="-27.00934666666667" lon="-48.64088166666667">
                <ele>2.7</ele>
            </trkpt>
            <trkpt lat="-27.00934333333333" lon="-48.64088333333334">
                <ele>2.5</ele>
            </trkpt>
            <trkpt lat="-27.009341666666668" lon="-48.64088166666667">
                <ele>2.5</ele>
            </trkpt>
            <trkpt lat="-27.009338333333336" lon="-48.64087333333334">
                <ele>2.3</ele>
            </trkpt>
            <trkpt lat="-27.009338333333336" lon="-48.64086999999999">
                <ele>2.5</ele>
            </trkpt>
            <trkpt lat="-27.009338333333336" lon="-48.64086999999999">
                <ele>2.4000000000000004</ele>
            </trkpt>
            <trkpt lat="-27.009336666666666" lon="-48.64086833333334">
                <ele>2.5</ele>
            </trkpt>
            <trkpt lat="-27.009336666666666" lon="-48.64086333333333">
                <ele>2.3</ele>
            </trkpt>
            <trkpt lat="-27.009335000000004" lon="-48.64086">
                <ele>2.4000000000000004</ele>
            </trkpt>
            <trkpt lat="-27.009335000000004" lon="-48.640856666666664">
                <ele>3.1</ele>
            </trkpt>
            <trkpt lat="-27.009335000000004" lon="-48.64085166666667">
                <ele>3.3</ele>
            </trkpt>
            <trkpt lat="-27.00933166666667" lon="-48.64084833333333">
                <ele>3.4000000000000004</ele>
            </trkpt>
            <trkpt lat="-27.00933" lon="-48.64084666666666">
                <ele>3.7</ele>
            </trkpt>
            <trkpt lat="-27.00933" lon="-48.64084666666666">
                <ele>3.7</ele>
            </trkpt>
            <trkpt lat="-27.00933" lon="-48.64084666666666">
                <ele>3.7</ele>
            </trkpt>
            <trkpt lat="-27.00933" lon="-48.64084666666666">
                <ele>3.7</ele>
            </trkpt>
            <trkpt lat="-27.00933" lon="-48.64084666666666">
                <ele>3.7</ele>
            </trkpt>
            <trkpt lat="-27.00933" lon="-48.64084666666666">
                <ele>3.7</ele>
            </trkpt>
            <trkpt lat="-27.00933" lon="-48.64084666666666">
                <ele>3.7</ele>
            </trkpt>
            <trkpt lat="-27.00933" lon="-48.64084666666666">
                <ele>3.7</ele>
            </trkpt>
            <trkpt lat="-27.00933" lon="-48.64084666666666">
                <ele>3.7</ele>
            </trkpt>
            <trkpt lat="-27.00933" lon="-48.64084666666666">
                <ele>3.7</ele>
            </trkpt>
            <trkpt lat="-27.00933" lon="-48.64084666666666">
                <ele>3.7</ele>
            </trkpt>
            <trkpt lat="-27.00933" lon="-48.64084666666666">
                <ele>3.7</ele>
            </trkpt>
            <trkpt lat="-27.00933" lon="-48.64084666666666">
                <ele>3.7</ele>
            </trkpt>
            <trkpt lat="-27.00933" lon="-48.64084666666666">
                <ele>3.7</ele>
            </trkpt>
            <trkpt lat="-27.00933" lon="-48.64084666666666">
                <ele>3.7</ele>
            </trkpt>
            <trkpt lat="-27.00933" lon="-48.64084666666666">
                <ele>3.7</ele>
            </trkpt>
            <trkpt lat="-27.00933" lon="-48.64084666666666">
                <ele>3.7</ele>
            </trkpt>
            <trkpt lat="-27.00933" lon="-48.64084666666666">
                <ele>3.7</ele>
            </trkpt>
            <trkpt lat="-27.00933" lon="-48.64084666666666">
                <ele>3.7</ele>
            </trkpt>
            <trkpt lat="-27.00933" lon="-48.64084666666666">
                <ele>3.7</ele>
            </trkpt>
            <trkpt lat="-27.00933" lon="-48.64084666666666">
                <ele>3.7</ele>
            </trkpt>
            <trkpt lat="-27.00933" lon="-48.64084666666666">
                <ele>3.7</ele>
            </trkpt>
            <trkpt lat="-27.00933" lon="-48.64084666666666">
                <ele>3.7</ele>
            </trkpt>
            <trkpt lat="-27.00933" lon="-48.64084666666666">
                <ele>3.7</ele>
            </trkpt>
            <trkpt lat="-27.00933" lon="-48.64084666666666">
                <ele>3.7</ele>
            </trkpt>
            <trkpt lat="-27.00933" lon="-48.64084666666666">
                <ele>3.7</ele>
            </trkpt>
            <trkpt lat="-27.00933" lon="-48.64084666666666">
                <ele>3.7</ele>
            </trkpt>
            <trkpt lat="-27.00933" lon="-48.64084666666666">
                <ele>3.7</ele>
            </trkpt>
            <trkpt lat="-27.00935" lon="-48.640865">
                <ele>5.800000000000001</ele>
            </trkpt>
            <trkpt lat="-27.00935833333333" lon="-48.64087333333334">
                <ele>6.4</ele>
            </trkpt>
            <trkpt lat="-27.009366666666665" lon="-48.640885">
                <ele>6.199999999999999</ele>
            </trkpt>
            <trkpt lat="-27.009371666666667" lon="-48.64089166666666">
                <ele>6.1</ele>
            </trkpt>
            <trkpt lat="-27.00937333333333" lon="-48.64089666666667">
                <ele>5.699999999999999</ele>
            </trkpt>
            <trkpt lat="-27.009378333333334" lon="-48.640890000000006">
                <ele>5.6</ele>
            </trkpt>
            <trkpt lat="-27.009383333333336" lon="-48.64087833333333">
                <ele>5.699999999999999</ele>
            </trkpt>
            <trkpt lat="-27.009393333333332" lon="-48.64086833333334">
                <ele>5.5</ele>
            </trkpt>
            <trkpt lat="-27.009405" lon="-48.640858333333334">
                <ele>5.5</ele>
            </trkpt>
            <trkpt lat="-27.009416666666667" lon="-48.64085">
                <ele>5.5</ele>
            </trkpt>
            <trkpt lat="-27.00944" lon="-48.640845000000006">
                <ele>5.699999999999999</ele>
            </trkpt>
            <trkpt lat="-27.009456666666665" lon="-48.64083666666667">
                <ele>5</ele>
            </trkpt>
            <trkpt lat="-27.00947833333333" lon="-48.64082666666666">
                <ele>4.7</ele>
            </trkpt>
            <trkpt lat="-27.009501666666665" lon="-48.640815">
                <ele>5</ele>
            </trkpt>
            <trkpt lat="-27.009521666666668" lon="-48.64079666666667">
                <ele>4.7</ele>
            </trkpt>
            <trkpt lat="-27.00954166666667" lon="-48.640775">
                <ele>4.9</ele>
            </trkpt>
            <trkpt lat="-27.009563333333336" lon="-48.64075833333333">
                <ele>5</ele>
            </trkpt>
            <trkpt lat="-27.00958333333333" lon="-48.64073666666666">
                <ele>5</ele>
            </trkpt>
            <trkpt lat="-27.0096" lon="-48.64071833333334">
                <ele>4.300000000000001</ele>
            </trkpt>
            <trkpt lat="-27.009621666666664" lon="-48.640710000000006">
                <ele>3.7</ele>
            </trkpt>
            <trkpt lat="-27.009653333333336" lon="-48.640705">
                <ele>3.4000000000000004</ele>
            </trkpt>
            <trkpt lat="-27.00969" lon="-48.64069666666666">
                <ele>3.3</ele>
            </trkpt>
            <trkpt lat="-27.00972" lon="-48.640674999999995">
                <ele>2.9000000000000004</ele>
            </trkpt>
            <trkpt lat="-27.009743333333336" lon="-48.64065333333333">
                <ele>2.5</ele>
            </trkpt>
            <trkpt lat="-27.009766666666664" lon="-48.64062833333334">
                <ele>2.1</ele>
            </trkpt>
            <trkpt lat="-27.00979" lon="-48.64060333333334">
                <ele>1.7000000000000002</ele>
            </trkpt>
            <trkpt lat="-27.009816666666666" lon="-48.64057833333333">
                <ele>2.2</ele>
            </trkpt>
            <trkpt lat="-27.00983666666667" lon="-48.64055499999999">
                <ele>2</ele>
            </trkpt>
            <trkpt lat="-27.009858333333334" lon="-48.64053333333333">
                <ele>2.3</ele>
            </trkpt>
            <trkpt lat="-27.009878333333337" lon="-48.64051500000001">
                <ele>2.2</ele>
            </trkpt>
            <trkpt lat="-27.009905000000003" lon="-48.64048666666666">
                <ele>2.5</ele>
            </trkpt>
            <trkpt lat="-27.00993" lon="-48.64045833333333">
                <ele>2.6</ele>
            </trkpt>
            <trkpt lat="-27.009954999999998" lon="-48.64043166666667">
                <ele>2.7</ele>
            </trkpt>
            <trkpt lat="-27.009954999999998" lon="-48.64043166666667">
                <ele>2.7</ele>
            </trkpt>
            <trkpt lat="-27.009980000000002" lon="-48.640406666666664">
                <ele>2.6</ele>
            </trkpt>
            <trkpt lat="-27.010001666666668" lon="-48.64038333333333">
                <ele>2.7</ele>
            </trkpt>
            <trkpt lat="-27.010025000000002" lon="-48.64036333333333">
                <ele>2.2</ele>
            </trkpt>
            <trkpt lat="-27.010044999999998" lon="-48.64034166666667">
                <ele>2</ele>
            </trkpt>
            <trkpt lat="-27.01006333333333" lon="-48.640325">
                <ele>2.1</ele>
            </trkpt>
            <trkpt lat="-27.010081666666665" lon="-48.640314999999994">
                <ele>1.7000000000000002</ele>
            </trkpt>
            <trkpt lat="-27.010103333333337" lon="-48.640301666666666">
                <ele>1.9000000000000001</ele>
            </trkpt>
            <trkpt lat="-27.01012166666667" lon="-48.64028833333334">
                <ele>1.5</ele>
            </trkpt>
            <trkpt lat="-27.01012166666667" lon="-48.64028833333334">
                <ele>1.5</ele>
            </trkpt>
            <trkpt lat="-27.01013833333333" lon="-48.64027333333333">
                <ele>1.5</ele>
            </trkpt>
            <trkpt lat="-27.01015333333333" lon="-48.64025333333334">
                <ele>1.8</ele>
            </trkpt>
            <trkpt lat="-27.010171666666665" lon="-48.640235">
                <ele>1.8</ele>
            </trkpt>
            <trkpt lat="-27.010193333333337" lon="-48.64022166666667">
                <ele>1.3</ele>
            </trkpt>
            <trkpt lat="-27.010209999999997" lon="-48.64020333333333">
                <ele>1.4000000000000001</ele>
            </trkpt>
            <trkpt lat="-27.010223333333336" lon="-48.64019">
                <ele>1.7000000000000002</ele>
            </trkpt>
            <trkpt lat="-27.010234999999998" lon="-48.64017666666667">
                <ele>1.7000000000000002</ele>
            </trkpt>
            <trkpt lat="-27.01024333333333" lon="-48.640168333333335">
                <ele>1.5</ele>
            </trkpt>
            <trkpt lat="-27.010245" lon="-48.640168333333335">
                <ele>1.4000000000000001</ele>
            </trkpt>
            <trkpt lat="-27.01024333333333" lon="-48.640170000000005">
                <ele>1.2000000000000002</ele>
            </trkpt>
            <trkpt lat="-27.01024333333333" lon="-48.640170000000005">
                <ele>1.1</ele>
            </trkpt>
            <trkpt lat="-27.01024166666667" lon="-48.640170000000005">
                <ele>0.9000000000000001</ele>
            </trkpt>
            <trkpt lat="-27.01024" lon="-48.640170000000005">
                <ele>0.9000000000000001</ele>
            </trkpt>
            <trkpt lat="-27.010238333333337" lon="-48.640170000000005">
                <ele>0.9000000000000001</ele>
            </trkpt>
            <trkpt lat="-27.010236666666668" lon="-48.640170000000005">
                <ele>1</ele>
            </trkpt>
            <trkpt lat="-27.010236666666668" lon="-48.640170000000005">
                <ele>1</ele>
            </trkpt>
            <trkpt lat="-27.010236666666668" lon="-48.64017333333333">
                <ele>1.1</ele>
            </trkpt>
            <trkpt lat="-27.010236666666668" lon="-48.64017166666666">
                <ele>0.8</ele>
            </trkpt>
            <trkpt lat="-27.010238333333337" lon="-48.64017166666666">
                <ele>0.8</ele>
            </trkpt>
            <trkpt lat="-27.010238333333337" lon="-48.64017166666666">
                <ele>0.8</ele>
            </trkpt>
            <trkpt lat="-27.010238333333337" lon="-48.64017166666666">
                <ele>0.8</ele>
            </trkpt>
            <trkpt lat="-27.010238333333337" lon="-48.64017166666666">
                <ele>0.8</ele>
            </trkpt>
            <trkpt lat="-27.010238333333337" lon="-48.64017166666666">
                <ele>0.8</ele>
            </trkpt>
            <trkpt lat="-27.010238333333337" lon="-48.64017166666666">
                <ele>0.8</ele>
            </trkpt>
            <trkpt lat="-27.010249999999996" lon="-48.640170000000005">
                <ele>1.5</ele>
            </trkpt>
            <trkpt lat="-27.01025666666667" lon="-48.640164999999996">
                <ele>1.5</ele>
            </trkpt>
            <trkpt lat="-27.010263333333334" lon="-48.64015333333334">
                <ele>1.3</ele>
            </trkpt>
            <trkpt lat="-27.010271666666668" lon="-48.64014">
                <ele>1.2000000000000002</ele>
            </trkpt>
            <trkpt lat="-27.010285" lon="-48.640125000000005">
                <ele>1</ele>
            </trkpt>
            <trkpt lat="-27.010299999999997" lon="-48.64010666666666">
                <ele>1.2000000000000002</ele>
            </trkpt>
            <trkpt lat="-27.010311666666666" lon="-48.64008833333334">
                <ele>0.9000000000000001</ele>
            </trkpt>
            <trkpt lat="-27.010326666666668" lon="-48.64007">
                <ele>0.7000000000000001</ele>
            </trkpt>
            <trkpt lat="-27.010341666666665" lon="-48.640055">
                <ele>0.40000000000000013</ele>
            </trkpt>
            <trkpt lat="-27.010361666666668" lon="-48.640035000000005">
                <ele>0.30000000000000004</ele>
            </trkpt>
            <trkpt lat="-27.010369999999998" lon="-48.64002000000001">
                <ele>1</ele>
            </trkpt>
            <trkpt lat="-27.01038" lon="-48.64000666666667">
                <ele>1.3</ele>
            </trkpt>
            <trkpt lat="-27.010396666666665" lon="-48.639991666666674">
                <ele>1.4000000000000001</ele>
            </trkpt>
            <trkpt lat="-27.010411666666663" lon="-48.639976666666676">
                <ele>1.5</ele>
            </trkpt>
            <trkpt lat="-27.010429999999996" lon="-48.63996333333333">
                <ele>2</ele>
            </trkpt>
            <trkpt lat="-27.010444999999997" lon="-48.63994833333333">
                <ele>2.6</ele>
            </trkpt>
            <trkpt lat="-27.010444999999997" lon="-48.63994833333333">
                <ele>2.6</ele>
            </trkpt>
            <trkpt lat="-27.010456666666663" lon="-48.63993666666667">
                <ele>2.4000000000000004</ele>
            </trkpt>
            <trkpt lat="-27.010471666666664" lon="-48.639921666666666">
                <ele>2.8</ele>
            </trkpt>
            <trkpt lat="-27.010488333333335" lon="-48.639905">
                <ele>3.4000000000000004</ele>
            </trkpt>
            <trkpt lat="-27.010503333333336" lon="-48.63988833333333">
                <ele>4.1</ele>
            </trkpt>
            <trkpt lat="-27.01051166666667" lon="-48.63987333333333">
                <ele>4.800000000000001</ele>
            </trkpt>
            <trkpt lat="-27.010513333333332" lon="-48.63986166666667">
                <ele>5.1</ele>
            </trkpt>
            <trkpt lat="-27.010515" lon="-48.639849999999996">
                <ele>5.300000000000001</ele>
            </trkpt>
            <trkpt lat="-27.010519999999996" lon="-48.63983499999999">
                <ele>5.6</ele>
            </trkpt>
            <trkpt lat="-27.010519999999996" lon="-48.63982333333333">
                <ele>5.5</ele>
            </trkpt>
            <trkpt lat="-27.010523333333335" lon="-48.639804999999996">
                <ele>4.7</ele>
            </trkpt>
            <trkpt lat="-27.010521666666666" lon="-48.63978999999999">
                <ele>4.300000000000001</ele>
            </trkpt>
            <trkpt lat="-27.010519999999996" lon="-48.63977333333334">
                <ele>4.1</ele>
            </trkpt>
            <trkpt lat="-27.010513333333332" lon="-48.63975833333334">
                <ele>3.7</ele>
            </trkpt>
            <trkpt lat="-27.010513333333332" lon="-48.63975833333334">
                <ele>3.7</ele>
            </trkpt>
            <trkpt lat="-27.010505" lon="-48.63974499999999">
                <ele>3.3</ele>
            </trkpt>
            <trkpt lat="-27.010491666666667" lon="-48.63973166666666">
                <ele>3.6</ele>
            </trkpt>
            <trkpt lat="-27.010483333333333" lon="-48.63972333333333">
                <ele>3.7</ele>
            </trkpt>
            <trkpt lat="-27.01046666666667" lon="-48.639716666666665">
                <ele>3.6</ele>
            </trkpt>
            <trkpt lat="-27.01045333333333" lon="-48.639714999999995">
                <ele>4</ele>
            </trkpt>
            <trkpt lat="-27.01045333333333" lon="-48.639714999999995">
                <ele>4</ele>
            </trkpt>
            <trkpt lat="-27.010440000000003" lon="-48.63972833333334">
                <ele>4.300000000000001</ele>
            </trkpt>
            <trkpt lat="-27.01043666666667" lon="-48.63973666666667">
                <ele>4.4</ele>
            </trkpt>
            <trkpt lat="-27.010440000000003" lon="-48.63973833333333">
                <ele>4.2</ele>
            </trkpt>
            <trkpt lat="-27.01043666666667" lon="-48.639741666666666">
                <ele>4.300000000000001</ele>
            </trkpt>
            <trkpt lat="-27.010431666666666" lon="-48.639741666666666">
                <ele>4.5</ele>
            </trkpt>
            <trkpt lat="-27.010429999999996" lon="-48.639743333333335">
                <ele>4.7</ele>
            </trkpt>
            <trkpt lat="-27.010434999999998" lon="-48.63974833333334">
                <ele>5</ele>
            </trkpt>
            <trkpt lat="-27.010441666666665" lon="-48.63974833333334">
                <ele>5.2</ele>
            </trkpt>
            <trkpt lat="-27.010448333333336" lon="-48.639755">
                <ele>5.300000000000001</ele>
            </trkpt>
            <trkpt lat="-27.01045333333333" lon="-48.63975666666667">
                <ele>5.5</ele>
            </trkpt>
            <trkpt lat="-27.01046" lon="-48.639759999999995">
                <ele>5.9</ele>
            </trkpt>
            <trkpt lat="-27.010463333333337" lon="-48.639763333333335">
                <ele>6.199999999999999</ele>
            </trkpt>
            <trkpt lat="-27.010468333333332" lon="-48.63976833333333">
                <ele>6.6</ele>
            </trkpt>
            <trkpt lat="-27.010471666666664" lon="-48.63977">
                <ele>6.9</ele>
            </trkpt>
            <trkpt lat="-27.010471666666664" lon="-48.63977">
                <ele>6.9</ele>
            </trkpt>
            <trkpt lat="-27.010471666666664" lon="-48.63977">
                <ele>6.9</ele>
            </trkpt>
            <trkpt lat="-27.01049833333333" lon="-48.63976833333333">
                <ele>8.4</ele>
            </trkpt>
            <trkpt lat="-27.0105" lon="-48.639766666666674">
                <ele>9.1</ele>
            </trkpt>
            <trkpt lat="-27.01049833333333" lon="-48.639763333333335">
                <ele>9.4</ele>
            </trkpt>
            <trkpt lat="-27.0105" lon="-48.639766666666674">
                <ele>9.6</ele>
            </trkpt>
            <trkpt lat="-27.0105" lon="-48.639766666666674">
                <ele>9.6</ele>
            </trkpt>
            <trkpt lat="-27.0105" lon="-48.639766666666674">
                <ele>9.6</ele>
            </trkpt>
            <trkpt lat="-27.0105" lon="-48.639766666666674">
                <ele>9.6</ele>
            </trkpt>
            <trkpt lat="-27.0105" lon="-48.639766666666674">
                <ele>9.6</ele>
            </trkpt>
            <trkpt lat="-27.0105" lon="-48.639766666666674">
                <ele>9.6</ele>
            </trkpt>
            <trkpt lat="-27.0105" lon="-48.639766666666674">
                <ele>9.6</ele>
            </trkpt>
            <trkpt lat="-27.0105" lon="-48.639766666666674">
                <ele>9.6</ele>
            </trkpt>
            <trkpt lat="-27.0105" lon="-48.639766666666674">
                <ele>9.6</ele>
            </trkpt>
            <trkpt lat="-27.0105" lon="-48.639766666666674">
                <ele>9.6</ele>
            </trkpt>
            <trkpt lat="-27.0105" lon="-48.639766666666674">
                <ele>9.6</ele>
            </trkpt>
            <trkpt lat="-27.0105" lon="-48.639766666666674">
                <ele>9.6</ele>
            </trkpt>
            <trkpt lat="-27.0105" lon="-48.639766666666674">
                <ele>9.6</ele>
            </trkpt>
            <trkpt lat="-27.0105" lon="-48.639766666666674">
                <ele>9.6</ele>
            </trkpt>
            <trkpt lat="-27.0105" lon="-48.639766666666674">
                <ele>9.6</ele>
            </trkpt>
            <trkpt lat="-27.0105" lon="-48.639766666666674">
                <ele>9.6</ele>
            </trkpt>
            <trkpt lat="-27.0105" lon="-48.639766666666674">
                <ele>9.6</ele>
            </trkpt>
            <trkpt lat="-27.0105" lon="-48.639766666666674">
                <ele>9.6</ele>
            </trkpt>
            <trkpt lat="-27.0105" lon="-48.639766666666674">
                <ele>9.6</ele>
            </trkpt>
            <trkpt lat="-27.0105" lon="-48.639766666666674">
                <ele>9.6</ele>
            </trkpt>
            <trkpt lat="-27.0105" lon="-48.639766666666674">
                <ele>9.6</ele>
            </trkpt>
            <trkpt lat="-27.0105" lon="-48.639766666666674">
                <ele>9.6</ele>
            </trkpt>
            <trkpt lat="-27.0105" lon="-48.639766666666674">
                <ele>9.6</ele>
            </trkpt>
            <trkpt lat="-27.0105" lon="-48.639766666666674">
                <ele>9.6</ele>
            </trkpt>
            <trkpt lat="-27.0105" lon="-48.639766666666674">
                <ele>9.6</ele>
            </trkpt>
            <trkpt lat="-27.0105" lon="-48.639766666666674">
                <ele>9.6</ele>
            </trkpt>
            <trkpt lat="-27.0105" lon="-48.639766666666674">
                <ele>9.6</ele>
            </trkpt>
            <trkpt lat="-27.0105" lon="-48.639766666666674">
                <ele>9.6</ele>
            </trkpt>
            <trkpt lat="-27.0105" lon="-48.639766666666674">
                <ele>9.6</ele>
            </trkpt>
            <trkpt lat="-27.0105" lon="-48.639766666666674">
                <ele>9.6</ele>
            </trkpt>
            <trkpt lat="-27.0105" lon="-48.639766666666674">
                <ele>9.6</ele>
            </trkpt>
            <trkpt lat="-27.0105" lon="-48.639766666666674">
                <ele>9.6</ele>
            </trkpt>
            <trkpt lat="-27.0105" lon="-48.639766666666674">
                <ele>9.6</ele>
            </trkpt>
            <trkpt lat="-27.0105" lon="-48.639766666666674">
                <ele>9.6</ele>
            </trkpt>
            <trkpt lat="-27.0105" lon="-48.639766666666674">
                <ele>9.6</ele>
            </trkpt>
            <trkpt lat="-27.0105" lon="-48.639766666666674">
                <ele>9.6</ele>
            </trkpt>
            <trkpt lat="-27.0105" lon="-48.639766666666674">
                <ele>9.6</ele>
            </trkpt>
            <trkpt lat="-27.0105" lon="-48.639766666666674">
                <ele>9.6</ele>
            </trkpt>
            <trkpt lat="-27.0105" lon="-48.639766666666674">
                <ele>9.6</ele>
            </trkpt>
            <trkpt lat="-27.0105" lon="-48.639766666666674">
                <ele>9.6</ele>
            </trkpt>
            <trkpt lat="-27.0105" lon="-48.639766666666674">
                <ele>9.6</ele>
            </trkpt>
            <trkpt lat="-27.0105" lon="-48.639766666666674">
                <ele>9.6</ele>
            </trkpt>
            <trkpt lat="-27.0105" lon="-48.639766666666674">
                <ele>9.6</ele>
            </trkpt>
            <trkpt lat="-27.0105" lon="-48.639766666666674">
                <ele>9.6</ele>
            </trkpt>
            <trkpt lat="-27.0105" lon="-48.639766666666674">
                <ele>9.6</ele>
            </trkpt>
            <trkpt lat="-27.0105" lon="-48.639766666666674">
                <ele>9.6</ele>
            </trkpt>
            <trkpt lat="-27.0105" lon="-48.639766666666674">
                <ele>9.6</ele>
            </trkpt>
        </trkseg>
    </trk>
</gpx>