<?xml version="1.0" encoding="UTF-8"?>
<gpx xmlns="http://www.topografix.com/GPX/1/1" version="1.1" creator="@dwayneparton/geojson-to-gpx"><wpt lat="-27.024993" lon="-48.644078"><ele>13.545532</ele><name>2 faixas</name></wpt><wpt lat="-27.024954" lon="-48.644091"><ele>11.939087</ele><name>32</name></wpt><wpt lat="-27.024954" lon="-48.644098"><ele>11.133057</ele><name>200</name></wpt><wpt lat="-27.024955" lon="-48.644091"><ele>11.941833</ele><name>420</name></wpt><wpt lat="-27.02496" lon="-48.644087"><ele>11.600006</ele><name>1056</name></wpt><wpt lat="-27.024275" lon="-48.641761"><ele>9.198669</ele><name>A ciclo é completamente reta.</name></wpt><wpt lat="-27.024271" lon="-48.641764"><ele>10.310852</ele><name>A pintura é MUITO falha, mostrando muito asfalto</name></wpt><wpt lat="-27.024954" lon="-48.644091"><ele>11.937714</ele><name>Área de amortecimento da ciclo (cm)</name></wpt><wpt lat="-27.024957" lon="-48.644088"><ele>11.265656</ele><name>Área transitável da ciclo (cm)</name></wpt><wpt lat="-27.024996" lon="-48.64408"><ele>14.404602</ele><name>Bidirecional</name></wpt><wpt lat="-27.024381" lon="-48.642007"><ele>6.436707</ele><name>Buraco</name></wpt><wpt lat="-27.024367" lon="-48.641913"><ele>7.31955</ele><name>Buraco</name></wpt><wpt lat="-27.024981" lon="-48.644073"><ele>12.39447</ele><name>Calçada compartilhada</name></wpt><wpt lat="-27.024999" lon="-48.644082"><ele>14.041199</ele><name>Canteiros</name></wpt><wpt lat="-27.024986" lon="-48.644071"><ele>12.387207</ele><name>Estacionamento proibido na via</name></wpt><wpt lat="-27.024955" lon="-48.644091"><ele>11.941833</ele><name>Faixa de carros logo ao lado da ciclo (cm)</name></wpt><wpt lat="-27.024989" lon="-48.644098"><ele>10.874878</ele><name>Foto</name></wpt><wpt lat="-27.024377" lon="-48.642004"><ele>7.386414</ele><name>Foto</name></wpt><wpt lat="-27.024271" lon="-48.641762"><ele>9.670074</ele><name>Iluminação geral na via do outro lado da infraestrutura</name></wpt><wpt lat="-27.025001" lon="-48.644077"><ele>14.508423</ele><name>Mão Dupla</name></wpt><wpt lat="-27.024273" lon="-48.641765"><ele>9.303314</ele><name>Não há árvores nem mudas</name></wpt><wpt lat="-27.024604" lon="-48.642429"><name>Nenhum elemento de controle de velocidade na via</name></wpt><wpt lat="-27.024271" lon="-48.641762"><ele>9.653656</ele><name>Pequenas imperfeições, como fissuras</name></wpt><wpt lat="-27.024275" lon="-48.64176"><ele>9.196747</ele><name>SE CICLOVIA: segregação impede completamente a invasão de automóvel e não há trechos desprotegidos</name></wpt><wpt lat="-27.024275" lon="-48.641761"><ele>9.2005</ele><name>Segregadores NÃO DIFICULTAM o acesso de ciclistas</name></wpt><wpt lat="-27.024998" lon="-48.644082"><ele>14.791992</ele><name>Sobre calçada</name></wpt><wpt lat="-27.024999" lon="-48.644082"><ele>13.839355</ele><name>Tijolo intertravado</name></wpt><wpt lat="-27.024975" lon="-48.643999"><name>Tijolo intertravado VERMELHO</name></wpt><wpt lat="-27.024285" lon="-48.641754"><name>Toda área de circulação pintada de vermelho</name></wpt><wpt lat="-27.02496" lon="-48.644087"><ele>11.600006</ele><name>Total da via (incluindo a ciclo) (cm)</name></wpt><trk><name>Ciclovia R. Cel. Benjamin Vieira T2 - Cb</name><trkseg><trkpt lat="-27.024963" lon="-48.644091"><ele>10.544464</ele></trkpt><trkpt lat="-27.024964" lon="-48.644092"><ele>10.505219</ele></trkpt><trkpt lat="-27.024966" lon="-48.644093"><ele>10.675232</ele></trkpt><trkpt lat="-27.024968" lon="-48.644092"><ele>10.988586</ele></trkpt><trkpt lat="-27.024968" lon="-48.644091"><ele>11.327789</ele></trkpt><trkpt lat="-27.024968" lon="-48.644089"><ele>11.657349</ele></trkpt><trkpt lat="-27.02497" lon="-48.644079"><ele>12.243164</ele></trkpt><trkpt lat="-27.024973" lon="-48.644075"><ele>12.222412</ele></trkpt><trkpt lat="-27.024981" lon="-48.644073"><ele>12.39447</ele></trkpt><trkpt lat="-27.024981" lon="-48.644073"><ele>12.39447</ele></trkpt><trkpt lat="-27.024986" lon="-48.644073"><ele>12.645203</ele></trkpt><trkpt lat="-27.024987" lon="-48.644075"><ele>13.430664</ele></trkpt><trkpt lat="-27.024992" lon="-48.644079"><ele>14.368774</ele></trkpt><trkpt lat="-27.024996" lon="-48.64408"><ele>14.404602</ele></trkpt><trkpt lat="-27.024996" lon="-48.64408"><ele>14.404602</ele></trkpt><trkpt lat="-27.024997" lon="-48.64408"><ele>14.602966</ele></trkpt><trkpt lat="-27.024997" lon="-48.644081"><ele>14.787659</ele></trkpt><trkpt lat="-27.024995" lon="-48.644082"><ele>14.55896</ele></trkpt><trkpt lat="-27.024993" lon="-48.644083"><ele>14.33313</ele></trkpt><trkpt lat="-27.024993" lon="-48.644084"><ele>14.404236</ele></trkpt><trkpt lat="-27.024995" lon="-48.644084"><ele>14.33606</ele></trkpt><trkpt lat="-27.024996" lon="-48.644082"><ele>14.400269</ele></trkpt><trkpt lat="-27.024998" lon="-48.644081"><ele>14.163269</ele></trkpt><trkpt lat="-27.024999" lon="-48.64408"><ele>14.152771</ele></trkpt><trkpt lat="-27.025" lon="-48.644078"><ele>14.160706</ele></trkpt><trkpt lat="-27.025001" lon="-48.644077"><ele>14.508423</ele></trkpt><trkpt lat="-27.025001" lon="-48.644077"><ele>14.508423</ele></trkpt><trkpt lat="-27.025001" lon="-48.644077"><ele>14.332336</ele></trkpt><trkpt lat="-27.025" lon="-48.644078"><ele>15.106201</ele></trkpt><trkpt lat="-27.024998" lon="-48.64408"><ele>14.905579</ele></trkpt><trkpt lat="-27.024995" lon="-48.644082"><ele>14.747314</ele></trkpt><trkpt lat="-27.024995" lon="-48.644084"><ele>14.780151</ele></trkpt><trkpt lat="-27.024996" lon="-48.644084"><ele>14.717346</ele></trkpt><trkpt lat="-27.024997" lon="-48.644083"><ele>14.594177</ele></trkpt><trkpt lat="-27.024998" lon="-48.644082"><ele>14.592102</ele></trkpt><trkpt lat="-27.024998" lon="-48.644082"><ele>14.791992</ele></trkpt><trkpt lat="-27.024998" lon="-48.644082"><ele>14.791992</ele></trkpt><trkpt lat="-27.024998" lon="-48.644082"><ele>14.812073</ele></trkpt><trkpt lat="-27.024999" lon="-48.644082"><ele>14.814514</ele></trkpt><trkpt lat="-27.024999" lon="-48.644082"><ele>14.843079</ele></trkpt><trkpt lat="-27.024999" lon="-48.644082"><ele>14.041199</ele></trkpt><trkpt lat="-27.024999" lon="-48.644082"><ele>14.041199</ele></trkpt><trkpt lat="-27.025" lon="-48.644082"><ele>14.037231</ele></trkpt><trkpt lat="-27.025" lon="-48.644082"><ele>14.038086</ele></trkpt><trkpt lat="-27.025" lon="-48.644082"><ele>14.034302</ele></trkpt><trkpt lat="-27.024999" lon="-48.644082"><ele>13.839355</ele></trkpt><trkpt lat="-27.024999" lon="-48.644082"><ele>13.839355</ele></trkpt><trkpt lat="-27.024998" lon="-48.644081"><ele>13.712097</ele></trkpt><trkpt lat="-27.024996" lon="-48.64408"><ele>14.727295</ele></trkpt><trkpt lat="-27.024995" lon="-48.644079"><ele>14.73645</ele></trkpt><trkpt lat="-27.024992" lon="-48.644079"><ele>14.599731</ele></trkpt><trkpt lat="-27.024992" lon="-48.644079"><ele>14.482971</ele></trkpt><trkpt lat="-27.024992" lon="-48.644079"><ele>14.482971</ele></trkpt><trkpt lat="-27.024992" lon="-48.644079"><ele>13.687012</ele></trkpt><trkpt lat="-27.024993" lon="-48.644078"><ele>13.545532</ele></trkpt><trkpt lat="-27.024993" lon="-48.644078"><ele>13.545532</ele></trkpt><trkpt lat="-27.024994" lon="-48.644077"><ele>13.319031</ele></trkpt><trkpt lat="-27.024995" lon="-48.644076"><ele>13.156677</ele></trkpt><trkpt lat="-27.024994" lon="-48.644075"><ele>12.783875</ele></trkpt><trkpt lat="-27.024991" lon="-48.644075"><ele>12.705688</ele></trkpt><trkpt lat="-27.024986" lon="-48.644071"><ele>12.387207</ele></trkpt><trkpt lat="-27.024986" lon="-48.644071"><ele>12.387207</ele></trkpt><trkpt lat="-27.024986" lon="-48.644069"><ele>12.444336</ele></trkpt><trkpt lat="-27.024981" lon="-48.644068"><ele>12.430176</ele></trkpt><trkpt lat="-27.024981" lon="-48.644065"><ele>12.492798</ele></trkpt><trkpt lat="-27.024982" lon="-48.644064"><ele>12.612366</ele></trkpt><trkpt lat="-27.024982" lon="-48.644063"><ele>12.447205</ele></trkpt><trkpt lat="-27.024981" lon="-48.644062"><ele>12.196472</ele></trkpt><trkpt lat="-27.024979" lon="-48.644062"><ele>12.066345</ele></trkpt><trkpt lat="-27.024975" lon="-48.644064"><ele>11.838226</ele></trkpt><trkpt lat="-27.024972" lon="-48.644066"><ele>11.996307</ele></trkpt><trkpt lat="-27.024974" lon="-48.644064"><ele>11.954529</ele></trkpt><trkpt lat="-27.024978" lon="-48.64406"><ele>12.142395</ele></trkpt><trkpt lat="-27.024982" lon="-48.644059"><ele>12.10907</ele></trkpt><trkpt lat="-27.024983" lon="-48.644061"><ele>12.199951</ele></trkpt><trkpt lat="-27.024984" lon="-48.644059"><ele>12.374756</ele></trkpt><trkpt lat="-27.024988" lon="-48.644054"><ele>12.244141</ele></trkpt><trkpt lat="-27.024989" lon="-48.644046"><ele>12.354309</ele></trkpt><trkpt lat="-27.024991" lon="-48.644043"><ele>12.177612</ele></trkpt><trkpt lat="-27.025" lon="-48.644041"><ele>12.046814</ele></trkpt><trkpt lat="-27.025004" lon="-48.644041"><ele>12.01825</ele></trkpt><trkpt lat="-27.025006" lon="-48.644042"><ele>12.037048</ele></trkpt><trkpt lat="-27.025001" lon="-48.644046"><ele>11.815613</ele></trkpt><trkpt lat="-27.024996" lon="-48.644051"><ele>11.400055</ele></trkpt><trkpt lat="-27.024987" lon="-48.644059"><ele>11.319305</ele></trkpt><trkpt lat="-27.024982" lon="-48.644066"><ele>10.543762</ele></trkpt><trkpt lat="-27.024982" lon="-48.644073"><ele>10.639435</ele></trkpt><trkpt lat="-27.024981" lon="-48.64408"><ele>10.805603</ele></trkpt><trkpt lat="-27.024983" lon="-48.64409"><ele>10.239929</ele></trkpt><trkpt lat="-27.024989" lon="-48.644099"><ele>10.334717</ele></trkpt><trkpt lat="-27.024995" lon="-48.644106"><ele>10.896393</ele></trkpt><trkpt lat="-27.024992" lon="-48.644101"><ele>10.818573</ele></trkpt><trkpt lat="-27.024991" lon="-48.644099"><ele>10.837738</ele></trkpt><trkpt lat="-27.024991" lon="-48.644098"><ele>10.838043</ele></trkpt><trkpt lat="-27.024991" lon="-48.644098"><ele>10.833282</ele></trkpt><trkpt lat="-27.024989" lon="-48.644098"><ele>10.874878</ele></trkpt><trkpt lat="-27.024989" lon="-48.644098"><ele>10.874878</ele></trkpt><trkpt lat="-27.024983" lon="-48.644093"><ele>10.970306</ele></trkpt><trkpt lat="-27.024977" lon="-48.644087"><ele>10.847046</ele></trkpt><trkpt lat="-27.02497" lon="-48.644078"><ele>10.675293</ele></trkpt><trkpt lat="-27.02497" lon="-48.644063"><ele>10.845032</ele></trkpt><trkpt lat="-27.024971" lon="-48.644056"><ele>10.695557</ele></trkpt><trkpt lat="-27.024975" lon="-48.644052"><ele>10.567169</ele></trkpt><trkpt lat="-27.024977" lon="-48.644052"><ele>10.442047</ele></trkpt><trkpt lat="-27.024977" lon="-48.644052"><ele>10.44397</ele></trkpt><trkpt lat="-27.024977" lon="-48.644052"><ele>10.442566</ele></trkpt><trkpt lat="-27.024977" lon="-48.644052"><ele>10.502319</ele></trkpt><trkpt lat="-27.024976" lon="-48.644052"><ele>10.266113</ele></trkpt><trkpt lat="-27.024975" lon="-48.64405"><ele>10.435394</ele></trkpt><trkpt lat="-27.024978" lon="-48.644058"><ele>10.365417</ele></trkpt><trkpt lat="-27.024983" lon="-48.644073"><ele>10.256531</ele></trkpt><trkpt lat="-27.024988" lon="-48.644073"><ele>10.725281</ele></trkpt><trkpt lat="-27.024993" lon="-48.644067"><ele>10.948151</ele></trkpt><trkpt lat="-27.024998" lon="-48.644057"><ele>11.201172</ele></trkpt><trkpt lat="-27.024999" lon="-48.644055"><ele>11.183258</ele></trkpt><trkpt lat="-27.024999" lon="-48.644054"><ele>11.183105</ele></trkpt><trkpt lat="-27.024999" lon="-48.644054"><ele>11.185638</ele></trkpt><trkpt lat="-27.024999" lon="-48.644054"><ele>11.184082</ele></trkpt><trkpt lat="-27.024996" lon="-48.644062"><ele>10.912933</ele></trkpt><trkpt lat="-27.024984" lon="-48.644071"><ele>10.820435</ele></trkpt><trkpt lat="-27.024973" lon="-48.644078"><ele>11.122101</ele></trkpt><trkpt lat="-27.024965" lon="-48.644083"><ele>11.039063</ele></trkpt><trkpt lat="-27.024957" lon="-48.644088"><ele>11.265656</ele></trkpt><trkpt lat="-27.024957" lon="-48.644088"><ele>11.265656</ele></trkpt><trkpt lat="-27.024955" lon="-48.644096"><ele>10.752686</ele></trkpt><trkpt lat="-27.024954" lon="-48.644098"><ele>11.133057</ele></trkpt><trkpt lat="-27.024954" lon="-48.644098"><ele>11.133057</ele></trkpt><trkpt lat="-27.024956" lon="-48.644093"><ele>11.56308</ele></trkpt><trkpt lat="-27.024956" lon="-48.644092"><ele>11.578064</ele></trkpt><trkpt lat="-27.024954" lon="-48.644091"><ele>11.923218</ele></trkpt><trkpt lat="-27.024954" lon="-48.644091"><ele>11.935669</ele></trkpt><trkpt lat="-27.024954" lon="-48.644091"><ele>11.937714</ele></trkpt><trkpt lat="-27.024954" lon="-48.644091"><ele>11.937714</ele></trkpt><trkpt lat="-27.024954" lon="-48.644091"><ele>11.939087</ele></trkpt><trkpt lat="-27.024954" lon="-48.644091"><ele>11.939087</ele></trkpt><trkpt lat="-27.024954" lon="-48.644091"><ele>11.938843</ele></trkpt><trkpt lat="-27.024954" lon="-48.644091"><ele>11.935669</ele></trkpt><trkpt lat="-27.024955" lon="-48.644091"><ele>11.939728</ele></trkpt><trkpt lat="-27.024955" lon="-48.644091"><ele>11.941833</ele></trkpt><trkpt lat="-27.024955" lon="-48.644091"><ele>11.941833</ele></trkpt><trkpt lat="-27.024955" lon="-48.644091"><ele>11.941833</ele></trkpt><trkpt lat="-27.024955" lon="-48.644091"><ele>11.947418</ele></trkpt><trkpt lat="-27.024955" lon="-48.644091"><ele>11.953674</ele></trkpt><trkpt lat="-27.024955" lon="-48.644091"><ele>11.95932</ele></trkpt><trkpt lat="-27.024955" lon="-48.644091"><ele>11.96402</ele></trkpt><trkpt lat="-27.024955" lon="-48.644091"><ele>11.966797</ele></trkpt><trkpt lat="-27.024955" lon="-48.644091"><ele>11.970764</ele></trkpt><trkpt lat="-27.024955" lon="-48.644091"><ele>11.689636</ele></trkpt><trkpt lat="-27.024955" lon="-48.644091"><ele>11.68866</ele></trkpt><trkpt lat="-27.024956" lon="-48.64409"><ele>11.628235</ele></trkpt><trkpt lat="-27.024957" lon="-48.644089"><ele>11.611877</ele></trkpt><trkpt lat="-27.024957" lon="-48.644089"><ele>11.610443</ele></trkpt><trkpt lat="-27.024958" lon="-48.644089"><ele>11.611053</ele></trkpt><trkpt lat="-27.024959" lon="-48.644088"><ele>11.591675</ele></trkpt><trkpt lat="-27.02496" lon="-48.644087"><ele>11.600006</ele></trkpt><trkpt lat="-27.02496" lon="-48.644087"><ele>11.600006</ele></trkpt><trkpt lat="-27.02496" lon="-48.644087"><ele>11.600006</ele></trkpt><trkpt lat="-27.02496" lon="-48.644087"><ele>11.601227</ele></trkpt><trkpt lat="-27.02496" lon="-48.644087"><ele>11.602783</ele></trkpt><trkpt lat="-27.02496" lon="-48.644087"><ele>11.603638</ele></trkpt><trkpt lat="-27.02496" lon="-48.644087"><ele>11.603882</ele></trkpt><trkpt lat="-27.024961" lon="-48.644087"><ele>11.605194</ele></trkpt><trkpt lat="-27.024961" lon="-48.644087"><ele>11.606903</ele></trkpt><trkpt lat="-27.024961" lon="-48.644087"><ele>11.606476</ele></trkpt><trkpt lat="-27.024961" lon="-48.644088"><ele>11.733307</ele></trkpt><trkpt lat="-27.024959" lon="-48.644088"><ele>11.836517</ele></trkpt><trkpt lat="-27.024959" lon="-48.644088"><ele>11.836395</ele></trkpt><trkpt lat="-27.02496" lon="-48.644089"><ele>11.803802</ele></trkpt><trkpt lat="-27.02496" lon="-48.644089"><ele>11.802521</ele></trkpt><trkpt lat="-27.02496" lon="-48.644089"><ele>11.80249</ele></trkpt><trkpt lat="-27.02496" lon="-48.644089"><ele>11.804413</ele></trkpt><trkpt lat="-27.02496" lon="-48.644089"><ele>12.13147</ele></trkpt><trkpt lat="-27.02496" lon="-48.644089"><ele>12.122009</ele></trkpt><trkpt lat="-27.02496" lon="-48.644089"><ele>12.127136</ele></trkpt><trkpt lat="-27.02496" lon="-48.644089"><ele>12.125793</ele></trkpt><trkpt lat="-27.024962" lon="-48.644091"><ele>12.01593</ele></trkpt><trkpt lat="-27.024964" lon="-48.644089"><ele>11.934113</ele></trkpt><trkpt lat="-27.024964" lon="-48.644085"><ele>11.931793</ele></trkpt><trkpt lat="-27.024968" lon="-48.644091"><ele>11.871857</ele></trkpt><trkpt lat="-27.024969" lon="-48.644094"><ele>11.911316</ele></trkpt><trkpt lat="-27.024972" lon="-48.64409"><ele>12.043701</ele></trkpt><trkpt lat="-27.024976" lon="-48.644081"><ele>12.111206</ele></trkpt><trkpt lat="-27.024979" lon="-48.644078"><ele>11.988098</ele></trkpt><trkpt lat="-27.024983" lon="-48.644076"><ele>11.995087</ele></trkpt><trkpt lat="-27.024992" lon="-48.644071"><ele>12.553223</ele></trkpt><trkpt lat="-27.025003" lon="-48.644065"><ele>12.336182</ele></trkpt><trkpt lat="-27.025002" lon="-48.644045"><ele>12.93335</ele></trkpt><trkpt lat="-27.025005" lon="-48.64403"><ele>12.859741</ele></trkpt><trkpt lat="-27.025003" lon="-48.644009"><ele>12.398376</ele></trkpt><trkpt lat="-27.025" lon="-48.643983"><ele>11.606018</ele></trkpt><trkpt lat="-27.024999" lon="-48.643957"><ele>11.723724</ele></trkpt><trkpt lat="-27.024998" lon="-48.643932"><ele>10.974243</ele></trkpt><trkpt lat="-27.024997" lon="-48.643907"><ele>11.173645</ele></trkpt><trkpt lat="-27.024997" lon="-48.643891"><ele>10.221985</ele></trkpt><trkpt lat="-27.024998" lon="-48.643867"><ele>9.697845</ele></trkpt><trkpt lat="-27.024996" lon="-48.643851"><ele>10.451202</ele></trkpt><trkpt lat="-27.024994" lon="-48.643828"><ele>9.249084</ele></trkpt><trkpt lat="-27.024994" lon="-48.643804"><ele>9.427795</ele></trkpt><trkpt lat="-27.024992" lon="-48.64376"><ele>10.358917</ele></trkpt><trkpt lat="-27.024989" lon="-48.643725"><ele>10.193604</ele></trkpt><trkpt lat="-27.024984" lon="-48.643694"><ele>10.080017</ele></trkpt><trkpt lat="-27.024983" lon="-48.643664"><ele>10.427612</ele></trkpt><trkpt lat="-27.024981" lon="-48.643635"><ele>10.046204</ele></trkpt><trkpt lat="-27.024979" lon="-48.643606"><ele>9.908142</ele></trkpt><trkpt lat="-27.024978" lon="-48.643574"><ele>9.973114</ele></trkpt><trkpt lat="-27.024978" lon="-48.643541"><ele>9.595886</ele></trkpt><trkpt lat="-27.024977" lon="-48.643504"><ele>9.572784</ele></trkpt><trkpt lat="-27.024972" lon="-48.643461"><ele>9.163116</ele></trkpt><trkpt lat="-27.024965" lon="-48.643415"><ele>8.899872</ele></trkpt><trkpt lat="-27.02495" lon="-48.643349"><ele>8.078674</ele></trkpt><trkpt lat="-27.02494" lon="-48.643294"><ele>8.009491</ele></trkpt><trkpt lat="-27.024926" lon="-48.64324"><ele>8.629211</ele></trkpt><trkpt lat="-27.024908" lon="-48.643188"><ele>8.368561</ele></trkpt><trkpt lat="-27.024894" lon="-48.643136"><ele>8.572937</ele></trkpt><trkpt lat="-27.024874" lon="-48.643084"><ele>8.692688</ele></trkpt><trkpt lat="-27.024852" lon="-48.643033"><ele>8.8797</ele></trkpt><trkpt lat="-27.024831" lon="-48.642984"><ele>8.896088</ele></trkpt><trkpt lat="-27.024806" lon="-48.642946"><ele>8.606293</ele></trkpt><trkpt lat="-27.024786" lon="-48.642909"><ele>8.378876</ele></trkpt><trkpt lat="-27.024767" lon="-48.642868"><ele>8.35144</ele></trkpt><trkpt lat="-27.02475" lon="-48.642832"><ele>8.253906</ele></trkpt><trkpt lat="-27.024731" lon="-48.642795"><ele>8.239471</ele></trkpt><trkpt lat="-27.02471" lon="-48.642764"><ele>8.169617</ele></trkpt><trkpt lat="-27.024261" lon="-48.642095"><ele>6.742065</ele></trkpt><trkpt lat="-27.024275" lon="-48.642086"><ele>6.374298</ele></trkpt><trkpt lat="-27.024301" lon="-48.642074"><ele>6.315521</ele></trkpt><trkpt lat="-27.02434" lon="-48.642045"><ele>6.358551</ele></trkpt><trkpt lat="-27.024357" lon="-48.642031"><ele>5.409515</ele></trkpt><trkpt lat="-27.024369" lon="-48.642019"><ele>7.142303</ele></trkpt><trkpt lat="-27.024375" lon="-48.642009"><ele>7.440399</ele></trkpt><trkpt lat="-27.024377" lon="-48.642004"><ele>7.386414</ele></trkpt><trkpt lat="-27.024377" lon="-48.642004"><ele>7.386414</ele></trkpt><trkpt lat="-27.02438" lon="-48.642003"><ele>7.539795</ele></trkpt><trkpt lat="-27.024381" lon="-48.642007"><ele>6.436707</ele></trkpt><trkpt lat="-27.024381" lon="-48.642007"><ele>6.436707</ele></trkpt><trkpt lat="-27.024382" lon="-48.642007"><ele>6.811737</ele></trkpt><trkpt lat="-27.024382" lon="-48.642005"><ele>6.479095</ele></trkpt><trkpt lat="-27.024381" lon="-48.642001"><ele>6.227264</ele></trkpt><trkpt lat="-27.024383" lon="-48.641996"><ele>6.311981</ele></trkpt><trkpt lat="-27.024385" lon="-48.641991"><ele>5.739197</ele></trkpt><trkpt lat="-27.024384" lon="-48.641988"><ele>7.045898</ele></trkpt><trkpt lat="-27.02438" lon="-48.64198"><ele>6.549774</ele></trkpt><trkpt lat="-27.024377" lon="-48.641972"><ele>6.932709</ele></trkpt><trkpt lat="-27.024375" lon="-48.641968"><ele>7.397644</ele></trkpt><trkpt lat="-27.024375" lon="-48.641965"><ele>7.329102</ele></trkpt><trkpt lat="-27.024375" lon="-48.641962"><ele>7.249084</ele></trkpt><trkpt lat="-27.024376" lon="-48.641959"><ele>7.665039</ele></trkpt><trkpt lat="-27.024374" lon="-48.641952"><ele>7.543793</ele></trkpt><trkpt lat="-27.024372" lon="-48.64194"><ele>7.111664</ele></trkpt><trkpt lat="-27.02437" lon="-48.641926"><ele>7.002838</ele></trkpt><trkpt lat="-27.024367" lon="-48.641913"><ele>7.31955</ele></trkpt><trkpt lat="-27.024367" lon="-48.641913"><ele>7.31955</ele></trkpt><trkpt lat="-27.024363" lon="-48.641899"><ele>7.455139</ele></trkpt><trkpt lat="-27.024358" lon="-48.641883"><ele>6.915192</ele></trkpt><trkpt lat="-27.024351" lon="-48.641864"><ele>7.045654</ele></trkpt><trkpt lat="-27.024343" lon="-48.641847"><ele>7.030212</ele></trkpt><trkpt lat="-27.024336" lon="-48.641834"><ele>10.451019</ele></trkpt><trkpt lat="-27.024333" lon="-48.641821"><ele>10.287079</ele></trkpt><trkpt lat="-27.024329" lon="-48.641807"><ele>10.372467</ele></trkpt><trkpt lat="-27.024321" lon="-48.641792"><ele>9.948914</ele></trkpt><trkpt lat="-27.024305" lon="-48.641774"><ele>9.69397</ele></trkpt><trkpt lat="-27.024286" lon="-48.641759"><ele>9.740082</ele></trkpt><trkpt lat="-27.024274" lon="-48.641754"><ele>9.558716</ele></trkpt><trkpt lat="-27.024269" lon="-48.641756"><ele>9.506927</ele></trkpt><trkpt lat="-27.024265" lon="-48.64176"><ele>9.490845</ele></trkpt><trkpt lat="-27.024264" lon="-48.641761"><ele>9.372131</ele></trkpt><trkpt lat="-27.024264" lon="-48.64176"><ele>9.367859</ele></trkpt><trkpt lat="-27.024269" lon="-48.64176"><ele>9.284271</ele></trkpt><trkpt lat="-27.024273" lon="-48.641761"><ele>9.222015</ele></trkpt><trkpt lat="-27.024274" lon="-48.641761"><ele>9.226379</ele></trkpt><trkpt lat="-27.024274" lon="-48.641762"><ele>9.227386</ele></trkpt><trkpt lat="-27.024274" lon="-48.641761"><ele>9.227509</ele></trkpt><trkpt lat="-27.024274" lon="-48.64176"><ele>9.202118</ele></trkpt><trkpt lat="-27.024275" lon="-48.64176"><ele>9.198914</ele></trkpt><trkpt lat="-27.024275" lon="-48.64176"><ele>9.196747</ele></trkpt><trkpt lat="-27.024275" lon="-48.64176"><ele>9.196747</ele></trkpt><trkpt lat="-27.024275" lon="-48.64176"><ele>9.199036</ele></trkpt><trkpt lat="-27.024275" lon="-48.641761"><ele>9.198669</ele></trkpt><trkpt lat="-27.024275" lon="-48.641761"><ele>9.199463</ele></trkpt><trkpt lat="-27.024275" lon="-48.641761"><ele>9.199402</ele></trkpt><trkpt lat="-27.024275" lon="-48.641761"><ele>9.200928</ele></trkpt><trkpt lat="-27.024275" lon="-48.641761"><ele>9.2005</ele></trkpt><trkpt lat="-27.024275" lon="-48.641761"><ele>9.2005</ele></trkpt><trkpt lat="-27.024275" lon="-48.641761"><ele>9.199677</ele></trkpt><trkpt lat="-27.024275" lon="-48.641761"><ele>9.200165</ele></trkpt><trkpt lat="-27.024275" lon="-48.641761"><ele>9.198669</ele></trkpt><trkpt lat="-27.024275" lon="-48.641761"><ele>9.198669</ele></trkpt><trkpt lat="-27.024275" lon="-48.641763"><ele>9.146301</ele></trkpt><trkpt lat="-27.024274" lon="-48.641764"><ele>9.162354</ele></trkpt><trkpt lat="-27.024274" lon="-48.641764"><ele>9.158508</ele></trkpt><trkpt lat="-27.024274" lon="-48.641765"><ele>9.292023</ele></trkpt><trkpt lat="-27.024273" lon="-48.641765"><ele>9.303314</ele></trkpt><trkpt lat="-27.024273" lon="-48.641765"><ele>9.303314</ele></trkpt><trkpt lat="-27.024273" lon="-48.641765"><ele>9.3125</ele></trkpt><trkpt lat="-27.024273" lon="-48.641765"><ele>9.313538</ele></trkpt><trkpt lat="-27.024273" lon="-48.641765"><ele>9.693542</ele></trkpt><trkpt lat="-27.024272" lon="-48.641764"><ele>9.618378</ele></trkpt><trkpt lat="-27.024271" lon="-48.641765"><ele>9.612061</ele></trkpt><trkpt lat="-27.024271" lon="-48.641765"><ele>9.61261</ele></trkpt><trkpt lat="-27.024271" lon="-48.641765"><ele>9.703705</ele></trkpt><trkpt lat="-27.024271" lon="-48.641764"><ele>10.310852</ele></trkpt><trkpt lat="-27.024271" lon="-48.641764"><ele>10.310852</ele></trkpt><trkpt lat="-27.02427" lon="-48.641764"><ele>10.888428</ele></trkpt><trkpt lat="-27.024269" lon="-48.641764"><ele>10.901794</ele></trkpt><trkpt lat="-27.024269" lon="-48.641764"><ele>10.901703</ele></trkpt><trkpt lat="-27.024269" lon="-48.641764"><ele>10.901703</ele></trkpt><trkpt lat="-27.024269" lon="-48.641763"><ele>10.901672</ele></trkpt><trkpt lat="-27.024269" lon="-48.641763"><ele>10.901672</ele></trkpt><trkpt lat="-27.024269" lon="-48.641763"><ele>10.901581</ele></trkpt><trkpt lat="-27.024269" lon="-48.641763"><ele>10.90509</ele></trkpt><trkpt lat="-27.024269" lon="-48.641763"><ele>10.90332</ele></trkpt><trkpt lat="-27.024269" lon="-48.641763"><ele>11.013702</ele></trkpt><trkpt lat="-27.02427" lon="-48.641762"><ele>10.899628</ele></trkpt><trkpt lat="-27.02427" lon="-48.641762"><ele>9.620605</ele></trkpt><trkpt lat="-27.024271" lon="-48.641762"><ele>9.653656</ele></trkpt><trkpt lat="-27.024271" lon="-48.641762"><ele>9.653656</ele></trkpt><trkpt lat="-27.024271" lon="-48.641762"><ele>9.653107</ele></trkpt><trkpt lat="-27.024271" lon="-48.641762"><ele>9.654877</ele></trkpt><trkpt lat="-27.024271" lon="-48.641762"><ele>9.661041</ele></trkpt><trkpt lat="-27.024271" lon="-48.641762"><ele>9.666656</ele></trkpt><trkpt lat="-27.024271" lon="-48.641762"><ele>9.667084</ele></trkpt><trkpt lat="-27.024271" lon="-48.641762"><ele>9.670074</ele></trkpt><trkpt lat="-27.024271" lon="-48.641762"><ele>9.670074</ele></trkpt><trkpt lat="-27.024271" lon="-48.641762"><ele>10.897797</ele></trkpt><trkpt lat="-27.024269" lon="-48.64176"><ele>10.901581</ele></trkpt><trkpt lat="-27.024269" lon="-48.64176"><ele>11.018219</ele></trkpt><trkpt lat="-27.024272" lon="-48.641757"><ele>11.130554</ele></trkpt><trkpt lat="-27.024275" lon="-48.641757"><ele>11.117004</ele></trkpt><trkpt lat="-27.024276" lon="-48.641756"><ele>11.118683</ele></trkpt><trkpt lat="-27.024277" lon="-48.641756"><ele>11.12085</ele></trkpt><trkpt lat="-27.024277" lon="-48.641756"><ele>11.118439</ele></trkpt><trkpt lat="-27.024276" lon="-48.641755"><ele>11.103333</ele></trkpt><trkpt lat="-27.024275" lon="-48.641756"><ele>10.984863</ele></trkpt><trkpt lat="-27.024275" lon="-48.641756"><ele>10.965637</ele></trkpt><trkpt lat="-27.024275" lon="-48.641756"><ele>10.967041</ele></trkpt></trkseg></trk></gpx>